{
"type": "FeatureCollection",
"name": "boundary",
"crs": { "type": "name", "properties": { "name": "urn:ogc:def:crs:OGC:1.3:CRS84" } },
"xy_coordinate_resolution": 1e-06,
"features": [
{ "type": "Feature", "properties": { "fid": 1, "hex_id": 0, "pop_total": 752.95, "net_delta": 2.0, "net_delta_n": 3 }, "geometry": { "type": "MultiPolygon", "coordinates": [ [ [ [ 19.345277, 51.715465 ], [ 19.343196, 51.715471 ], [ 19.343183, 51.715476 ], [ 19.342151, 51.716598 ], [ 19.340069, 51.716605 ], [ 19.340057, 51.716609 ], [ 19.33902, 51.717736 ], [ 19.33902, 51.717745 ], [ 19.34007, 51.718862 ], [ 19.339037, 51.719985 ], [ 19.339037, 51.719994 ], [ 19.340091, 51.721115 ], [ 19.340103, 51.721119 ], [ 19.342185, 51.721113 ], [ 19.34323, 51.722226 ], [ 19.342198, 51.723348 ], [ 19.342198, 51.723357 ], [ 19.343247, 51.724474 ], [ 19.342219, 51.725592 ], [ 19.340145, 51.725598 ], [ 19.339096, 51.724482 ], [ 19.339083, 51.724477 ], [ 19.336993, 51.724483 ], [ 19.33698, 51.724488 ], [ 19.335944, 51.725615 ], [ 19.335944, 51.725624 ], [ 19.336993, 51.726741 ], [ 19.335964, 51.727859 ], [ 19.333882, 51.727865 ], [ 19.33387, 51.727869 ], [ 19.332833, 51.728997 ], [ 19.332833, 51.729006 ], [ 19.333882, 51.730122 ], [ 19.332849, 51.731245 ], [ 19.332849, 51.731254 ], [ 19.333903, 51.732375 ], [ 19.333916, 51.73238 ], [ 19.335998, 51.732374 ], [ 19.337047, 51.733491 ], [ 19.33706, 51.733495 ], [ 19.339142, 51.733489 ], [ 19.340188, 51.734601 ], [ 19.339155, 51.735724 ], [ 19.339155, 51.735733 ], [ 19.340205, 51.73685 ], [ 19.339176, 51.737968 ], [ 19.337093, 51.737974 ], [ 19.337081, 51.737979 ], [ 19.336044, 51.739106 ], [ 19.336044, 51.739115 ], [ 19.337098, 51.740236 ], [ 19.33711, 51.740241 ], [ 19.339193, 51.740235 ], [ 19.340243, 51.741351 ], [ 19.340255, 51.741356 ], [ 19.342338, 51.74135 ], [ 19.343388, 51.742466 ], [ 19.3434, 51.742471 ], [ 19.345491, 51.742465 ], [ 19.345504, 51.74246 ], [ 19.346537, 51.741337 ], [ 19.348611, 51.741331 ], [ 19.349661, 51.742448 ], [ 19.349674, 51.742452 ], [ 19.351756, 51.742446 ], [ 19.352806, 51.743563 ], [ 19.352819, 51.743567 ], [ 19.35491, 51.743561 ], [ 19.354923, 51.743556 ], [ 19.355955, 51.742434 ], [ 19.35803, 51.742427 ], [ 19.35908, 51.743544 ], [ 19.359092, 51.743548 ], [ 19.361184, 51.743542 ], [ 19.361196, 51.743537 ], [ 19.362229, 51.742414 ], [ 19.364303, 51.742408 ], [ 19.365353, 51.743524 ], [ 19.365366, 51.743529 ], [ 19.367449, 51.743522 ], [ 19.368495, 51.744634 ], [ 19.367463, 51.745757 ], [ 19.367463, 51.745766 ], [ 19.368513, 51.746883 ], [ 19.367481, 51.748006 ], [ 19.367481, 51.748015 ], [ 19.368532, 51.749131 ], [ 19.367499, 51.750254 ], [ 19.367499, 51.750263 ], [ 19.368554, 51.751384 ], [ 19.368567, 51.751389 ], [ 19.37065, 51.751382 ], [ 19.371696, 51.752494 ], [ 19.370664, 51.753617 ], [ 19.370664, 51.753626 ], [ 19.371715, 51.754743 ], [ 19.370687, 51.755861 ], [ 19.368603, 51.755868 ], [ 19.368591, 51.755872 ], [ 19.367558, 51.756995 ], [ 19.365483, 51.757002 ], [ 19.364432, 51.755885 ], [ 19.36442, 51.755881 ], [ 19.362328, 51.755887 ], [ 19.362315, 51.755892 ], [ 19.361283, 51.757015 ], [ 19.359199, 51.757021 ], [ 19.359187, 51.757026 ], [ 19.358154, 51.758149 ], [ 19.356071, 51.758155 ], [ 19.356058, 51.758159 ], [ 19.355025, 51.759282 ], [ 19.352942, 51.759289 ], [ 19.352929, 51.759293 ], [ 19.351892, 51.76042 ], [ 19.351892, 51.760429 ], [ 19.352942, 51.761546 ], [ 19.351913, 51.762664 ], [ 19.34983, 51.762671 ], [ 19.349817, 51.762675 ], [ 19.348784, 51.763798 ], [ 19.3467, 51.763804 ], [ 19.346688, 51.763809 ], [ 19.345654, 51.764931 ], [ 19.343571, 51.764938 ], [ 19.343558, 51.764942 ], [ 19.342525, 51.766065 ], [ 19.340449, 51.766071 ], [ 19.339399, 51.764954 ], [ 19.339386, 51.76495 ], [ 19.337294, 51.764956 ], [ 19.337282, 51.76496 ], [ 19.336244, 51.766088 ], [ 19.336244, 51.766097 ], [ 19.337294, 51.767213 ], [ 19.336261, 51.768336 ], [ 19.336261, 51.768345 ], [ 19.337311, 51.769462 ], [ 19.336277, 51.770584 ], [ 19.336277, 51.770593 ], [ 19.337328, 51.77171 ], [ 19.336294, 51.772833 ], [ 19.336294, 51.772842 ], [ 19.337349, 51.773963 ], [ 19.337361, 51.773968 ], [ 19.339446, 51.773962 ], [ 19.340492, 51.775074 ], [ 19.339458, 51.776197 ], [ 19.339458, 51.776206 ], [ 19.340509, 51.777322 ], [ 19.339479, 51.778441 ], [ 19.337395, 51.778447 ], [ 19.337382, 51.778451 ], [ 19.336348, 51.779574 ], [ 19.334264, 51.77958 ], [ 19.334251, 51.779584 ], [ 19.333213, 51.780711 ], [ 19.333213, 51.78072 ], [ 19.334264, 51.781837 ], [ 19.33323, 51.78296 ], [ 19.33323, 51.782969 ], [ 19.334285, 51.78409 ], [ 19.334297, 51.784095 ], [ 19.336382, 51.784089 ], [ 19.337433, 51.785205 ], [ 19.337445, 51.78521 ], [ 19.33953, 51.785204 ], [ 19.340581, 51.786321 ], [ 19.340593, 51.786325 ], [ 19.342687, 51.786319 ], [ 19.342699, 51.786314 ], [ 19.343733, 51.785192 ], [ 19.345809, 51.785186 ], [ 19.34686, 51.786302 ], [ 19.346873, 51.786307 ], [ 19.348958, 51.786301 ], [ 19.350004, 51.787413 ], [ 19.348971, 51.788536 ], [ 19.348971, 51.788545 ], [ 19.350026, 51.789666 ], [ 19.350039, 51.78967 ], [ 19.352124, 51.789664 ], [ 19.35317, 51.790776 ], [ 19.352137, 51.791899 ], [ 19.352137, 51.791908 ], [ 19.353188, 51.793024 ], [ 19.352158, 51.794143 ], [ 19.350073, 51.794149 ], [ 19.350061, 51.794154 ], [ 19.349027, 51.795276 ], [ 19.346942, 51.795283 ], [ 19.346929, 51.795287 ], [ 19.345895, 51.79641 ], [ 19.34381, 51.796416 ], [ 19.343797, 51.796421 ], [ 19.342759, 51.797548 ], [ 19.342759, 51.797557 ], [ 19.34381, 51.798673 ], [ 19.34278, 51.799792 ], [ 19.340703, 51.799798 ], [ 19.339656, 51.798686 ], [ 19.340691, 51.797563 ], [ 19.340691, 51.797554 ], [ 19.339639, 51.796437 ], [ 19.340674, 51.795314 ], [ 19.340674, 51.795305 ], [ 19.339618, 51.794184 ], [ 19.339606, 51.79418 ], [ 19.337512, 51.794186 ], [ 19.3375, 51.79419 ], [ 19.336465, 51.795313 ], [ 19.334389, 51.795319 ], [ 19.333338, 51.794202 ], [ 19.333325, 51.794198 ], [ 19.331232, 51.794204 ], [ 19.331219, 51.794208 ], [ 19.330185, 51.795331 ], [ 19.3281, 51.795337 ], [ 19.328087, 51.795341 ], [ 19.327048, 51.796468 ], [ 19.327049, 51.796477 ], [ 19.328099, 51.797594 ], [ 19.327065, 51.798717 ], [ 19.327065, 51.798726 ], [ 19.328116, 51.799843 ], [ 19.327085, 51.800961 ], [ 19.325, 51.800966 ], [ 19.324987, 51.800971 ], [ 19.323952, 51.802094 ], [ 19.321867, 51.802099 ], [ 19.321854, 51.802104 ], [ 19.320815, 51.803231 ], [ 19.320816, 51.80324 ], [ 19.321866, 51.804357 ], [ 19.320831, 51.805479 ], [ 19.320832, 51.805488 ], [ 19.321882, 51.806605 ], [ 19.320847, 51.807728 ], [ 19.320847, 51.807737 ], [ 19.321903, 51.808858 ], [ 19.321915, 51.808863 ], [ 19.324001, 51.808857 ], [ 19.325052, 51.809974 ], [ 19.325065, 51.809978 ], [ 19.327159, 51.809972 ], [ 19.327171, 51.809968 ], [ 19.328206, 51.808845 ], [ 19.330284, 51.808839 ], [ 19.331335, 51.809956 ], [ 19.331347, 51.809961 ], [ 19.333433, 51.809955 ], [ 19.334484, 51.811072 ], [ 19.334497, 51.811076 ], [ 19.336583, 51.81107 ], [ 19.33763, 51.812182 ], [ 19.336595, 51.813305 ], [ 19.336595, 51.813314 ], [ 19.337647, 51.814431 ], [ 19.336616, 51.815549 ], [ 19.33453, 51.815555 ], [ 19.334518, 51.81556 ], [ 19.333479, 51.816687 ], [ 19.333479, 51.816696 ], [ 19.33453, 51.817812 ], [ 19.333495, 51.818935 ], [ 19.333495, 51.818944 ], [ 19.334547, 51.820061 ], [ 19.333512, 51.821184 ], [ 19.333512, 51.821193 ], [ 19.334568, 51.822314 ], [ 19.33458, 51.822318 ], [ 19.336675, 51.822312 ], [ 19.336687, 51.822308 ], [ 19.337722, 51.821185 ], [ 19.3398, 51.821179 ], [ 19.340848, 51.822291 ], [ 19.339813, 51.823414 ], [ 19.339813, 51.823423 ], [ 19.340865, 51.82454 ], [ 19.33983, 51.825663 ], [ 19.33983, 51.825672 ], [ 19.340882, 51.826788 ], [ 19.339847, 51.827911 ], [ 19.339847, 51.82792 ], [ 19.340899, 51.829037 ], [ 19.339864, 51.830159 ], [ 19.339864, 51.830168 ], [ 19.34092, 51.83129 ], [ 19.340932, 51.831294 ], [ 19.343019, 51.831288 ], [ 19.344071, 51.832405 ], [ 19.344084, 51.832409 ], [ 19.346179, 51.832403 ], [ 19.346192, 51.832398 ], [ 19.347227, 51.831276 ], [ 19.349305, 51.831269 ], [ 19.350353, 51.832382 ], [ 19.349318, 51.833504 ], [ 19.349318, 51.833513 ], [ 19.35037, 51.83463 ], [ 19.34934, 51.835748 ], [ 19.347253, 51.835755 ], [ 19.34724, 51.835759 ], [ 19.346201, 51.836886 ], [ 19.346201, 51.836895 ], [ 19.347257, 51.838017 ], [ 19.34727, 51.838021 ], [ 19.349357, 51.838015 ], [ 19.350409, 51.839131 ], [ 19.350422, 51.839136 ], [ 19.352518, 51.83913 ], [ 19.35253, 51.839125 ], [ 19.353565, 51.838002 ], [ 19.355652, 51.837996 ], [ 19.355665, 51.837991 ], [ 19.356699, 51.836869 ], [ 19.358778, 51.836862 ], [ 19.359831, 51.837979 ], [ 19.359843, 51.837983 ], [ 19.361939, 51.837977 ], [ 19.361951, 51.837972 ], [ 19.362986, 51.836849 ], [ 19.365065, 51.836843 ], [ 19.366117, 51.837959 ], [ 19.36613, 51.837964 ], [ 19.368217, 51.837957 ], [ 19.36927, 51.839074 ], [ 19.369282, 51.839078 ], [ 19.371378, 51.839072 ], [ 19.37139, 51.839067 ], [ 19.372425, 51.837944 ], [ 19.374504, 51.837937 ], [ 19.375556, 51.839054 ], [ 19.375569, 51.839058 ], [ 19.377665, 51.839052 ], [ 19.377677, 51.839047 ], [ 19.378711, 51.837924 ], [ 19.38079, 51.837917 ], [ 19.381843, 51.839034 ], [ 19.381856, 51.839038 ], [ 19.383951, 51.839031 ], [ 19.383964, 51.839027 ], [ 19.385002, 51.837899 ], [ 19.385002, 51.83789 ], [ 19.383949, 51.836774 ], [ 19.384983, 51.835651 ], [ 19.384983, 51.835642 ], [ 19.38393, 51.834525 ], [ 19.384964, 51.833402 ], [ 19.384964, 51.833393 ], [ 19.383911, 51.832277 ], [ 19.384945, 51.831154 ], [ 19.384944, 51.831145 ], [ 19.383892, 51.830028 ], [ 19.384925, 51.828905 ], [ 19.384925, 51.828896 ], [ 19.383872, 51.82778 ], [ 19.384902, 51.826661 ], [ 19.38698, 51.826655 ], [ 19.388033, 51.827771 ], [ 19.388046, 51.827775 ], [ 19.390141, 51.827768 ], [ 19.390153, 51.827764 ], [ 19.391187, 51.826641 ], [ 19.393265, 51.826634 ], [ 19.394318, 51.82775 ], [ 19.394331, 51.827754 ], [ 19.396418, 51.827747 ], [ 19.397467, 51.828859 ], [ 19.396433, 51.829982 ], [ 19.396433, 51.829991 ], [ 19.397491, 51.831112 ], [ 19.397503, 51.831116 ], [ 19.399598, 51.831109 ], [ 19.399611, 51.831105 ], [ 19.400644, 51.829982 ], [ 19.402723, 51.829974 ], [ 19.403776, 51.831091 ], [ 19.403789, 51.831095 ], [ 19.405884, 51.831088 ], [ 19.405897, 51.831083 ], [ 19.40693, 51.82996 ], [ 19.409017, 51.829953 ], [ 19.409029, 51.829948 ], [ 19.410062, 51.828825 ], [ 19.412141, 51.828818 ], [ 19.413194, 51.829934 ], [ 19.413207, 51.829938 ], [ 19.415294, 51.829931 ], [ 19.416347, 51.831047 ], [ 19.41636, 51.831051 ], [ 19.418447, 51.831044 ], [ 19.419501, 51.83216 ], [ 19.419513, 51.832164 ], [ 19.4216, 51.832157 ], [ 19.422654, 51.833273 ], [ 19.422667, 51.833277 ], [ 19.424762, 51.83327 ], [ 19.424774, 51.833265 ], [ 19.425807, 51.832142 ], [ 19.427886, 51.832134 ], [ 19.42894, 51.83325 ], [ 19.428953, 51.833254 ], [ 19.431048, 51.833247 ], [ 19.43106, 51.833242 ], [ 19.432093, 51.832119 ], [ 19.434172, 51.832111 ], [ 19.435222, 51.833222 ], [ 19.434189, 51.834346 ], [ 19.434189, 51.834355 ], [ 19.435247, 51.835475 ], [ 19.43526, 51.83548 ], [ 19.437347, 51.835472 ], [ 19.438401, 51.836588 ], [ 19.438414, 51.836592 ], [ 19.44051, 51.836584 ], [ 19.440522, 51.83658 ], [ 19.441555, 51.835456 ], [ 19.443633, 51.835449 ], [ 19.444688, 51.836564 ], [ 19.4447, 51.836569 ], [ 19.446787, 51.836561 ], [ 19.447842, 51.837677 ], [ 19.447855, 51.837681 ], [ 19.44995, 51.837673 ], [ 19.449963, 51.837668 ], [ 19.450995, 51.836545 ], [ 19.453074, 51.836537 ], [ 19.454124, 51.837648 ], [ 19.453092, 51.838772 ], [ 19.453092, 51.838781 ], [ 19.454147, 51.839896 ], [ 19.453119, 51.841016 ], [ 19.451031, 51.841024 ], [ 19.451019, 51.841028 ], [ 19.449982, 51.842156 ], [ 19.449982, 51.842165 ], [ 19.451042, 51.843286 ], [ 19.451054, 51.84329 ], [ 19.453142, 51.843282 ], [ 19.454192, 51.844393 ], [ 19.453164, 51.845512 ], [ 19.451076, 51.84552 ], [ 19.451064, 51.845525 ], [ 19.450031, 51.846649 ], [ 19.447944, 51.846657 ], [ 19.447931, 51.846661 ], [ 19.446899, 51.847785 ], [ 19.444811, 51.847793 ], [ 19.444798, 51.847797 ], [ 19.443762, 51.848925 ], [ 19.443762, 51.848934 ], [ 19.444817, 51.85005 ], [ 19.443784, 51.851174 ], [ 19.443784, 51.851183 ], [ 19.444843, 51.852303 ], [ 19.444856, 51.852308 ], [ 19.446952, 51.8523 ], [ 19.446964, 51.852295 ], [ 19.447997, 51.851171 ], [ 19.450085, 51.851163 ], [ 19.450097, 51.851159 ], [ 19.45113, 51.850035 ], [ 19.453209, 51.850027 ], [ 19.454264, 51.851143 ], [ 19.454277, 51.851147 ], [ 19.456373, 51.851139 ], [ 19.456386, 51.851135 ], [ 19.457418, 51.850011 ], [ 19.459497, 51.850003 ], [ 19.460553, 51.851118 ], [ 19.460565, 51.851123 ], [ 19.462653, 51.851115 ], [ 19.463708, 51.85223 ], [ 19.463721, 51.852235 ], [ 19.465809, 51.852226 ], [ 19.466864, 51.853342 ], [ 19.466877, 51.853346 ], [ 19.468965, 51.853338 ], [ 19.47002, 51.854454 ], [ 19.470033, 51.854458 ], [ 19.472121, 51.85445 ], [ 19.473177, 51.855565 ], [ 19.473189, 51.85557 ], [ 19.475277, 51.855561 ], [ 19.476333, 51.856677 ], [ 19.476346, 51.856681 ], [ 19.478433, 51.856673 ], [ 19.479489, 51.857788 ], [ 19.479502, 51.857793 ], [ 19.48159, 51.857784 ], [ 19.482646, 51.8589 ], [ 19.482659, 51.858904 ], [ 19.484747, 51.858895 ], [ 19.485803, 51.860011 ], [ 19.485815, 51.860015 ], [ 19.487912, 51.860007 ], [ 19.487925, 51.860002 ], [ 19.488956, 51.858878 ], [ 19.491036, 51.858869 ], [ 19.492092, 51.859985 ], [ 19.492105, 51.859989 ], [ 19.494202, 51.85998 ], [ 19.494214, 51.859976 ], [ 19.495246, 51.858852 ], [ 19.497326, 51.858843 ], [ 19.498382, 51.859958 ], [ 19.498395, 51.859963 ], [ 19.500491, 51.859954 ], [ 19.500504, 51.859949 ], [ 19.501535, 51.858825 ], [ 19.503615, 51.858816 ], [ 19.504671, 51.859931 ], [ 19.504684, 51.859936 ], [ 19.506781, 51.859927 ], [ 19.506793, 51.859922 ], [ 19.507825, 51.858798 ], [ 19.509913, 51.858789 ], [ 19.509925, 51.858785 ], [ 19.510961, 51.857656 ], [ 19.510961, 51.857647 ], [ 19.509904, 51.856532 ], [ 19.510931, 51.855412 ], [ 19.513019, 51.855403 ], [ 19.513032, 51.855398 ], [ 19.514067, 51.854269 ], [ 19.514067, 51.854261 ], [ 19.51301, 51.853145 ], [ 19.514037, 51.852026 ], [ 19.516125, 51.852016 ], [ 19.516137, 51.852012 ], [ 19.517168, 51.850888 ], [ 19.519256, 51.850878 ], [ 19.519269, 51.850874 ], [ 19.5203, 51.84975 ], [ 19.522387, 51.84974 ], [ 19.5224, 51.849736 ], [ 19.523431, 51.848611 ], [ 19.52551, 51.848602 ], [ 19.526567, 51.849717 ], [ 19.526579, 51.849722 ], [ 19.528675, 51.849712 ], [ 19.528688, 51.849708 ], [ 19.529719, 51.848583 ], [ 19.531806, 51.848574 ], [ 19.531819, 51.848569 ], [ 19.532849, 51.847445 ], [ 19.534928, 51.847436 ], [ 19.535985, 51.84855 ], [ 19.535998, 51.848555 ], [ 19.538094, 51.848545 ], [ 19.538107, 51.848541 ], [ 19.539137, 51.847416 ], [ 19.541224, 51.847407 ], [ 19.541237, 51.847402 ], [ 19.542267, 51.846278 ], [ 19.544355, 51.846268 ], [ 19.544367, 51.846263 ], [ 19.545398, 51.845139 ], [ 19.547477, 51.845129 ], [ 19.548534, 51.846244 ], [ 19.548547, 51.846249 ], [ 19.550634, 51.846239 ], [ 19.551691, 51.847354 ], [ 19.551704, 51.847358 ], [ 19.553792, 51.847348 ], [ 19.554845, 51.848459 ], [ 19.553815, 51.849583 ], [ 19.553815, 51.849592 ], [ 19.554877, 51.850711 ], [ 19.554889, 51.850716 ], [ 19.556985, 51.850706 ], [ 19.556998, 51.850701 ], [ 19.558032, 51.849572 ], [ 19.558032, 51.849563 ], [ 19.556974, 51.848448 ], [ 19.558, 51.847328 ], [ 19.560088, 51.847318 ], [ 19.5601, 51.847314 ], [ 19.56113, 51.846189 ], [ 19.563217, 51.846179 ], [ 19.56323, 51.846175 ], [ 19.56426, 51.84505 ], [ 19.566347, 51.84504 ], [ 19.56636, 51.845035 ], [ 19.567393, 51.843906 ], [ 19.567393, 51.843897 ], [ 19.566336, 51.842783 ], [ 19.567365, 51.841658 ], [ 19.567365, 51.841649 ], [ 19.566307, 51.840534 ], [ 19.567333, 51.839414 ], [ 19.56942, 51.839404 ], [ 19.569432, 51.839399 ], [ 19.570466, 51.83827 ], [ 19.570466, 51.838261 ], [ 19.569404, 51.837142 ], [ 19.569391, 51.837138 ], [ 19.567304, 51.837148 ], [ 19.566247, 51.836033 ], [ 19.566234, 51.836028 ], [ 19.564147, 51.836039 ], [ 19.56309, 51.834924 ], [ 19.563077, 51.834919 ], [ 19.56099, 51.834929 ], [ 19.559933, 51.833815 ], [ 19.55992, 51.83381 ], [ 19.557833, 51.83382 ], [ 19.556776, 51.832705 ], [ 19.556763, 51.832701 ], [ 19.554676, 51.832711 ], [ 19.553624, 51.831601 ], [ 19.554653, 51.830476 ], [ 19.554653, 51.830467 ], [ 19.553592, 51.829348 ], [ 19.553579, 51.829343 ], [ 19.551492, 51.829353 ], [ 19.55044, 51.828243 ], [ 19.551469, 51.827118 ], [ 19.551469, 51.827109 ], [ 19.550412, 51.825994 ], [ 19.551442, 51.82487 ], [ 19.551442, 51.824861 ], [ 19.550385, 51.823746 ], [ 19.551414, 51.822621 ], [ 19.551414, 51.822612 ], [ 19.550357, 51.821498 ], [ 19.551387, 51.820373 ], [ 19.551387, 51.820364 ], [ 19.55033, 51.819249 ], [ 19.55136, 51.818125 ], [ 19.551359, 51.818116 ], [ 19.550303, 51.817001 ], [ 19.551328, 51.815881 ], [ 19.553414, 51.815871 ], [ 19.553427, 51.815866 ], [ 19.55446, 51.814737 ], [ 19.55446, 51.814728 ], [ 19.553403, 51.813613 ], [ 19.554428, 51.812493 ], [ 19.556514, 51.812484 ], [ 19.556527, 51.812479 ], [ 19.557556, 51.811354 ], [ 19.559642, 51.811344 ], [ 19.559654, 51.81134 ], [ 19.560683, 51.810215 ], [ 19.562761, 51.810205 ], [ 19.563817, 51.81132 ], [ 19.56383, 51.811324 ], [ 19.565916, 51.811314 ], [ 19.566973, 51.812429 ], [ 19.566986, 51.812434 ], [ 19.569071, 51.812423 ], [ 19.570124, 51.813534 ], [ 19.569095, 51.814658 ], [ 19.569096, 51.814667 ], [ 19.570157, 51.815786 ], [ 19.57017, 51.815791 ], [ 19.572264, 51.815781 ], [ 19.572276, 51.815776 ], [ 19.573305, 51.814651 ], [ 19.575383, 51.814641 ], [ 19.57644, 51.815756 ], [ 19.576453, 51.81576 ], [ 19.578539, 51.81575 ], [ 19.579596, 51.816865 ], [ 19.579609, 51.816869 ], [ 19.581695, 51.816859 ], [ 19.582753, 51.817973 ], [ 19.582765, 51.817978 ], [ 19.58486, 51.817967 ], [ 19.584872, 51.817963 ], [ 19.585901, 51.816838 ], [ 19.587978, 51.816827 ], [ 19.589036, 51.817942 ], [ 19.589049, 51.817946 ], [ 19.591143, 51.817936 ], [ 19.591156, 51.817931 ], [ 19.592184, 51.816806 ], [ 19.59427, 51.816796 ], [ 19.594283, 51.816791 ], [ 19.595311, 51.815666 ], [ 19.597389, 51.815656 ], [ 19.598447, 51.81677 ], [ 19.598459, 51.816775 ], [ 19.600554, 51.816764 ], [ 19.600566, 51.816759 ], [ 19.601594, 51.815634 ], [ 19.603672, 51.815624 ], [ 19.60473, 51.816738 ], [ 19.604743, 51.816742 ], [ 19.606837, 51.816732 ], [ 19.60685, 51.816727 ], [ 19.607878, 51.815602 ], [ 19.609964, 51.815591 ], [ 19.609976, 51.815587 ], [ 19.611004, 51.814462 ], [ 19.613082, 51.814451 ], [ 19.61414, 51.815565 ], [ 19.614152, 51.815569 ], [ 19.616247, 51.815558 ], [ 19.616259, 51.815554 ], [ 19.617291, 51.814424 ], [ 19.617291, 51.814415 ], [ 19.616233, 51.813301 ], [ 19.617261, 51.812176 ], [ 19.61726, 51.812167 ], [ 19.616202, 51.811053 ], [ 19.61723, 51.809928 ], [ 19.61723, 51.809919 ], [ 19.616172, 51.808804 ], [ 19.617199, 51.807679 ], [ 19.617199, 51.80767 ], [ 19.616141, 51.806556 ], [ 19.617168, 51.805431 ], [ 19.617168, 51.805422 ], [ 19.61611, 51.804308 ], [ 19.617134, 51.803187 ], [ 19.619219, 51.803176 ], [ 19.619232, 51.803171 ], [ 19.620263, 51.802042 ], [ 19.620263, 51.802033 ], [ 19.619205, 51.800919 ], [ 19.620232, 51.799793 ], [ 19.620232, 51.799784 ], [ 19.619174, 51.79867 ], [ 19.620201, 51.797545 ], [ 19.620201, 51.797536 ], [ 19.619143, 51.796422 ], [ 19.62017, 51.795297 ], [ 19.62017, 51.795288 ], [ 19.619112, 51.794173 ], [ 19.620135, 51.793053 ], [ 19.62222, 51.793042 ], [ 19.622233, 51.793037 ], [ 19.623264, 51.791908 ], [ 19.623264, 51.791899 ], [ 19.622202, 51.79078 ], [ 19.622189, 51.790775 ], [ 19.620104, 51.790786 ], [ 19.619051, 51.789677 ], [ 19.620078, 51.788552 ], [ 19.620078, 51.788543 ], [ 19.61902, 51.787428 ], [ 19.620047, 51.786303 ], [ 19.620047, 51.786294 ], [ 19.618989, 51.78518 ], [ 19.620016, 51.784055 ], [ 19.620016, 51.784046 ], [ 19.618959, 51.782932 ], [ 19.619985, 51.781806 ], [ 19.619985, 51.781798 ], [ 19.618924, 51.780679 ], [ 19.618911, 51.780674 ], [ 19.616826, 51.780685 ], [ 19.615769, 51.779571 ], [ 19.615756, 51.779567 ], [ 19.613672, 51.779578 ], [ 19.612619, 51.778468 ], [ 19.613642, 51.777347 ], [ 19.615726, 51.777336 ], [ 19.615739, 51.777332 ], [ 19.61677, 51.776202 ], [ 19.616769, 51.776193 ], [ 19.615712, 51.775079 ], [ 19.616735, 51.773958 ], [ 19.618819, 51.773947 ], [ 19.618831, 51.773943 ], [ 19.619858, 51.772818 ], [ 19.621942, 51.772807 ], [ 19.621955, 51.772802 ], [ 19.622985, 51.771672 ], [ 19.622985, 51.771663 ], [ 19.621928, 51.770549 ], [ 19.62295, 51.769428 ], [ 19.625034, 51.769417 ], [ 19.625047, 51.769413 ], [ 19.626077, 51.768283 ], [ 19.626077, 51.768274 ], [ 19.62502, 51.76716 ], [ 19.626046, 51.766035 ], [ 19.626046, 51.766026 ], [ 19.624984, 51.764907 ], [ 19.624972, 51.764903 ], [ 19.622888, 51.764914 ], [ 19.621831, 51.763799 ], [ 19.621818, 51.763795 ], [ 19.619735, 51.763806 ], [ 19.618682, 51.762696 ], [ 19.619704, 51.761576 ], [ 19.621788, 51.761565 ], [ 19.6218, 51.76156 ], [ 19.622827, 51.760435 ], [ 19.62491, 51.760424 ], [ 19.624923, 51.760419 ], [ 19.625953, 51.75929 ], [ 19.625953, 51.759281 ], [ 19.624896, 51.758166 ], [ 19.625918, 51.757046 ], [ 19.628001, 51.757035 ], [ 19.628014, 51.75703 ], [ 19.62904, 51.755905 ], [ 19.631115, 51.755894 ], [ 19.632172, 51.757008 ], [ 19.632184, 51.757012 ], [ 19.634276, 51.757001 ], [ 19.634289, 51.756996 ], [ 19.635315, 51.755871 ], [ 19.637389, 51.75586 ], [ 19.638447, 51.756974 ], [ 19.638459, 51.756978 ], [ 19.640551, 51.756967 ], [ 19.640564, 51.756962 ], [ 19.641594, 51.755832 ], [ 19.641593, 51.755823 ], [ 19.640536, 51.754709 ], [ 19.641562, 51.753584 ], [ 19.641562, 51.753575 ], [ 19.6405, 51.752457 ], [ 19.640487, 51.752452 ], [ 19.638404, 51.752463 ], [ 19.637347, 51.751349 ], [ 19.637334, 51.751345 ], [ 19.635251, 51.751356 ], [ 19.634194, 51.750242 ], [ 19.634181, 51.750238 ], [ 19.632098, 51.750249 ], [ 19.631045, 51.749139 ], [ 19.632071, 51.748014 ], [ 19.632071, 51.748005 ], [ 19.631014, 51.746891 ], [ 19.63204, 51.745766 ], [ 19.63204, 51.745757 ], [ 19.630983, 51.744643 ], [ 19.632009, 51.743517 ], [ 19.632008, 51.743508 ], [ 19.630952, 51.742394 ], [ 19.631977, 51.741269 ], [ 19.631977, 51.74126 ], [ 19.63092, 51.740146 ], [ 19.631946, 51.739021 ], [ 19.631946, 51.739012 ], [ 19.630889, 51.737897 ], [ 19.631914, 51.736772 ], [ 19.631914, 51.736763 ], [ 19.630858, 51.735649 ], [ 19.631883, 51.734524 ], [ 19.631883, 51.734515 ], [ 19.630826, 51.733401 ], [ 19.631852, 51.732275 ], [ 19.631852, 51.732266 ], [ 19.630795, 51.731152 ], [ 19.63182, 51.730027 ], [ 19.63182, 51.730018 ], [ 19.630764, 51.728904 ], [ 19.631789, 51.727779 ], [ 19.631789, 51.72777 ], [ 19.630732, 51.726656 ], [ 19.631758, 51.72553 ], [ 19.631758, 51.725521 ], [ 19.630701, 51.724407 ], [ 19.631726, 51.723282 ], [ 19.631726, 51.723273 ], [ 19.630666, 51.722154 ], [ 19.630653, 51.72215 ], [ 19.628571, 51.722161 ], [ 19.627519, 51.721051 ], [ 19.628544, 51.719926 ], [ 19.628544, 51.719917 ], [ 19.627488, 51.718803 ], [ 19.628513, 51.717678 ], [ 19.628513, 51.717669 ], [ 19.627453, 51.71655 ], [ 19.62744, 51.716546 ], [ 19.625359, 51.716557 ], [ 19.624307, 51.715447 ], [ 19.625332, 51.714322 ], [ 19.625332, 51.714313 ], [ 19.624271, 51.713194 ], [ 19.624259, 51.71319 ], [ 19.622178, 51.713201 ], [ 19.621126, 51.712091 ], [ 19.622151, 51.710966 ], [ 19.622151, 51.710957 ], [ 19.621091, 51.709838 ], [ 19.621078, 51.709834 ], [ 19.618997, 51.709845 ], [ 19.617945, 51.708735 ], [ 19.618971, 51.70761 ], [ 19.618971, 51.707601 ], [ 19.61791, 51.706482 ], [ 19.617898, 51.706478 ], [ 19.615817, 51.706489 ], [ 19.614765, 51.705379 ], [ 19.615791, 51.704254 ], [ 19.615791, 51.704245 ], [ 19.614731, 51.703126 ], [ 19.614718, 51.703122 ], [ 19.612637, 51.703133 ], [ 19.611586, 51.702023 ], [ 19.612611, 51.700898 ], [ 19.612611, 51.700889 ], [ 19.611556, 51.699774 ], [ 19.612581, 51.698649 ], [ 19.612581, 51.69864 ], [ 19.611521, 51.697521 ], [ 19.611509, 51.697517 ], [ 19.609428, 51.697528 ], [ 19.608373, 51.696413 ], [ 19.60836, 51.696409 ], [ 19.606271, 51.69642 ], [ 19.606259, 51.696424 ], [ 19.605229, 51.697554 ], [ 19.605229, 51.697563 ], [ 19.606285, 51.698677 ], [ 19.605263, 51.699798 ], [ 19.603191, 51.699809 ], [ 19.60214, 51.698699 ], [ 19.603165, 51.697574 ], [ 19.603165, 51.697565 ], [ 19.602106, 51.696446 ], [ 19.602093, 51.696441 ], [ 19.600013, 51.696452 ], [ 19.598958, 51.695338 ], [ 19.598945, 51.695333 ], [ 19.596856, 51.695344 ], [ 19.596844, 51.695348 ], [ 19.595814, 51.696478 ], [ 19.595814, 51.696487 ], [ 19.596869, 51.697601 ], [ 19.595848, 51.698722 ], [ 19.593767, 51.698732 ], [ 19.593755, 51.698737 ], [ 19.592729, 51.699862 ], [ 19.590648, 51.699872 ], [ 19.590636, 51.699877 ], [ 19.58961, 51.701002 ], [ 19.587529, 51.701012 ], [ 19.587517, 51.701017 ], [ 19.586487, 51.702146 ], [ 19.586487, 51.702155 ], [ 19.587542, 51.70327 ], [ 19.58652, 51.70439 ], [ 19.584447, 51.7044 ], [ 19.583397, 51.70329 ], [ 19.584423, 51.702165 ], [ 19.584422, 51.702156 ], [ 19.583363, 51.701037 ], [ 19.583351, 51.701033 ], [ 19.581262, 51.701043 ], [ 19.581249, 51.701048 ], [ 19.580223, 51.702173 ], [ 19.578142, 51.702183 ], [ 19.57813, 51.702188 ], [ 19.577104, 51.703312 ], [ 19.575023, 51.703323 ], [ 19.57501, 51.703327 ], [ 19.573984, 51.704452 ], [ 19.571911, 51.704462 ], [ 19.570857, 51.703347 ], [ 19.570844, 51.703343 ], [ 19.568763, 51.703353 ], [ 19.567709, 51.702238 ], [ 19.567696, 51.702234 ], [ 19.565616, 51.702244 ], [ 19.564565, 51.701134 ], [ 19.565592, 51.700009 ], [ 19.565592, 51.7 ], [ 19.564533, 51.698881 ], [ 19.564521, 51.698876 ], [ 19.56244, 51.698886 ], [ 19.56139, 51.697776 ], [ 19.562416, 51.696651 ], [ 19.562416, 51.696642 ], [ 19.561358, 51.695523 ], [ 19.561345, 51.695519 ], [ 19.559265, 51.695529 ], [ 19.558211, 51.694414 ], [ 19.558198, 51.69441 ], [ 19.556109, 51.694419 ], [ 19.556097, 51.694424 ], [ 19.55507, 51.695549 ], [ 19.552998, 51.695558 ], [ 19.551944, 51.694444 ], [ 19.551932, 51.694439 ], [ 19.549843, 51.694449 ], [ 19.54983, 51.694453 ], [ 19.548804, 51.695578 ], [ 19.546731, 51.695588 ], [ 19.545678, 51.694473 ], [ 19.545665, 51.694468 ], [ 19.543585, 51.694478 ], [ 19.542531, 51.693363 ], [ 19.542518, 51.693359 ], [ 19.54043, 51.693368 ], [ 19.540417, 51.693373 ], [ 19.53939, 51.694497 ], [ 19.537318, 51.694507 ], [ 19.536269, 51.693396 ], [ 19.537296, 51.692272 ], [ 19.537296, 51.692263 ], [ 19.536238, 51.691143 ], [ 19.536226, 51.691139 ], [ 19.534145, 51.691149 ], [ 19.533092, 51.690034 ], [ 19.533079, 51.690029 ], [ 19.530999, 51.690039 ], [ 19.529946, 51.688923 ], [ 19.529933, 51.688919 ], [ 19.527853, 51.688928 ], [ 19.5268, 51.687813 ], [ 19.526787, 51.687809 ], [ 19.524699, 51.687818 ], [ 19.524686, 51.687823 ], [ 19.523659, 51.688947 ], [ 19.521587, 51.688956 ], [ 19.520534, 51.687841 ], [ 19.520522, 51.687837 ], [ 19.518433, 51.687846 ], [ 19.518421, 51.687851 ], [ 19.517393, 51.688975 ], [ 19.515313, 51.688984 ], [ 19.515301, 51.688989 ], [ 19.514269, 51.690117 ], [ 19.514269, 51.690126 ], [ 19.515322, 51.691242 ], [ 19.514299, 51.692361 ], [ 19.512218, 51.69237 ], [ 19.512206, 51.692375 ], [ 19.511174, 51.693504 ], [ 19.511174, 51.693513 ], [ 19.512227, 51.694628 ], [ 19.511203, 51.695748 ], [ 19.509123, 51.695757 ], [ 19.50911, 51.695761 ], [ 19.508083, 51.696886 ], [ 19.50601, 51.696894 ], [ 19.504958, 51.695779 ], [ 19.504945, 51.695775 ], [ 19.502856, 51.695784 ], [ 19.502844, 51.695788 ], [ 19.501816, 51.696912 ], [ 19.499743, 51.696921 ], [ 19.498691, 51.695806 ], [ 19.498678, 51.695802 ], [ 19.496589, 51.69581 ], [ 19.496577, 51.695815 ], [ 19.495549, 51.696939 ], [ 19.493468, 51.696948 ], [ 19.493456, 51.696952 ], [ 19.492428, 51.698076 ], [ 19.490355, 51.698085 ], [ 19.489303, 51.69697 ], [ 19.48929, 51.696965 ], [ 19.48721, 51.696974 ], [ 19.486157, 51.695859 ], [ 19.486145, 51.695854 ], [ 19.484056, 51.695863 ], [ 19.484043, 51.695867 ], [ 19.483015, 51.696991 ], [ 19.480943, 51.697 ], [ 19.479891, 51.695884 ], [ 19.479878, 51.69588 ], [ 19.477797, 51.695888 ], [ 19.476745, 51.694773 ], [ 19.476733, 51.694768 ], [ 19.474652, 51.694777 ], [ 19.4736, 51.693661 ], [ 19.473588, 51.693657 ], [ 19.471507, 51.693665 ], [ 19.47046, 51.692554 ], [ 19.471488, 51.69143 ], [ 19.471488, 51.691421 ], [ 19.470436, 51.690306 ], [ 19.471465, 51.689182 ], [ 19.471465, 51.689173 ], [ 19.470409, 51.688053 ], [ 19.470396, 51.688048 ], [ 19.468316, 51.688057 ], [ 19.467264, 51.686941 ], [ 19.467252, 51.686937 ], [ 19.465163, 51.686945 ], [ 19.465151, 51.686949 ], [ 19.464122, 51.688073 ], [ 19.46205, 51.688081 ], [ 19.460999, 51.686966 ], [ 19.460986, 51.686961 ], [ 19.458898, 51.686969 ], [ 19.458885, 51.686974 ], [ 19.457856, 51.688098 ], [ 19.455785, 51.688106 ], [ 19.454733, 51.68699 ], [ 19.454721, 51.686986 ], [ 19.45264, 51.686994 ], [ 19.451589, 51.685878 ], [ 19.451577, 51.685874 ], [ 19.449488, 51.685882 ], [ 19.449476, 51.685886 ], [ 19.448447, 51.68701 ], [ 19.446375, 51.687018 ], [ 19.445324, 51.685902 ], [ 19.445311, 51.685897 ], [ 19.443223, 51.685905 ], [ 19.44321, 51.68591 ], [ 19.442181, 51.687034 ], [ 19.440109, 51.687041 ], [ 19.439058, 51.685925 ], [ 19.439046, 51.685921 ], [ 19.436957, 51.685929 ], [ 19.436945, 51.685933 ], [ 19.435915, 51.687057 ], [ 19.433844, 51.687065 ], [ 19.432793, 51.685949 ], [ 19.43278, 51.685944 ], [ 19.4307, 51.685952 ], [ 19.42965, 51.684836 ], [ 19.429637, 51.684832 ], [ 19.427549, 51.684839 ], [ 19.427536, 51.684844 ], [ 19.426507, 51.685967 ], [ 19.424426, 51.685975 ], [ 19.424414, 51.685979 ], [ 19.423384, 51.687103 ], [ 19.421312, 51.68711 ], [ 19.420262, 51.685994 ], [ 19.420249, 51.68599 ], [ 19.418161, 51.685997 ], [ 19.418148, 51.686002 ], [ 19.417114, 51.68713 ], [ 19.417115, 51.687139 ], [ 19.418165, 51.688255 ], [ 19.417139, 51.689374 ], [ 19.415059, 51.689381 ], [ 19.415047, 51.689386 ], [ 19.414012, 51.690514 ], [ 19.414013, 51.690523 ], [ 19.415063, 51.691639 ], [ 19.414037, 51.692757 ], [ 19.411957, 51.692765 ], [ 19.411944, 51.692769 ], [ 19.410914, 51.693893 ], [ 19.408834, 51.6939 ], [ 19.408821, 51.693905 ], [ 19.407791, 51.695028 ], [ 19.40571, 51.695035 ], [ 19.405698, 51.69504 ], [ 19.404668, 51.696163 ], [ 19.402595, 51.69617 ], [ 19.401549, 51.695058 ], [ 19.40258, 51.693935 ], [ 19.40258, 51.693926 ], [ 19.401525, 51.692805 ], [ 19.401513, 51.692801 ], [ 19.399432, 51.692808 ], [ 19.398382, 51.691692 ], [ 19.39837, 51.691687 ], [ 19.396281, 51.691694 ], [ 19.396268, 51.691699 ], [ 19.395238, 51.692822 ], [ 19.393157, 51.692829 ], [ 19.393145, 51.692834 ], [ 19.392114, 51.693957 ], [ 19.390042, 51.693964 ], [ 19.388992, 51.692848 ], [ 19.38898, 51.692843 ], [ 19.386891, 51.69285 ], [ 19.386878, 51.692855 ], [ 19.385848, 51.693978 ], [ 19.383767, 51.693985 ], [ 19.383755, 51.693989 ], [ 19.382724, 51.695112 ], [ 19.380643, 51.695119 ], [ 19.380631, 51.695124 ], [ 19.3796, 51.696247 ], [ 19.377528, 51.696253 ], [ 19.376478, 51.695137 ], [ 19.376466, 51.695132 ], [ 19.374377, 51.695139 ], [ 19.374364, 51.695144 ], [ 19.373333, 51.696267 ], [ 19.371252, 51.696273 ], [ 19.37124, 51.696278 ], [ 19.370209, 51.697401 ], [ 19.368136, 51.697407 ], [ 19.367087, 51.696291 ], [ 19.367074, 51.696286 ], [ 19.364985, 51.696293 ], [ 19.364973, 51.696297 ], [ 19.363942, 51.69742 ], [ 19.361861, 51.697427 ], [ 19.361848, 51.697431 ], [ 19.360817, 51.698554 ], [ 19.358736, 51.698561 ], [ 19.358724, 51.698565 ], [ 19.357688, 51.699693 ], [ 19.357688, 51.699702 ], [ 19.358737, 51.700818 ], [ 19.35771, 51.701937 ], [ 19.355637, 51.701943 ], [ 19.354588, 51.700826 ], [ 19.354576, 51.700822 ], [ 19.352487, 51.700828 ], [ 19.352474, 51.700833 ], [ 19.351438, 51.70196 ], [ 19.351438, 51.701969 ], [ 19.352487, 51.703086 ], [ 19.351456, 51.704209 ], [ 19.351456, 51.704218 ], [ 19.352505, 51.705334 ], [ 19.351477, 51.706453 ], [ 19.349396, 51.706459 ], [ 19.349384, 51.706463 ], [ 19.348347, 51.707591 ], [ 19.348347, 51.7076 ], [ 19.349397, 51.708716 ], [ 19.348365, 51.709839 ], [ 19.348365, 51.709848 ], [ 19.349414, 51.710965 ], [ 19.348386, 51.712083 ], [ 19.346305, 51.712089 ], [ 19.346292, 51.712094 ], [ 19.345256, 51.713221 ], [ 19.345256, 51.71323 ], [ 19.346305, 51.714347 ], [ 19.345277, 51.715465 ] ] ] ] } }
]
}
