{
"type": "FeatureCollection",
"name": "boundary_lodz_250",
"crs": { "type": "name", "properties": { "name": "urn:ogc:def:crs:OGC:1.3:CRS84" } },
"xy_coordinate_resolution": 1e-06,
"features": [
{ "type": "Feature", "properties": { "fid": 1, "name": "Łódź" }, "geometry": { "type": "Polygon", "coordinates": [ [ [ 19.320828, 51.803235 ], [ 19.320829, 51.803236 ], [ 19.321879, 51.804352 ], [ 19.321881, 51.804355 ], [ 19.321881, 51.804358 ], [ 19.321879, 51.804361 ], [ 19.320845, 51.805483 ], [ 19.320844, 51.805484 ], [ 19.320845, 51.805485 ], [ 19.321895, 51.806601 ], [ 19.321897, 51.806604 ], [ 19.321897, 51.806607 ], [ 19.321895, 51.80661 ], [ 19.320861, 51.807732 ], [ 19.32086, 51.807732 ], [ 19.320861, 51.807733 ], [ 19.321914, 51.808853 ], [ 19.321915, 51.808854 ], [ 19.321916, 51.808854 ], [ 19.324001, 51.808848 ], [ 19.324006, 51.808849 ], [ 19.32401, 51.80885 ], [ 19.324013, 51.808852 ], [ 19.325064, 51.809969 ], [ 19.325065, 51.809969 ], [ 19.325066, 51.809969 ], [ 19.327157, 51.809963 ], [ 19.327159, 51.809963 ], [ 19.327159, 51.809963 ], [ 19.328193, 51.808841 ], [ 19.328197, 51.808838 ], [ 19.328201, 51.808837 ], [ 19.328206, 51.808836 ], [ 19.330283, 51.808831 ], [ 19.330288, 51.808831 ], [ 19.330293, 51.808833 ], [ 19.330296, 51.808835 ], [ 19.331347, 51.809951 ], [ 19.331347, 51.809952 ], [ 19.331348, 51.809952 ], [ 19.333433, 51.809946 ], [ 19.333438, 51.809946 ], [ 19.333442, 51.809948 ], [ 19.333446, 51.80995 ], [ 19.334496, 51.811066 ], [ 19.334497, 51.811067 ], [ 19.334498, 51.811067 ], [ 19.336583, 51.811061 ], [ 19.336588, 51.811062 ], [ 19.336592, 51.811063 ], [ 19.336595, 51.811066 ], [ 19.337642, 51.812178 ], [ 19.337644, 51.812181 ], [ 19.337644, 51.812184 ], [ 19.337643, 51.812187 ], [ 19.336609, 51.813309 ], [ 19.336608, 51.81331 ], [ 19.336609, 51.81331 ], [ 19.337659, 51.814426 ], [ 19.337661, 51.814429 ], [ 19.337661, 51.814432 ], [ 19.337659, 51.814435 ], [ 19.336629, 51.815554 ], [ 19.336626, 51.815556 ], [ 19.336621, 51.815557 ], [ 19.336616, 51.815558 ], [ 19.334531, 51.815564 ], [ 19.33453, 51.815564 ], [ 19.33453, 51.815565 ], [ 19.333492, 51.816691 ], [ 19.333491, 51.816691 ], [ 19.333492, 51.816692 ], [ 19.334543, 51.817808 ], [ 19.334544, 51.817811 ], [ 19.334544, 51.817814 ], [ 19.334543, 51.817817 ], [ 19.333508, 51.818939 ], [ 19.333508, 51.81894 ], [ 19.333508, 51.81894 ], [ 19.334559, 51.820056 ], [ 19.334561, 51.820059 ], [ 19.334561, 51.820062 ], [ 19.334559, 51.820065 ], [ 19.333525, 51.821187 ], [ 19.333525, 51.821188 ], [ 19.333525, 51.821189 ], [ 19.334579, 51.822309 ], [ 19.33458, 51.822309 ], [ 19.334581, 51.822309 ], [ 19.336674, 51.822303 ], [ 19.336675, 51.822303 ], [ 19.336676, 51.822303 ], [ 19.33771, 51.821181 ], [ 19.337713, 51.821178 ], [ 19.337717, 51.821177 ], [ 19.337722, 51.821176 ], [ 19.3398, 51.82117 ], [ 19.339805, 51.821171 ], [ 19.33981, 51.821172 ], [ 19.339813, 51.821175 ], [ 19.34086, 51.822287 ], [ 19.340862, 51.82229 ], [ 19.340862, 51.822293 ], [ 19.34086, 51.822296 ], [ 19.339826, 51.823418 ], [ 19.339826, 51.823419 ], [ 19.339826, 51.823419 ], [ 19.340877, 51.824535 ], [ 19.340879, 51.824538 ], [ 19.340879, 51.824541 ], [ 19.340877, 51.824544 ], [ 19.339843, 51.825666 ], [ 19.339843, 51.825667 ], [ 19.339843, 51.825668 ], [ 19.340894, 51.826784 ], [ 19.340896, 51.826787 ], [ 19.340896, 51.82679 ], [ 19.340894, 51.826793 ], [ 19.33986, 51.827915 ], [ 19.33986, 51.827915 ], [ 19.33986, 51.827916 ], [ 19.340911, 51.829032 ], [ 19.340913, 51.829035 ], [ 19.340913, 51.829038 ], [ 19.340911, 51.829041 ], [ 19.339877, 51.830163 ], [ 19.339877, 51.830164 ], [ 19.339877, 51.830165 ], [ 19.340932, 51.831284 ], [ 19.340933, 51.831285 ], [ 19.340934, 51.831285 ], [ 19.343019, 51.831279 ], [ 19.343024, 51.83128 ], [ 19.343029, 51.831281 ], [ 19.343032, 51.831283 ], [ 19.344083, 51.832399 ], [ 19.344084, 51.8324 ], [ 19.344085, 51.8324 ], [ 19.346178, 51.832394 ], [ 19.346179, 51.832394 ], [ 19.34618, 51.832393 ], [ 19.347214, 51.831271 ], [ 19.347217, 51.831269 ], [ 19.347221, 51.831267 ], [ 19.347226, 51.831267 ], [ 19.349305, 51.83126 ], [ 19.34931, 51.831261 ], [ 19.349314, 51.831263 ], [ 19.349318, 51.831265 ], [ 19.350365, 51.832377 ], [ 19.350367, 51.83238 ], [ 19.350367, 51.832383 ], [ 19.350365, 51.832386 ], [ 19.349331, 51.833508 ], [ 19.349331, 51.833509 ], [ 19.349331, 51.83351 ], [ 19.350383, 51.834626 ], [ 19.350385, 51.834628 ], [ 19.350385, 51.834632 ], [ 19.350383, 51.834635 ], [ 19.349352, 51.835753 ], [ 19.349349, 51.835755 ], [ 19.349345, 51.835757 ], [ 19.34934, 51.835757 ], [ 19.347254, 51.835764 ], [ 19.347253, 51.835764 ], [ 19.347252, 51.835764 ], [ 19.346214, 51.83689 ], [ 19.346214, 51.836891 ], [ 19.346214, 51.836892 ], [ 19.347269, 51.838011 ], [ 19.34727, 51.838012 ], [ 19.347271, 51.838012 ], [ 19.349357, 51.838006 ], [ 19.349362, 51.838006 ], [ 19.349366, 51.838008 ], [ 19.34937, 51.83801 ], [ 19.350421, 51.839126 ], [ 19.350422, 51.839127 ], [ 19.350423, 51.839127 ], [ 19.352516, 51.839121 ], [ 19.352517, 51.83912 ], [ 19.352518, 51.83912 ], [ 19.353552, 51.837998 ], [ 19.353556, 51.837995 ], [ 19.35356, 51.837994 ], [ 19.353565, 51.837993 ], [ 19.355651, 51.837987 ], [ 19.355652, 51.837987 ], [ 19.355653, 51.837986 ], [ 19.356687, 51.836864 ], [ 19.35669, 51.836862 ], [ 19.356694, 51.83686 ], [ 19.356699, 51.83686 ], [ 19.358778, 51.836853 ], [ 19.358783, 51.836854 ], [ 19.358787, 51.836855 ], [ 19.358791, 51.836858 ], [ 19.359843, 51.837973 ], [ 19.359843, 51.837974 ], [ 19.359844, 51.837974 ], [ 19.361937, 51.837968 ], [ 19.361939, 51.837968 ], [ 19.361939, 51.837967 ], [ 19.362973, 51.836845 ], [ 19.362976, 51.836842 ], [ 19.362981, 51.836841 ], [ 19.362986, 51.83684 ], [ 19.365064, 51.836834 ], [ 19.365069, 51.836834 ], [ 19.365074, 51.836836 ], [ 19.365077, 51.836838 ], [ 19.366129, 51.837954 ], [ 19.36613, 51.837955 ], [ 19.366131, 51.837955 ], [ 19.368217, 51.837948 ], [ 19.368222, 51.837949 ], [ 19.368226, 51.83795 ], [ 19.368229, 51.837953 ], [ 19.369282, 51.839068 ], [ 19.369282, 51.839069 ], [ 19.369283, 51.839069 ], [ 19.371377, 51.839063 ], [ 19.371378, 51.839062 ], [ 19.371378, 51.839062 ], [ 19.372412, 51.83794 ], [ 19.372415, 51.837937 ], [ 19.37242, 51.837936 ], [ 19.372425, 51.837935 ], [ 19.374503, 51.837928 ], [ 19.374508, 51.837929 ], [ 19.374513, 51.83793 ], [ 19.374516, 51.837933 ], [ 19.375568, 51.839049 ], [ 19.375569, 51.839049 ], [ 19.37557, 51.839049 ], [ 19.377663, 51.839043 ], [ 19.377664, 51.839042 ], [ 19.377665, 51.839042 ], [ 19.378699, 51.837919 ], [ 19.378702, 51.837917 ], [ 19.378706, 51.837916 ], [ 19.378711, 51.837915 ], [ 19.38079, 51.837908 ], [ 19.380795, 51.837909 ], [ 19.380799, 51.83791 ], [ 19.380803, 51.837913 ], [ 19.381855, 51.839028 ], [ 19.381856, 51.839029 ], [ 19.381857, 51.839029 ], [ 19.38395, 51.839022 ], [ 19.383951, 51.839022 ], [ 19.383952, 51.839022 ], [ 19.384989, 51.837895 ], [ 19.384989, 51.837895 ], [ 19.384989, 51.837894 ], [ 19.383936, 51.836778 ], [ 19.383935, 51.836775 ], [ 19.383935, 51.836772 ], [ 19.383936, 51.836769 ], [ 19.38497, 51.835647 ], [ 19.38497, 51.835646 ], [ 19.38497, 51.835645 ], [ 19.383917, 51.83453 ], [ 19.383915, 51.834527 ], [ 19.383915, 51.834524 ], [ 19.383917, 51.834521 ], [ 19.38495, 51.833398 ], [ 19.384951, 51.833398 ], [ 19.38495, 51.833397 ], [ 19.383898, 51.832281 ], [ 19.383896, 51.832278 ], [ 19.383896, 51.832275 ], [ 19.383898, 51.832272 ], [ 19.384931, 51.83115 ], [ 19.384932, 51.831149 ], [ 19.384931, 51.831149 ], [ 19.383879, 51.830033 ], [ 19.383877, 51.83003 ], [ 19.383877, 51.830027 ], [ 19.383879, 51.830024 ], [ 19.384912, 51.828902 ], [ 19.384913, 51.828901 ], [ 19.384912, 51.8289 ], [ 19.38386, 51.827785 ], [ 19.383858, 51.827782 ], [ 19.383858, 51.827778 ], [ 19.38386, 51.827776 ], [ 19.384889, 51.826657 ], [ 19.384893, 51.826655 ], [ 19.384897, 51.826653 ], [ 19.384902, 51.826652 ], [ 19.38698, 51.826646 ], [ 19.386985, 51.826646 ], [ 19.38699, 51.826648 ], [ 19.386993, 51.82665 ], [ 19.388045, 51.827766 ], [ 19.388046, 51.827766 ], [ 19.388047, 51.827766 ], [ 19.39014, 51.827759 ], [ 19.390141, 51.827759 ], [ 19.390141, 51.827759 ], [ 19.391174, 51.826636 ], [ 19.391178, 51.826634 ], [ 19.391182, 51.826632 ], [ 19.391187, 51.826632 ], [ 19.393265, 51.826625 ], [ 19.39327, 51.826625 ], [ 19.393275, 51.826627 ], [ 19.393278, 51.826629 ], [ 19.39433, 51.827745 ], [ 19.394331, 51.827745 ], [ 19.394332, 51.827745 ], [ 19.396418, 51.827738 ], [ 19.396423, 51.827739 ], [ 19.396427, 51.82774 ], [ 19.39643, 51.827743 ], [ 19.397479, 51.828855 ], [ 19.397481, 51.828857 ], [ 19.397481, 51.828861 ], [ 19.397479, 51.828864 ], [ 19.396446, 51.829986 ], [ 19.396446, 51.829987 ], [ 19.396446, 51.829987 ], [ 19.397503, 51.831107 ], [ 19.397503, 51.831107 ], [ 19.397504, 51.831107 ], [ 19.399597, 51.8311 ], [ 19.399598, 51.8311 ], [ 19.399599, 51.8311 ], [ 19.400632, 51.829977 ], [ 19.400635, 51.829975 ], [ 19.400639, 51.829973 ], [ 19.400644, 51.829973 ], [ 19.402723, 51.829965 ], [ 19.402728, 51.829966 ], [ 19.402732, 51.829968 ], [ 19.402735, 51.82997 ], [ 19.403788, 51.831085 ], [ 19.403789, 51.831086 ], [ 19.40379, 51.831086 ], [ 19.405883, 51.831079 ], [ 19.405884, 51.831079 ], [ 19.405885, 51.831078 ], [ 19.406917, 51.829956 ], [ 19.40692, 51.829953 ], [ 19.406925, 51.829952 ], [ 19.40693, 51.829951 ], [ 19.409015, 51.829944 ], [ 19.409016, 51.829944 ], [ 19.409017, 51.829943 ], [ 19.41005, 51.82882 ], [ 19.410053, 51.828818 ], [ 19.410057, 51.828816 ], [ 19.410062, 51.828816 ], [ 19.412141, 51.828809 ], [ 19.412146, 51.828809 ], [ 19.41215, 51.828811 ], [ 19.412153, 51.828813 ], [ 19.413206, 51.829928 ], [ 19.413207, 51.829929 ], [ 19.413208, 51.829929 ], [ 19.415294, 51.829922 ], [ 19.415299, 51.829922 ], [ 19.415303, 51.829924 ], [ 19.415306, 51.829926 ], [ 19.416359, 51.831042 ], [ 19.41636, 51.831042 ], [ 19.416361, 51.831042 ], [ 19.418447, 51.831035 ], [ 19.418452, 51.831035 ], [ 19.418456, 51.831037 ], [ 19.418459, 51.831039 ], [ 19.419513, 51.832155 ], [ 19.419513, 51.832155 ], [ 19.419514, 51.832155 ], [ 19.4216, 51.832148 ], [ 19.421605, 51.832148 ], [ 19.421609, 51.83215 ], [ 19.421613, 51.832152 ], [ 19.422666, 51.833268 ], [ 19.422667, 51.833268 ], [ 19.422668, 51.833268 ], [ 19.424761, 51.833261 ], [ 19.424762, 51.833261 ], [ 19.424762, 51.83326 ], [ 19.425795, 51.832137 ], [ 19.425798, 51.832135 ], [ 19.425802, 51.832133 ], [ 19.425807, 51.832133 ], [ 19.427886, 51.832125 ], [ 19.427891, 51.832126 ], [ 19.427895, 51.832127 ], [ 19.427898, 51.83213 ], [ 19.428952, 51.833245 ], [ 19.428953, 51.833245 ], [ 19.428954, 51.833245 ], [ 19.431046, 51.833238 ], [ 19.431048, 51.833238 ], [ 19.431048, 51.833237 ], [ 19.43208, 51.832114 ], [ 19.432084, 51.832112 ], [ 19.432088, 51.83211 ], [ 19.432093, 51.83211 ], [ 19.434171, 51.832102 ], [ 19.434176, 51.832103 ], [ 19.434181, 51.832104 ], [ 19.434184, 51.832107 ], [ 19.435234, 51.833218 ], [ 19.435236, 51.833221 ], [ 19.435236, 51.833224 ], [ 19.435234, 51.833227 ], [ 19.434202, 51.83435 ], [ 19.434202, 51.83435 ], [ 19.434202, 51.834351 ], [ 19.435259, 51.83547 ], [ 19.43526, 51.835471 ], [ 19.435261, 51.835471 ], [ 19.437347, 51.835463 ], [ 19.437352, 51.835464 ], [ 19.437356, 51.835465 ], [ 19.43736, 51.835468 ], [ 19.438413, 51.836583 ], [ 19.438414, 51.836583 ], [ 19.438415, 51.836583 ], [ 19.440508, 51.836576 ], [ 19.440509, 51.836575 ], [ 19.44051, 51.836575 ], [ 19.441542, 51.835452 ], [ 19.441545, 51.835449 ], [ 19.44155, 51.835448 ], [ 19.441555, 51.835447 ], [ 19.443633, 51.83544 ], [ 19.443638, 51.83544 ], [ 19.443643, 51.835442 ], [ 19.443646, 51.835444 ], [ 19.4447, 51.836559 ], [ 19.4447, 51.83656 ], [ 19.444702, 51.83656 ], [ 19.446787, 51.836552 ], [ 19.446792, 51.836552 ], [ 19.446797, 51.836554 ], [ 19.4468, 51.836556 ], [ 19.447854, 51.837671 ], [ 19.447855, 51.837672 ], [ 19.447856, 51.837672 ], [ 19.449949, 51.837664 ], [ 19.44995, 51.837664 ], [ 19.449951, 51.837663 ], [ 19.450983, 51.83654 ], [ 19.450986, 51.836538 ], [ 19.45099, 51.836536 ], [ 19.450995, 51.836536 ], [ 19.453074, 51.836528 ], [ 19.453079, 51.836528 ], [ 19.453083, 51.83653 ], [ 19.453086, 51.836532 ], [ 19.454137, 51.837643 ], [ 19.454139, 51.837646 ], [ 19.454139, 51.837649 ], [ 19.454137, 51.837652 ], [ 19.453105, 51.838775 ], [ 19.453105, 51.838776 ], [ 19.453105, 51.838777 ], [ 19.45416, 51.839892 ], [ 19.454161, 51.839895 ], [ 19.454161, 51.839898 ], [ 19.45416, 51.839901 ], [ 19.453131, 51.84102 ], [ 19.453128, 51.841022 ], [ 19.453124, 51.841024 ], [ 19.453119, 51.841025 ], [ 19.451033, 51.841033 ], [ 19.451032, 51.841033 ], [ 19.451031, 51.841033 ], [ 19.449996, 51.84216 ], [ 19.449995, 51.842161 ], [ 19.449996, 51.842162 ], [ 19.451053, 51.84328 ], [ 19.451054, 51.843281 ], [ 19.451055, 51.843281 ], [ 19.453141, 51.843273 ], [ 19.453146, 51.843274 ], [ 19.453151, 51.843275 ], [ 19.453154, 51.843277 ], [ 19.454205, 51.844389 ], [ 19.454207, 51.844392 ], [ 19.454207, 51.844395 ], [ 19.454205, 51.844398 ], [ 19.453177, 51.845517 ], [ 19.453173, 51.845519 ], [ 19.453169, 51.845521 ], [ 19.453164, 51.845521 ], [ 19.451078, 51.845529 ], [ 19.451077, 51.84553 ], [ 19.451076, 51.84553 ], [ 19.450044, 51.846653 ], [ 19.450041, 51.846656 ], [ 19.450036, 51.846657 ], [ 19.450031, 51.846658 ], [ 19.447945, 51.846666 ], [ 19.447944, 51.846666 ], [ 19.447943, 51.846666 ], [ 19.446911, 51.847789 ], [ 19.446908, 51.847792 ], [ 19.446904, 51.847793 ], [ 19.446899, 51.847794 ], [ 19.444812, 51.847802 ], [ 19.444811, 51.847802 ], [ 19.44481, 51.847802 ], [ 19.443775, 51.848929 ], [ 19.443774, 51.84893 ], [ 19.443775, 51.848931 ], [ 19.444829, 51.850046 ], [ 19.444831, 51.850049 ], [ 19.444831, 51.850052 ], [ 19.444829, 51.850055 ], [ 19.443797, 51.851178 ], [ 19.443797, 51.851178 ], [ 19.443797, 51.851179 ], [ 19.444855, 51.852298 ], [ 19.444856, 51.852298 ], [ 19.444857, 51.852299 ], [ 19.44695, 51.852291 ], [ 19.446951, 51.852291 ], [ 19.446952, 51.85229 ], [ 19.447984, 51.851167 ], [ 19.447988, 51.851165 ], [ 19.447992, 51.851163 ], [ 19.447997, 51.851162 ], [ 19.450083, 51.851154 ], [ 19.450085, 51.851154 ], [ 19.450085, 51.851154 ], [ 19.451117, 51.850031 ], [ 19.451121, 51.850028 ], [ 19.451125, 51.850027 ], [ 19.45113, 51.850026 ], [ 19.453209, 51.850018 ], [ 19.453214, 51.850019 ], [ 19.453219, 51.85002 ], [ 19.453222, 51.850023 ], [ 19.454276, 51.851138 ], [ 19.454277, 51.851138 ], [ 19.454278, 51.851138 ], [ 19.456372, 51.85113 ], [ 19.456373, 51.85113 ], [ 19.456374, 51.85113 ], [ 19.457406, 51.850006 ], [ 19.457409, 51.850004 ], [ 19.457413, 51.850002 ], [ 19.457418, 51.850002 ], [ 19.459497, 51.849994 ], [ 19.459502, 51.849994 ], [ 19.459507, 51.849996 ], [ 19.45951, 51.849998 ], [ 19.460565, 51.851113 ], [ 19.460565, 51.851114 ], [ 19.460567, 51.851114 ], [ 19.462653, 51.851106 ], [ 19.462658, 51.851106 ], [ 19.462662, 51.851108 ], [ 19.462666, 51.85111 ], [ 19.46372, 51.852225 ], [ 19.463721, 51.852226 ], [ 19.463722, 51.852226 ], [ 19.465809, 51.852217 ], [ 19.465814, 51.852218 ], [ 19.465818, 51.85222 ], [ 19.465821, 51.852222 ], [ 19.466876, 51.853337 ], [ 19.466877, 51.853337 ], [ 19.466878, 51.853337 ], [ 19.468965, 51.853329 ], [ 19.46897, 51.85333 ], [ 19.468974, 51.853331 ], [ 19.468977, 51.853334 ], [ 19.470032, 51.854448 ], [ 19.470033, 51.854449 ], [ 19.470034, 51.854449 ], [ 19.472121, 51.854441 ], [ 19.472126, 51.854441 ], [ 19.47213, 51.854443 ], [ 19.472133, 51.854445 ], [ 19.473188, 51.85556 ], [ 19.473189, 51.855561 ], [ 19.47319, 51.855561 ], [ 19.475277, 51.855552 ], [ 19.475282, 51.855553 ], [ 19.475286, 51.855554 ], [ 19.47529, 51.855557 ], [ 19.476345, 51.856672 ], [ 19.476346, 51.856672 ], [ 19.476347, 51.856672 ], [ 19.478433, 51.856664 ], [ 19.478438, 51.856664 ], [ 19.478443, 51.856666 ], [ 19.478446, 51.856668 ], [ 19.479501, 51.857783 ], [ 19.479502, 51.857784 ], [ 19.479503, 51.857784 ], [ 19.48159, 51.857775 ], [ 19.481595, 51.857776 ], [ 19.481599, 51.857777 ], [ 19.481603, 51.85778 ], [ 19.482658, 51.858894 ], [ 19.482659, 51.858895 ], [ 19.48266, 51.858895 ], [ 19.484747, 51.858886 ], [ 19.484752, 51.858887 ], [ 19.484756, 51.858889 ], [ 19.484759, 51.858891 ], [ 19.485815, 51.860006 ], [ 19.485815, 51.860006 ], [ 19.485817, 51.860006 ], [ 19.487911, 51.859998 ], [ 19.487912, 51.859997 ], [ 19.487913, 51.859997 ], [ 19.488944, 51.858874 ], [ 19.488947, 51.858871 ], [ 19.488951, 51.85887 ], [ 19.488956, 51.858869 ], [ 19.491036, 51.85886 ], [ 19.491041, 51.858861 ], [ 19.491045, 51.858862 ], [ 19.491049, 51.858865 ], [ 19.492104, 51.859979 ], [ 19.492105, 51.85998 ], [ 19.492106, 51.85998 ], [ 19.4942, 51.859971 ], [ 19.494201, 51.859971 ], [ 19.494202, 51.859971 ], [ 19.495233, 51.858847 ], [ 19.495236, 51.858845 ], [ 19.495241, 51.858843 ], [ 19.495246, 51.858843 ], [ 19.497325, 51.858834 ], [ 19.49733, 51.858834 ], [ 19.497335, 51.858836 ], [ 19.497338, 51.858838 ], [ 19.498394, 51.859953 ], [ 19.498395, 51.859954 ], [ 19.498396, 51.859954 ], [ 19.50049, 51.859945 ], [ 19.500491, 51.859945 ], [ 19.500492, 51.859944 ], [ 19.501523, 51.858821 ], [ 19.501526, 51.858818 ], [ 19.50153, 51.858817 ], [ 19.501535, 51.858816 ], [ 19.503615, 51.858807 ], [ 19.50362, 51.858808 ], [ 19.503624, 51.858809 ], [ 19.503627, 51.858812 ], [ 19.504683, 51.859926 ], [ 19.504684, 51.859927 ], [ 19.504685, 51.859927 ], [ 19.506779, 51.859918 ], [ 19.50678, 51.859918 ], [ 19.506781, 51.859917 ], [ 19.507812, 51.858794 ], [ 19.507815, 51.858791 ], [ 19.50782, 51.85879 ], [ 19.507824, 51.858789 ], [ 19.509911, 51.85878 ], [ 19.509912, 51.85878 ], [ 19.509913, 51.858779 ], [ 19.510947, 51.857652 ], [ 19.510948, 51.857651 ], [ 19.510947, 51.857651 ], [ 19.509891, 51.856536 ], [ 19.50989, 51.856533 ], [ 19.50989, 51.85653 ], [ 19.509891, 51.856527 ], [ 19.510918, 51.855407 ], [ 19.510922, 51.855405 ], [ 19.510926, 51.855403 ], [ 19.510931, 51.855403 ], [ 19.513018, 51.855394 ], [ 19.513019, 51.855394 ], [ 19.51302, 51.855393 ], [ 19.514054, 51.854266 ], [ 19.514054, 51.854265 ], [ 19.514054, 51.854264 ], [ 19.512998, 51.85315 ], [ 19.512996, 51.853147 ], [ 19.512996, 51.853144 ], [ 19.512997, 51.853141 ], [ 19.514024, 51.852021 ], [ 19.514028, 51.852019 ], [ 19.514032, 51.852017 ], [ 19.514037, 51.852017 ], [ 19.516123, 51.852008 ], [ 19.516125, 51.852007 ], [ 19.516125, 51.852007 ], [ 19.517156, 51.850883 ], [ 19.517159, 51.850881 ], [ 19.517163, 51.850879 ], [ 19.517168, 51.850879 ], [ 19.519255, 51.850869 ], [ 19.519256, 51.850869 ], [ 19.519257, 51.850869 ], [ 19.520287, 51.849745 ], [ 19.52029, 51.849743 ], [ 19.520295, 51.849741 ], [ 19.520299, 51.849741 ], [ 19.522386, 51.849731 ], [ 19.522387, 51.849731 ], [ 19.522388, 51.849731 ], [ 19.523418, 51.848607 ], [ 19.523421, 51.848605 ], [ 19.523426, 51.848603 ], [ 19.52343, 51.848602 ], [ 19.52551, 51.848593 ], [ 19.525515, 51.848594 ], [ 19.525519, 51.848595 ], [ 19.525522, 51.848598 ], [ 19.526579, 51.849712 ], [ 19.526579, 51.849713 ], [ 19.52658, 51.849713 ], [ 19.528674, 51.849703 ], [ 19.528675, 51.849703 ], [ 19.528676, 51.849703 ], [ 19.529706, 51.848579 ], [ 19.529709, 51.848576 ], [ 19.529713, 51.848575 ], [ 19.529718, 51.848574 ], [ 19.531805, 51.848565 ], [ 19.531806, 51.848565 ], [ 19.531807, 51.848564 ], [ 19.532837, 51.847441 ], [ 19.53284, 51.847438 ], [ 19.532844, 51.847437 ], [ 19.532849, 51.847436 ], [ 19.534928, 51.847427 ], [ 19.534933, 51.847427 ], [ 19.534938, 51.847429 ], [ 19.534941, 51.847431 ], [ 19.535997, 51.848545 ], [ 19.535998, 51.848546 ], [ 19.535999, 51.848546 ], [ 19.538093, 51.848536 ], [ 19.538094, 51.848536 ], [ 19.538095, 51.848536 ], [ 19.539124, 51.847412 ], [ 19.539128, 51.847409 ], [ 19.539132, 51.847408 ], [ 19.539137, 51.847407 ], [ 19.541223, 51.847398 ], [ 19.541224, 51.847398 ], [ 19.541225, 51.847397 ], [ 19.542255, 51.846273 ], [ 19.542258, 51.846271 ], [ 19.542262, 51.846269 ], [ 19.542267, 51.846269 ], [ 19.544353, 51.846259 ], [ 19.544355, 51.846259 ], [ 19.544355, 51.846258 ], [ 19.545385, 51.845134 ], [ 19.545388, 51.845132 ], [ 19.545392, 51.845131 ], [ 19.545397, 51.84513 ], [ 19.547476, 51.84512 ], [ 19.547481, 51.845121 ], [ 19.547486, 51.845122 ], [ 19.547489, 51.845125 ], [ 19.548546, 51.846239 ], [ 19.548547, 51.846239 ], [ 19.548548, 51.84624 ], [ 19.550634, 51.84623 ], [ 19.550639, 51.84623 ], [ 19.550643, 51.846232 ], [ 19.550647, 51.846234 ], [ 19.551703, 51.847348 ], [ 19.551704, 51.847349 ], [ 19.551705, 51.847349 ], [ 19.553791, 51.847339 ], [ 19.553796, 51.84734 ], [ 19.553801, 51.847341 ], [ 19.553804, 51.847344 ], [ 19.554857, 51.848454 ], [ 19.554859, 51.848457 ], [ 19.554859, 51.84846 ], [ 19.554857, 51.848463 ], [ 19.553828, 51.849587 ], [ 19.553828, 51.849588 ], [ 19.553828, 51.849588 ], [ 19.554889, 51.850706 ], [ 19.554889, 51.850707 ], [ 19.554891, 51.850707 ], [ 19.556984, 51.850697 ], [ 19.556985, 51.850697 ], [ 19.556986, 51.850696 ], [ 19.558019, 51.849568 ], [ 19.558019, 51.849568 ], [ 19.558019, 51.849567 ], [ 19.556962, 51.848453 ], [ 19.55696, 51.84845 ], [ 19.55696, 51.848447 ], [ 19.556962, 51.848444 ], [ 19.557988, 51.847324 ], [ 19.557991, 51.847321 ], [ 19.557995, 51.84732 ], [ 19.558, 51.847319 ], [ 19.560086, 51.847309 ], [ 19.560087, 51.847309 ], [ 19.560088, 51.847309 ], [ 19.561117, 51.846185 ], [ 19.561121, 51.846182 ], [ 19.561125, 51.846181 ], [ 19.56113, 51.84618 ], [ 19.563216, 51.84617 ], [ 19.563217, 51.84617 ], [ 19.563218, 51.84617 ], [ 19.564247, 51.845046 ], [ 19.56425, 51.845043 ], [ 19.564255, 51.845042 ], [ 19.56426, 51.845041 ], [ 19.566346, 51.845031 ], [ 19.566347, 51.845031 ], [ 19.566348, 51.84503 ], [ 19.56738, 51.843902 ], [ 19.567381, 51.843902 ], [ 19.56738, 51.843901 ], [ 19.566323, 51.842787 ], [ 19.566321, 51.842784 ], [ 19.566321, 51.842781 ], [ 19.566323, 51.842778 ], [ 19.567352, 51.841654 ], [ 19.567352, 51.841653 ], [ 19.567352, 51.841653 ], [ 19.566295, 51.840539 ], [ 19.566293, 51.840536 ], [ 19.566293, 51.840533 ], [ 19.566295, 51.84053 ], [ 19.56732, 51.83941 ], [ 19.567323, 51.839407 ], [ 19.567328, 51.839406 ], [ 19.567333, 51.839405 ], [ 19.569419, 51.839395 ], [ 19.56942, 51.839395 ], [ 19.56942, 51.839394 ], [ 19.570453, 51.838266 ], [ 19.570453, 51.838266 ], [ 19.570453, 51.838265 ], [ 19.569392, 51.837147 ], [ 19.569391, 51.837147 ], [ 19.56939, 51.837147 ], [ 19.567304, 51.837157 ], [ 19.567299, 51.837156 ], [ 19.567295, 51.837155 ], [ 19.567292, 51.837152 ], [ 19.566235, 51.836038 ], [ 19.566234, 51.836038 ], [ 19.566233, 51.836037 ], [ 19.564147, 51.836048 ], [ 19.564142, 51.836047 ], [ 19.564138, 51.836045 ], [ 19.564135, 51.836043 ], [ 19.563078, 51.834929 ], [ 19.563077, 51.834929 ], [ 19.563076, 51.834928 ], [ 19.56099, 51.834938 ], [ 19.560985, 51.834938 ], [ 19.560981, 51.834936 ], [ 19.560978, 51.834934 ], [ 19.559921, 51.83382 ], [ 19.55992, 51.833819 ], [ 19.559919, 51.833819 ], [ 19.557833, 51.833829 ], [ 19.557828, 51.833829 ], [ 19.557824, 51.833827 ], [ 19.557821, 51.833825 ], [ 19.556764, 51.832711 ], [ 19.556763, 51.83271 ], [ 19.556762, 51.83271 ], [ 19.554677, 51.83272 ], [ 19.554672, 51.832719 ], [ 19.554667, 51.832718 ], [ 19.554664, 51.832715 ], [ 19.553611, 51.831605 ], [ 19.553609, 51.831602 ], [ 19.553609, 51.831599 ], [ 19.553611, 51.831596 ], [ 19.55464, 51.830472 ], [ 19.55464, 51.830471 ], [ 19.55464, 51.830471 ], [ 19.55358, 51.829353 ], [ 19.553579, 51.829352 ], [ 19.553578, 51.829352 ], [ 19.551493, 51.829362 ], [ 19.551488, 51.829361 ], [ 19.551483, 51.82936 ], [ 19.55148, 51.829358 ], [ 19.550427, 51.828247 ], [ 19.550425, 51.828244 ], [ 19.550425, 51.828241 ], [ 19.550427, 51.828238 ], [ 19.551456, 51.827114 ], [ 19.551456, 51.827114 ], [ 19.551456, 51.827113 ], [ 19.5504, 51.825999 ], [ 19.550398, 51.825996 ], [ 19.550398, 51.825993 ], [ 19.5504, 51.82599 ], [ 19.551429, 51.824866 ], [ 19.551429, 51.824865 ], [ 19.551429, 51.824865 ], [ 19.550372, 51.82375 ], [ 19.550371, 51.823748 ], [ 19.550371, 51.823744 ], [ 19.550372, 51.823742 ], [ 19.551401, 51.822618 ], [ 19.551402, 51.822617 ], [ 19.551401, 51.822616 ], [ 19.550345, 51.821502 ], [ 19.550343, 51.821499 ], [ 19.550343, 51.821496 ], [ 19.550345, 51.821493 ], [ 19.551374, 51.820369 ], [ 19.551374, 51.820369 ], [ 19.551374, 51.820368 ], [ 19.550318, 51.819254 ], [ 19.550316, 51.819251 ], [ 19.550316, 51.819248 ], [ 19.550317, 51.819245 ], [ 19.551346, 51.818121 ], [ 19.551347, 51.81812 ], [ 19.551346, 51.818119 ], [ 19.55029, 51.817005 ], [ 19.550288, 51.817002 ], [ 19.550288, 51.816999 ], [ 19.55029, 51.816996 ], [ 19.551315, 51.815876 ], [ 19.551319, 51.815874 ], [ 19.551323, 51.815872 ], [ 19.551328, 51.815872 ], [ 19.553413, 51.815862 ], [ 19.553414, 51.815862 ], [ 19.553415, 51.815861 ], [ 19.554447, 51.814734 ], [ 19.554447, 51.814733 ], [ 19.554447, 51.814732 ], [ 19.553391, 51.813618 ], [ 19.553389, 51.813615 ], [ 19.553389, 51.813612 ], [ 19.55339, 51.813609 ], [ 19.554416, 51.812489 ], [ 19.554419, 51.812487 ], [ 19.554423, 51.812485 ], [ 19.554428, 51.812484 ], [ 19.556513, 51.812475 ], [ 19.556514, 51.812474 ], [ 19.556515, 51.812474 ], [ 19.557543, 51.81135 ], [ 19.557546, 51.811348 ], [ 19.557551, 51.811346 ], [ 19.557556, 51.811345 ], [ 19.55964, 51.811335 ], [ 19.559641, 51.811335 ], [ 19.559642, 51.811335 ], [ 19.560671, 51.810211 ], [ 19.560674, 51.810208 ], [ 19.560678, 51.810207 ], [ 19.560683, 51.810206 ], [ 19.56276, 51.810196 ], [ 19.562765, 51.810197 ], [ 19.56277, 51.810198 ], [ 19.562773, 51.810201 ], [ 19.563829, 51.811315 ], [ 19.56383, 51.811315 ], [ 19.563831, 51.811315 ], [ 19.565916, 51.811305 ], [ 19.565921, 51.811306 ], [ 19.565925, 51.811307 ], [ 19.565928, 51.81131 ], [ 19.566985, 51.812424 ], [ 19.566986, 51.812424 ], [ 19.566987, 51.812425 ], [ 19.569071, 51.812414 ], [ 19.569076, 51.812415 ], [ 19.569081, 51.812417 ], [ 19.569084, 51.812419 ], [ 19.570137, 51.813529 ], [ 19.570139, 51.813532 ], [ 19.570139, 51.813535 ], [ 19.570137, 51.813538 ], [ 19.569109, 51.814662 ], [ 19.569108, 51.814663 ], [ 19.569109, 51.814663 ], [ 19.570169, 51.815781 ], [ 19.57017, 51.815782 ], [ 19.570171, 51.815782 ], [ 19.572263, 51.815772 ], [ 19.572264, 51.815772 ], [ 19.572264, 51.815771 ], [ 19.573293, 51.814647 ], [ 19.573296, 51.814645 ], [ 19.5733, 51.814643 ], [ 19.573305, 51.814642 ], [ 19.575383, 51.814632 ], [ 19.575388, 51.814633 ], [ 19.575392, 51.814634 ], [ 19.575395, 51.814637 ], [ 19.576452, 51.815751 ], [ 19.576453, 51.815751 ], [ 19.576454, 51.815751 ], [ 19.578539, 51.815741 ], [ 19.578544, 51.815742 ], [ 19.578548, 51.815743 ], [ 19.578551, 51.815745 ], [ 19.579608, 51.816859 ], [ 19.579609, 51.81686 ], [ 19.57961, 51.81686 ], [ 19.581695, 51.81685 ], [ 19.5817, 51.81685 ], [ 19.581704, 51.816852 ], [ 19.581708, 51.816854 ], [ 19.582764, 51.817968 ], [ 19.582765, 51.817969 ], [ 19.582766, 51.817969 ], [ 19.584858, 51.817958 ], [ 19.584859, 51.817958 ], [ 19.58486, 51.817958 ], [ 19.585888, 51.816833 ], [ 19.585891, 51.816831 ], [ 19.585896, 51.816829 ], [ 19.585901, 51.816829 ], [ 19.587978, 51.816818 ], [ 19.587983, 51.816819 ], [ 19.587988, 51.816821 ], [ 19.587991, 51.816823 ], [ 19.589048, 51.817937 ], [ 19.589049, 51.817937 ], [ 19.58905, 51.817937 ], [ 19.591142, 51.817927 ], [ 19.591143, 51.817927 ], [ 19.591144, 51.817926 ], [ 19.592172, 51.816802 ], [ 19.592175, 51.8168 ], [ 19.592179, 51.816798 ], [ 19.592184, 51.816797 ], [ 19.594269, 51.816787 ], [ 19.59427, 51.816787 ], [ 19.594271, 51.816786 ], [ 19.595298, 51.815662 ], [ 19.595302, 51.815659 ], [ 19.595306, 51.815658 ], [ 19.595311, 51.815657 ], [ 19.597389, 51.815647 ], [ 19.597394, 51.815647 ], [ 19.597398, 51.815649 ], [ 19.597401, 51.815651 ], [ 19.598458, 51.816765 ], [ 19.598459, 51.816765 ], [ 19.59846, 51.816766 ], [ 19.600552, 51.816755 ], [ 19.600553, 51.816755 ], [ 19.600554, 51.816754 ], [ 19.601582, 51.81563 ], [ 19.601585, 51.815628 ], [ 19.601589, 51.815626 ], [ 19.601594, 51.815625 ], [ 19.603672, 51.815615 ], [ 19.603677, 51.815615 ], [ 19.603681, 51.815617 ], [ 19.603685, 51.815619 ], [ 19.604742, 51.816733 ], [ 19.604743, 51.816733 ], [ 19.604744, 51.816733 ], [ 19.606836, 51.816723 ], [ 19.606837, 51.816723 ], [ 19.606838, 51.816722 ], [ 19.607865, 51.815598 ], [ 19.607868, 51.815595 ], [ 19.607873, 51.815594 ], [ 19.607877, 51.815593 ], [ 19.609962, 51.815582 ], [ 19.609963, 51.815582 ], [ 19.609964, 51.815582 ], [ 19.610991, 51.814457 ], [ 19.610995, 51.814455 ], [ 19.610999, 51.814453 ], [ 19.611004, 51.814453 ], [ 19.613081, 51.814442 ], [ 19.613086, 51.814442 ], [ 19.613091, 51.814444 ], [ 19.613094, 51.814446 ], [ 19.614152, 51.81556 ], [ 19.614152, 51.81556 ], [ 19.614154, 51.81556 ], [ 19.616245, 51.815549 ], [ 19.616247, 51.815549 ], [ 19.616247, 51.815549 ], [ 19.617278, 51.814421 ], [ 19.617278, 51.81442 ], [ 19.617278, 51.814419 ], [ 19.61622, 51.813306 ], [ 19.616219, 51.813303 ], [ 19.616219, 51.8133 ], [ 19.61622, 51.813297 ], [ 19.617247, 51.812172 ], [ 19.617248, 51.812171 ], [ 19.617247, 51.812171 ], [ 19.61619, 51.811057 ], [ 19.616188, 51.811054 ], [ 19.616188, 51.811051 ], [ 19.61619, 51.811048 ], [ 19.617217, 51.809924 ], [ 19.617217, 51.809923 ], [ 19.617217, 51.809922 ], [ 19.616159, 51.808809 ], [ 19.616157, 51.808806 ], [ 19.616157, 51.808803 ], [ 19.616159, 51.8088 ], [ 19.617186, 51.807675 ], [ 19.617186, 51.807675 ], [ 19.617186, 51.807674 ], [ 19.616128, 51.806561 ], [ 19.616127, 51.806558 ], [ 19.616127, 51.806554 ], [ 19.616128, 51.806552 ], [ 19.617155, 51.805427 ], [ 19.617156, 51.805426 ], [ 19.617155, 51.805426 ], [ 19.616098, 51.804312 ], [ 19.616096, 51.804309 ], [ 19.616096, 51.804306 ], [ 19.616098, 51.804303 ], [ 19.617121, 51.803183 ], [ 19.617124, 51.80318 ], [ 19.617128, 51.803179 ], [ 19.617133, 51.803178 ], [ 19.619218, 51.803167 ], [ 19.619219, 51.803167 ], [ 19.61922, 51.803166 ], [ 19.62025, 51.802038 ], [ 19.62025, 51.802037 ], [ 19.62025, 51.802037 ], [ 19.619192, 51.800923 ], [ 19.619191, 51.80092 ], [ 19.619191, 51.800917 ], [ 19.619192, 51.800914 ], [ 19.620219, 51.79979 ], [ 19.620219, 51.799789 ], [ 19.620219, 51.799788 ], [ 19.619162, 51.798675 ], [ 19.61916, 51.798672 ], [ 19.61916, 51.798669 ], [ 19.619161, 51.798666 ], [ 19.620188, 51.797541 ], [ 19.620188, 51.797541 ], [ 19.620188, 51.79754 ], [ 19.619131, 51.796426 ], [ 19.619129, 51.796423 ], [ 19.619129, 51.79642 ], [ 19.619131, 51.796417 ], [ 19.620157, 51.795293 ], [ 19.620158, 51.795292 ], [ 19.620157, 51.795292 ], [ 19.6191, 51.794178 ], [ 19.619098, 51.794175 ], [ 19.619098, 51.794172 ], [ 19.6191, 51.794169 ], [ 19.620123, 51.793048 ], [ 19.620126, 51.793046 ], [ 19.62013, 51.793044 ], [ 19.620135, 51.793044 ], [ 19.622219, 51.793033 ], [ 19.62222, 51.793033 ], [ 19.622221, 51.793032 ], [ 19.623251, 51.791904 ], [ 19.623251, 51.791903 ], [ 19.623251, 51.791902 ], [ 19.62219, 51.790785 ], [ 19.622189, 51.790785 ], [ 19.622188, 51.790784 ], [ 19.620105, 51.790795 ], [ 19.6201, 51.790795 ], [ 19.620095, 51.790793 ], [ 19.620092, 51.790791 ], [ 19.619038, 51.789681 ], [ 19.619037, 51.789678 ], [ 19.619037, 51.789675 ], [ 19.619038, 51.789672 ], [ 19.620065, 51.788548 ], [ 19.620065, 51.788547 ], [ 19.620065, 51.788546 ], [ 19.619008, 51.787433 ], [ 19.619006, 51.78743 ], [ 19.619006, 51.787427 ], [ 19.619007, 51.787424 ], [ 19.620034, 51.786299 ], [ 19.620034, 51.786299 ], [ 19.620034, 51.786298 ], [ 19.618977, 51.785185 ], [ 19.618975, 51.785182 ], [ 19.618975, 51.785179 ], [ 19.618977, 51.785176 ], [ 19.620003, 51.784051 ], [ 19.620003, 51.78405 ], [ 19.620003, 51.78405 ], [ 19.618946, 51.782936 ], [ 19.618944, 51.782933 ], [ 19.618944, 51.78293 ], [ 19.618946, 51.782927 ], [ 19.619972, 51.781803 ], [ 19.619973, 51.781802 ], [ 19.619972, 51.781801 ], [ 19.618912, 51.780684 ], [ 19.618911, 51.780684 ], [ 19.61891, 51.780683 ], [ 19.616827, 51.780694 ], [ 19.616822, 51.780694 ], [ 19.616817, 51.780692 ], [ 19.616814, 51.78069 ], [ 19.615757, 51.779576 ], [ 19.615756, 51.779576 ], [ 19.615755, 51.779576 ], [ 19.613672, 51.779587 ], [ 19.613667, 51.779586 ], [ 19.613663, 51.779585 ], [ 19.61366, 51.779582 ], [ 19.612606, 51.778472 ], [ 19.612605, 51.778469 ], [ 19.612605, 51.778466 ], [ 19.612606, 51.778463 ], [ 19.613629, 51.777343 ], [ 19.613632, 51.77734 ], [ 19.613637, 51.777339 ], [ 19.613642, 51.777338 ], [ 19.615725, 51.777327 ], [ 19.615726, 51.777327 ], [ 19.615727, 51.777327 ], [ 19.616756, 51.776198 ], [ 19.616757, 51.776198 ], [ 19.616756, 51.776197 ], [ 19.6157, 51.775083 ], [ 19.615698, 51.775081 ], [ 19.615698, 51.775077 ], [ 19.615699, 51.775074 ], [ 19.616722, 51.773954 ], [ 19.616725, 51.773951 ], [ 19.61673, 51.77395 ], [ 19.616735, 51.773949 ], [ 19.618818, 51.773938 ], [ 19.618819, 51.773938 ], [ 19.618819, 51.773938 ], [ 19.619845, 51.772813 ], [ 19.619849, 51.772811 ], [ 19.619853, 51.772809 ], [ 19.619858, 51.772809 ], [ 19.621941, 51.772798 ], [ 19.621942, 51.772797 ], [ 19.621943, 51.772797 ], [ 19.622972, 51.771669 ], [ 19.622973, 51.771668 ], [ 19.622972, 51.771667 ], [ 19.621915, 51.770554 ], [ 19.621914, 51.770551 ], [ 19.621914, 51.770548 ], [ 19.621915, 51.770545 ], [ 19.622938, 51.769424 ], [ 19.622941, 51.769422 ], [ 19.622945, 51.76942 ], [ 19.62295, 51.769419 ], [ 19.625033, 51.769408 ], [ 19.625034, 51.769408 ], [ 19.625035, 51.769408 ], [ 19.626064, 51.768279 ], [ 19.626064, 51.768279 ], [ 19.626064, 51.768278 ], [ 19.625007, 51.767164 ], [ 19.625006, 51.767162 ], [ 19.625005, 51.767158 ], [ 19.625007, 51.767155 ], [ 19.626033, 51.766031 ], [ 19.626033, 51.76603 ], [ 19.626033, 51.76603 ], [ 19.624973, 51.764912 ], [ 19.624972, 51.764912 ], [ 19.624971, 51.764912 ], [ 19.622888, 51.764923 ], [ 19.622883, 51.764922 ], [ 19.622879, 51.764921 ], [ 19.622876, 51.764918 ], [ 19.621819, 51.763805 ], [ 19.621818, 51.763804 ], [ 19.621817, 51.763804 ], [ 19.619735, 51.763815 ], [ 19.61973, 51.763815 ], [ 19.619725, 51.763813 ], [ 19.619722, 51.763811 ], [ 19.618669, 51.762701 ], [ 19.618668, 51.762698 ], [ 19.618668, 51.762695 ], [ 19.618669, 51.762692 ], [ 19.619692, 51.761571 ], [ 19.619695, 51.761569 ], [ 19.619699, 51.761567 ], [ 19.619704, 51.761567 ], [ 19.621786, 51.761556 ], [ 19.621787, 51.761556 ], [ 19.621788, 51.761555 ], [ 19.622814, 51.76043 ], [ 19.622817, 51.760428 ], [ 19.622821, 51.760426 ], [ 19.622826, 51.760426 ], [ 19.624909, 51.760415 ], [ 19.62491, 51.760415 ], [ 19.624911, 51.760414 ], [ 19.62594, 51.759286 ], [ 19.62594, 51.759285 ], [ 19.62594, 51.759284 ], [ 19.624883, 51.758171 ], [ 19.624881, 51.758168 ], [ 19.624881, 51.758165 ], [ 19.624883, 51.758162 ], [ 19.625905, 51.757041 ], [ 19.625908, 51.757039 ], [ 19.625913, 51.757037 ], [ 19.625918, 51.757037 ], [ 19.628, 51.757026 ], [ 19.628001, 51.757025 ], [ 19.628002, 51.757025 ], [ 19.629027, 51.7559 ], [ 19.62903, 51.755898 ], [ 19.629035, 51.755896 ], [ 19.629039, 51.755896 ], [ 19.631114, 51.755885 ], [ 19.631119, 51.755885 ], [ 19.631124, 51.755887 ], [ 19.631127, 51.755889 ], [ 19.632184, 51.757002 ], [ 19.632184, 51.757003 ], [ 19.632186, 51.757003 ], [ 19.634275, 51.756992 ], [ 19.634276, 51.756992 ], [ 19.634277, 51.756991 ], [ 19.635302, 51.755867 ], [ 19.635305, 51.755864 ], [ 19.635309, 51.755863 ], [ 19.635314, 51.755862 ], [ 19.637389, 51.755851 ], [ 19.637394, 51.755851 ], [ 19.637399, 51.755853 ], [ 19.637402, 51.755855 ], [ 19.638459, 51.756969 ], [ 19.638459, 51.756969 ], [ 19.638461, 51.756969 ], [ 19.64055, 51.756958 ], [ 19.640551, 51.756958 ], [ 19.640552, 51.756957 ], [ 19.64158, 51.755829 ], [ 19.641581, 51.755828 ], [ 19.64158, 51.755827 ], [ 19.640523, 51.754714 ], [ 19.640522, 51.754711 ], [ 19.640522, 51.754708 ], [ 19.640523, 51.754705 ], [ 19.641548, 51.75358 ], [ 19.641549, 51.75358 ], [ 19.641548, 51.753579 ], [ 19.640488, 51.752462 ], [ 19.640487, 51.752461 ], [ 19.640486, 51.752461 ], [ 19.638404, 51.752472 ], [ 19.638399, 51.752472 ], [ 19.638395, 51.75247 ], [ 19.638392, 51.752468 ], [ 19.637335, 51.751355 ], [ 19.637334, 51.751354 ], [ 19.637333, 51.751354 ], [ 19.635251, 51.751365 ], [ 19.635246, 51.751365 ], [ 19.635242, 51.751363 ], [ 19.635239, 51.751361 ], [ 19.634182, 51.750247 ], [ 19.634181, 51.750247 ], [ 19.63418, 51.750247 ], [ 19.632098, 51.750258 ], [ 19.632094, 51.750257 ], [ 19.632089, 51.750256 ], [ 19.632086, 51.750254 ], [ 19.631033, 51.749144 ], [ 19.631031, 51.749141 ], [ 19.631031, 51.749138 ], [ 19.631033, 51.749135 ], [ 19.632058, 51.74801 ], [ 19.632058, 51.74801 ], [ 19.632058, 51.748009 ], [ 19.631002, 51.746896 ], [ 19.631, 51.746893 ], [ 19.631, 51.74689 ], [ 19.631002, 51.746887 ], [ 19.632027, 51.745762 ], [ 19.632027, 51.745761 ], [ 19.632027, 51.745761 ], [ 19.63097, 51.744647 ], [ 19.630969, 51.744644 ], [ 19.630969, 51.744641 ], [ 19.63097, 51.744638 ], [ 19.631995, 51.743514 ], [ 19.631996, 51.743513 ], [ 19.631995, 51.743512 ], [ 19.630939, 51.742399 ], [ 19.630937, 51.742396 ], [ 19.630937, 51.742393 ], [ 19.630939, 51.74239 ], [ 19.631964, 51.741265 ], [ 19.631964, 51.741265 ], [ 19.631964, 51.741264 ], [ 19.630908, 51.74015 ], [ 19.630906, 51.740148 ], [ 19.630906, 51.740144 ], [ 19.630908, 51.740141 ], [ 19.631933, 51.739017 ], [ 19.631933, 51.739016 ], [ 19.631933, 51.739015 ], [ 19.630876, 51.737902 ], [ 19.630875, 51.737899 ], [ 19.630875, 51.737896 ], [ 19.630876, 51.737893 ], [ 19.631901, 51.736768 ], [ 19.631902, 51.736768 ], [ 19.631901, 51.736767 ], [ 19.630845, 51.735654 ], [ 19.630843, 51.735651 ], [ 19.630843, 51.735648 ], [ 19.630845, 51.735645 ], [ 19.63187, 51.73452 ], [ 19.63187, 51.734519 ], [ 19.63187, 51.734519 ], [ 19.630814, 51.733405 ], [ 19.630812, 51.733402 ], [ 19.630812, 51.733399 ], [ 19.630814, 51.733396 ], [ 19.631839, 51.732272 ], [ 19.631839, 51.732271 ], [ 19.631839, 51.73227 ], [ 19.630782, 51.731157 ], [ 19.630781, 51.731154 ], [ 19.630781, 51.731151 ], [ 19.630782, 51.731148 ], [ 19.631807, 51.730023 ], [ 19.631808, 51.730023 ], [ 19.631807, 51.730022 ], [ 19.630751, 51.728909 ], [ 19.630749, 51.728906 ], [ 19.630749, 51.728902 ], [ 19.630751, 51.7289 ], [ 19.631776, 51.727775 ], [ 19.631776, 51.727774 ], [ 19.631776, 51.727774 ], [ 19.63072, 51.72666 ], [ 19.630718, 51.726657 ], [ 19.630718, 51.726654 ], [ 19.63072, 51.726651 ], [ 19.631745, 51.725527 ], [ 19.631745, 51.725526 ], [ 19.631744, 51.725525 ], [ 19.630689, 51.724412 ], [ 19.630687, 51.724409 ], [ 19.630687, 51.724406 ], [ 19.630688, 51.724403 ], [ 19.631713, 51.723278 ], [ 19.631714, 51.723277 ], [ 19.631713, 51.723277 ], [ 19.630654, 51.72216 ], [ 19.630653, 51.722159 ], [ 19.630652, 51.722159 ], [ 19.628571, 51.72217 ], [ 19.628566, 51.72217 ], [ 19.628562, 51.722168 ], [ 19.628559, 51.722166 ], [ 19.627507, 51.721056 ], [ 19.627505, 51.721053 ], [ 19.627505, 51.72105 ], [ 19.627507, 51.721047 ], [ 19.628531, 51.719922 ], [ 19.628532, 51.719922 ], [ 19.628531, 51.719921 ], [ 19.627476, 51.718808 ], [ 19.627474, 51.718805 ], [ 19.627474, 51.718802 ], [ 19.627475, 51.718799 ], [ 19.6285, 51.717674 ], [ 19.6285, 51.717673 ], [ 19.6285, 51.717673 ], [ 19.627441, 51.716555 ], [ 19.62744, 51.716555 ], [ 19.627439, 51.716555 ], [ 19.625359, 51.716566 ], [ 19.625354, 51.716565 ], [ 19.625349, 51.716564 ], [ 19.625346, 51.716561 ], [ 19.624294, 51.715452 ], [ 19.624292, 51.715449 ], [ 19.624292, 51.715446 ], [ 19.624294, 51.715443 ], [ 19.625319, 51.714318 ], [ 19.625319, 51.714317 ], [ 19.625319, 51.714317 ], [ 19.62426, 51.7132 ], [ 19.624259, 51.713199 ], [ 19.624258, 51.713199 ], [ 19.622178, 51.71321 ], [ 19.622173, 51.713209 ], [ 19.622168, 51.713208 ], [ 19.622165, 51.713205 ], [ 19.621113, 51.712096 ], [ 19.621112, 51.712093 ], [ 19.621111, 51.71209 ], [ 19.621113, 51.712087 ], [ 19.622138, 51.710962 ], [ 19.622138, 51.710962 ], [ 19.622138, 51.710961 ], [ 19.621079, 51.709844 ], [ 19.621078, 51.709843 ], [ 19.621077, 51.709843 ], [ 19.618997, 51.709854 ], [ 19.618992, 51.709853 ], [ 19.618988, 51.709852 ], [ 19.618984, 51.709849 ], [ 19.617933, 51.70874 ], [ 19.617931, 51.708737 ], [ 19.617931, 51.708734 ], [ 19.617933, 51.708731 ], [ 19.618957, 51.707606 ], [ 19.618958, 51.707605 ], [ 19.618957, 51.707605 ], [ 19.617899, 51.706487 ], [ 19.617898, 51.706487 ], [ 19.617897, 51.706487 ], [ 19.615817, 51.706498 ], [ 19.615812, 51.706497 ], [ 19.615808, 51.706496 ], [ 19.615804, 51.706493 ], [ 19.614753, 51.705384 ], [ 19.614751, 51.705381 ], [ 19.614751, 51.705377 ], [ 19.614753, 51.705375 ], [ 19.615778, 51.70425 ], [ 19.615778, 51.704249 ], [ 19.615777, 51.704249 ], [ 19.614719, 51.703131 ], [ 19.614718, 51.703131 ], [ 19.614717, 51.703131 ], [ 19.612637, 51.703142 ], [ 19.612632, 51.703141 ], [ 19.612628, 51.703139 ], [ 19.612625, 51.703137 ], [ 19.611574, 51.702027 ], [ 19.611572, 51.702024 ], [ 19.611572, 51.702021 ], [ 19.611573, 51.702018 ], [ 19.612598, 51.700894 ], [ 19.612598, 51.700893 ], [ 19.612598, 51.700892 ], [ 19.611543, 51.699779 ], [ 19.611541, 51.699776 ], [ 19.611541, 51.699773 ], [ 19.611543, 51.69977 ], [ 19.612568, 51.698645 ], [ 19.612568, 51.698645 ], [ 19.612568, 51.698644 ], [ 19.611509, 51.697527 ], [ 19.611509, 51.697526 ], [ 19.611507, 51.697526 ], [ 19.609428, 51.697537 ], [ 19.609423, 51.697536 ], [ 19.609419, 51.697535 ], [ 19.609415, 51.697532 ], [ 19.608361, 51.696419 ], [ 19.60836, 51.696418 ], [ 19.608359, 51.696418 ], [ 19.606272, 51.696429 ], [ 19.606271, 51.696429 ], [ 19.606271, 51.69643 ], [ 19.605242, 51.697558 ], [ 19.605242, 51.697558 ], [ 19.605242, 51.697559 ], [ 19.606297, 51.698673 ], [ 19.606299, 51.698676 ], [ 19.606299, 51.698679 ], [ 19.606297, 51.698682 ], [ 19.605276, 51.699802 ], [ 19.605273, 51.699805 ], [ 19.605268, 51.699806 ], [ 19.605263, 51.699807 ], [ 19.603191, 51.699818 ], [ 19.603186, 51.699817 ], [ 19.603182, 51.699815 ], [ 19.603178, 51.699813 ], [ 19.602127, 51.698703 ], [ 19.602126, 51.6987 ], [ 19.602126, 51.698697 ], [ 19.602127, 51.698694 ], [ 19.603152, 51.69757 ], [ 19.603153, 51.697569 ], [ 19.603152, 51.697569 ], [ 19.602094, 51.696451 ], [ 19.602093, 51.69645 ], [ 19.602092, 51.69645 ], [ 19.600013, 51.696461 ], [ 19.600008, 51.69646 ], [ 19.600004, 51.696459 ], [ 19.6, 51.696457 ], [ 19.598946, 51.695343 ], [ 19.598945, 51.695342 ], [ 19.598944, 51.695342 ], [ 19.596858, 51.695353 ], [ 19.596856, 51.695353 ], [ 19.596856, 51.695353 ], [ 19.595827, 51.696482 ], [ 19.595827, 51.696482 ], [ 19.595827, 51.696483 ], [ 19.596882, 51.697597 ], [ 19.596883, 51.6976 ], [ 19.596883, 51.697603 ], [ 19.596882, 51.697606 ], [ 19.59586, 51.698726 ], [ 19.595857, 51.698729 ], [ 19.595853, 51.69873 ], [ 19.595848, 51.698731 ], [ 19.593768, 51.698741 ], [ 19.593767, 51.698741 ], [ 19.593767, 51.698742 ], [ 19.592741, 51.699866 ], [ 19.592738, 51.699869 ], [ 19.592734, 51.69987 ], [ 19.592729, 51.699871 ], [ 19.59065, 51.699881 ], [ 19.590648, 51.699881 ], [ 19.590648, 51.699882 ], [ 19.589622, 51.701006 ], [ 19.589619, 51.701009 ], [ 19.589615, 51.70101 ], [ 19.58961, 51.701011 ], [ 19.58753, 51.701021 ], [ 19.587529, 51.701021 ], [ 19.587529, 51.701022 ], [ 19.5865, 51.70215 ], [ 19.586499, 51.702151 ], [ 19.5865, 51.702151 ], [ 19.587554, 51.703265 ], [ 19.587556, 51.703268 ], [ 19.587556, 51.703271 ], [ 19.587554, 51.703274 ], [ 19.586532, 51.704395 ], [ 19.586529, 51.704397 ], [ 19.586525, 51.704398 ], [ 19.58652, 51.704399 ], [ 19.584447, 51.704409 ], [ 19.584442, 51.704409 ], [ 19.584438, 51.704407 ], [ 19.584435, 51.704405 ], [ 19.583384, 51.703295 ], [ 19.583382, 51.703292 ], [ 19.583382, 51.703289 ], [ 19.583384, 51.703286 ], [ 19.584409, 51.702162 ], [ 19.58441, 51.702161 ], [ 19.584409, 51.70216 ], [ 19.583352, 51.701043 ], [ 19.583351, 51.701042 ], [ 19.58335, 51.701042 ], [ 19.581263, 51.701052 ], [ 19.581262, 51.701052 ], [ 19.581261, 51.701053 ], [ 19.580236, 51.702177 ], [ 19.580233, 51.70218 ], [ 19.580228, 51.702181 ], [ 19.580223, 51.702182 ], [ 19.578144, 51.702192 ], [ 19.578143, 51.702192 ], [ 19.578142, 51.702193 ], [ 19.577116, 51.703317 ], [ 19.577113, 51.703319 ], [ 19.577109, 51.703321 ], [ 19.577104, 51.703321 ], [ 19.575024, 51.703332 ], [ 19.575023, 51.703332 ], [ 19.575022, 51.703332 ], [ 19.573997, 51.704456 ], [ 19.573993, 51.704459 ], [ 19.573989, 51.70446 ], [ 19.573984, 51.704461 ], [ 19.571912, 51.704471 ], [ 19.571907, 51.704471 ], [ 19.571902, 51.704469 ], [ 19.571899, 51.704467 ], [ 19.570845, 51.703353 ], [ 19.570844, 51.703352 ], [ 19.570843, 51.703352 ], [ 19.568764, 51.703362 ], [ 19.568759, 51.703362 ], [ 19.568754, 51.70336 ], [ 19.568751, 51.703358 ], [ 19.567697, 51.702244 ], [ 19.567696, 51.702243 ], [ 19.567695, 51.702243 ], [ 19.565616, 51.702253 ], [ 19.565611, 51.702252 ], [ 19.565606, 51.702251 ], [ 19.565603, 51.702249 ], [ 19.564553, 51.701138 ], [ 19.564551, 51.701135 ], [ 19.564551, 51.701132 ], [ 19.564553, 51.701129 ], [ 19.565579, 51.700005 ], [ 19.565579, 51.700005 ], [ 19.565579, 51.700004 ], [ 19.564521, 51.698886 ], [ 19.564521, 51.698886 ], [ 19.564519, 51.698885 ], [ 19.56244, 51.698895 ], [ 19.562435, 51.698895 ], [ 19.562431, 51.698893 ], [ 19.562427, 51.698891 ], [ 19.561378, 51.697781 ], [ 19.561376, 51.697778 ], [ 19.561376, 51.697775 ], [ 19.561377, 51.697772 ], [ 19.562403, 51.696648 ], [ 19.562404, 51.696647 ], [ 19.562403, 51.696646 ], [ 19.561346, 51.695528 ], [ 19.561345, 51.695528 ], [ 19.561344, 51.695528 ], [ 19.559265, 51.695538 ], [ 19.55926, 51.695537 ], [ 19.559256, 51.695536 ], [ 19.559252, 51.695533 ], [ 19.558199, 51.694419 ], [ 19.558198, 51.694419 ], [ 19.558197, 51.694419 ], [ 19.556111, 51.694428 ], [ 19.55611, 51.694429 ], [ 19.556109, 51.694429 ], [ 19.555083, 51.695553 ], [ 19.55508, 51.695555 ], [ 19.555075, 51.695557 ], [ 19.55507, 51.695558 ], [ 19.552998, 51.695567 ], [ 19.552993, 51.695567 ], [ 19.552989, 51.695565 ], [ 19.552986, 51.695563 ], [ 19.551932, 51.694449 ], [ 19.551932, 51.694448 ], [ 19.551931, 51.694448 ], [ 19.549844, 51.694458 ], [ 19.549843, 51.694458 ], [ 19.549842, 51.694459 ], [ 19.548816, 51.695583 ], [ 19.548813, 51.695585 ], [ 19.548809, 51.695587 ], [ 19.548804, 51.695587 ], [ 19.546732, 51.695597 ], [ 19.546727, 51.695596 ], [ 19.546722, 51.695595 ], [ 19.546719, 51.695592 ], [ 19.545666, 51.694478 ], [ 19.545665, 51.694478 ], [ 19.545664, 51.694477 ], [ 19.543585, 51.694487 ], [ 19.54358, 51.694487 ], [ 19.543575, 51.694485 ], [ 19.543572, 51.694483 ], [ 19.542519, 51.693368 ], [ 19.542518, 51.693368 ], [ 19.542517, 51.693368 ], [ 19.540431, 51.693377 ], [ 19.54043, 51.693377 ], [ 19.540429, 51.693378 ], [ 19.539403, 51.694502 ], [ 19.5394, 51.694504 ], [ 19.539395, 51.694506 ], [ 19.53939, 51.694506 ], [ 19.537318, 51.694516 ], [ 19.537313, 51.694515 ], [ 19.537309, 51.694514 ], [ 19.537306, 51.694511 ], [ 19.536256, 51.693401 ], [ 19.536255, 51.693398 ], [ 19.536255, 51.693395 ], [ 19.536256, 51.693392 ], [ 19.537283, 51.692268 ], [ 19.537283, 51.692267 ], [ 19.537283, 51.692267 ], [ 19.536226, 51.691149 ], [ 19.536225, 51.691148 ], [ 19.536224, 51.691148 ], [ 19.534145, 51.691158 ], [ 19.53414, 51.691157 ], [ 19.534136, 51.691155 ], [ 19.534133, 51.691153 ], [ 19.53308, 51.690039 ], [ 19.533079, 51.690038 ], [ 19.533078, 51.690038 ], [ 19.530999, 51.690048 ], [ 19.530994, 51.690047 ], [ 19.53099, 51.690045 ], [ 19.530986, 51.690043 ], [ 19.529934, 51.688929 ], [ 19.529933, 51.688928 ], [ 19.529932, 51.688928 ], [ 19.527853, 51.688937 ], [ 19.527848, 51.688937 ], [ 19.527844, 51.688935 ], [ 19.52784, 51.688933 ], [ 19.526788, 51.687819 ], [ 19.526787, 51.687818 ], [ 19.526786, 51.687818 ], [ 19.5247, 51.687827 ], [ 19.524699, 51.687827 ], [ 19.524698, 51.687828 ], [ 19.523672, 51.688952 ], [ 19.523668, 51.688954 ], [ 19.523664, 51.688956 ], [ 19.523659, 51.688956 ], [ 19.521587, 51.688965 ], [ 19.521582, 51.688965 ], [ 19.521578, 51.688963 ], [ 19.521575, 51.688961 ], [ 19.520522, 51.687847 ], [ 19.520522, 51.687846 ], [ 19.52052, 51.687846 ], [ 19.518434, 51.687855 ], [ 19.518433, 51.687855 ], [ 19.518433, 51.687856 ], [ 19.517406, 51.688979 ], [ 19.517403, 51.688982 ], [ 19.517398, 51.688983 ], [ 19.517393, 51.688984 ], [ 19.515314, 51.688993 ], [ 19.515313, 51.688993 ], [ 19.515312, 51.688994 ], [ 19.514282, 51.690121 ], [ 19.514282, 51.690122 ], [ 19.514282, 51.690123 ], [ 19.515334, 51.691237 ], [ 19.515336, 51.69124 ], [ 19.515336, 51.691243 ], [ 19.515335, 51.691246 ], [ 19.514311, 51.692366 ], [ 19.514308, 51.692368 ], [ 19.514304, 51.69237 ], [ 19.514299, 51.69237 ], [ 19.51222, 51.692379 ], [ 19.512218, 51.69238 ], [ 19.512218, 51.69238 ], [ 19.511187, 51.693508 ], [ 19.511187, 51.693508 ], [ 19.511187, 51.693509 ], [ 19.512239, 51.694623 ], [ 19.512241, 51.694626 ], [ 19.512241, 51.694629 ], [ 19.51224, 51.694632 ], [ 19.511216, 51.695752 ], [ 19.511213, 51.695755 ], [ 19.511208, 51.695756 ], [ 19.511204, 51.695757 ], [ 19.509124, 51.695766 ], [ 19.509123, 51.695766 ], [ 19.509122, 51.695766 ], [ 19.508095, 51.69689 ], [ 19.508092, 51.696892 ], [ 19.508088, 51.696894 ], [ 19.508083, 51.696895 ], [ 19.50601, 51.696903 ], [ 19.506006, 51.696903 ], [ 19.506001, 51.696901 ], [ 19.505998, 51.696899 ], [ 19.504946, 51.695784 ], [ 19.504945, 51.695784 ], [ 19.504944, 51.695784 ], [ 19.502857, 51.695793 ], [ 19.502856, 51.695793 ], [ 19.502856, 51.695793 ], [ 19.501828, 51.696917 ], [ 19.501825, 51.696919 ], [ 19.501821, 51.696921 ], [ 19.501816, 51.696921 ], [ 19.499744, 51.69693 ], [ 19.499739, 51.69693 ], [ 19.499734, 51.696928 ], [ 19.499731, 51.696926 ], [ 19.498679, 51.695811 ], [ 19.498678, 51.695811 ], [ 19.498677, 51.695811 ], [ 19.496591, 51.695819 ], [ 19.49659, 51.695819 ], [ 19.496589, 51.69582 ], [ 19.495561, 51.696943 ], [ 19.495558, 51.696946 ], [ 19.495554, 51.696947 ], [ 19.495549, 51.696948 ], [ 19.49347, 51.696957 ], [ 19.493468, 51.696957 ], [ 19.493468, 51.696957 ], [ 19.49244, 51.698081 ], [ 19.492437, 51.698083 ], [ 19.492433, 51.698085 ], [ 19.492428, 51.698085 ], [ 19.490355, 51.698094 ], [ 19.49035, 51.698094 ], [ 19.490346, 51.698092 ], [ 19.490343, 51.69809 ], [ 19.489291, 51.696975 ], [ 19.48929, 51.696974 ], [ 19.489289, 51.696974 ], [ 19.48721, 51.696983 ], [ 19.487205, 51.696982 ], [ 19.4872, 51.696981 ], [ 19.487197, 51.696978 ], [ 19.486145, 51.695864 ], [ 19.486145, 51.695863 ], [ 19.486144, 51.695863 ], [ 19.484057, 51.695872 ], [ 19.484056, 51.695872 ], [ 19.484055, 51.695872 ], [ 19.483028, 51.696996 ], [ 19.483024, 51.696998 ], [ 19.48302, 51.697 ], [ 19.483015, 51.697 ], [ 19.480943, 51.697009 ], [ 19.480938, 51.697008 ], [ 19.480933, 51.697007 ], [ 19.48093, 51.697004 ], [ 19.479879, 51.695889 ], [ 19.479878, 51.695889 ], [ 19.479877, 51.695889 ], [ 19.477797, 51.695897 ], [ 19.477793, 51.695897 ], [ 19.477788, 51.695895 ], [ 19.477785, 51.695893 ], [ 19.476733, 51.694778 ], [ 19.476733, 51.694777 ], [ 19.476732, 51.694777 ], [ 19.474652, 51.694786 ], [ 19.474647, 51.694785 ], [ 19.474643, 51.694784 ], [ 19.47464, 51.694781 ], [ 19.473588, 51.693666 ], [ 19.473588, 51.693666 ], [ 19.473587, 51.693666 ], [ 19.471507, 51.693674 ], [ 19.471502, 51.693674 ], [ 19.471498, 51.693672 ], [ 19.471495, 51.69367 ], [ 19.470447, 51.692559 ], [ 19.470445, 51.692556 ], [ 19.470445, 51.692553 ], [ 19.470447, 51.69255 ], [ 19.471475, 51.691426 ], [ 19.471475, 51.691426 ], [ 19.471475, 51.691425 ], [ 19.470424, 51.69031 ], [ 19.470422, 51.690307 ], [ 19.470422, 51.690304 ], [ 19.470424, 51.690301 ], [ 19.471452, 51.689178 ], [ 19.471452, 51.689177 ], [ 19.471452, 51.689177 ], [ 19.470397, 51.688058 ], [ 19.470396, 51.688057 ], [ 19.470395, 51.688057 ], [ 19.468316, 51.688066 ], [ 19.468311, 51.688065 ], [ 19.468307, 51.688063 ], [ 19.468303, 51.688061 ], [ 19.467252, 51.686946 ], [ 19.467252, 51.686946 ], [ 19.467251, 51.686946 ], [ 19.465165, 51.686954 ], [ 19.465163, 51.686954 ], [ 19.465163, 51.686954 ], [ 19.464135, 51.688078 ], [ 19.464131, 51.68808 ], [ 19.464127, 51.688082 ], [ 19.464122, 51.688082 ], [ 19.46205, 51.68809 ], [ 19.462045, 51.68809 ], [ 19.462041, 51.688088 ], [ 19.462038, 51.688086 ], [ 19.460987, 51.686971 ], [ 19.460986, 51.68697 ], [ 19.460985, 51.68697 ], [ 19.458899, 51.686978 ], [ 19.458898, 51.686979 ], [ 19.458897, 51.686979 ], [ 19.457869, 51.688102 ], [ 19.457866, 51.688105 ], [ 19.457861, 51.688106 ], [ 19.457856, 51.688107 ], [ 19.455785, 51.688115 ], [ 19.45578, 51.688114 ], [ 19.455775, 51.688113 ], [ 19.455772, 51.68811 ], [ 19.454721, 51.686995 ], [ 19.454721, 51.686995 ], [ 19.454719, 51.686995 ], [ 19.452641, 51.687003 ], [ 19.452636, 51.687002 ], [ 19.452631, 51.687001 ], [ 19.452628, 51.686998 ], [ 19.451577, 51.685883 ], [ 19.451577, 51.685883 ], [ 19.451575, 51.685883 ], [ 19.44949, 51.685891 ], [ 19.449488, 51.685891 ], [ 19.449488, 51.685891 ], [ 19.448459, 51.687014 ], [ 19.448456, 51.687017 ], [ 19.448452, 51.687018 ], [ 19.448447, 51.687019 ], [ 19.446375, 51.687027 ], [ 19.44637, 51.687026 ], [ 19.446366, 51.687025 ], [ 19.446362, 51.687022 ], [ 19.445312, 51.685907 ], [ 19.445311, 51.685907 ], [ 19.44531, 51.685906 ], [ 19.443224, 51.685914 ], [ 19.443223, 51.685914 ], [ 19.443222, 51.685915 ], [ 19.442194, 51.687038 ], [ 19.44219, 51.68704 ], [ 19.442186, 51.687042 ], [ 19.442181, 51.687043 ], [ 19.440109, 51.68705 ], [ 19.440104, 51.68705 ], [ 19.4401, 51.687048 ], [ 19.440097, 51.687046 ], [ 19.439046, 51.685931 ], [ 19.439046, 51.68593 ], [ 19.439045, 51.68593 ], [ 19.436959, 51.685938 ], [ 19.436957, 51.685938 ], [ 19.436957, 51.685939 ], [ 19.435928, 51.687061 ], [ 19.435925, 51.687064 ], [ 19.435921, 51.687065 ], [ 19.435916, 51.687066 ], [ 19.433844, 51.687074 ], [ 19.433839, 51.687073 ], [ 19.433834, 51.687072 ], [ 19.433831, 51.687069 ], [ 19.432781, 51.685954 ], [ 19.43278, 51.685953 ], [ 19.432779, 51.685953 ], [ 19.4307, 51.685961 ], [ 19.430695, 51.68596 ], [ 19.430691, 51.685959 ], [ 19.430688, 51.685956 ], [ 19.429638, 51.684841 ], [ 19.429637, 51.684841 ], [ 19.429636, 51.684841 ], [ 19.42755, 51.684848 ], [ 19.427549, 51.684848 ], [ 19.427548, 51.684849 ], [ 19.426519, 51.685972 ], [ 19.426516, 51.685974 ], [ 19.426512, 51.685976 ], [ 19.426507, 51.685976 ], [ 19.424428, 51.685984 ], [ 19.424427, 51.685984 ], [ 19.424426, 51.685984 ], [ 19.423397, 51.687107 ], [ 19.423394, 51.68711 ], [ 19.423389, 51.687111 ], [ 19.423384, 51.687112 ], [ 19.421313, 51.687119 ], [ 19.421308, 51.687119 ], [ 19.421303, 51.687117 ], [ 19.4213, 51.687115 ], [ 19.42025, 51.685999 ], [ 19.420249, 51.685999 ], [ 19.420248, 51.685999 ], [ 19.418162, 51.686006 ], [ 19.418161, 51.686006 ], [ 19.41816, 51.686007 ], [ 19.417128, 51.687133 ], [ 19.417127, 51.687134 ], [ 19.417128, 51.687135 ], [ 19.418177, 51.68825 ], [ 19.418179, 51.688253 ], [ 19.418179, 51.688256 ], [ 19.418178, 51.688259 ], [ 19.417152, 51.689378 ], [ 19.417149, 51.689381 ], [ 19.417144, 51.689382 ], [ 19.417139, 51.689383 ], [ 19.41506, 51.68939 ], [ 19.415059, 51.68939 ], [ 19.415058, 51.689391 ], [ 19.414026, 51.690517 ], [ 19.414025, 51.690518 ], [ 19.414026, 51.690519 ], [ 19.415075, 51.691634 ], [ 19.415077, 51.691637 ], [ 19.415077, 51.69164 ], [ 19.415076, 51.691643 ], [ 19.41405, 51.692762 ], [ 19.414046, 51.692764 ], [ 19.414042, 51.692766 ], [ 19.414037, 51.692766 ], [ 19.411958, 51.692774 ], [ 19.411957, 51.692774 ], [ 19.411956, 51.692774 ], [ 19.410927, 51.693897 ], [ 19.410923, 51.6939 ], [ 19.410919, 51.693901 ], [ 19.410914, 51.693902 ], [ 19.408835, 51.693909 ], [ 19.408834, 51.693909 ], [ 19.408833, 51.69391 ], [ 19.407803, 51.695032 ], [ 19.4078, 51.695035 ], [ 19.407796, 51.695036 ], [ 19.407791, 51.695037 ], [ 19.405712, 51.695044 ], [ 19.405711, 51.695044 ], [ 19.40571, 51.695045 ], [ 19.40468, 51.696167 ], [ 19.404677, 51.69617 ], [ 19.404673, 51.696171 ], [ 19.404668, 51.696172 ], [ 19.402595, 51.696179 ], [ 19.40259, 51.696179 ], [ 19.402586, 51.696177 ], [ 19.402583, 51.696175 ], [ 19.401537, 51.695063 ], [ 19.401535, 51.69506 ], [ 19.401535, 51.695057 ], [ 19.401537, 51.695054 ], [ 19.402566, 51.693931 ], [ 19.402567, 51.693931 ], [ 19.402566, 51.69393 ], [ 19.401513, 51.692811 ], [ 19.401513, 51.69281 ], [ 19.401511, 51.69281 ], [ 19.399432, 51.692817 ], [ 19.399427, 51.692817 ], [ 19.399423, 51.692815 ], [ 19.39942, 51.692813 ], [ 19.39837, 51.691697 ], [ 19.398369, 51.691697 ], [ 19.398368, 51.691696 ], [ 19.396282, 51.691703 ], [ 19.396281, 51.691704 ], [ 19.39628, 51.691704 ], [ 19.39525, 51.692827 ], [ 19.395247, 51.692829 ], [ 19.395243, 51.692831 ], [ 19.395238, 51.692831 ], [ 19.393159, 51.692838 ], [ 19.393158, 51.692838 ], [ 19.393157, 51.692839 ], [ 19.392127, 51.693961 ], [ 19.392124, 51.693964 ], [ 19.392119, 51.693965 ], [ 19.392114, 51.693966 ], [ 19.390042, 51.693973 ], [ 19.390037, 51.693972 ], [ 19.390033, 51.693971 ], [ 19.39003, 51.693968 ], [ 19.38898, 51.692853 ], [ 19.38898, 51.692852 ], [ 19.388979, 51.692852 ], [ 19.386892, 51.692859 ], [ 19.386891, 51.692859 ], [ 19.38689, 51.69286 ], [ 19.38586, 51.693982 ], [ 19.385857, 51.693985 ], [ 19.385853, 51.693986 ], [ 19.385848, 51.693987 ], [ 19.383769, 51.693994 ], [ 19.383767, 51.693994 ], [ 19.383767, 51.693994 ], [ 19.382736, 51.695117 ], [ 19.382733, 51.695119 ], [ 19.382729, 51.695121 ], [ 19.382724, 51.695121 ], [ 19.380645, 51.695128 ], [ 19.380644, 51.695128 ], [ 19.380643, 51.695129 ], [ 19.379613, 51.696251 ], [ 19.379609, 51.696253 ], [ 19.379605, 51.696255 ], [ 19.3796, 51.696256 ], [ 19.377528, 51.696262 ], [ 19.377523, 51.696262 ], [ 19.377518, 51.69626 ], [ 19.377515, 51.696258 ], [ 19.376466, 51.695142 ], [ 19.376465, 51.695142 ], [ 19.376464, 51.695141 ], [ 19.374378, 51.695148 ], [ 19.374377, 51.695148 ], [ 19.374376, 51.695149 ], [ 19.373346, 51.696271 ], [ 19.373342, 51.696274 ], [ 19.373338, 51.696275 ], [ 19.373333, 51.696276 ], [ 19.371254, 51.696282 ], [ 19.371253, 51.696282 ], [ 19.371252, 51.696283 ], [ 19.370221, 51.697405 ], [ 19.370218, 51.697408 ], [ 19.370214, 51.697409 ], [ 19.370209, 51.69741 ], [ 19.368136, 51.697416 ], [ 19.368132, 51.697416 ], [ 19.368127, 51.697414 ], [ 19.368124, 51.697412 ], [ 19.367075, 51.696296 ], [ 19.367074, 51.696296 ], [ 19.367073, 51.696295 ], [ 19.364987, 51.696302 ], [ 19.364986, 51.696302 ], [ 19.364985, 51.696303 ], [ 19.363954, 51.697425 ], [ 19.363951, 51.697427 ], [ 19.363947, 51.697429 ], [ 19.363942, 51.697429 ], [ 19.361862, 51.697436 ], [ 19.361861, 51.697436 ], [ 19.36186, 51.697437 ], [ 19.36083, 51.698559 ], [ 19.360826, 51.698561 ], [ 19.360822, 51.698563 ], [ 19.360817, 51.698563 ], [ 19.358738, 51.69857 ], [ 19.358736, 51.69857 ], [ 19.358736, 51.69857 ], [ 19.357701, 51.699696 ], [ 19.357701, 51.699697 ], [ 19.357701, 51.699698 ], [ 19.35875, 51.700814 ], [ 19.358752, 51.700817 ], [ 19.358752, 51.70082 ], [ 19.35875, 51.700823 ], [ 19.357723, 51.701941 ], [ 19.357719, 51.701944 ], [ 19.357715, 51.701945 ], [ 19.35771, 51.701946 ], [ 19.355638, 51.701952 ], [ 19.355633, 51.701951 ], [ 19.355628, 51.70195 ], [ 19.355625, 51.701947 ], [ 19.354576, 51.700832 ], [ 19.354576, 51.700831 ], [ 19.354575, 51.700831 ], [ 19.352488, 51.700837 ], [ 19.352487, 51.700837 ], [ 19.352486, 51.700838 ], [ 19.351451, 51.701964 ], [ 19.351451, 51.701965 ], [ 19.351451, 51.701965 ], [ 19.3525, 51.703081 ], [ 19.352502, 51.703084 ], [ 19.352502, 51.703087 ], [ 19.3525, 51.70309 ], [ 19.351469, 51.704212 ], [ 19.351468, 51.704213 ], [ 19.351469, 51.704214 ], [ 19.352517, 51.70533 ], [ 19.352519, 51.705333 ], [ 19.352519, 51.705336 ], [ 19.352517, 51.705339 ], [ 19.35149, 51.706457 ], [ 19.351486, 51.706459 ], [ 19.351482, 51.706461 ], [ 19.351477, 51.706462 ], [ 19.349397, 51.706468 ], [ 19.349396, 51.706468 ], [ 19.349395, 51.706468 ], [ 19.348361, 51.707594 ], [ 19.34836, 51.707595 ], [ 19.348361, 51.707596 ], [ 19.349409, 51.708712 ], [ 19.349411, 51.708715 ], [ 19.349411, 51.708718 ], [ 19.349409, 51.708721 ], [ 19.348378, 51.709843 ], [ 19.348378, 51.709844 ], [ 19.348378, 51.709844 ], [ 19.349427, 51.71096 ], [ 19.349428, 51.710963 ], [ 19.349428, 51.710966 ], [ 19.349427, 51.710969 ], [ 19.348399, 51.712088 ], [ 19.348395, 51.71209 ], [ 19.348391, 51.712092 ], [ 19.348386, 51.712092 ], [ 19.346306, 51.712098 ], [ 19.346305, 51.712098 ], [ 19.346304, 51.712099 ], [ 19.345269, 51.713225 ], [ 19.345269, 51.713226 ], [ 19.345269, 51.713226 ], [ 19.346318, 51.714342 ], [ 19.34632, 51.714345 ], [ 19.34632, 51.714348 ], [ 19.346318, 51.714351 ], [ 19.34529, 51.71547 ], [ 19.345287, 51.715472 ], [ 19.345282, 51.715473 ], [ 19.345277, 51.715474 ], [ 19.343197, 51.71548 ], [ 19.343196, 51.71548 ], [ 19.343195, 51.715481 ], [ 19.342163, 51.716603 ], [ 19.34216, 51.716605 ], [ 19.342156, 51.716607 ], [ 19.342151, 51.716607 ], [ 19.340071, 51.716614 ], [ 19.34007, 51.716614 ], [ 19.340069, 51.716614 ], [ 19.339033, 51.71774 ], [ 19.339033, 51.717741 ], [ 19.339034, 51.717741 ], [ 19.340082, 51.718858 ], [ 19.340084, 51.71886 ], [ 19.340084, 51.718864 ], [ 19.340082, 51.718866 ], [ 19.33905, 51.719989 ], [ 19.33905, 51.719989 ], [ 19.33905, 51.71999 ], [ 19.340103, 51.72111 ], [ 19.340103, 51.72111 ], [ 19.340104, 51.72111 ], [ 19.342185, 51.721104 ], [ 19.34219, 51.721105 ], [ 19.342194, 51.721107 ], [ 19.342198, 51.721109 ], [ 19.343243, 51.722221 ], [ 19.343244, 51.722224 ], [ 19.343244, 51.722227 ], [ 19.343243, 51.72223 ], [ 19.342211, 51.723352 ], [ 19.34221, 51.723353 ], [ 19.342211, 51.723354 ], [ 19.34326, 51.72447 ], [ 19.343261, 51.724473 ], [ 19.343261, 51.724476 ], [ 19.34326, 51.724479 ], [ 19.342231, 51.725597 ], [ 19.342228, 51.725599 ], [ 19.342224, 51.725601 ], [ 19.342219, 51.725601 ], [ 19.340145, 51.725607 ], [ 19.34014, 51.725607 ], [ 19.340136, 51.725605 ], [ 19.340133, 51.725603 ], [ 19.339084, 51.724487 ], [ 19.339083, 51.724486 ], [ 19.339082, 51.724486 ], [ 19.336994, 51.724492 ], [ 19.336993, 51.724492 ], [ 19.336992, 51.724493 ], [ 19.335957, 51.725619 ], [ 19.335956, 51.725619 ], [ 19.335957, 51.72562 ], [ 19.337006, 51.726736 ], [ 19.337007, 51.726739 ], [ 19.337007, 51.726742 ], [ 19.337006, 51.726745 ], [ 19.335977, 51.727863 ], [ 19.335974, 51.727866 ], [ 19.335969, 51.727867 ], [ 19.335965, 51.727868 ], [ 19.333884, 51.727874 ], [ 19.333883, 51.727874 ], [ 19.333882, 51.727875 ], [ 19.332846, 51.729 ], [ 19.332846, 51.729001 ], [ 19.332846, 51.729002 ], [ 19.333895, 51.730118 ], [ 19.333897, 51.730121 ], [ 19.333897, 51.730124 ], [ 19.333895, 51.730127 ], [ 19.332863, 51.731249 ], [ 19.332862, 51.73125 ], [ 19.332863, 51.73125 ], [ 19.333915, 51.73237 ], [ 19.333916, 51.732371 ], [ 19.333917, 51.732371 ], [ 19.335998, 51.732365 ], [ 19.336003, 51.732365 ], [ 19.336007, 51.732367 ], [ 19.33601, 51.732369 ], [ 19.337059, 51.733485 ], [ 19.33706, 51.733486 ], [ 19.337061, 51.733486 ], [ 19.339142, 51.73348 ], [ 19.339147, 51.733481 ], [ 19.339152, 51.733482 ], [ 19.339155, 51.733485 ], [ 19.3402, 51.734597 ], [ 19.340202, 51.7346 ], [ 19.340202, 51.734603 ], [ 19.3402, 51.734606 ], [ 19.339168, 51.735728 ], [ 19.339168, 51.735729 ], [ 19.339168, 51.735729 ], [ 19.340217, 51.736845 ], [ 19.340219, 51.736848 ], [ 19.340219, 51.736851 ], [ 19.340217, 51.736854 ], [ 19.339188, 51.737973 ], [ 19.339185, 51.737975 ], [ 19.339181, 51.737977 ], [ 19.339176, 51.737977 ], [ 19.337095, 51.737983 ], [ 19.337094, 51.737983 ], [ 19.337093, 51.737984 ], [ 19.336057, 51.73911 ], [ 19.336057, 51.73911 ], [ 19.336057, 51.739111 ], [ 19.337109, 51.740231 ], [ 19.33711, 51.740231 ], [ 19.337111, 51.740232 ], [ 19.339193, 51.740226 ], [ 19.339198, 51.740226 ], [ 19.339202, 51.740228 ], [ 19.339205, 51.74023 ], [ 19.340254, 51.741346 ], [ 19.340255, 51.741347 ], [ 19.340256, 51.741347 ], [ 19.342338, 51.741341 ], [ 19.342343, 51.741341 ], [ 19.342347, 51.741343 ], [ 19.34235, 51.741345 ], [ 19.3434, 51.742461 ], [ 19.3434, 51.742462 ], [ 19.343401, 51.742462 ], [ 19.34549, 51.742456 ], [ 19.345491, 51.742456 ], [ 19.345492, 51.742455 ], [ 19.346524, 51.741333 ], [ 19.346527, 51.741331 ], [ 19.346532, 51.741329 ], [ 19.346537, 51.741328 ], [ 19.348611, 51.741322 ], [ 19.348616, 51.741323 ], [ 19.34862, 51.741324 ], [ 19.348624, 51.741327 ], [ 19.349673, 51.742443 ], [ 19.349674, 51.742443 ], [ 19.349675, 51.742443 ], [ 19.351756, 51.742437 ], [ 19.351761, 51.742438 ], [ 19.351766, 51.742439 ], [ 19.351769, 51.742442 ], [ 19.352818, 51.743558 ], [ 19.352819, 51.743558 ], [ 19.35282, 51.743558 ], [ 19.354909, 51.743552 ], [ 19.35491, 51.743552 ], [ 19.354911, 51.743551 ], [ 19.355943, 51.742429 ], [ 19.355946, 51.742427 ], [ 19.35595, 51.742425 ], [ 19.355955, 51.742425 ], [ 19.35803, 51.742418 ], [ 19.358035, 51.742419 ], [ 19.358039, 51.74242 ], [ 19.358042, 51.742423 ], [ 19.359092, 51.743539 ], [ 19.359093, 51.743539 ], [ 19.359094, 51.743539 ], [ 19.361182, 51.743533 ], [ 19.361183, 51.743533 ], [ 19.361184, 51.743532 ], [ 19.362216, 51.74241 ], [ 19.362219, 51.742408 ], [ 19.362224, 51.742406 ], [ 19.362229, 51.742405 ], [ 19.364303, 51.742399 ], [ 19.364308, 51.742399 ], [ 19.364312, 51.742401 ], [ 19.364315, 51.742403 ], [ 19.365365, 51.743519 ], [ 19.365366, 51.74352 ], [ 19.365367, 51.74352 ], [ 19.367449, 51.743513 ], [ 19.367454, 51.743514 ], [ 19.367458, 51.743516 ], [ 19.367461, 51.743518 ], [ 19.368508, 51.74463 ], [ 19.368509, 51.744633 ], [ 19.368509, 51.744636 ], [ 19.368508, 51.744639 ], [ 19.367476, 51.745761 ], [ 19.367476, 51.745762 ], [ 19.367476, 51.745763 ], [ 19.368526, 51.746878 ], [ 19.368528, 51.746881 ], [ 19.368528, 51.746884 ], [ 19.368526, 51.746887 ], [ 19.367494, 51.74801 ], [ 19.367494, 51.74801 ], [ 19.367494, 51.748011 ], [ 19.368544, 51.749127 ], [ 19.368546, 51.74913 ], [ 19.368546, 51.749133 ], [ 19.368544, 51.749136 ], [ 19.367512, 51.750258 ], [ 19.367512, 51.750259 ], [ 19.367512, 51.750259 ], [ 19.368566, 51.751379 ], [ 19.368567, 51.75138 ], [ 19.368568, 51.75138 ], [ 19.37065, 51.751373 ], [ 19.370655, 51.751374 ], [ 19.370659, 51.751375 ], [ 19.370662, 51.751378 ], [ 19.371709, 51.75249 ], [ 19.371711, 51.752493 ], [ 19.371711, 51.752496 ], [ 19.371709, 51.752499 ], [ 19.370677, 51.753621 ], [ 19.370677, 51.753622 ], [ 19.370677, 51.753622 ], [ 19.371727, 51.754738 ], [ 19.371729, 51.754741 ], [ 19.371729, 51.754744 ], [ 19.371727, 51.754747 ], [ 19.370699, 51.755866 ], [ 19.370696, 51.755868 ], [ 19.370692, 51.75587 ], [ 19.370687, 51.75587 ], [ 19.368605, 51.755877 ], [ 19.368603, 51.755877 ], [ 19.368603, 51.755877 ], [ 19.367571, 51.757 ], [ 19.367567, 51.757002 ], [ 19.367563, 51.757004 ], [ 19.367558, 51.757004 ], [ 19.365483, 51.757011 ], [ 19.365478, 51.75701 ], [ 19.365474, 51.757009 ], [ 19.365471, 51.757006 ], [ 19.36442, 51.75589 ], [ 19.36442, 51.75589 ], [ 19.364419, 51.75589 ], [ 19.362329, 51.755896 ], [ 19.362328, 51.755896 ], [ 19.362327, 51.755897 ], [ 19.361295, 51.757019 ], [ 19.361292, 51.757022 ], [ 19.361288, 51.757023 ], [ 19.361283, 51.757024 ], [ 19.359201, 51.75703 ], [ 19.3592, 51.75703 ], [ 19.359199, 51.757031 ], [ 19.358167, 51.758153 ], [ 19.358163, 51.758155 ], [ 19.358159, 51.758157 ], [ 19.358154, 51.758158 ], [ 19.356072, 51.758164 ], [ 19.356071, 51.758164 ], [ 19.35607, 51.758165 ], [ 19.355038, 51.759287 ], [ 19.355034, 51.759289 ], [ 19.35503, 51.759291 ], [ 19.355025, 51.759291 ], [ 19.352943, 51.759298 ], [ 19.352942, 51.759298 ], [ 19.352941, 51.759298 ], [ 19.351905, 51.760424 ], [ 19.351905, 51.760425 ], [ 19.351905, 51.760426 ], [ 19.352955, 51.761542 ], [ 19.352957, 51.761544 ], [ 19.352957, 51.761548 ], [ 19.352955, 51.76155 ], [ 19.351926, 51.762669 ], [ 19.351923, 51.762671 ], [ 19.351918, 51.762673 ], [ 19.351914, 51.762673 ], [ 19.349831, 51.76268 ], [ 19.34983, 51.76268 ], [ 19.349829, 51.76268 ], [ 19.348797, 51.763802 ], [ 19.348793, 51.763805 ], [ 19.348789, 51.763806 ], [ 19.348784, 51.763807 ], [ 19.346702, 51.763813 ], [ 19.3467, 51.763813 ], [ 19.3467, 51.763814 ], [ 19.345667, 51.764936 ], [ 19.345664, 51.764938 ], [ 19.345659, 51.76494 ], [ 19.345655, 51.76494 ], [ 19.343572, 51.764947 ], [ 19.343571, 51.764947 ], [ 19.34357, 51.764947 ], [ 19.342537, 51.766069 ], [ 19.342534, 51.766072 ], [ 19.34253, 51.766073 ], [ 19.342525, 51.766074 ], [ 19.340449, 51.76608 ], [ 19.340444, 51.766079 ], [ 19.34044, 51.766078 ], [ 19.340437, 51.766075 ], [ 19.339387, 51.764959 ], [ 19.339386, 51.764959 ], [ 19.339385, 51.764959 ], [ 19.337296, 51.764965 ], [ 19.337294, 51.764965 ], [ 19.337294, 51.764965 ], [ 19.336257, 51.766091 ], [ 19.336257, 51.766092 ], [ 19.336257, 51.766093 ], [ 19.337307, 51.767209 ], [ 19.337309, 51.767212 ], [ 19.337309, 51.767215 ], [ 19.337307, 51.767218 ], [ 19.336274, 51.76834 ], [ 19.336274, 51.76834 ], [ 19.336274, 51.768341 ], [ 19.337324, 51.769457 ], [ 19.337325, 51.76946 ], [ 19.337325, 51.769463 ], [ 19.337324, 51.769466 ], [ 19.336291, 51.770588 ], [ 19.33629, 51.770589 ], [ 19.336291, 51.77059 ], [ 19.33734, 51.771706 ], [ 19.337342, 51.771709 ], [ 19.337342, 51.771712 ], [ 19.33734, 51.771715 ], [ 19.336307, 51.772837 ], [ 19.336307, 51.772837 ], [ 19.336307, 51.772838 ], [ 19.337361, 51.773958 ], [ 19.337361, 51.773958 ], [ 19.337363, 51.773959 ], [ 19.339446, 51.773953 ], [ 19.339451, 51.773953 ], [ 19.339455, 51.773955 ], [ 19.339458, 51.773957 ], [ 19.340504, 51.775069 ], [ 19.340506, 51.775072 ], [ 19.340506, 51.775075 ], [ 19.340505, 51.775078 ], [ 19.339471, 51.7762 ], [ 19.339471, 51.776201 ], [ 19.339471, 51.776202 ], [ 19.340521, 51.777318 ], [ 19.340523, 51.777321 ], [ 19.340523, 51.777324 ], [ 19.340521, 51.777327 ], [ 19.339492, 51.778445 ], [ 19.339489, 51.778447 ], [ 19.339484, 51.778449 ], [ 19.339479, 51.77845 ], [ 19.337396, 51.778456 ], [ 19.337395, 51.778456 ], [ 19.337394, 51.778456 ], [ 19.336361, 51.779578 ], [ 19.336358, 51.779581 ], [ 19.336353, 51.779582 ], [ 19.336348, 51.779583 ], [ 19.334265, 51.779589 ], [ 19.334264, 51.779589 ], [ 19.334263, 51.779589 ], [ 19.333227, 51.780715 ], [ 19.333226, 51.780716 ], [ 19.333227, 51.780717 ], [ 19.334276, 51.781833 ], [ 19.334278, 51.781836 ], [ 19.334278, 51.781839 ], [ 19.334276, 51.781842 ], [ 19.333243, 51.782964 ], [ 19.333243, 51.782964 ], [ 19.333243, 51.782965 ], [ 19.334297, 51.784085 ], [ 19.334297, 51.784086 ], [ 19.334299, 51.784086 ], [ 19.336382, 51.78408 ], [ 19.336387, 51.78408 ], [ 19.336391, 51.784082 ], [ 19.336395, 51.784084 ], [ 19.337445, 51.7852 ], [ 19.337445, 51.785201 ], [ 19.337446, 51.785201 ], [ 19.33953, 51.785195 ], [ 19.339535, 51.785195 ], [ 19.339539, 51.785197 ], [ 19.339543, 51.785199 ], [ 19.340593, 51.786315 ], [ 19.340593, 51.786316 ], [ 19.340595, 51.786316 ], [ 19.342685, 51.78631 ], [ 19.342686, 51.78631 ], [ 19.342687, 51.786309 ], [ 19.34372, 51.785187 ], [ 19.343724, 51.785185 ], [ 19.343728, 51.785183 ], [ 19.343733, 51.785183 ], [ 19.345809, 51.785177 ], [ 19.345814, 51.785177 ], [ 19.345819, 51.785179 ], [ 19.345822, 51.785181 ], [ 19.346872, 51.786297 ], [ 19.346873, 51.786298 ], [ 19.346874, 51.786298 ], [ 19.348957, 51.786292 ], [ 19.348962, 51.786292 ], [ 19.348967, 51.786294 ], [ 19.34897, 51.786296 ], [ 19.350017, 51.787408 ], [ 19.350019, 51.787411 ], [ 19.350019, 51.787414 ], [ 19.350017, 51.787417 ], [ 19.348984, 51.788539 ], [ 19.348983, 51.78854 ], [ 19.348984, 51.788541 ], [ 19.350038, 51.78966 ], [ 19.350039, 51.789661 ], [ 19.35004, 51.789661 ], [ 19.352123, 51.789655 ], [ 19.352128, 51.789655 ], [ 19.352133, 51.789657 ], [ 19.352136, 51.789659 ], [ 19.353183, 51.790771 ], [ 19.353185, 51.790774 ], [ 19.353185, 51.790778 ], [ 19.353183, 51.79078 ], [ 19.35215, 51.791903 ], [ 19.35215, 51.791903 ], [ 19.35215, 51.791904 ], [ 19.353201, 51.79302 ], [ 19.353202, 51.793023 ], [ 19.353202, 51.793026 ], [ 19.353201, 51.793029 ], [ 19.352171, 51.794147 ], [ 19.352168, 51.79415 ], [ 19.352163, 51.794151 ], [ 19.352158, 51.794152 ], [ 19.350075, 51.794158 ], [ 19.350073, 51.794158 ], [ 19.350073, 51.794159 ], [ 19.349039, 51.795281 ], [ 19.349036, 51.795283 ], [ 19.349032, 51.795285 ], [ 19.349027, 51.795285 ], [ 19.346943, 51.795292 ], [ 19.346942, 51.795292 ], [ 19.346941, 51.795292 ], [ 19.345908, 51.796414 ], [ 19.345904, 51.796417 ], [ 19.3459, 51.796418 ], [ 19.345895, 51.796419 ], [ 19.343811, 51.796425 ], [ 19.34381, 51.796425 ], [ 19.343809, 51.796426 ], [ 19.342772, 51.797552 ], [ 19.342772, 51.797552 ], [ 19.342772, 51.797553 ], [ 19.343823, 51.798669 ], [ 19.343825, 51.798672 ], [ 19.343825, 51.798675 ], [ 19.343823, 51.798678 ], [ 19.342793, 51.799796 ], [ 19.34279, 51.799799 ], [ 19.342785, 51.7998 ], [ 19.34278, 51.799801 ], [ 19.340703, 51.799807 ], [ 19.340698, 51.799806 ], [ 19.340694, 51.799805 ], [ 19.340691, 51.799802 ], [ 19.339644, 51.79869 ], [ 19.339642, 51.798687 ], [ 19.339642, 51.798684 ], [ 19.339644, 51.798681 ], [ 19.340677, 51.797559 ], [ 19.340678, 51.797558 ], [ 19.340677, 51.797558 ], [ 19.339627, 51.796442 ], [ 19.339625, 51.796439 ], [ 19.339625, 51.796436 ], [ 19.339627, 51.796433 ], [ 19.34066, 51.795311 ], [ 19.340661, 51.79531 ], [ 19.34066, 51.795309 ], [ 19.339606, 51.794189 ], [ 19.339606, 51.794189 ], [ 19.339605, 51.794189 ], [ 19.337514, 51.794195 ], [ 19.337512, 51.794195 ], [ 19.337512, 51.794195 ], [ 19.336478, 51.795317 ], [ 19.336475, 51.79532 ], [ 19.336471, 51.795321 ], [ 19.336466, 51.795322 ], [ 19.334389, 51.795328 ], [ 19.334384, 51.795327 ], [ 19.334379, 51.795326 ], [ 19.334376, 51.795323 ], [ 19.333326, 51.794207 ], [ 19.333325, 51.794207 ], [ 19.333324, 51.794207 ], [ 19.331233, 51.794213 ], [ 19.331232, 51.794213 ], [ 19.331231, 51.794213 ], [ 19.330197, 51.795335 ], [ 19.330194, 51.795338 ], [ 19.33019, 51.795339 ], [ 19.330185, 51.79534 ], [ 19.328101, 51.795346 ], [ 19.3281, 51.795346 ], [ 19.328099, 51.795346 ], [ 19.327062, 51.796472 ], [ 19.327061, 51.796473 ], [ 19.327062, 51.796473 ], [ 19.328112, 51.79759 ], [ 19.328114, 51.797593 ], [ 19.328114, 51.797596 ], [ 19.328112, 51.797599 ], [ 19.327078, 51.798721 ], [ 19.327078, 51.798721 ], [ 19.327078, 51.798722 ], [ 19.328128, 51.799838 ], [ 19.32813, 51.799841 ], [ 19.32813, 51.799844 ], [ 19.328128, 51.799847 ], [ 19.327098, 51.800965 ], [ 19.327095, 51.800968 ], [ 19.32709, 51.800969 ], [ 19.327085, 51.80097 ], [ 19.325001, 51.800975 ], [ 19.325, 51.800976 ], [ 19.324999, 51.800976 ], [ 19.323965, 51.802098 ], [ 19.323962, 51.8021 ], [ 19.323957, 51.802102 ], [ 19.323953, 51.802103 ], [ 19.321868, 51.802108 ], [ 19.321867, 51.802108 ], [ 19.321866, 51.802109 ], [ 19.320829, 51.803235 ], [ 19.320828, 51.803235 ] ] ] } }
]
}
