{
"type": "FeatureCollection",
"name": "boundary_lodz_500",
"crs": { "type": "name", "properties": { "name": "urn:ogc:def:crs:OGC:1.3:CRS84" } },
"xy_coordinate_resolution": 1e-06,
"features": [
{ "type": "Feature", "properties": { "fid": 1, "name": "Łódź" }, "geometry": { "type": "Polygon", "coordinates": [ [ [ 19.320804, 51.799863 ], [ 19.320805, 51.799863 ], [ 19.32291, 51.802101 ], [ 19.322911, 51.802104 ], [ 19.322912, 51.802107 ], [ 19.32291, 51.80211 ], [ 19.320837, 51.804359 ], [ 19.320836, 51.80436 ], [ 19.320837, 51.80436 ], [ 19.322942, 51.806598 ], [ 19.322944, 51.806601 ], [ 19.322944, 51.806604 ], [ 19.322942, 51.806607 ], [ 19.320869, 51.808856 ], [ 19.320868, 51.808857 ], [ 19.320869, 51.808857 ], [ 19.322978, 51.811099 ], [ 19.322978, 51.811099 ], [ 19.32298, 51.811099 ], [ 19.327166, 51.811088 ], [ 19.327167, 51.811088 ], [ 19.327167, 51.811087 ], [ 19.329241, 51.808838 ], [ 19.329244, 51.808836 ], [ 19.329248, 51.808834 ], [ 19.329253, 51.808833 ], [ 19.333425, 51.808822 ], [ 19.33343, 51.808822 ], [ 19.333434, 51.808824 ], [ 19.333437, 51.808826 ], [ 19.33554, 51.81106 ], [ 19.335542, 51.811063 ], [ 19.335542, 51.811066 ], [ 19.33554, 51.811069 ], [ 19.333467, 51.813318 ], [ 19.333467, 51.813319 ], [ 19.333467, 51.813319 ], [ 19.335573, 51.815557 ], [ 19.335575, 51.815559 ], [ 19.335575, 51.815563 ], [ 19.335573, 51.815566 ], [ 19.3335, 51.817815 ], [ 19.3335, 51.817815 ], [ 19.3335, 51.817816 ], [ 19.335607, 51.820053 ], [ 19.335608, 51.820056 ], [ 19.335608, 51.820059 ], [ 19.335607, 51.820062 ], [ 19.333533, 51.822312 ], [ 19.333533, 51.822312 ], [ 19.333533, 51.822313 ], [ 19.335644, 51.824554 ], [ 19.335644, 51.824555 ], [ 19.335645, 51.824555 ], [ 19.339826, 51.824543 ], [ 19.339831, 51.824543 ], [ 19.339835, 51.824545 ], [ 19.339838, 51.824547 ], [ 19.341942, 51.826781 ], [ 19.341943, 51.826784 ], [ 19.341944, 51.826787 ], [ 19.341942, 51.82679 ], [ 19.339868, 51.829039 ], [ 19.339868, 51.82904 ], [ 19.339869, 51.82904 ], [ 19.341979, 51.831281 ], [ 19.34198, 51.831282 ], [ 19.341981, 51.831282 ], [ 19.346162, 51.83127 ], [ 19.346167, 51.83127 ], [ 19.346171, 51.831272 ], [ 19.346175, 51.831274 ], [ 19.348279, 51.833508 ], [ 19.348281, 51.83351 ], [ 19.348281, 51.833514 ], [ 19.348279, 51.833517 ], [ 19.346206, 51.835766 ], [ 19.346205, 51.835767 ], [ 19.346206, 51.835767 ], [ 19.348313, 51.838004 ], [ 19.348315, 51.838007 ], [ 19.348315, 51.83801 ], [ 19.348314, 51.838013 ], [ 19.34624, 51.840263 ], [ 19.34624, 51.840263 ], [ 19.34624, 51.840264 ], [ 19.348352, 51.842505 ], [ 19.348353, 51.842506 ], [ 19.348354, 51.842506 ], [ 19.352543, 51.842493 ], [ 19.352544, 51.842493 ], [ 19.352545, 51.842493 ], [ 19.354618, 51.840243 ], [ 19.354621, 51.840241 ], [ 19.354625, 51.840239 ], [ 19.35463, 51.840238 ], [ 19.358812, 51.840226 ], [ 19.358813, 51.840226 ], [ 19.358814, 51.840225 ], [ 19.360887, 51.837975 ], [ 19.36089, 51.837973 ], [ 19.360894, 51.837971 ], [ 19.360899, 51.837971 ], [ 19.365074, 51.837958 ], [ 19.365079, 51.837959 ], [ 19.365083, 51.83796 ], [ 19.365086, 51.837963 ], [ 19.367195, 51.840199 ], [ 19.367196, 51.8402 ], [ 19.367197, 51.8402 ], [ 19.371386, 51.840187 ], [ 19.371387, 51.840187 ], [ 19.371388, 51.840186 ], [ 19.37346, 51.837936 ], [ 19.373463, 51.837934 ], [ 19.373467, 51.837932 ], [ 19.373472, 51.837932 ], [ 19.377647, 51.837918 ], [ 19.377652, 51.837919 ], [ 19.377656, 51.83792 ], [ 19.377659, 51.837923 ], [ 19.379769, 51.840159 ], [ 19.37977, 51.84016 ], [ 19.379771, 51.84016 ], [ 19.38396, 51.840146 ], [ 19.383961, 51.840146 ], [ 19.383961, 51.840146 ], [ 19.386033, 51.837896 ], [ 19.386036, 51.837893 ], [ 19.386041, 51.837892 ], [ 19.386046, 51.837891 ], [ 19.390227, 51.837877 ], [ 19.390228, 51.837877 ], [ 19.390229, 51.837877 ], [ 19.392304, 51.835623 ], [ 19.392304, 51.835622 ], [ 19.392304, 51.835621 ], [ 19.39019, 51.833381 ], [ 19.390189, 51.833381 ], [ 19.390188, 51.83338 ], [ 19.386007, 51.833394 ], [ 19.386002, 51.833394 ], [ 19.385998, 51.833392 ], [ 19.385995, 51.83339 ], [ 19.383889, 51.831157 ], [ 19.383887, 51.831154 ], [ 19.383887, 51.831151 ], [ 19.383888, 51.831148 ], [ 19.385956, 51.828902 ], [ 19.385959, 51.8289 ], [ 19.385964, 51.828898 ], [ 19.385969, 51.828897 ], [ 19.390142, 51.828884 ], [ 19.390147, 51.828884 ], [ 19.390151, 51.828886 ], [ 19.390155, 51.828888 ], [ 19.392265, 51.831124 ], [ 19.392265, 51.831125 ], [ 19.392266, 51.831125 ], [ 19.396447, 51.831111 ], [ 19.396452, 51.831112 ], [ 19.396457, 51.831113 ], [ 19.39646, 51.831115 ], [ 19.39857, 51.833352 ], [ 19.398571, 51.833352 ], [ 19.398572, 51.833352 ], [ 19.40276, 51.833338 ], [ 19.402761, 51.833338 ], [ 19.402762, 51.833337 ], [ 19.404832, 51.831087 ], [ 19.404835, 51.831085 ], [ 19.40484, 51.831083 ], [ 19.404845, 51.831082 ], [ 19.409018, 51.831068 ], [ 19.409023, 51.831069 ], [ 19.409028, 51.83107 ], [ 19.409031, 51.831072 ], [ 19.411142, 51.833308 ], [ 19.411143, 51.833309 ], [ 19.411144, 51.833309 ], [ 19.415332, 51.833294 ], [ 19.415333, 51.833294 ], [ 19.415334, 51.833294 ], [ 19.417403, 51.831043 ], [ 19.417407, 51.831041 ], [ 19.417411, 51.831039 ], [ 19.417416, 51.831038 ], [ 19.42159, 51.831024 ], [ 19.421595, 51.831024 ], [ 19.421599, 51.831026 ], [ 19.421602, 51.831028 ], [ 19.423714, 51.833264 ], [ 19.423714, 51.833264 ], [ 19.423715, 51.833264 ], [ 19.427896, 51.833249 ], [ 19.427901, 51.83325 ], [ 19.427906, 51.833251 ], [ 19.427909, 51.833254 ], [ 19.430021, 51.835489 ], [ 19.430022, 51.83549 ], [ 19.430023, 51.83549 ], [ 19.434204, 51.835475 ], [ 19.434209, 51.835475 ], [ 19.434213, 51.835477 ], [ 19.434217, 51.835479 ], [ 19.436329, 51.837715 ], [ 19.43633, 51.837715 ], [ 19.436331, 51.837715 ], [ 19.440519, 51.8377 ], [ 19.44052, 51.8377 ], [ 19.440521, 51.837699 ], [ 19.44259, 51.835448 ], [ 19.442593, 51.835446 ], [ 19.442597, 51.835444 ], [ 19.442602, 51.835443 ], [ 19.446776, 51.835428 ], [ 19.446781, 51.835428 ], [ 19.446786, 51.83543 ], [ 19.446789, 51.835432 ], [ 19.448902, 51.837667 ], [ 19.448903, 51.837668 ], [ 19.448904, 51.837668 ], [ 19.453085, 51.837652 ], [ 19.45309, 51.837653 ], [ 19.453094, 51.837654 ], [ 19.453098, 51.837656 ], [ 19.455207, 51.839888 ], [ 19.455209, 51.839891 ], [ 19.455209, 51.839894 ], [ 19.455207, 51.839897 ], [ 19.453143, 51.842144 ], [ 19.453139, 51.842147 ], [ 19.453135, 51.842148 ], [ 19.45313, 51.842149 ], [ 19.448948, 51.842165 ], [ 19.448947, 51.842165 ], [ 19.448946, 51.842166 ], [ 19.446878, 51.844417 ], [ 19.446875, 51.844419 ], [ 19.44687, 51.844421 ], [ 19.446865, 51.844421 ], [ 19.442683, 51.844437 ], [ 19.442682, 51.844437 ], [ 19.442681, 51.844438 ], [ 19.440609, 51.846693 ], [ 19.440608, 51.846693 ], [ 19.440609, 51.846694 ], [ 19.442722, 51.848929 ], [ 19.442724, 51.848932 ], [ 19.442724, 51.848935 ], [ 19.442722, 51.848938 ], [ 19.440653, 51.851189 ], [ 19.440652, 51.85119 ], [ 19.440653, 51.851191 ], [ 19.44277, 51.85343 ], [ 19.44277, 51.853431 ], [ 19.442772, 51.853431 ], [ 19.446961, 51.853415 ], [ 19.446963, 51.853415 ], [ 19.446963, 51.853414 ], [ 19.449032, 51.851163 ], [ 19.449036, 51.851161 ], [ 19.44904, 51.851159 ], [ 19.449045, 51.851158 ], [ 19.45322, 51.851142 ], [ 19.453225, 51.851143 ], [ 19.45323, 51.851144 ], [ 19.453233, 51.851147 ], [ 19.455347, 51.853382 ], [ 19.455348, 51.853383 ], [ 19.455349, 51.853383 ], [ 19.459532, 51.853366 ], [ 19.459537, 51.853367 ], [ 19.459541, 51.853368 ], [ 19.459544, 51.853371 ], [ 19.461659, 51.855606 ], [ 19.461659, 51.855606 ], [ 19.461661, 51.855607 ], [ 19.465844, 51.85559 ], [ 19.465849, 51.855591 ], [ 19.465853, 51.855592 ], [ 19.465856, 51.855595 ], [ 19.467971, 51.857829 ], [ 19.467972, 51.85783 ], [ 19.467973, 51.85783 ], [ 19.472163, 51.857813 ], [ 19.472164, 51.857813 ], [ 19.472165, 51.857813 ], [ 19.474233, 51.855561 ], [ 19.474236, 51.855559 ], [ 19.474241, 51.855557 ], [ 19.474246, 51.855557 ], [ 19.478421, 51.85554 ], [ 19.478426, 51.85554 ], [ 19.478431, 51.855542 ], [ 19.478434, 51.855544 ], [ 19.480549, 51.857779 ], [ 19.48055, 51.857779 ], [ 19.480551, 51.857779 ], [ 19.484735, 51.857762 ], [ 19.48474, 51.857763 ], [ 19.484744, 51.857764 ], [ 19.484747, 51.857767 ], [ 19.486863, 51.860001 ], [ 19.486864, 51.860002 ], [ 19.486865, 51.860002 ], [ 19.491055, 51.859985 ], [ 19.491057, 51.859984 ], [ 19.491057, 51.859984 ], [ 19.493124, 51.857732 ], [ 19.493128, 51.857729 ], [ 19.493132, 51.857728 ], [ 19.493137, 51.857727 ], [ 19.497313, 51.85771 ], [ 19.497318, 51.85771 ], [ 19.497322, 51.857712 ], [ 19.497326, 51.857714 ], [ 19.499442, 51.859949 ], [ 19.499443, 51.859949 ], [ 19.499444, 51.859949 ], [ 19.503634, 51.859931 ], [ 19.503636, 51.859931 ], [ 19.503636, 51.859931 ], [ 19.505703, 51.857678 ], [ 19.505706, 51.857676 ], [ 19.50571, 51.857674 ], [ 19.505715, 51.857674 ], [ 19.509899, 51.857656 ], [ 19.5099, 51.857656 ], [ 19.5099, 51.857655 ], [ 19.511967, 51.855403 ], [ 19.51197, 51.8554 ], [ 19.511974, 51.855399 ], [ 19.511979, 51.855398 ], [ 19.516162, 51.85538 ], [ 19.516163, 51.85538 ], [ 19.516164, 51.855379 ], [ 19.51823, 51.853127 ], [ 19.518233, 51.853125 ], [ 19.518237, 51.853123 ], [ 19.518242, 51.853122 ], [ 19.522425, 51.853104 ], [ 19.522426, 51.853104 ], [ 19.522427, 51.853103 ], [ 19.524492, 51.850851 ], [ 19.524495, 51.850848 ], [ 19.5245, 51.850847 ], [ 19.524505, 51.850846 ], [ 19.528687, 51.850827 ], [ 19.528688, 51.850827 ], [ 19.528689, 51.850827 ], [ 19.530754, 51.848574 ], [ 19.530757, 51.848572 ], [ 19.530761, 51.84857 ], [ 19.530766, 51.84857 ], [ 19.534942, 51.848551 ], [ 19.534947, 51.848551 ], [ 19.534951, 51.848553 ], [ 19.534954, 51.848555 ], [ 19.537072, 51.850789 ], [ 19.537073, 51.850789 ], [ 19.537074, 51.850789 ], [ 19.541264, 51.85077 ], [ 19.541265, 51.85077 ], [ 19.541265, 51.85077 ], [ 19.54333, 51.848517 ], [ 19.543333, 51.848514 ], [ 19.543337, 51.848513 ], [ 19.543342, 51.848512 ], [ 19.547524, 51.848493 ], [ 19.547526, 51.848493 ], [ 19.547526, 51.848492 ], [ 19.54959, 51.846239 ], [ 19.549593, 51.846237 ], [ 19.549598, 51.846235 ], [ 19.549603, 51.846235 ], [ 19.553778, 51.846215 ], [ 19.553783, 51.846216 ], [ 19.553787, 51.846217 ], [ 19.55379, 51.846219 ], [ 19.555905, 51.848449 ], [ 19.555907, 51.848452 ], [ 19.555907, 51.848455 ], [ 19.555905, 51.848458 ], [ 19.553842, 51.850711 ], [ 19.553841, 51.850712 ], [ 19.553842, 51.850712 ], [ 19.555964, 51.85295 ], [ 19.555965, 51.85295 ], [ 19.555966, 51.85295 ], [ 19.560156, 51.85293 ], [ 19.560157, 51.85293 ], [ 19.560158, 51.85293 ], [ 19.562225, 51.850673 ], [ 19.562225, 51.850672 ], [ 19.562225, 51.850671 ], [ 19.560106, 51.848438 ], [ 19.560104, 51.848435 ], [ 19.560104, 51.848432 ], [ 19.560106, 51.848429 ], [ 19.562165, 51.84618 ], [ 19.562169, 51.846177 ], [ 19.562173, 51.846176 ], [ 19.562178, 51.846175 ], [ 19.56636, 51.846155 ], [ 19.566361, 51.846155 ], [ 19.566362, 51.846154 ], [ 19.568428, 51.843897 ], [ 19.568428, 51.843897 ], [ 19.568428, 51.843896 ], [ 19.566309, 51.841663 ], [ 19.566307, 51.84166 ], [ 19.566307, 51.841657 ], [ 19.566309, 51.841654 ], [ 19.568368, 51.839404 ], [ 19.568371, 51.839402 ], [ 19.568375, 51.8394 ], [ 19.56838, 51.8394 ], [ 19.572562, 51.83938 ], [ 19.572563, 51.839379 ], [ 19.572564, 51.839379 ], [ 19.574629, 51.837122 ], [ 19.57463, 51.837121 ], [ 19.574629, 51.83712 ], [ 19.572507, 51.834884 ], [ 19.572506, 51.834883 ], [ 19.572505, 51.834883 ], [ 19.568324, 51.834903 ], [ 19.568319, 51.834903 ], [ 19.568314, 51.834901 ], [ 19.568311, 51.834899 ], [ 19.566193, 51.832666 ], [ 19.566192, 51.832665 ], [ 19.566191, 51.832665 ], [ 19.56201, 51.832685 ], [ 19.562005, 51.832684 ], [ 19.562, 51.832683 ], [ 19.561997, 51.832681 ], [ 19.559879, 51.830447 ], [ 19.559878, 51.830447 ], [ 19.559877, 51.830447 ], [ 19.555696, 51.830466 ], [ 19.555692, 51.830466 ], [ 19.555687, 51.830464 ], [ 19.555684, 51.830462 ], [ 19.55357, 51.828233 ], [ 19.553568, 51.82823 ], [ 19.553568, 51.828226 ], [ 19.55357, 51.828224 ], [ 19.555632, 51.82597 ], [ 19.555633, 51.82597 ], [ 19.555632, 51.825969 ], [ 19.553515, 51.823736 ], [ 19.553513, 51.823733 ], [ 19.553513, 51.82373 ], [ 19.553514, 51.823727 ], [ 19.555577, 51.821474 ], [ 19.555577, 51.821473 ], [ 19.555577, 51.821472 ], [ 19.553459, 51.819239 ], [ 19.553458, 51.819236 ], [ 19.553458, 51.819233 ], [ 19.553459, 51.81923 ], [ 19.555522, 51.816977 ], [ 19.555522, 51.816976 ], [ 19.555522, 51.816976 ], [ 19.553404, 51.814742 ], [ 19.553403, 51.814739 ], [ 19.553403, 51.814736 ], [ 19.553404, 51.814733 ], [ 19.555463, 51.812484 ], [ 19.555466, 51.812482 ], [ 19.55547, 51.81248 ], [ 19.555475, 51.812479 ], [ 19.559647, 51.81246 ], [ 19.559652, 51.81246 ], [ 19.559656, 51.812462 ], [ 19.55966, 51.812464 ], [ 19.561777, 51.814697 ], [ 19.561778, 51.814698 ], [ 19.561779, 51.814698 ], [ 19.565958, 51.814678 ], [ 19.565963, 51.814679 ], [ 19.565967, 51.81468 ], [ 19.565971, 51.814682 ], [ 19.568088, 51.816916 ], [ 19.568089, 51.816916 ], [ 19.56809, 51.816916 ], [ 19.57227, 51.816896 ], [ 19.572275, 51.816896 ], [ 19.572279, 51.816898 ], [ 19.572282, 51.8169 ], [ 19.574401, 51.819133 ], [ 19.574401, 51.819134 ], [ 19.574402, 51.819134 ], [ 19.578589, 51.819114 ], [ 19.57859, 51.819113 ], [ 19.578591, 51.819113 ], [ 19.580652, 51.816859 ], [ 19.580655, 51.816857 ], [ 19.580659, 51.816855 ], [ 19.580664, 51.816855 ], [ 19.584837, 51.816834 ], [ 19.584842, 51.816835 ], [ 19.584846, 51.816836 ], [ 19.584849, 51.816839 ], [ 19.586968, 51.819071 ], [ 19.586969, 51.819072 ], [ 19.58697, 51.819072 ], [ 19.591157, 51.819051 ], [ 19.591158, 51.819051 ], [ 19.591158, 51.81905 ], [ 19.593219, 51.816797 ], [ 19.593222, 51.816794 ], [ 19.593226, 51.816793 ], [ 19.593231, 51.816792 ], [ 19.597403, 51.816771 ], [ 19.597408, 51.816771 ], [ 19.597413, 51.816773 ], [ 19.597416, 51.816775 ], [ 19.599536, 51.819008 ], [ 19.599536, 51.819009 ], [ 19.599537, 51.819009 ], [ 19.603724, 51.818987 ], [ 19.603725, 51.818987 ], [ 19.603726, 51.818987 ], [ 19.605786, 51.816733 ], [ 19.605789, 51.81673 ], [ 19.605793, 51.816729 ], [ 19.605798, 51.816728 ], [ 19.609977, 51.816706 ], [ 19.609979, 51.816706 ], [ 19.609979, 51.816706 ], [ 19.612039, 51.814452 ], [ 19.612042, 51.814449 ], [ 19.612046, 51.814448 ], [ 19.612051, 51.814447 ], [ 19.616223, 51.814425 ], [ 19.616228, 51.814426 ], [ 19.616232, 51.814427 ], [ 19.616236, 51.81443 ], [ 19.618356, 51.816662 ], [ 19.618357, 51.816663 ], [ 19.618358, 51.816663 ], [ 19.622544, 51.816641 ], [ 19.622545, 51.81664 ], [ 19.622546, 51.81664 ], [ 19.624608, 51.814382 ], [ 19.624609, 51.814381 ], [ 19.624608, 51.81438 ], [ 19.622484, 51.812145 ], [ 19.622483, 51.812144 ], [ 19.622482, 51.812144 ], [ 19.618303, 51.812166 ], [ 19.618298, 51.812165 ], [ 19.618294, 51.812164 ], [ 19.618291, 51.812161 ], [ 19.616174, 51.809933 ], [ 19.616173, 51.80993 ], [ 19.616173, 51.809927 ], [ 19.616174, 51.809924 ], [ 19.618233, 51.80767 ], [ 19.618233, 51.807669 ], [ 19.618233, 51.807669 ], [ 19.616113, 51.805436 ], [ 19.616111, 51.805433 ], [ 19.616111, 51.80543 ], [ 19.616113, 51.805427 ], [ 19.618168, 51.803177 ], [ 19.618171, 51.803175 ], [ 19.618175, 51.803173 ], [ 19.61818, 51.803172 ], [ 19.622358, 51.80315 ], [ 19.62236, 51.80315 ], [ 19.62236, 51.80315 ], [ 19.624422, 51.800892 ], [ 19.624422, 51.800891 ], [ 19.624422, 51.80089 ], [ 19.622302, 51.798658 ], [ 19.6223, 51.798655 ], [ 19.6223, 51.798652 ], [ 19.622302, 51.798649 ], [ 19.62436, 51.796395 ], [ 19.62436, 51.796394 ], [ 19.62436, 51.796394 ], [ 19.62224, 51.794161 ], [ 19.622238, 51.794159 ], [ 19.622238, 51.794155 ], [ 19.62224, 51.794152 ], [ 19.624298, 51.791898 ], [ 19.624298, 51.791898 ], [ 19.624298, 51.791897 ], [ 19.622178, 51.789665 ], [ 19.622176, 51.789662 ], [ 19.622176, 51.789659 ], [ 19.622178, 51.789656 ], [ 19.624235, 51.787402 ], [ 19.624236, 51.787401 ], [ 19.624235, 51.7874 ], [ 19.622116, 51.785168 ], [ 19.622115, 51.785165 ], [ 19.622115, 51.785162 ], [ 19.622116, 51.785159 ], [ 19.624173, 51.782905 ], [ 19.624174, 51.782904 ], [ 19.624173, 51.782903 ], [ 19.622051, 51.780668 ], [ 19.62205, 51.780667 ], [ 19.622049, 51.780667 ], [ 19.617873, 51.780689 ], [ 19.617868, 51.780688 ], [ 19.617864, 51.780687 ], [ 19.61786, 51.780684 ], [ 19.615745, 51.778456 ], [ 19.615744, 51.778453 ], [ 19.615744, 51.77845 ], [ 19.615745, 51.778447 ], [ 19.617799, 51.776197 ], [ 19.617802, 51.776194 ], [ 19.617807, 51.776193 ], [ 19.617812, 51.776192 ], [ 19.621987, 51.77617 ], [ 19.621988, 51.77617 ], [ 19.621989, 51.776169 ], [ 19.624049, 51.773911 ], [ 19.62405, 51.773911 ], [ 19.624049, 51.77391 ], [ 19.621931, 51.771678 ], [ 19.621929, 51.771675 ], [ 19.621929, 51.771672 ], [ 19.621931, 51.771669 ], [ 19.623984, 51.769418 ], [ 19.623987, 51.769416 ], [ 19.623991, 51.769414 ], [ 19.623996, 51.769414 ], [ 19.628171, 51.769392 ], [ 19.628172, 51.769391 ], [ 19.628173, 51.769391 ], [ 19.630233, 51.767133 ], [ 19.630233, 51.767132 ], [ 19.630233, 51.767131 ], [ 19.628111, 51.764896 ], [ 19.62811, 51.764895 ], [ 19.628109, 51.764895 ], [ 19.623934, 51.764917 ], [ 19.623929, 51.764917 ], [ 19.623925, 51.764915 ], [ 19.623922, 51.764913 ], [ 19.621807, 51.762684 ], [ 19.621805, 51.762681 ], [ 19.621805, 51.762678 ], [ 19.621807, 51.762675 ], [ 19.62386, 51.760425 ], [ 19.623863, 51.760423 ], [ 19.623867, 51.760421 ], [ 19.623872, 51.76042 ], [ 19.628046, 51.760398 ], [ 19.628048, 51.760398 ], [ 19.628048, 51.760397 ], [ 19.630104, 51.758143 ], [ 19.630107, 51.758141 ], [ 19.630112, 51.758139 ], [ 19.630117, 51.758139 ], [ 19.63429, 51.758116 ], [ 19.634292, 51.758116 ], [ 19.634292, 51.758115 ], [ 19.636348, 51.755861 ], [ 19.636351, 51.755859 ], [ 19.636355, 51.755857 ], [ 19.63636, 51.755856 ], [ 19.640534, 51.755834 ], [ 19.640535, 51.755834 ], [ 19.640536, 51.755833 ], [ 19.642594, 51.753575 ], [ 19.642595, 51.753574 ], [ 19.642594, 51.753573 ], [ 19.640472, 51.751338 ], [ 19.640471, 51.751337 ], [ 19.64047, 51.751337 ], [ 19.636297, 51.75136 ], [ 19.636292, 51.751359 ], [ 19.636288, 51.751358 ], [ 19.636284, 51.751355 ], [ 19.634166, 51.749123 ], [ 19.634166, 51.749123 ], [ 19.634164, 51.749123 ], [ 19.629991, 51.749145 ], [ 19.629986, 51.749145 ], [ 19.629982, 51.749143 ], [ 19.629979, 51.749141 ], [ 19.627865, 51.746912 ], [ 19.627863, 51.746909 ], [ 19.627863, 51.746906 ], [ 19.627865, 51.746903 ], [ 19.629916, 51.744653 ], [ 19.62992, 51.74465 ], [ 19.629924, 51.744649 ], [ 19.629929, 51.744648 ], [ 19.634102, 51.744626 ], [ 19.634103, 51.744626 ], [ 19.634103, 51.744625 ], [ 19.636162, 51.742367 ], [ 19.636162, 51.742366 ], [ 19.636162, 51.742365 ], [ 19.634044, 51.740134 ], [ 19.634042, 51.740131 ], [ 19.634042, 51.740128 ], [ 19.634044, 51.740125 ], [ 19.636099, 51.73787 ], [ 19.636099, 51.737869 ], [ 19.636099, 51.737869 ], [ 19.633981, 51.735637 ], [ 19.633979, 51.735634 ], [ 19.633979, 51.735631 ], [ 19.633981, 51.735628 ], [ 19.636035, 51.733373 ], [ 19.636036, 51.733373 ], [ 19.636035, 51.733372 ], [ 19.633918, 51.73114 ], [ 19.633916, 51.731137 ], [ 19.633916, 51.731134 ], [ 19.633918, 51.731131 ], [ 19.635972, 51.728877 ], [ 19.635973, 51.728876 ], [ 19.635972, 51.728875 ], [ 19.633855, 51.726643 ], [ 19.633854, 51.72664 ], [ 19.633854, 51.726637 ], [ 19.633855, 51.726634 ], [ 19.635909, 51.72438 ], [ 19.63591, 51.724379 ], [ 19.635909, 51.724378 ], [ 19.633789, 51.722143 ], [ 19.633788, 51.722142 ], [ 19.633787, 51.722142 ], [ 19.629616, 51.722164 ], [ 19.629611, 51.722164 ], [ 19.629607, 51.722162 ], [ 19.629604, 51.72216 ], [ 19.627491, 51.719932 ], [ 19.627489, 51.719929 ], [ 19.627489, 51.719926 ], [ 19.627491, 51.719923 ], [ 19.629545, 51.717668 ], [ 19.629545, 51.717668 ], [ 19.629545, 51.717667 ], [ 19.627425, 51.715431 ], [ 19.627424, 51.715431 ], [ 19.627423, 51.715431 ], [ 19.623253, 51.715453 ], [ 19.623248, 51.715452 ], [ 19.623244, 51.715451 ], [ 19.623241, 51.715448 ], [ 19.621129, 51.71322 ], [ 19.621127, 51.713217 ], [ 19.621127, 51.713214 ], [ 19.621129, 51.713211 ], [ 19.623183, 51.710957 ], [ 19.623183, 51.710956 ], [ 19.623183, 51.710955 ], [ 19.621067, 51.708723 ], [ 19.621065, 51.70872 ], [ 19.621065, 51.708717 ], [ 19.621067, 51.708714 ], [ 19.623121, 51.70646 ], [ 19.623121, 51.706459 ], [ 19.623121, 51.706459 ], [ 19.621002, 51.704223 ], [ 19.621001, 51.704222 ], [ 19.621, 51.704222 ], [ 19.616831, 51.704244 ], [ 19.616826, 51.704243 ], [ 19.616822, 51.704242 ], [ 19.616819, 51.704239 ], [ 19.614707, 51.702011 ], [ 19.614706, 51.702008 ], [ 19.614705, 51.702005 ], [ 19.614707, 51.702002 ], [ 19.616761, 51.699748 ], [ 19.616761, 51.699747 ], [ 19.616761, 51.699746 ], [ 19.614643, 51.69751 ], [ 19.614642, 51.69751 ], [ 19.614641, 51.69751 ], [ 19.610473, 51.697531 ], [ 19.610468, 51.697531 ], [ 19.610463, 51.697529 ], [ 19.61046, 51.697527 ], [ 19.608346, 51.695295 ], [ 19.608345, 51.695294 ], [ 19.608344, 51.695294 ], [ 19.604176, 51.695315 ], [ 19.604171, 51.695315 ], [ 19.604166, 51.695313 ], [ 19.604163, 51.695311 ], [ 19.602049, 51.693078 ], [ 19.602049, 51.693078 ], [ 19.602047, 51.693078 ], [ 19.597872, 51.693099 ], [ 19.597871, 51.693099 ], [ 19.597871, 51.6931 ], [ 19.595816, 51.695354 ], [ 19.595813, 51.695356 ], [ 19.595808, 51.695358 ], [ 19.595804, 51.695358 ], [ 19.591635, 51.695379 ], [ 19.591634, 51.695379 ], [ 19.591634, 51.69538 ], [ 19.589579, 51.697634 ], [ 19.589575, 51.697636 ], [ 19.589571, 51.697638 ], [ 19.589566, 51.697638 ], [ 19.585398, 51.697659 ], [ 19.585397, 51.697659 ], [ 19.585396, 51.69766 ], [ 19.583341, 51.699913 ], [ 19.583337, 51.699916 ], [ 19.583333, 51.699917 ], [ 19.583328, 51.699918 ], [ 19.57916, 51.699938 ], [ 19.579158, 51.699939 ], [ 19.579158, 51.699939 ], [ 19.577102, 51.702193 ], [ 19.577099, 51.702195 ], [ 19.577094, 51.702197 ], [ 19.57709, 51.702197 ], [ 19.572928, 51.702218 ], [ 19.572923, 51.702217 ], [ 19.572919, 51.702216 ], [ 19.572915, 51.702213 ], [ 19.570803, 51.69998 ], [ 19.570802, 51.699979 ], [ 19.570801, 51.699979 ], [ 19.566632, 51.7 ], [ 19.566627, 51.699999 ], [ 19.566623, 51.699997 ], [ 19.56662, 51.699995 ], [ 19.564511, 51.697766 ], [ 19.564509, 51.697763 ], [ 19.564509, 51.69776 ], [ 19.564511, 51.697757 ], [ 19.566567, 51.695503 ], [ 19.566567, 51.695503 ], [ 19.566567, 51.695502 ], [ 19.564451, 51.693265 ], [ 19.564451, 51.693265 ], [ 19.56445, 51.693264 ], [ 19.560275, 51.693284 ], [ 19.560273, 51.693285 ], [ 19.560273, 51.693285 ], [ 19.558216, 51.695538 ], [ 19.558213, 51.695541 ], [ 19.558209, 51.695542 ], [ 19.558204, 51.695543 ], [ 19.554043, 51.695562 ], [ 19.554038, 51.695562 ], [ 19.554033, 51.69556 ], [ 19.55403, 51.695558 ], [ 19.551919, 51.693325 ], [ 19.551918, 51.693324 ], [ 19.551917, 51.693324 ], [ 19.547749, 51.693343 ], [ 19.547744, 51.693343 ], [ 19.54774, 51.693341 ], [ 19.547736, 51.693339 ], [ 19.545625, 51.691105 ], [ 19.545625, 51.691105 ], [ 19.545623, 51.691105 ], [ 19.541449, 51.691124 ], [ 19.541447, 51.691124 ], [ 19.541447, 51.691125 ], [ 19.539389, 51.693378 ], [ 19.539386, 51.69338 ], [ 19.539382, 51.693382 ], [ 19.539377, 51.693382 ], [ 19.535216, 51.693401 ], [ 19.535211, 51.693401 ], [ 19.535207, 51.693399 ], [ 19.535204, 51.693397 ], [ 19.533097, 51.691167 ], [ 19.533095, 51.691164 ], [ 19.533095, 51.691161 ], [ 19.533097, 51.691158 ], [ 19.535154, 51.688905 ], [ 19.535155, 51.688904 ], [ 19.535154, 51.688904 ], [ 19.53304, 51.686666 ], [ 19.53304, 51.686666 ], [ 19.533038, 51.686665 ], [ 19.528864, 51.686684 ], [ 19.528863, 51.686684 ], [ 19.528862, 51.686685 ], [ 19.526805, 51.688938 ], [ 19.526801, 51.68894 ], [ 19.526797, 51.688942 ], [ 19.526792, 51.688942 ], [ 19.522632, 51.688961 ], [ 19.522627, 51.68896 ], [ 19.522622, 51.688959 ], [ 19.522619, 51.688956 ], [ 19.520509, 51.686722 ], [ 19.520509, 51.686722 ], [ 19.520508, 51.686722 ], [ 19.516333, 51.68674 ], [ 19.516332, 51.68674 ], [ 19.516331, 51.686741 ], [ 19.514273, 51.688993 ], [ 19.51427, 51.688996 ], [ 19.514265, 51.688997 ], [ 19.51426, 51.688998 ], [ 19.510093, 51.689016 ], [ 19.510092, 51.689016 ], [ 19.510091, 51.689017 ], [ 19.508029, 51.691273 ], [ 19.508028, 51.691273 ], [ 19.508029, 51.691274 ], [ 19.510138, 51.693508 ], [ 19.51014, 51.693511 ], [ 19.51014, 51.693514 ], [ 19.510138, 51.693517 ], [ 19.508083, 51.695766 ], [ 19.508079, 51.695768 ], [ 19.508075, 51.69577 ], [ 19.50807, 51.69577 ], [ 19.503909, 51.695788 ], [ 19.503904, 51.695788 ], [ 19.5039, 51.695786 ], [ 19.503896, 51.695784 ], [ 19.501788, 51.693549 ], [ 19.501787, 51.693549 ], [ 19.501786, 51.693549 ], [ 19.497611, 51.693567 ], [ 19.497609, 51.693567 ], [ 19.497609, 51.693567 ], [ 19.495549, 51.695819 ], [ 19.495546, 51.695822 ], [ 19.495542, 51.695823 ], [ 19.495537, 51.695824 ], [ 19.491368, 51.695841 ], [ 19.491367, 51.695841 ], [ 19.491367, 51.695842 ], [ 19.489307, 51.698094 ], [ 19.489303, 51.698096 ], [ 19.489299, 51.698098 ], [ 19.489294, 51.698099 ], [ 19.485133, 51.698116 ], [ 19.485128, 51.698115 ], [ 19.485123, 51.698114 ], [ 19.48512, 51.698111 ], [ 19.483012, 51.695877 ], [ 19.483011, 51.695876 ], [ 19.48301, 51.695876 ], [ 19.478842, 51.695893 ], [ 19.478837, 51.695893 ], [ 19.478833, 51.695891 ], [ 19.478829, 51.695889 ], [ 19.476722, 51.693654 ], [ 19.476721, 51.693653 ], [ 19.47672, 51.693653 ], [ 19.472552, 51.69367 ], [ 19.472547, 51.693669 ], [ 19.472542, 51.693668 ], [ 19.472539, 51.693666 ], [ 19.470435, 51.691434 ], [ 19.470434, 51.691431 ], [ 19.470434, 51.691428 ], [ 19.470435, 51.691425 ], [ 19.472496, 51.689174 ], [ 19.472496, 51.689173 ], [ 19.472496, 51.689172 ], [ 19.470385, 51.686934 ], [ 19.470385, 51.686933 ], [ 19.470383, 51.686933 ], [ 19.466216, 51.68695 ], [ 19.466211, 51.686949 ], [ 19.466207, 51.686948 ], [ 19.466203, 51.686945 ], [ 19.464097, 51.68471 ], [ 19.464096, 51.68471 ], [ 19.464095, 51.684709 ], [ 19.459921, 51.684726 ], [ 19.459919, 51.684726 ], [ 19.459919, 51.684727 ], [ 19.457858, 51.686978 ], [ 19.457854, 51.68698 ], [ 19.45785, 51.686982 ], [ 19.457845, 51.686983 ], [ 19.453685, 51.686999 ], [ 19.45368, 51.686998 ], [ 19.453675, 51.686997 ], [ 19.453672, 51.686994 ], [ 19.451566, 51.684759 ], [ 19.451565, 51.684758 ], [ 19.451564, 51.684758 ], [ 19.44739, 51.684774 ], [ 19.447389, 51.684774 ], [ 19.447388, 51.684775 ], [ 19.445326, 51.687026 ], [ 19.445323, 51.687029 ], [ 19.445319, 51.68703 ], [ 19.445314, 51.687031 ], [ 19.441154, 51.687046 ], [ 19.441149, 51.687046 ], [ 19.441144, 51.687044 ], [ 19.441141, 51.687042 ], [ 19.439036, 51.684806 ], [ 19.439035, 51.684806 ], [ 19.439034, 51.684806 ], [ 19.434866, 51.684821 ], [ 19.434862, 51.684821 ], [ 19.434857, 51.684819 ], [ 19.434854, 51.684817 ], [ 19.432749, 51.682581 ], [ 19.432748, 51.682581 ], [ 19.432747, 51.682581 ], [ 19.428573, 51.682596 ], [ 19.428572, 51.682596 ], [ 19.428571, 51.682597 ], [ 19.426509, 51.684847 ], [ 19.426505, 51.68485 ], [ 19.426501, 51.684851 ], [ 19.426496, 51.684852 ], [ 19.422329, 51.684867 ], [ 19.422328, 51.684867 ], [ 19.422327, 51.684868 ], [ 19.420264, 51.687119 ], [ 19.420261, 51.687121 ], [ 19.420256, 51.687122 ], [ 19.420252, 51.687123 ], [ 19.416084, 51.687138 ], [ 19.416083, 51.687138 ], [ 19.416082, 51.687139 ], [ 19.414015, 51.689393 ], [ 19.414015, 51.689394 ], [ 19.414015, 51.689394 ], [ 19.41612, 51.69163 ], [ 19.416122, 51.691633 ], [ 19.416122, 51.691636 ], [ 19.41612, 51.691639 ], [ 19.41406, 51.693886 ], [ 19.414057, 51.693889 ], [ 19.414052, 51.69389 ], [ 19.414047, 51.693891 ], [ 19.409886, 51.693905 ], [ 19.409881, 51.693905 ], [ 19.409877, 51.693903 ], [ 19.409874, 51.693901 ], [ 19.40777, 51.691665 ], [ 19.407769, 51.691664 ], [ 19.407768, 51.691664 ], [ 19.4036, 51.691679 ], [ 19.403595, 51.691678 ], [ 19.403591, 51.691676 ], [ 19.403587, 51.691674 ], [ 19.401483, 51.689438 ], [ 19.401483, 51.689437 ], [ 19.401482, 51.689437 ], [ 19.397307, 51.689451 ], [ 19.397306, 51.689452 ], [ 19.397305, 51.689452 ], [ 19.395241, 51.691702 ], [ 19.395237, 51.691705 ], [ 19.395233, 51.691706 ], [ 19.395228, 51.691707 ], [ 19.39106, 51.691721 ], [ 19.391059, 51.691721 ], [ 19.391058, 51.691722 ], [ 19.388994, 51.693972 ], [ 19.38899, 51.693974 ], [ 19.388986, 51.693976 ], [ 19.388981, 51.693976 ], [ 19.38482, 51.69399 ], [ 19.384815, 51.69399 ], [ 19.384811, 51.693988 ], [ 19.384808, 51.693986 ], [ 19.382705, 51.691749 ], [ 19.382704, 51.691749 ], [ 19.382703, 51.691748 ], [ 19.378528, 51.691762 ], [ 19.378526, 51.691762 ], [ 19.378526, 51.691763 ], [ 19.37646, 51.694013 ], [ 19.376457, 51.694015 ], [ 19.376453, 51.694017 ], [ 19.376448, 51.694017 ], [ 19.37228, 51.69403 ], [ 19.372279, 51.694031 ], [ 19.372278, 51.694031 ], [ 19.370212, 51.696281 ], [ 19.370209, 51.696283 ], [ 19.370205, 51.696285 ], [ 19.3702, 51.696286 ], [ 19.366038, 51.696299 ], [ 19.366033, 51.696298 ], [ 19.366029, 51.696297 ], [ 19.366026, 51.696294 ], [ 19.363924, 51.694057 ], [ 19.363923, 51.694057 ], [ 19.363922, 51.694057 ], [ 19.359747, 51.69407 ], [ 19.359745, 51.69407 ], [ 19.359745, 51.69407 ], [ 19.357675, 51.696324 ], [ 19.357674, 51.696324 ], [ 19.357675, 51.696325 ], [ 19.359777, 51.698562 ], [ 19.359778, 51.698565 ], [ 19.359778, 51.698568 ], [ 19.359777, 51.698571 ], [ 19.357714, 51.700817 ], [ 19.35771, 51.700819 ], [ 19.357706, 51.700821 ], [ 19.357701, 51.700821 ], [ 19.353532, 51.700834 ], [ 19.353531, 51.700834 ], [ 19.353531, 51.700835 ], [ 19.351464, 51.703084 ], [ 19.35146, 51.703087 ], [ 19.351456, 51.703088 ], [ 19.351451, 51.703089 ], [ 19.347282, 51.703101 ], [ 19.347281, 51.703101 ], [ 19.34728, 51.703102 ], [ 19.345209, 51.705355 ], [ 19.345209, 51.705356 ], [ 19.345209, 51.705357 ], [ 19.347311, 51.707594 ], [ 19.347313, 51.707597 ], [ 19.347313, 51.7076 ], [ 19.347311, 51.707603 ], [ 19.345243, 51.709852 ], [ 19.345243, 51.709853 ], [ 19.345243, 51.709853 ], [ 19.347345, 51.712091 ], [ 19.347347, 51.712094 ], [ 19.347347, 51.712097 ], [ 19.347346, 51.7121 ], [ 19.345281, 51.714345 ], [ 19.345278, 51.714348 ], [ 19.345274, 51.714349 ], [ 19.345269, 51.71435 ], [ 19.341099, 51.714362 ], [ 19.341098, 51.714362 ], [ 19.341097, 51.714363 ], [ 19.339025, 51.716616 ], [ 19.339025, 51.716617 ], [ 19.339025, 51.716617 ], [ 19.341127, 51.718854 ], [ 19.341129, 51.718857 ], [ 19.341129, 51.718861 ], [ 19.341127, 51.718863 ], [ 19.339062, 51.721109 ], [ 19.339059, 51.721111 ], [ 19.339055, 51.721113 ], [ 19.33905, 51.721114 ], [ 19.334879, 51.721125 ], [ 19.334878, 51.721126 ], [ 19.334877, 51.721126 ], [ 19.332805, 51.723379 ], [ 19.332804, 51.72338 ], [ 19.332805, 51.723381 ], [ 19.334907, 51.725618 ], [ 19.334909, 51.725621 ], [ 19.334909, 51.725624 ], [ 19.334907, 51.725627 ], [ 19.332838, 51.727876 ], [ 19.332837, 51.727877 ], [ 19.332838, 51.727878 ], [ 19.33494, 51.730115 ], [ 19.334942, 51.730118 ], [ 19.334942, 51.730121 ], [ 19.33494, 51.730124 ], [ 19.332871, 51.732373 ], [ 19.332871, 51.732374 ], [ 19.332871, 51.732375 ], [ 19.334973, 51.734612 ], [ 19.334975, 51.734615 ], [ 19.334975, 51.734618 ], [ 19.334973, 51.734621 ], [ 19.332904, 51.73687 ], [ 19.332904, 51.736871 ], [ 19.332904, 51.736871 ], [ 19.335007, 51.739109 ], [ 19.335008, 51.739112 ], [ 19.335008, 51.739115 ], [ 19.335007, 51.739118 ], [ 19.332937, 51.741367 ], [ 19.332937, 51.741368 ], [ 19.332937, 51.741368 ], [ 19.335043, 51.74361 ], [ 19.335044, 51.74361 ], [ 19.335045, 51.74361 ], [ 19.339225, 51.743598 ], [ 19.339226, 51.743598 ], [ 19.339227, 51.743598 ], [ 19.341296, 51.741348 ], [ 19.3413, 51.741346 ], [ 19.341304, 51.741344 ], [ 19.341309, 51.741344 ], [ 19.345474, 51.741332 ], [ 19.345479, 51.741332 ], [ 19.345484, 51.741334 ], [ 19.345487, 51.741336 ], [ 19.34759, 51.743573 ], [ 19.347591, 51.743574 ], [ 19.347592, 51.743574 ], [ 19.351765, 51.743561 ], [ 19.35177, 51.743562 ], [ 19.351774, 51.743563 ], [ 19.351778, 51.743566 ], [ 19.353881, 51.745803 ], [ 19.353882, 51.745803 ], [ 19.353883, 51.745804 ], [ 19.358063, 51.745791 ], [ 19.358064, 51.745791 ], [ 19.358065, 51.74579 ], [ 19.360134, 51.743541 ], [ 19.360137, 51.743538 ], [ 19.360141, 51.743537 ], [ 19.360146, 51.743536 ], [ 19.364312, 51.743523 ], [ 19.364317, 51.743524 ], [ 19.364321, 51.743525 ], [ 19.364325, 51.743528 ], [ 19.366425, 51.745761 ], [ 19.366427, 51.745764 ], [ 19.366427, 51.745767 ], [ 19.366426, 51.74577 ], [ 19.364357, 51.748019 ], [ 19.364357, 51.74802 ], [ 19.364357, 51.748021 ], [ 19.366462, 51.750258 ], [ 19.366464, 51.750261 ], [ 19.366464, 51.750264 ], [ 19.366462, 51.750267 ], [ 19.364393, 51.752516 ], [ 19.364393, 51.752517 ], [ 19.364393, 51.752518 ], [ 19.366498, 51.754755 ], [ 19.3665, 51.754757 ], [ 19.3665, 51.754761 ], [ 19.366498, 51.754764 ], [ 19.364433, 51.757009 ], [ 19.36443, 51.757012 ], [ 19.364425, 51.757013 ], [ 19.36442, 51.757014 ], [ 19.360254, 51.757027 ], [ 19.360249, 51.757026 ], [ 19.360244, 51.757025 ], [ 19.360241, 51.757022 ], [ 19.358136, 51.754785 ], [ 19.358136, 51.754785 ], [ 19.358134, 51.754785 ], [ 19.353954, 51.754797 ], [ 19.353952, 51.754798 ], [ 19.353952, 51.754798 ], [ 19.351882, 51.757048 ], [ 19.351879, 51.75705 ], [ 19.351875, 51.757052 ], [ 19.35187, 51.757052 ], [ 19.347696, 51.757065 ], [ 19.347695, 51.757065 ], [ 19.347694, 51.757065 ], [ 19.345621, 51.759319 ], [ 19.34562, 51.759319 ], [ 19.345621, 51.75932 ], [ 19.347725, 51.761557 ], [ 19.347727, 51.76156 ], [ 19.347727, 51.761563 ], [ 19.347725, 51.761566 ], [ 19.345658, 51.763812 ], [ 19.345655, 51.763814 ], [ 19.345651, 51.763816 ], [ 19.345646, 51.763816 ], [ 19.341471, 51.763828 ], [ 19.34147, 51.763829 ], [ 19.341469, 51.763829 ], [ 19.339399, 51.766078 ], [ 19.339396, 51.766081 ], [ 19.339391, 51.766082 ], [ 19.339387, 51.766083 ], [ 19.335212, 51.766095 ], [ 19.335211, 51.766095 ], [ 19.33521, 51.766096 ], [ 19.333135, 51.768349 ], [ 19.333135, 51.768349 ], [ 19.333135, 51.76835 ], [ 19.33524, 51.770587 ], [ 19.335241, 51.77059 ], [ 19.335241, 51.770593 ], [ 19.33524, 51.770596 ], [ 19.333169, 51.772846 ], [ 19.333168, 51.772846 ], [ 19.333169, 51.772847 ], [ 19.335276, 51.775088 ], [ 19.335277, 51.775089 ], [ 19.335278, 51.775089 ], [ 19.339454, 51.775077 ], [ 19.339459, 51.775077 ], [ 19.339463, 51.775079 ], [ 19.339467, 51.775081 ], [ 19.341568, 51.777315 ], [ 19.341569, 51.777318 ], [ 19.341569, 51.777321 ], [ 19.341568, 51.777324 ], [ 19.3395, 51.779569 ], [ 19.339497, 51.779572 ], [ 19.339493, 51.779573 ], [ 19.339488, 51.779574 ], [ 19.335312, 51.779586 ], [ 19.335311, 51.779586 ], [ 19.33531, 51.779586 ], [ 19.333235, 51.781839 ], [ 19.333234, 51.78184 ], [ 19.333235, 51.781841 ], [ 19.33534, 51.784078 ], [ 19.335341, 51.784081 ], [ 19.335341, 51.784084 ], [ 19.33534, 51.784087 ], [ 19.333268, 51.786336 ], [ 19.333268, 51.786337 ], [ 19.333268, 51.786338 ], [ 19.335376, 51.788579 ], [ 19.335377, 51.788579 ], [ 19.335378, 51.78858 ], [ 19.339562, 51.788568 ], [ 19.339563, 51.788567 ], [ 19.339564, 51.788567 ], [ 19.341636, 51.786318 ], [ 19.341639, 51.786315 ], [ 19.341643, 51.786314 ], [ 19.341648, 51.786313 ], [ 19.345818, 51.786301 ], [ 19.345823, 51.786301 ], [ 19.345827, 51.786303 ], [ 19.34583, 51.786305 ], [ 19.347936, 51.788542 ], [ 19.347937, 51.788543 ], [ 19.347938, 51.788543 ], [ 19.352115, 51.788531 ], [ 19.35212, 51.788531 ], [ 19.352124, 51.788533 ], [ 19.352127, 51.788535 ], [ 19.35423, 51.790768 ], [ 19.354231, 51.790771 ], [ 19.354231, 51.790774 ], [ 19.35423, 51.790777 ], [ 19.352162, 51.793023 ], [ 19.352159, 51.793025 ], [ 19.352155, 51.793027 ], [ 19.35215, 51.793028 ], [ 19.347972, 51.79304 ], [ 19.347971, 51.79304 ], [ 19.347971, 51.793041 ], [ 19.345899, 51.79529 ], [ 19.345896, 51.795293 ], [ 19.345892, 51.795294 ], [ 19.345887, 51.795295 ], [ 19.341716, 51.795307 ], [ 19.341711, 51.795306 ], [ 19.341707, 51.795305 ], [ 19.341704, 51.795302 ], [ 19.339598, 51.793065 ], [ 19.339597, 51.793065 ], [ 19.339596, 51.793064 ], [ 19.335412, 51.793076 ], [ 19.335411, 51.793077 ], [ 19.33541, 51.793077 ], [ 19.333338, 51.795326 ], [ 19.333335, 51.795329 ], [ 19.33333, 51.79533 ], [ 19.333325, 51.795331 ], [ 19.329148, 51.795343 ], [ 19.329147, 51.795343 ], [ 19.329146, 51.795343 ], [ 19.327073, 51.797592 ], [ 19.32707, 51.797595 ], [ 19.327066, 51.797596 ], [ 19.327061, 51.797597 ], [ 19.322883, 51.797609 ], [ 19.322882, 51.797609 ], [ 19.322881, 51.797609 ], [ 19.320805, 51.799862 ], [ 19.320804, 51.799863 ] ] ] } }
]
}
