{
"type": "FeatureCollection",
"name": "boundary_warszawa",
"crs": { "type": "name", "properties": { "name": "urn:ogc:def:crs:OGC:1.3:CRS84" } },
"xy_coordinate_resolution": 1e-06,
"features": [
{ "type": "Feature", "properties": { "fid": 1, "name": "Warszawa" }, "geometry": { "type": "Polygon", "coordinates": [ [ [ 20.851185, 52.188849 ], [ 20.851185, 52.18885 ], [ 20.853384, 52.191059 ], [ 20.853386, 52.191062 ], [ 20.853386, 52.191065 ], [ 20.853385, 52.191068 ], [ 20.851372, 52.193343 ], [ 20.851371, 52.193344 ], [ 20.851372, 52.193344 ], [ 20.853571, 52.195553 ], [ 20.853573, 52.195556 ], [ 20.853573, 52.195559 ], [ 20.853572, 52.195562 ], [ 20.851558, 52.197837 ], [ 20.851558, 52.197838 ], [ 20.851559, 52.197839 ], [ 20.853758, 52.200048 ], [ 20.85376, 52.200051 ], [ 20.85376, 52.200054 ], [ 20.853759, 52.200057 ], [ 20.851745, 52.202332 ], [ 20.851745, 52.202332 ], [ 20.851745, 52.202333 ], [ 20.853945, 52.204542 ], [ 20.853947, 52.204545 ], [ 20.853947, 52.204548 ], [ 20.853946, 52.204551 ], [ 20.851932, 52.206826 ], [ 20.851932, 52.206827 ], [ 20.851932, 52.206827 ], [ 20.854136, 52.20904 ], [ 20.854137, 52.209041 ], [ 20.854138, 52.209041 ], [ 20.858352, 52.208974 ], [ 20.858357, 52.208975 ], [ 20.858362, 52.208976 ], [ 20.858365, 52.208979 ], [ 20.860566, 52.211187 ], [ 20.860567, 52.211188 ], [ 20.860568, 52.211188 ], [ 20.864782, 52.211122 ], [ 20.864787, 52.211122 ], [ 20.864791, 52.211124 ], [ 20.864795, 52.211126 ], [ 20.866992, 52.213331 ], [ 20.866994, 52.213334 ], [ 20.866994, 52.213337 ], [ 20.866993, 52.21334 ], [ 20.864979, 52.215615 ], [ 20.864979, 52.215616 ], [ 20.864979, 52.215616 ], [ 20.867184, 52.217829 ], [ 20.867185, 52.217829 ], [ 20.867186, 52.217829 ], [ 20.871401, 52.217763 ], [ 20.871406, 52.217763 ], [ 20.871411, 52.217765 ], [ 20.871414, 52.217767 ], [ 20.873612, 52.219972 ], [ 20.873614, 52.219975 ], [ 20.873614, 52.219978 ], [ 20.873612, 52.219981 ], [ 20.871603, 52.222252 ], [ 20.871599, 52.222255 ], [ 20.871595, 52.222256 ], [ 20.87159, 52.222257 ], [ 20.867375, 52.222324 ], [ 20.867374, 52.222324 ], [ 20.867373, 52.222324 ], [ 20.865356, 52.224604 ], [ 20.865356, 52.224604 ], [ 20.865356, 52.224605 ], [ 20.867558, 52.226814 ], [ 20.86756, 52.226816 ], [ 20.86756, 52.22682 ], [ 20.867558, 52.226823 ], [ 20.865544, 52.229098 ], [ 20.865544, 52.229099 ], [ 20.865544, 52.229099 ], [ 20.86775, 52.231312 ], [ 20.867751, 52.231312 ], [ 20.867752, 52.231312 ], [ 20.871968, 52.231245 ], [ 20.871973, 52.231246 ], [ 20.871978, 52.231247 ], [ 20.871981, 52.23125 ], [ 20.874184, 52.233458 ], [ 20.874184, 52.233459 ], [ 20.874186, 52.233459 ], [ 20.878402, 52.233392 ], [ 20.878407, 52.233392 ], [ 20.878411, 52.233394 ], [ 20.878415, 52.233396 ], [ 20.880618, 52.235604 ], [ 20.880618, 52.235605 ], [ 20.88062, 52.235605 ], [ 20.884836, 52.235538 ], [ 20.884841, 52.235538 ], [ 20.884846, 52.23554 ], [ 20.884849, 52.235542 ], [ 20.887049, 52.237747 ], [ 20.88705, 52.23775 ], [ 20.887051, 52.237753 ], [ 20.887049, 52.237756 ], [ 20.885036, 52.240031 ], [ 20.885035, 52.240032 ], [ 20.885036, 52.240033 ], [ 20.887239, 52.242241 ], [ 20.887241, 52.242244 ], [ 20.887241, 52.242247 ], [ 20.88724, 52.24225 ], [ 20.88523, 52.244522 ], [ 20.885226, 52.244524 ], [ 20.885222, 52.244526 ], [ 20.885217, 52.244526 ], [ 20.881, 52.244594 ], [ 20.880999, 52.244594 ], [ 20.880998, 52.244594 ], [ 20.878984, 52.24687 ], [ 20.878981, 52.246872 ], [ 20.878976, 52.246874 ], [ 20.878971, 52.246874 ], [ 20.874754, 52.246942 ], [ 20.874753, 52.246942 ], [ 20.874752, 52.246942 ], [ 20.872738, 52.249218 ], [ 20.872734, 52.24922 ], [ 20.87273, 52.249222 ], [ 20.872725, 52.249222 ], [ 20.868514, 52.249289 ], [ 20.868509, 52.249289 ], [ 20.868505, 52.249287 ], [ 20.868502, 52.249285 ], [ 20.866299, 52.247076 ], [ 20.866298, 52.247076 ], [ 20.866297, 52.247076 ], [ 20.862072, 52.247142 ], [ 20.862071, 52.247142 ], [ 20.86207, 52.247143 ], [ 20.860051, 52.249422 ], [ 20.860051, 52.249423 ], [ 20.860052, 52.249423 ], [ 20.862254, 52.251632 ], [ 20.862256, 52.251635 ], [ 20.862256, 52.251638 ], [ 20.862255, 52.251641 ], [ 20.86024, 52.253916 ], [ 20.860239, 52.253917 ], [ 20.86024, 52.253918 ], [ 20.862446, 52.25613 ], [ 20.862447, 52.256131 ], [ 20.862448, 52.256131 ], [ 20.866667, 52.256064 ], [ 20.866672, 52.256065 ], [ 20.866676, 52.256066 ], [ 20.86668, 52.256069 ], [ 20.868879, 52.258273 ], [ 20.868881, 52.258276 ], [ 20.868881, 52.258279 ], [ 20.86888, 52.258282 ], [ 20.866865, 52.260558 ], [ 20.866864, 52.260558 ], [ 20.866865, 52.260559 ], [ 20.869072, 52.262771 ], [ 20.869073, 52.262772 ], [ 20.869074, 52.262772 ], [ 20.873293, 52.262705 ], [ 20.873298, 52.262706 ], [ 20.873303, 52.262707 ], [ 20.873306, 52.262709 ], [ 20.875506, 52.264914 ], [ 20.875508, 52.264917 ], [ 20.875508, 52.26492 ], [ 20.875507, 52.264923 ], [ 20.873492, 52.267198 ], [ 20.873491, 52.267199 ], [ 20.873492, 52.2672 ], [ 20.875696, 52.269408 ], [ 20.875698, 52.269411 ], [ 20.875698, 52.269414 ], [ 20.875697, 52.269417 ], [ 20.873681, 52.271693 ], [ 20.873681, 52.271693 ], [ 20.873681, 52.271694 ], [ 20.875886, 52.273902 ], [ 20.875888, 52.273905 ], [ 20.875888, 52.273908 ], [ 20.875886, 52.273911 ], [ 20.873871, 52.276187 ], [ 20.87387, 52.276188 ], [ 20.873871, 52.276188 ], [ 20.876076, 52.278397 ], [ 20.876078, 52.2784 ], [ 20.876078, 52.278403 ], [ 20.876076, 52.278406 ], [ 20.874064, 52.280677 ], [ 20.874061, 52.28068 ], [ 20.874056, 52.280681 ], [ 20.874051, 52.280682 ], [ 20.869831, 52.280749 ], [ 20.869829, 52.280749 ], [ 20.869829, 52.28075 ], [ 20.867809, 52.283029 ], [ 20.867809, 52.283029 ], [ 20.867809, 52.28303 ], [ 20.870014, 52.285239 ], [ 20.870016, 52.285242 ], [ 20.870016, 52.285245 ], [ 20.870015, 52.285248 ], [ 20.867998, 52.287523 ], [ 20.867998, 52.287524 ], [ 20.867998, 52.287524 ], [ 20.870207, 52.289737 ], [ 20.870208, 52.289737 ], [ 20.870209, 52.289737 ], [ 20.874431, 52.28967 ], [ 20.874436, 52.289671 ], [ 20.87444, 52.289672 ], [ 20.874444, 52.289675 ], [ 20.876646, 52.291879 ], [ 20.876647, 52.291882 ], [ 20.876648, 52.291885 ], [ 20.876646, 52.291888 ], [ 20.874633, 52.29416 ], [ 20.87463, 52.294162 ], [ 20.874626, 52.294164 ], [ 20.874621, 52.294165 ], [ 20.870399, 52.294231 ], [ 20.870397, 52.294232 ], [ 20.870397, 52.294232 ], [ 20.868377, 52.296511 ], [ 20.868376, 52.296512 ], [ 20.868377, 52.296513 ], [ 20.870582, 52.298721 ], [ 20.870584, 52.298724 ], [ 20.870584, 52.298727 ], [ 20.870583, 52.29873 ], [ 20.868566, 52.301006 ], [ 20.868565, 52.301006 ], [ 20.868566, 52.301007 ], [ 20.870775, 52.303219 ], [ 20.870776, 52.30322 ], [ 20.870777, 52.30322 ], [ 20.875, 52.303153 ], [ 20.875005, 52.303153 ], [ 20.87501, 52.303155 ], [ 20.875013, 52.303157 ], [ 20.877216, 52.305362 ], [ 20.877218, 52.305365 ], [ 20.877218, 52.305368 ], [ 20.877216, 52.305371 ], [ 20.875199, 52.307646 ], [ 20.875199, 52.307647 ], [ 20.875199, 52.307648 ], [ 20.877406, 52.309856 ], [ 20.877408, 52.309859 ], [ 20.877408, 52.309862 ], [ 20.877406, 52.309865 ], [ 20.875393, 52.312137 ], [ 20.87539, 52.312139 ], [ 20.875385, 52.312141 ], [ 20.87538, 52.312141 ], [ 20.871156, 52.312208 ], [ 20.871155, 52.312208 ], [ 20.871155, 52.312209 ], [ 20.869134, 52.314488 ], [ 20.869133, 52.314489 ], [ 20.869134, 52.31449 ], [ 20.871344, 52.316702 ], [ 20.871345, 52.316702 ], [ 20.871346, 52.316702 ], [ 20.875577, 52.316635 ], [ 20.875579, 52.316635 ], [ 20.875579, 52.316635 ], [ 20.877596, 52.314359 ], [ 20.8776, 52.314357 ], [ 20.877604, 52.314355 ], [ 20.877609, 52.314354 ], [ 20.881826, 52.314287 ], [ 20.881831, 52.314288 ], [ 20.881835, 52.314289 ], [ 20.881839, 52.314292 ], [ 20.884046, 52.3165 ], [ 20.884047, 52.3165 ], [ 20.884048, 52.316501 ], [ 20.888272, 52.316433 ], [ 20.888277, 52.316434 ], [ 20.888281, 52.316435 ], [ 20.888285, 52.316437 ], [ 20.890489, 52.318642 ], [ 20.890491, 52.318645 ], [ 20.890491, 52.318648 ], [ 20.890489, 52.318651 ], [ 20.888472, 52.320926 ], [ 20.888472, 52.320927 ], [ 20.888472, 52.320928 ], [ 20.890684, 52.32314 ], [ 20.890685, 52.32314 ], [ 20.890686, 52.32314 ], [ 20.894911, 52.323073 ], [ 20.894916, 52.323073 ], [ 20.89492, 52.323074 ], [ 20.894924, 52.323077 ], [ 20.897132, 52.325285 ], [ 20.897133, 52.325285 ], [ 20.897134, 52.325285 ], [ 20.901359, 52.325217 ], [ 20.901364, 52.325218 ], [ 20.901368, 52.325219 ], [ 20.901372, 52.325222 ], [ 20.90358, 52.32743 ], [ 20.903581, 52.32743 ], [ 20.903582, 52.32743 ], [ 20.907815, 52.327362 ], [ 20.907816, 52.327362 ], [ 20.907817, 52.327361 ], [ 20.909833, 52.325085 ], [ 20.909836, 52.325083 ], [ 20.90984, 52.325081 ], [ 20.909845, 52.325081 ], [ 20.914063, 52.325012 ], [ 20.914068, 52.325013 ], [ 20.914072, 52.325014 ], [ 20.914076, 52.325017 ], [ 20.916285, 52.327224 ], [ 20.916286, 52.327225 ], [ 20.916287, 52.327225 ], [ 20.920512, 52.327156 ], [ 20.920517, 52.327157 ], [ 20.920522, 52.327158 ], [ 20.920525, 52.32716 ], [ 20.922731, 52.329364 ], [ 20.922733, 52.329367 ], [ 20.922733, 52.32937 ], [ 20.922731, 52.329373 ], [ 20.920716, 52.331649 ], [ 20.920716, 52.33165 ], [ 20.920716, 52.331651 ], [ 20.922926, 52.333858 ], [ 20.922928, 52.333861 ], [ 20.922928, 52.333864 ], [ 20.922926, 52.333867 ], [ 20.920911, 52.336143 ], [ 20.92091, 52.336144 ], [ 20.920911, 52.336145 ], [ 20.923121, 52.338352 ], [ 20.923123, 52.338355 ], [ 20.923123, 52.338358 ], [ 20.923121, 52.338361 ], [ 20.921106, 52.340637 ], [ 20.921105, 52.340638 ], [ 20.921106, 52.340639 ], [ 20.923316, 52.342846 ], [ 20.923318, 52.342849 ], [ 20.923318, 52.342852 ], [ 20.923316, 52.342855 ], [ 20.921304, 52.345128 ], [ 20.921301, 52.34513 ], [ 20.921296, 52.345132 ], [ 20.921291, 52.345132 ], [ 20.917064, 52.345201 ], [ 20.917063, 52.345201 ], [ 20.917063, 52.345202 ], [ 20.915046, 52.347478 ], [ 20.915043, 52.34748 ], [ 20.915039, 52.347482 ], [ 20.915034, 52.347483 ], [ 20.910807, 52.347551 ], [ 20.910805, 52.347551 ], [ 20.910805, 52.347552 ], [ 20.908784, 52.349832 ], [ 20.908784, 52.349832 ], [ 20.908784, 52.349833 ], [ 20.910995, 52.352041 ], [ 20.910997, 52.352044 ], [ 20.910997, 52.352047 ], [ 20.910995, 52.35205 ], [ 20.908978, 52.354326 ], [ 20.908978, 52.354326 ], [ 20.908978, 52.354327 ], [ 20.911192, 52.356538 ], [ 20.911193, 52.356539 ], [ 20.911194, 52.356539 ], [ 20.915422, 52.356471 ], [ 20.915427, 52.356471 ], [ 20.915432, 52.356473 ], [ 20.915435, 52.356475 ], [ 20.917646, 52.358682 ], [ 20.917647, 52.358683 ], [ 20.917648, 52.358683 ], [ 20.921876, 52.358614 ], [ 20.921881, 52.358615 ], [ 20.921886, 52.358616 ], [ 20.921889, 52.358619 ], [ 20.924101, 52.360826 ], [ 20.924101, 52.360827 ], [ 20.924102, 52.360827 ], [ 20.928331, 52.360758 ], [ 20.928336, 52.360758 ], [ 20.92834, 52.36076 ], [ 20.928344, 52.360762 ], [ 20.930552, 52.362966 ], [ 20.930554, 52.362969 ], [ 20.930554, 52.362972 ], [ 20.930552, 52.362975 ], [ 20.928536, 52.365251 ], [ 20.928535, 52.365252 ], [ 20.928536, 52.365252 ], [ 20.930751, 52.367463 ], [ 20.930752, 52.367464 ], [ 20.930753, 52.367464 ], [ 20.93499, 52.367395 ], [ 20.934991, 52.367395 ], [ 20.934991, 52.367394 ], [ 20.937008, 52.365118 ], [ 20.937011, 52.365115 ], [ 20.937015, 52.365114 ], [ 20.93702, 52.365113 ], [ 20.941242, 52.365044 ], [ 20.941247, 52.365044 ], [ 20.941251, 52.365046 ], [ 20.941255, 52.365048 ], [ 20.943467, 52.367255 ], [ 20.943468, 52.367255 ], [ 20.943469, 52.367256 ], [ 20.947698, 52.367186 ], [ 20.947703, 52.367186 ], [ 20.947708, 52.367188 ], [ 20.947711, 52.36719 ], [ 20.949924, 52.369397 ], [ 20.949925, 52.369398 ], [ 20.949926, 52.369398 ], [ 20.954162, 52.369328 ], [ 20.954164, 52.369328 ], [ 20.954164, 52.369327 ], [ 20.95618, 52.36705 ], [ 20.956183, 52.367048 ], [ 20.956187, 52.367046 ], [ 20.956192, 52.367046 ], [ 20.960414, 52.366976 ], [ 20.960419, 52.366976 ], [ 20.960423, 52.366978 ], [ 20.960427, 52.36698 ], [ 20.962641, 52.369187 ], [ 20.962641, 52.369187 ], [ 20.962643, 52.369187 ], [ 20.966879, 52.369117 ], [ 20.96688, 52.369117 ], [ 20.966881, 52.369116 ], [ 20.968895, 52.366839 ], [ 20.968899, 52.366837 ], [ 20.968903, 52.366835 ], [ 20.968908, 52.366834 ], [ 20.973137, 52.366764 ], [ 20.973138, 52.366764 ], [ 20.973139, 52.366763 ], [ 20.975156, 52.364482 ], [ 20.975157, 52.364481 ], [ 20.975156, 52.364481 ], [ 20.972942, 52.362274 ], [ 20.97294, 52.362271 ], [ 20.97294, 52.362268 ], [ 20.972942, 52.362265 ], [ 20.974952, 52.359992 ], [ 20.974956, 52.35999 ], [ 20.97496, 52.359988 ], [ 20.974965, 52.359987 ], [ 20.979186, 52.359917 ], [ 20.979191, 52.359917 ], [ 20.979195, 52.359919 ], [ 20.979199, 52.359921 ], [ 20.981413, 52.362127 ], [ 20.981414, 52.362128 ], [ 20.981415, 52.362128 ], [ 20.985643, 52.362057 ], [ 20.985648, 52.362058 ], [ 20.985653, 52.362059 ], [ 20.985656, 52.362061 ], [ 20.987871, 52.364268 ], [ 20.987872, 52.364268 ], [ 20.987873, 52.364268 ], [ 20.992101, 52.364197 ], [ 20.992106, 52.364197 ], [ 20.992111, 52.364199 ], [ 20.992114, 52.364201 ], [ 20.994329, 52.366407 ], [ 20.99433, 52.366408 ], [ 20.994331, 52.366408 ], [ 20.998567, 52.366336 ], [ 20.998568, 52.366336 ], [ 20.998569, 52.366336 ], [ 21.000582, 52.364058 ], [ 21.000585, 52.364056 ], [ 21.00059, 52.364054 ], [ 21.000595, 52.364053 ], [ 21.004816, 52.363982 ], [ 21.004821, 52.363982 ], [ 21.004825, 52.363984 ], [ 21.004829, 52.363986 ], [ 21.007045, 52.366192 ], [ 21.007045, 52.366193 ], [ 21.007046, 52.366193 ], [ 21.011282, 52.366121 ], [ 21.011283, 52.36612 ], [ 21.011284, 52.36612 ], [ 21.0133, 52.363838 ], [ 21.0133, 52.363838 ], [ 21.0133, 52.363837 ], [ 21.011084, 52.361631 ], [ 21.011082, 52.361628 ], [ 21.011082, 52.361625 ], [ 21.011083, 52.361622 ], [ 21.013092, 52.359348 ], [ 21.013095, 52.359346 ], [ 21.0131, 52.359344 ], [ 21.013105, 52.359344 ], [ 21.017325, 52.359272 ], [ 21.01733, 52.359272 ], [ 21.017335, 52.359274 ], [ 21.017338, 52.359276 ], [ 21.019551, 52.361478 ], [ 21.019553, 52.361481 ], [ 21.019553, 52.361484 ], [ 21.019551, 52.361487 ], [ 21.017539, 52.363765 ], [ 21.017539, 52.363765 ], [ 21.017539, 52.363766 ], [ 21.019759, 52.365975 ], [ 21.01976, 52.365976 ], [ 21.019761, 52.365976 ], [ 21.02399, 52.365904 ], [ 21.023995, 52.365904 ], [ 21.024, 52.365906 ], [ 21.024003, 52.365908 ], [ 21.02622, 52.368113 ], [ 21.026221, 52.368114 ], [ 21.026222, 52.368114 ], [ 21.030458, 52.368041 ], [ 21.030459, 52.368041 ], [ 21.030459, 52.36804 ], [ 21.032471, 52.365762 ], [ 21.032474, 52.36576 ], [ 21.032478, 52.365758 ], [ 21.032483, 52.365758 ], [ 21.036705, 52.365685 ], [ 21.03671, 52.365686 ], [ 21.036714, 52.365687 ], [ 21.036718, 52.365689 ], [ 21.038935, 52.367895 ], [ 21.038936, 52.367895 ], [ 21.038937, 52.367895 ], [ 21.043173, 52.367822 ], [ 21.043174, 52.367822 ], [ 21.043175, 52.367821 ], [ 21.045186, 52.365543 ], [ 21.045189, 52.365541 ], [ 21.045193, 52.365539 ], [ 21.045198, 52.365538 ], [ 21.049426, 52.365465 ], [ 21.049428, 52.365465 ], [ 21.049428, 52.365464 ], [ 21.051439, 52.363186 ], [ 21.051442, 52.363184 ], [ 21.051446, 52.363182 ], [ 21.051451, 52.363181 ], [ 21.055672, 52.363108 ], [ 21.055677, 52.363108 ], [ 21.055682, 52.36311 ], [ 21.055685, 52.363112 ], [ 21.057903, 52.365317 ], [ 21.057904, 52.365318 ], [ 21.057905, 52.365318 ], [ 21.062134, 52.365244 ], [ 21.062139, 52.365244 ], [ 21.062143, 52.365246 ], [ 21.062147, 52.365248 ], [ 21.064365, 52.367453 ], [ 21.064366, 52.367453 ], [ 21.064367, 52.367454 ], [ 21.068603, 52.367379 ], [ 21.068604, 52.367379 ], [ 21.068605, 52.367379 ], [ 21.070614, 52.3651 ], [ 21.070617, 52.365098 ], [ 21.070622, 52.365096 ], [ 21.070627, 52.365095 ], [ 21.074855, 52.365021 ], [ 21.074856, 52.365021 ], [ 21.074857, 52.36502 ], [ 21.076866, 52.362742 ], [ 21.076869, 52.362739 ], [ 21.076874, 52.362738 ], [ 21.076878, 52.362737 ], [ 21.081107, 52.362663 ], [ 21.081108, 52.362662 ], [ 21.081108, 52.362662 ], [ 21.08312, 52.360379 ], [ 21.083121, 52.360378 ], [ 21.08312, 52.360378 ], [ 21.080901, 52.358173 ], [ 21.080899, 52.35817 ], [ 21.080899, 52.358167 ], [ 21.080901, 52.358164 ], [ 21.082906, 52.355889 ], [ 21.082909, 52.355887 ], [ 21.082913, 52.355885 ], [ 21.082918, 52.355885 ], [ 21.087146, 52.35581 ], [ 21.087147, 52.35581 ], [ 21.087147, 52.355809 ], [ 21.089159, 52.353526 ], [ 21.089159, 52.353526 ], [ 21.089159, 52.353525 ], [ 21.08694, 52.351321 ], [ 21.086938, 52.351318 ], [ 21.086937, 52.351315 ], [ 21.086939, 52.351312 ], [ 21.088947, 52.349033 ], [ 21.088947, 52.349032 ], [ 21.088947, 52.349032 ], [ 21.086728, 52.346827 ], [ 21.086726, 52.346824 ], [ 21.086726, 52.346821 ], [ 21.086727, 52.346818 ], [ 21.088735, 52.344539 ], [ 21.088735, 52.344539 ], [ 21.088735, 52.344538 ], [ 21.086516, 52.342334 ], [ 21.086514, 52.342331 ], [ 21.086514, 52.342328 ], [ 21.086516, 52.342325 ], [ 21.088523, 52.340046 ], [ 21.088524, 52.340045 ], [ 21.088523, 52.340044 ], [ 21.086305, 52.33784 ], [ 21.086303, 52.337837 ], [ 21.086303, 52.337834 ], [ 21.086304, 52.337831 ], [ 21.088308, 52.335556 ], [ 21.088311, 52.335554 ], [ 21.088315, 52.335552 ], [ 21.08832, 52.335551 ], [ 21.092546, 52.335477 ], [ 21.092547, 52.335476 ], [ 21.092548, 52.335476 ], [ 21.094558, 52.333193 ], [ 21.094558, 52.333192 ], [ 21.094558, 52.333192 ], [ 21.092339, 52.330987 ], [ 21.092338, 52.330984 ], [ 21.092337, 52.330981 ], [ 21.092339, 52.330978 ], [ 21.094346, 52.328699 ], [ 21.094346, 52.328699 ], [ 21.094346, 52.328698 ], [ 21.092127, 52.326494 ], [ 21.092125, 52.326491 ], [ 21.092125, 52.326488 ], [ 21.092127, 52.326485 ], [ 21.094133, 52.324206 ], [ 21.094134, 52.324205 ], [ 21.094133, 52.324204 ], [ 21.091912, 52.321996 ], [ 21.091911, 52.321996 ], [ 21.09191, 52.321996 ], [ 21.087685, 52.322071 ], [ 21.08768, 52.32207 ], [ 21.087676, 52.322069 ], [ 21.087673, 52.322066 ], [ 21.085459, 52.319866 ], [ 21.085457, 52.319863 ], [ 21.085457, 52.31986 ], [ 21.085458, 52.319857 ], [ 21.087465, 52.317578 ], [ 21.087465, 52.317577 ], [ 21.087465, 52.317576 ], [ 21.085248, 52.315372 ], [ 21.085246, 52.315369 ], [ 21.085245, 52.315366 ], [ 21.085247, 52.315363 ], [ 21.087253, 52.313084 ], [ 21.087254, 52.313084 ], [ 21.087253, 52.313083 ], [ 21.085036, 52.310879 ], [ 21.085034, 52.310876 ], [ 21.085034, 52.310873 ], [ 21.085036, 52.31087 ], [ 21.087042, 52.308591 ], [ 21.087042, 52.30859 ], [ 21.087042, 52.308589 ], [ 21.084825, 52.306385 ], [ 21.084823, 52.306382 ], [ 21.084823, 52.306379 ], [ 21.084825, 52.306376 ], [ 21.086831, 52.304097 ], [ 21.086831, 52.304096 ], [ 21.08683, 52.304096 ], [ 21.084614, 52.301891 ], [ 21.084612, 52.301888 ], [ 21.084612, 52.301885 ], [ 21.084613, 52.301882 ], [ 21.086616, 52.299607 ], [ 21.086619, 52.299605 ], [ 21.086623, 52.299603 ], [ 21.086628, 52.299603 ], [ 21.09085, 52.299528 ], [ 21.090851, 52.299528 ], [ 21.090852, 52.299527 ], [ 21.092861, 52.297244 ], [ 21.092861, 52.297244 ], [ 21.092861, 52.297243 ], [ 21.090644, 52.295039 ], [ 21.090642, 52.295036 ], [ 21.090642, 52.295033 ], [ 21.090644, 52.29503 ], [ 21.092646, 52.292755 ], [ 21.092649, 52.292752 ], [ 21.092653, 52.29275 ], [ 21.092658, 52.29275 ], [ 21.096879, 52.292675 ], [ 21.096881, 52.292675 ], [ 21.096881, 52.292674 ], [ 21.098886, 52.290395 ], [ 21.098889, 52.290393 ], [ 21.098893, 52.290391 ], [ 21.098898, 52.29039 ], [ 21.10312, 52.290315 ], [ 21.103121, 52.290315 ], [ 21.103121, 52.290315 ], [ 21.105129, 52.288031 ], [ 21.105129, 52.288031 ], [ 21.105129, 52.28803 ], [ 21.102912, 52.285826 ], [ 21.102911, 52.285823 ], [ 21.10291, 52.28582 ], [ 21.102912, 52.285817 ], [ 21.104916, 52.283538 ], [ 21.104916, 52.283537 ], [ 21.104916, 52.283536 ], [ 21.1027, 52.281332 ], [ 21.102698, 52.28133 ], [ 21.102698, 52.281326 ], [ 21.102699, 52.281323 ], [ 21.1047, 52.279048 ], [ 21.104703, 52.279046 ], [ 21.104707, 52.279044 ], [ 21.104712, 52.279043 ], [ 21.108932, 52.278968 ], [ 21.108933, 52.278968 ], [ 21.108934, 52.278967 ], [ 21.110937, 52.276688 ], [ 21.110941, 52.276686 ], [ 21.110945, 52.276684 ], [ 21.11095, 52.276683 ], [ 21.115163, 52.276608 ], [ 21.115168, 52.276608 ], [ 21.115172, 52.27661 ], [ 21.115175, 52.276612 ], [ 21.117392, 52.278816 ], [ 21.117393, 52.278817 ], [ 21.117394, 52.278817 ], [ 21.121614, 52.278741 ], [ 21.121619, 52.278741 ], [ 21.121624, 52.278743 ], [ 21.121627, 52.278745 ], [ 21.123844, 52.280949 ], [ 21.123845, 52.280949 ], [ 21.123846, 52.280949 ], [ 21.128073, 52.280873 ], [ 21.128075, 52.280873 ], [ 21.128075, 52.280873 ], [ 21.130078, 52.278593 ], [ 21.130081, 52.27859 ], [ 21.130085, 52.278589 ], [ 21.13009, 52.278588 ], [ 21.134303, 52.278512 ], [ 21.134308, 52.278513 ], [ 21.134313, 52.278514 ], [ 21.134316, 52.278516 ], [ 21.136534, 52.28072 ], [ 21.136535, 52.28072 ], [ 21.136536, 52.28072 ], [ 21.140756, 52.280644 ], [ 21.140761, 52.280644 ], [ 21.140765, 52.280646 ], [ 21.140769, 52.280648 ], [ 21.142987, 52.282851 ], [ 21.142988, 52.282852 ], [ 21.142989, 52.282852 ], [ 21.147209, 52.282775 ], [ 21.147214, 52.282776 ], [ 21.147219, 52.282777 ], [ 21.147222, 52.28278 ], [ 21.149441, 52.284983 ], [ 21.149442, 52.284983 ], [ 21.149443, 52.284983 ], [ 21.153663, 52.284907 ], [ 21.153668, 52.284907 ], [ 21.153673, 52.284908 ], [ 21.153676, 52.284911 ], [ 21.155895, 52.287114 ], [ 21.155896, 52.287114 ], [ 21.155897, 52.287114 ], [ 21.160118, 52.287037 ], [ 21.160123, 52.287038 ], [ 21.160127, 52.287039 ], [ 21.160131, 52.287042 ], [ 21.162346, 52.289241 ], [ 21.162348, 52.289244 ], [ 21.162348, 52.289247 ], [ 21.162347, 52.28925 ], [ 21.160345, 52.29153 ], [ 21.160345, 52.291531 ], [ 21.160346, 52.291531 ], [ 21.162569, 52.293738 ], [ 21.16257, 52.293738 ], [ 21.162571, 52.293739 ], [ 21.166799, 52.293661 ], [ 21.166801, 52.293661 ], [ 21.166801, 52.29366 ], [ 21.168802, 52.29138 ], [ 21.168806, 52.291378 ], [ 21.16881, 52.291376 ], [ 21.168815, 52.291375 ], [ 21.173036, 52.291298 ], [ 21.173037, 52.291298 ], [ 21.173038, 52.291297 ], [ 21.175042, 52.289013 ], [ 21.175042, 52.289012 ], [ 21.175042, 52.289011 ], [ 21.172822, 52.286809 ], [ 21.17282, 52.286806 ], [ 21.17282, 52.286803 ], [ 21.172821, 52.2868 ], [ 21.174822, 52.284519 ], [ 21.174822, 52.284519 ], [ 21.174822, 52.284518 ], [ 21.172602, 52.282315 ], [ 21.1726, 52.282312 ], [ 21.1726, 52.282309 ], [ 21.172601, 52.282306 ], [ 21.174602, 52.280026 ], [ 21.174602, 52.280025 ], [ 21.174602, 52.280025 ], [ 21.172382, 52.277822 ], [ 21.17238, 52.277819 ], [ 21.17238, 52.277816 ], [ 21.172382, 52.277813 ], [ 21.174378, 52.275536 ], [ 21.174381, 52.275534 ], [ 21.174386, 52.275532 ], [ 21.174391, 52.275532 ], [ 21.17861, 52.275454 ], [ 21.178611, 52.275454 ], [ 21.178612, 52.275453 ], [ 21.180612, 52.273173 ], [ 21.180615, 52.27317 ], [ 21.180619, 52.273169 ], [ 21.180624, 52.273168 ], [ 21.184843, 52.27309 ], [ 21.184845, 52.27309 ], [ 21.184845, 52.273089 ], [ 21.186848, 52.270805 ], [ 21.186848, 52.270804 ], [ 21.186848, 52.270803 ], [ 21.184628, 52.268601 ], [ 21.184626, 52.268598 ], [ 21.184626, 52.268595 ], [ 21.184628, 52.268592 ], [ 21.186623, 52.266315 ], [ 21.186627, 52.266313 ], [ 21.186631, 52.266311 ], [ 21.186636, 52.266311 ], [ 21.190854, 52.266232 ], [ 21.190856, 52.266232 ], [ 21.190856, 52.266232 ], [ 21.192858, 52.263947 ], [ 21.192859, 52.263946 ], [ 21.192858, 52.263946 ], [ 21.190635, 52.26174 ], [ 21.190634, 52.261739 ], [ 21.190633, 52.261739 ], [ 21.186415, 52.261817 ], [ 21.18641, 52.261817 ], [ 21.186405, 52.261815 ], [ 21.186402, 52.261813 ], [ 21.184186, 52.259614 ], [ 21.184185, 52.259611 ], [ 21.184184, 52.259608 ], [ 21.184186, 52.259605 ], [ 21.186181, 52.257329 ], [ 21.186184, 52.257326 ], [ 21.186189, 52.257325 ], [ 21.186194, 52.257324 ], [ 21.190404, 52.257246 ], [ 21.190409, 52.257246 ], [ 21.190414, 52.257248 ], [ 21.190417, 52.25725 ], [ 21.192637, 52.259452 ], [ 21.192637, 52.259453 ], [ 21.192639, 52.259453 ], [ 21.196856, 52.259375 ], [ 21.196862, 52.259375 ], [ 21.196866, 52.259377 ], [ 21.196869, 52.259379 ], [ 21.199089, 52.261581 ], [ 21.19909, 52.261582 ], [ 21.199091, 52.261582 ], [ 21.203316, 52.261503 ], [ 21.203318, 52.261503 ], [ 21.203318, 52.261502 ], [ 21.205316, 52.259221 ], [ 21.205319, 52.259219 ], [ 21.205324, 52.259217 ], [ 21.205329, 52.259217 ], [ 21.209539, 52.259138 ], [ 21.209544, 52.259138 ], [ 21.209549, 52.25914 ], [ 21.209552, 52.259142 ], [ 21.211773, 52.261344 ], [ 21.211774, 52.261345 ], [ 21.211775, 52.261345 ], [ 21.215993, 52.261266 ], [ 21.215998, 52.261266 ], [ 21.216002, 52.261268 ], [ 21.216006, 52.26127 ], [ 21.218227, 52.263472 ], [ 21.218227, 52.263472 ], [ 21.218228, 52.263472 ], [ 21.222454, 52.263393 ], [ 21.222455, 52.263393 ], [ 21.222456, 52.263392 ], [ 21.224453, 52.261111 ], [ 21.224456, 52.261108 ], [ 21.22446, 52.261107 ], [ 21.224465, 52.261106 ], [ 21.228676, 52.261027 ], [ 21.228681, 52.261027 ], [ 21.228685, 52.261029 ], [ 21.228689, 52.261031 ], [ 21.23091, 52.263233 ], [ 21.230911, 52.263233 ], [ 21.230912, 52.263233 ], [ 21.23513, 52.263153 ], [ 21.235135, 52.263154 ], [ 21.23514, 52.263155 ], [ 21.235143, 52.263158 ], [ 21.237365, 52.265359 ], [ 21.237366, 52.26536 ], [ 21.237367, 52.26536 ], [ 21.241593, 52.26528 ], [ 21.241594, 52.265279 ], [ 21.241595, 52.265279 ], [ 21.243591, 52.262997 ], [ 21.243594, 52.262995 ], [ 21.243598, 52.262993 ], [ 21.243603, 52.262993 ], [ 21.247814, 52.262913 ], [ 21.247819, 52.262913 ], [ 21.247824, 52.262914 ], [ 21.247827, 52.262917 ], [ 21.250049, 52.265118 ], [ 21.25005, 52.265119 ], [ 21.250051, 52.265119 ], [ 21.254277, 52.265038 ], [ 21.254278, 52.265038 ], [ 21.254279, 52.265037 ], [ 21.256278, 52.262752 ], [ 21.256278, 52.262751 ], [ 21.256277, 52.26275 ], [ 21.254055, 52.260549 ], [ 21.254053, 52.260546 ], [ 21.254053, 52.260543 ], [ 21.254054, 52.26054 ], [ 21.256049, 52.258259 ], [ 21.25605, 52.258258 ], [ 21.256049, 52.258257 ], [ 21.253827, 52.256056 ], [ 21.253825, 52.256053 ], [ 21.253825, 52.25605 ], [ 21.253826, 52.256047 ], [ 21.255818, 52.253769 ], [ 21.255821, 52.253767 ], [ 21.255825, 52.253765 ], [ 21.25583, 52.253765 ], [ 21.260048, 52.253684 ], [ 21.260049, 52.253684 ], [ 21.260049, 52.253683 ], [ 21.262047, 52.251397 ], [ 21.262048, 52.251397 ], [ 21.262047, 52.251396 ], [ 21.259825, 52.249195 ], [ 21.259823, 52.249192 ], [ 21.259823, 52.249189 ], [ 21.259824, 52.249186 ], [ 21.261819, 52.246904 ], [ 21.261819, 52.246904 ], [ 21.261819, 52.246903 ], [ 21.259593, 52.244698 ], [ 21.259592, 52.244698 ], [ 21.259591, 52.244698 ], [ 21.255374, 52.244778 ], [ 21.255369, 52.244778 ], [ 21.255365, 52.244776 ], [ 21.255361, 52.244774 ], [ 21.253143, 52.242577 ], [ 21.253142, 52.242574 ], [ 21.253141, 52.242571 ], [ 21.253143, 52.242568 ], [ 21.255134, 52.24029 ], [ 21.255137, 52.240287 ], [ 21.255142, 52.240286 ], [ 21.255146, 52.240285 ], [ 21.259362, 52.240204 ], [ 21.259364, 52.240204 ], [ 21.259364, 52.240204 ], [ 21.261362, 52.237918 ], [ 21.261362, 52.237917 ], [ 21.261362, 52.237917 ], [ 21.259136, 52.235712 ], [ 21.259135, 52.235711 ], [ 21.259134, 52.235711 ], [ 21.254919, 52.235792 ], [ 21.254914, 52.235792 ], [ 21.254909, 52.23579 ], [ 21.254906, 52.235788 ], [ 21.252688, 52.23359 ], [ 21.252686, 52.233587 ], [ 21.252686, 52.233584 ], [ 21.252688, 52.233581 ], [ 21.254682, 52.2313 ], [ 21.254682, 52.231299 ], [ 21.254682, 52.231298 ], [ 21.252461, 52.229097 ], [ 21.252459, 52.229094 ], [ 21.252459, 52.229091 ], [ 21.25246, 52.229088 ], [ 21.254454, 52.226806 ], [ 21.254454, 52.226806 ], [ 21.254454, 52.226805 ], [ 21.252233, 52.224604 ], [ 21.252231, 52.224601 ], [ 21.252231, 52.224598 ], [ 21.252233, 52.224595 ], [ 21.254223, 52.222317 ], [ 21.254226, 52.222315 ], [ 21.254231, 52.222313 ], [ 21.254235, 52.222312 ], [ 21.25845, 52.222232 ], [ 21.258451, 52.222232 ], [ 21.258452, 52.222231 ], [ 21.260448, 52.219945 ], [ 21.260449, 52.219945 ], [ 21.260448, 52.219944 ], [ 21.258227, 52.217743 ], [ 21.258226, 52.21774 ], [ 21.258225, 52.217737 ], [ 21.258227, 52.217734 ], [ 21.260217, 52.215456 ], [ 21.26022, 52.215454 ], [ 21.260224, 52.215452 ], [ 21.260229, 52.215451 ], [ 21.264443, 52.215371 ], [ 21.264444, 52.215371 ], [ 21.264445, 52.21537 ], [ 21.266441, 52.213084 ], [ 21.266441, 52.213084 ], [ 21.26644, 52.213083 ], [ 21.26422, 52.210882 ], [ 21.264218, 52.210879 ], [ 21.264218, 52.210876 ], [ 21.264219, 52.210873 ], [ 21.266212, 52.208591 ], [ 21.266212, 52.20859 ], [ 21.266212, 52.20859 ], [ 21.263987, 52.206385 ], [ 21.263987, 52.206384 ], [ 21.263986, 52.206384 ], [ 21.259766, 52.206465 ], [ 21.259765, 52.206465 ], [ 21.259764, 52.206466 ], [ 21.257771, 52.208748 ], [ 21.257768, 52.20875 ], [ 21.257764, 52.208752 ], [ 21.257759, 52.208752 ], [ 21.253553, 52.208833 ], [ 21.253548, 52.208832 ], [ 21.253543, 52.208831 ], [ 21.25354, 52.208829 ], [ 21.251324, 52.206631 ], [ 21.251322, 52.206628 ], [ 21.251322, 52.206625 ], [ 21.251323, 52.206622 ], [ 21.253316, 52.204341 ], [ 21.253317, 52.20434 ], [ 21.253316, 52.204339 ], [ 21.251097, 52.202138 ], [ 21.251095, 52.202135 ], [ 21.251095, 52.202132 ], [ 21.251096, 52.202129 ], [ 21.253089, 52.199847 ], [ 21.253089, 52.199847 ], [ 21.253089, 52.199846 ], [ 21.25087, 52.197645 ], [ 21.250868, 52.197642 ], [ 21.250868, 52.197639 ], [ 21.250869, 52.197636 ], [ 21.252858, 52.195358 ], [ 21.252862, 52.195356 ], [ 21.252866, 52.195354 ], [ 21.252871, 52.195353 ], [ 21.257082, 52.195273 ], [ 21.257084, 52.195273 ], [ 21.257084, 52.195272 ], [ 21.259077, 52.19299 ], [ 21.25908, 52.192988 ], [ 21.259084, 52.192986 ], [ 21.259089, 52.192986 ], [ 21.2633, 52.192905 ], [ 21.263302, 52.192905 ], [ 21.263302, 52.192904 ], [ 21.265294, 52.190622 ], [ 21.265297, 52.19062 ], [ 21.265301, 52.190618 ], [ 21.265306, 52.190618 ], [ 21.269518, 52.190537 ], [ 21.269519, 52.190536 ], [ 21.269519, 52.190536 ], [ 21.271514, 52.18825 ], [ 21.271515, 52.188249 ], [ 21.271514, 52.188249 ], [ 21.269294, 52.186048 ], [ 21.269293, 52.186045 ], [ 21.269292, 52.186042 ], [ 21.269294, 52.186039 ], [ 21.271285, 52.183757 ], [ 21.271285, 52.183756 ], [ 21.271285, 52.183756 ], [ 21.269066, 52.181555 ], [ 21.269064, 52.181552 ], [ 21.269064, 52.181549 ], [ 21.269065, 52.181546 ], [ 21.271056, 52.179264 ], [ 21.271056, 52.179263 ], [ 21.271056, 52.179262 ], [ 21.268837, 52.177062 ], [ 21.268835, 52.177059 ], [ 21.268835, 52.177056 ], [ 21.268836, 52.177053 ], [ 21.270824, 52.174775 ], [ 21.270827, 52.174772 ], [ 21.270831, 52.17477 ], [ 21.270836, 52.17477 ], [ 21.275046, 52.174689 ], [ 21.275047, 52.174688 ], [ 21.275048, 52.174688 ], [ 21.277041, 52.172402 ], [ 21.277042, 52.172401 ], [ 21.277041, 52.172401 ], [ 21.274822, 52.1702 ], [ 21.27482, 52.170197 ], [ 21.27482, 52.170194 ], [ 21.274822, 52.170191 ], [ 21.276812, 52.167909 ], [ 21.276812, 52.167908 ], [ 21.276812, 52.167907 ], [ 21.274589, 52.165703 ], [ 21.274588, 52.165702 ], [ 21.274587, 52.165702 ], [ 21.270379, 52.165783 ], [ 21.270373, 52.165783 ], [ 21.270369, 52.165782 ], [ 21.270366, 52.165779 ], [ 21.268147, 52.163578 ], [ 21.268146, 52.163578 ], [ 21.268145, 52.163578 ], [ 21.263937, 52.163659 ], [ 21.263932, 52.163658 ], [ 21.263927, 52.163657 ], [ 21.263924, 52.163654 ], [ 21.261709, 52.161457 ], [ 21.261708, 52.161454 ], [ 21.261707, 52.161451 ], [ 21.261709, 52.161448 ], [ 21.263699, 52.159166 ], [ 21.2637, 52.159165 ], [ 21.263699, 52.159165 ], [ 21.261482, 52.156964 ], [ 21.26148, 52.156961 ], [ 21.26148, 52.156958 ], [ 21.261481, 52.156955 ], [ 21.263468, 52.154677 ], [ 21.263471, 52.154674 ], [ 21.263475, 52.154673 ], [ 21.26348, 52.154672 ], [ 21.267688, 52.154591 ], [ 21.267689, 52.154591 ], [ 21.26769, 52.154591 ], [ 21.269683, 52.152305 ], [ 21.269684, 52.152304 ], [ 21.269683, 52.152303 ], [ 21.267462, 52.150099 ], [ 21.267461, 52.150098 ], [ 21.26746, 52.150098 ], [ 21.263252, 52.150179 ], [ 21.263247, 52.150178 ], [ 21.263243, 52.150177 ], [ 21.26324, 52.150175 ], [ 21.261026, 52.147977 ], [ 21.261024, 52.147974 ], [ 21.261024, 52.147971 ], [ 21.261026, 52.147968 ], [ 21.263016, 52.145687 ], [ 21.263016, 52.145686 ], [ 21.263015, 52.145685 ], [ 21.260795, 52.14348 ], [ 21.260794, 52.14348 ], [ 21.260793, 52.14348 ], [ 21.256579, 52.14356 ], [ 21.256578, 52.143561 ], [ 21.256577, 52.143561 ], [ 21.254587, 52.145843 ], [ 21.254584, 52.145845 ], [ 21.254579, 52.145847 ], [ 21.254574, 52.145848 ], [ 21.250367, 52.145928 ], [ 21.250366, 52.145928 ], [ 21.250365, 52.145929 ], [ 21.248375, 52.14821 ], [ 21.248372, 52.148213 ], [ 21.248367, 52.148214 ], [ 21.248362, 52.148215 ], [ 21.244155, 52.148295 ], [ 21.244154, 52.148295 ], [ 21.244153, 52.148296 ], [ 21.242159, 52.150581 ], [ 21.242159, 52.150582 ], [ 21.242159, 52.150583 ], [ 21.244375, 52.152784 ], [ 21.244377, 52.152787 ], [ 21.244378, 52.15279 ], [ 21.244376, 52.152793 ], [ 21.242388, 52.155071 ], [ 21.242385, 52.155073 ], [ 21.242381, 52.155075 ], [ 21.242376, 52.155075 ], [ 21.238168, 52.155155 ], [ 21.238167, 52.155156 ], [ 21.238166, 52.155156 ], [ 21.236174, 52.157437 ], [ 21.236171, 52.15744 ], [ 21.236167, 52.157442 ], [ 21.236162, 52.157442 ], [ 21.231961, 52.157522 ], [ 21.231956, 52.157521 ], [ 21.231951, 52.15752 ], [ 21.231948, 52.157518 ], [ 21.229732, 52.155316 ], [ 21.229731, 52.155315 ], [ 21.22973, 52.155315 ], [ 21.225522, 52.155395 ], [ 21.225517, 52.155394 ], [ 21.225512, 52.155393 ], [ 21.225509, 52.15539 ], [ 21.223293, 52.153189 ], [ 21.223293, 52.153188 ], [ 21.223291, 52.153188 ], [ 21.219084, 52.153267 ], [ 21.219079, 52.153267 ], [ 21.219074, 52.153265 ], [ 21.219071, 52.153263 ], [ 21.216855, 52.151061 ], [ 21.216855, 52.151061 ], [ 21.216853, 52.151061 ], [ 21.212646, 52.15114 ], [ 21.212641, 52.151139 ], [ 21.212636, 52.151138 ], [ 21.212633, 52.151135 ], [ 21.210418, 52.148933 ], [ 21.210417, 52.148933 ], [ 21.210416, 52.148933 ], [ 21.206209, 52.149011 ], [ 21.206204, 52.149011 ], [ 21.206199, 52.149009 ], [ 21.206196, 52.149007 ], [ 21.203981, 52.146805 ], [ 21.203981, 52.146804 ], [ 21.203979, 52.146804 ], [ 21.199765, 52.146883 ], [ 21.199764, 52.146883 ], [ 21.199763, 52.146884 ], [ 21.19777, 52.149165 ], [ 21.197767, 52.149167 ], [ 21.197762, 52.149169 ], [ 21.197758, 52.149169 ], [ 21.193557, 52.149247 ], [ 21.193552, 52.149247 ], [ 21.193548, 52.149246 ], [ 21.193544, 52.149243 ], [ 21.19133, 52.147041 ], [ 21.19133, 52.14704 ], [ 21.191329, 52.14704 ], [ 21.187121, 52.147118 ], [ 21.187116, 52.147118 ], [ 21.187112, 52.147116 ], [ 21.187108, 52.147114 ], [ 21.184895, 52.144912 ], [ 21.184894, 52.144911 ], [ 21.184893, 52.144911 ], [ 21.180686, 52.144989 ], [ 21.180681, 52.144988 ], [ 21.180676, 52.144987 ], [ 21.180673, 52.144984 ], [ 21.17846, 52.142782 ], [ 21.178459, 52.142781 ], [ 21.178458, 52.142781 ], [ 21.174251, 52.142859 ], [ 21.174246, 52.142858 ], [ 21.174242, 52.142857 ], [ 21.174238, 52.142855 ], [ 21.172026, 52.140652 ], [ 21.172025, 52.140651 ], [ 21.172024, 52.140651 ], [ 21.16781, 52.140729 ], [ 21.167809, 52.140729 ], [ 21.167808, 52.140729 ], [ 21.165813, 52.14301 ], [ 21.16581, 52.143012 ], [ 21.165806, 52.143014 ], [ 21.165801, 52.143014 ], [ 21.161601, 52.143091 ], [ 21.161596, 52.143091 ], [ 21.161592, 52.14309 ], [ 21.161588, 52.143087 ], [ 21.159376, 52.140884 ], [ 21.159375, 52.140884 ], [ 21.159374, 52.140884 ], [ 21.155167, 52.14096 ], [ 21.155162, 52.14096 ], [ 21.155158, 52.140959 ], [ 21.155155, 52.140956 ], [ 21.152943, 52.138753 ], [ 21.152942, 52.138753 ], [ 21.152941, 52.138752 ], [ 21.148734, 52.138829 ], [ 21.148729, 52.138829 ], [ 21.148725, 52.138827 ], [ 21.148722, 52.138825 ], [ 21.146514, 52.136625 ], [ 21.146512, 52.136622 ], [ 21.146512, 52.136619 ], [ 21.146514, 52.136616 ], [ 21.148509, 52.134336 ], [ 21.148509, 52.134336 ], [ 21.148509, 52.134335 ], [ 21.146294, 52.132128 ], [ 21.146294, 52.132128 ], [ 21.146292, 52.132127 ], [ 21.142086, 52.132204 ], [ 21.142081, 52.132203 ], [ 21.142077, 52.132202 ], [ 21.142074, 52.1322 ], [ 21.139867, 52.13 ], [ 21.139865, 52.129997 ], [ 21.139865, 52.129994 ], [ 21.139866, 52.129991 ], [ 21.141862, 52.127711 ], [ 21.141862, 52.12771 ], [ 21.141862, 52.12771 ], [ 21.139652, 52.125506 ], [ 21.13965, 52.125503 ], [ 21.139649, 52.1255 ], [ 21.139651, 52.125497 ], [ 21.141646, 52.123218 ], [ 21.141647, 52.123217 ], [ 21.141646, 52.123216 ], [ 21.139432, 52.121009 ], [ 21.139432, 52.121008 ], [ 21.139431, 52.121008 ], [ 21.135226, 52.121085 ], [ 21.13522, 52.121084 ], [ 21.135216, 52.121083 ], [ 21.135213, 52.12108 ], [ 21.133003, 52.118877 ], [ 21.133002, 52.118876 ], [ 21.133001, 52.118876 ], [ 21.128796, 52.118952 ], [ 21.128791, 52.118952 ], [ 21.128787, 52.11895 ], [ 21.128783, 52.118948 ], [ 21.126574, 52.116744 ], [ 21.126574, 52.116744 ], [ 21.126572, 52.116744 ], [ 21.122368, 52.116819 ], [ 21.122363, 52.116819 ], [ 21.122358, 52.116817 ], [ 21.122355, 52.116815 ], [ 21.120146, 52.114611 ], [ 21.120145, 52.114611 ], [ 21.120144, 52.114611 ], [ 21.11594, 52.114686 ], [ 21.115935, 52.114686 ], [ 21.11593, 52.114684 ], [ 21.115927, 52.114682 ], [ 21.113719, 52.112478 ], [ 21.113718, 52.112477 ], [ 21.113717, 52.112477 ], [ 21.109512, 52.112553 ], [ 21.109507, 52.112552 ], [ 21.109503, 52.112551 ], [ 21.1095, 52.112548 ], [ 21.107295, 52.110348 ], [ 21.107294, 52.110345 ], [ 21.107293, 52.110342 ], [ 21.107295, 52.110339 ], [ 21.109291, 52.10806 ], [ 21.109292, 52.108059 ], [ 21.109291, 52.108058 ], [ 21.107084, 52.105854 ], [ 21.107082, 52.105851 ], [ 21.107082, 52.105848 ], [ 21.107083, 52.105845 ], [ 21.109079, 52.103566 ], [ 21.10908, 52.103565 ], [ 21.109079, 52.103565 ], [ 21.106868, 52.101357 ], [ 21.106867, 52.101356 ], [ 21.106866, 52.101356 ], [ 21.102656, 52.101431 ], [ 21.102654, 52.101432 ], [ 21.102654, 52.101432 ], [ 21.100657, 52.103711 ], [ 21.100654, 52.103714 ], [ 21.10065, 52.103715 ], [ 21.100645, 52.103716 ], [ 21.096449, 52.103791 ], [ 21.096444, 52.10379 ], [ 21.096439, 52.103789 ], [ 21.096436, 52.103787 ], [ 21.094229, 52.101582 ], [ 21.094228, 52.101582 ], [ 21.094227, 52.101582 ], [ 21.090024, 52.101656 ], [ 21.090019, 52.101656 ], [ 21.090014, 52.101654 ], [ 21.090011, 52.101652 ], [ 21.087805, 52.099447 ], [ 21.087804, 52.099447 ], [ 21.087803, 52.099447 ], [ 21.0836, 52.099521 ], [ 21.083595, 52.099521 ], [ 21.08359, 52.099519 ], [ 21.083587, 52.099517 ], [ 21.081381, 52.097312 ], [ 21.08138, 52.097312 ], [ 21.081379, 52.097312 ], [ 21.077169, 52.097386 ], [ 21.077168, 52.097386 ], [ 21.077167, 52.097387 ], [ 21.075169, 52.099665 ], [ 21.075166, 52.099668 ], [ 21.075162, 52.099669 ], [ 21.075157, 52.09967 ], [ 21.070954, 52.099744 ], [ 21.070953, 52.099744 ], [ 21.070952, 52.099745 ], [ 21.068954, 52.102023 ], [ 21.068951, 52.102026 ], [ 21.068947, 52.102027 ], [ 21.068942, 52.102028 ], [ 21.064738, 52.102102 ], [ 21.064737, 52.102102 ], [ 21.064736, 52.102103 ], [ 21.062738, 52.104381 ], [ 21.062735, 52.104384 ], [ 21.062731, 52.104385 ], [ 21.062726, 52.104386 ], [ 21.058522, 52.104459 ], [ 21.058521, 52.104459 ], [ 21.05852, 52.10446 ], [ 21.056522, 52.106738 ], [ 21.056518, 52.106741 ], [ 21.056514, 52.106743 ], [ 21.056509, 52.106743 ], [ 21.052305, 52.106816 ], [ 21.052304, 52.106817 ], [ 21.052303, 52.106817 ], [ 21.050304, 52.109096 ], [ 21.050301, 52.109098 ], [ 21.050297, 52.1091 ], [ 21.050292, 52.1091 ], [ 21.046095, 52.109173 ], [ 21.04609, 52.109173 ], [ 21.046085, 52.109171 ], [ 21.046082, 52.109169 ], [ 21.043877, 52.106964 ], [ 21.043877, 52.106963 ], [ 21.043875, 52.106963 ], [ 21.039672, 52.107036 ], [ 21.039667, 52.107035 ], [ 21.039662, 52.107034 ], [ 21.039659, 52.107032 ], [ 21.037454, 52.104826 ], [ 21.037454, 52.104826 ], [ 21.037453, 52.104825 ], [ 21.033249, 52.104898 ], [ 21.033244, 52.104898 ], [ 21.033239, 52.104896 ], [ 21.033236, 52.104894 ], [ 21.031032, 52.102688 ], [ 21.031031, 52.102688 ], [ 21.03103, 52.102688 ], [ 21.02682, 52.10276 ], [ 21.026818, 52.10276 ], [ 21.026818, 52.102761 ], [ 21.024817, 52.105039 ], [ 21.024814, 52.105041 ], [ 21.02481, 52.105043 ], [ 21.024805, 52.105043 ], [ 21.020608, 52.105115 ], [ 21.020603, 52.105115 ], [ 21.020599, 52.105113 ], [ 21.020595, 52.105111 ], [ 21.018392, 52.102905 ], [ 21.018392, 52.102905 ], [ 21.01839, 52.102905 ], [ 21.014187, 52.102977 ], [ 21.014182, 52.102976 ], [ 21.014177, 52.102975 ], [ 21.014174, 52.102972 ], [ 21.011971, 52.100766 ], [ 21.01197, 52.100766 ], [ 21.011969, 52.100766 ], [ 21.007759, 52.100838 ], [ 21.007758, 52.100838 ], [ 21.007757, 52.100838 ], [ 21.005756, 52.103116 ], [ 21.005753, 52.103118 ], [ 21.005748, 52.10312 ], [ 21.005743, 52.103121 ], [ 21.001547, 52.103192 ], [ 21.001542, 52.103192 ], [ 21.001537, 52.10319 ], [ 21.001534, 52.103188 ], [ 20.999332, 52.100982 ], [ 20.999331, 52.100981 ], [ 20.99933, 52.100981 ], [ 20.995126, 52.101052 ], [ 20.995121, 52.101052 ], [ 20.995117, 52.10105 ], [ 20.995113, 52.101048 ], [ 20.992912, 52.098842 ], [ 20.992911, 52.098841 ], [ 20.99291, 52.098841 ], [ 20.988699, 52.098912 ], [ 20.988698, 52.098912 ], [ 20.988697, 52.098913 ], [ 20.986695, 52.10119 ], [ 20.986692, 52.101192 ], [ 20.986688, 52.101194 ], [ 20.986683, 52.101195 ], [ 20.982479, 52.101266 ], [ 20.982478, 52.101266 ], [ 20.982478, 52.101266 ], [ 20.980472, 52.103547 ], [ 20.980471, 52.103548 ], [ 20.980472, 52.103549 ], [ 20.982673, 52.105755 ], [ 20.982675, 52.105758 ], [ 20.982675, 52.105761 ], [ 20.982674, 52.105764 ], [ 20.980671, 52.108041 ], [ 20.980671, 52.108042 ], [ 20.980671, 52.108043 ], [ 20.982873, 52.110249 ], [ 20.982874, 52.110252 ], [ 20.982875, 52.110255 ], [ 20.982873, 52.110258 ], [ 20.98087, 52.112535 ], [ 20.98087, 52.112536 ], [ 20.98087, 52.112537 ], [ 20.983072, 52.114743 ], [ 20.983074, 52.114746 ], [ 20.983074, 52.114749 ], [ 20.983072, 52.114752 ], [ 20.981069, 52.117029 ], [ 20.981069, 52.11703 ], [ 20.981069, 52.117031 ], [ 20.983272, 52.119237 ], [ 20.983273, 52.11924 ], [ 20.983274, 52.119243 ], [ 20.983272, 52.119246 ], [ 20.981272, 52.12152 ], [ 20.981269, 52.121522 ], [ 20.981265, 52.121524 ], [ 20.98126, 52.121524 ], [ 20.977054, 52.121595 ], [ 20.977053, 52.121595 ], [ 20.977052, 52.121596 ], [ 20.975045, 52.123877 ], [ 20.975045, 52.123877 ], [ 20.975045, 52.123878 ], [ 20.977247, 52.126085 ], [ 20.977249, 52.126088 ], [ 20.977249, 52.126091 ], [ 20.977248, 52.126094 ], [ 20.975244, 52.128371 ], [ 20.975244, 52.128371 ], [ 20.975244, 52.128372 ], [ 20.977447, 52.130579 ], [ 20.977448, 52.130582 ], [ 20.977449, 52.130585 ], [ 20.977447, 52.130588 ], [ 20.975443, 52.132865 ], [ 20.975443, 52.132865 ], [ 20.975443, 52.132866 ], [ 20.977646, 52.135073 ], [ 20.977647, 52.135076 ], [ 20.977648, 52.135079 ], [ 20.977646, 52.135082 ], [ 20.975642, 52.137359 ], [ 20.975641, 52.137359 ], [ 20.975642, 52.13736 ], [ 20.977845, 52.139567 ], [ 20.977847, 52.13957 ], [ 20.977847, 52.139573 ], [ 20.977845, 52.139576 ], [ 20.975844, 52.141849 ], [ 20.975841, 52.141851 ], [ 20.975837, 52.141853 ], [ 20.975832, 52.141854 ], [ 20.971624, 52.141924 ], [ 20.971623, 52.141924 ], [ 20.971622, 52.141925 ], [ 20.969618, 52.144202 ], [ 20.969614, 52.144204 ], [ 20.96961, 52.144206 ], [ 20.969605, 52.144207 ], [ 20.965398, 52.144277 ], [ 20.965396, 52.144277 ], [ 20.965396, 52.144277 ], [ 20.96339, 52.146554 ], [ 20.963387, 52.146557 ], [ 20.963383, 52.146558 ], [ 20.963378, 52.146559 ], [ 20.95917, 52.146629 ], [ 20.959169, 52.146629 ], [ 20.959168, 52.14663 ], [ 20.957163, 52.148907 ], [ 20.957159, 52.148909 ], [ 20.957155, 52.148911 ], [ 20.95715, 52.148911 ], [ 20.952942, 52.148981 ], [ 20.952941, 52.148981 ], [ 20.95294, 52.148982 ], [ 20.950931, 52.151262 ], [ 20.95093, 52.151263 ], [ 20.950931, 52.151264 ], [ 20.953133, 52.153471 ], [ 20.953135, 52.153474 ], [ 20.953135, 52.153477 ], [ 20.953134, 52.15348 ], [ 20.951131, 52.155753 ], [ 20.951128, 52.155755 ], [ 20.951123, 52.155757 ], [ 20.951118, 52.155757 ], [ 20.946909, 52.155827 ], [ 20.946908, 52.155827 ], [ 20.946908, 52.155828 ], [ 20.944901, 52.158104 ], [ 20.944898, 52.158107 ], [ 20.944893, 52.158108 ], [ 20.944888, 52.158109 ], [ 20.940687, 52.158178 ], [ 20.940682, 52.158178 ], [ 20.940677, 52.158176 ], [ 20.940674, 52.158174 ], [ 20.938472, 52.155967 ], [ 20.938471, 52.155966 ], [ 20.93847, 52.155966 ], [ 20.934254, 52.156035 ], [ 20.934253, 52.156035 ], [ 20.934252, 52.156036 ], [ 20.932245, 52.158312 ], [ 20.932242, 52.158315 ], [ 20.932237, 52.158316 ], [ 20.932232, 52.158317 ], [ 20.928023, 52.158386 ], [ 20.928022, 52.158386 ], [ 20.928021, 52.158387 ], [ 20.92601, 52.160667 ], [ 20.92601, 52.160667 ], [ 20.92601, 52.160668 ], [ 20.928212, 52.162876 ], [ 20.928214, 52.162879 ], [ 20.928214, 52.162882 ], [ 20.928212, 52.162885 ], [ 20.926208, 52.165157 ], [ 20.926205, 52.165159 ], [ 20.9262, 52.165161 ], [ 20.926195, 52.165162 ], [ 20.921986, 52.16523 ], [ 20.921984, 52.165231 ], [ 20.921984, 52.165231 ], [ 20.919975, 52.167507 ], [ 20.919972, 52.16751 ], [ 20.919968, 52.167511 ], [ 20.919963, 52.167512 ], [ 20.915753, 52.167581 ], [ 20.915752, 52.167581 ], [ 20.915751, 52.167581 ], [ 20.913739, 52.169861 ], [ 20.913738, 52.169862 ], [ 20.913739, 52.169863 ], [ 20.91594, 52.17207 ], [ 20.915942, 52.172073 ], [ 20.915942, 52.172076 ], [ 20.915941, 52.172079 ], [ 20.913932, 52.174355 ], [ 20.913931, 52.174356 ], [ 20.913932, 52.174357 ], [ 20.916133, 52.176564 ], [ 20.916135, 52.176567 ], [ 20.916135, 52.17657 ], [ 20.916134, 52.176573 ], [ 20.914128, 52.178846 ], [ 20.914125, 52.178848 ], [ 20.914121, 52.17885 ], [ 20.914116, 52.17885 ], [ 20.909905, 52.178919 ], [ 20.909903, 52.178919 ], [ 20.909903, 52.178919 ], [ 20.907893, 52.181195 ], [ 20.90789, 52.181198 ], [ 20.907886, 52.181199 ], [ 20.907881, 52.1812 ], [ 20.903677, 52.181268 ], [ 20.903672, 52.181268 ], [ 20.903667, 52.181266 ], [ 20.903664, 52.181264 ], [ 20.901462, 52.179056 ], [ 20.901462, 52.179055 ], [ 20.90146, 52.179055 ], [ 20.897242, 52.179123 ], [ 20.897241, 52.179123 ], [ 20.89724, 52.179124 ], [ 20.89523, 52.1814 ], [ 20.895227, 52.181402 ], [ 20.895223, 52.181404 ], [ 20.895218, 52.181404 ], [ 20.891013, 52.181472 ], [ 20.891008, 52.181471 ], [ 20.891004, 52.18147 ], [ 20.891001, 52.181467 ], [ 20.8888, 52.179259 ], [ 20.888799, 52.179259 ], [ 20.888798, 52.179259 ], [ 20.88458, 52.179326 ], [ 20.884579, 52.179326 ], [ 20.884578, 52.179327 ], [ 20.882567, 52.181602 ], [ 20.882564, 52.181605 ], [ 20.882559, 52.181606 ], [ 20.882554, 52.181607 ], [ 20.87835, 52.181674 ], [ 20.878345, 52.181674 ], [ 20.878341, 52.181672 ], [ 20.878337, 52.18167 ], [ 20.876137, 52.179461 ], [ 20.876137, 52.179461 ], [ 20.876135, 52.179461 ], [ 20.871917, 52.179528 ], [ 20.871916, 52.179528 ], [ 20.871915, 52.179528 ], [ 20.869904, 52.181804 ], [ 20.8699, 52.181806 ], [ 20.869896, 52.181808 ], [ 20.869891, 52.181808 ], [ 20.86568, 52.181875 ], [ 20.865679, 52.181875 ], [ 20.865678, 52.181876 ], [ 20.863666, 52.184151 ], [ 20.863663, 52.184154 ], [ 20.863658, 52.184155 ], [ 20.863653, 52.184156 ], [ 20.859442, 52.184222 ], [ 20.859441, 52.184222 ], [ 20.85944, 52.184223 ], [ 20.857427, 52.186498 ], [ 20.857424, 52.186501 ], [ 20.85742, 52.186502 ], [ 20.857415, 52.186503 ], [ 20.853203, 52.186569 ], [ 20.853202, 52.186569 ], [ 20.853201, 52.18657 ], [ 20.851185, 52.188849 ], [ 20.851185, 52.188849 ] ], [ [ 21.242457, 52.240531 ], [ 21.24246, 52.240529 ], [ 21.242464, 52.240527 ], [ 21.242469, 52.240527 ], [ 21.246678, 52.240447 ], [ 21.246683, 52.240447 ], [ 21.246688, 52.240449 ], [ 21.246691, 52.240451 ], [ 21.248909, 52.242648 ], [ 21.248911, 52.242651 ], [ 21.248911, 52.242654 ], [ 21.248909, 52.242657 ], [ 21.246918, 52.244935 ], [ 21.246915, 52.244938 ], [ 21.24691, 52.244939 ], [ 21.246905, 52.24494 ], [ 21.242696, 52.24502 ], [ 21.242691, 52.245019 ], [ 21.242687, 52.245018 ], [ 21.242683, 52.245016 ], [ 21.240466, 52.242818 ], [ 21.240464, 52.242815 ], [ 21.240464, 52.242812 ], [ 21.240465, 52.242809 ], [ 21.242457, 52.240531 ] ] ] } }
]
}
