{
"type": "FeatureCollection",
"name": "boundary_szczecin_500",
"crs": { "type": "name", "properties": { "name": "urn:ogc:def:crs:OGC:1.3:CRS84" } },
"xy_coordinate_resolution": 1e-06,
"features": [
{ "type": "Feature", "properties": { "fid": 1, "name": "Szczecin" }, "geometry": { "type": "Polygon", "coordinates": [ [ [ 14.446221, 53.440756 ], [ 14.446221, 53.440756 ], [ 14.448143, 53.443075 ], [ 14.448145, 53.443078 ], [ 14.448144, 53.443081 ], [ 14.448142, 53.443084 ], [ 14.445741, 53.445237 ], [ 14.44574, 53.445237 ], [ 14.445741, 53.445238 ], [ 14.447663, 53.447556 ], [ 14.447665, 53.447559 ], [ 14.447664, 53.447562 ], [ 14.447662, 53.447565 ], [ 14.44526, 53.449718 ], [ 14.44526, 53.449719 ], [ 14.44526, 53.44972 ], [ 14.447186, 53.452042 ], [ 14.447187, 53.452042 ], [ 14.447188, 53.452042 ], [ 14.45152, 53.452208 ], [ 14.451521, 53.452208 ], [ 14.451522, 53.452207 ], [ 14.453924, 53.450054 ], [ 14.453927, 53.450052 ], [ 14.453932, 53.45005 ], [ 14.453937, 53.45005 ], [ 14.458254, 53.450215 ], [ 14.458259, 53.450215 ], [ 14.458264, 53.450217 ], [ 14.458267, 53.450219 ], [ 14.460187, 53.452534 ], [ 14.460188, 53.452537 ], [ 14.460188, 53.45254 ], [ 14.460186, 53.452543 ], [ 14.457785, 53.454696 ], [ 14.457784, 53.454696 ], [ 14.457784, 53.454697 ], [ 14.459708, 53.457015 ], [ 14.459709, 53.457018 ], [ 14.459709, 53.457021 ], [ 14.459707, 53.457024 ], [ 14.457305, 53.459177 ], [ 14.457305, 53.459178 ], [ 14.457305, 53.459179 ], [ 14.459232, 53.461501 ], [ 14.459233, 53.461501 ], [ 14.459234, 53.461501 ], [ 14.46356, 53.461666 ], [ 14.463565, 53.461667 ], [ 14.463569, 53.461669 ], [ 14.463572, 53.461671 ], [ 14.465493, 53.463985 ], [ 14.465495, 53.463988 ], [ 14.465494, 53.463991 ], [ 14.465492, 53.463994 ], [ 14.463094, 53.466144 ], [ 14.463091, 53.466146 ], [ 14.463086, 53.466147 ], [ 14.463081, 53.466148 ], [ 14.458755, 53.465983 ], [ 14.458754, 53.465983 ], [ 14.458753, 53.465984 ], [ 14.456346, 53.468141 ], [ 14.456346, 53.468141 ], [ 14.456346, 53.468142 ], [ 14.45827, 53.47046 ], [ 14.458272, 53.470463 ], [ 14.458271, 53.470466 ], [ 14.458269, 53.470469 ], [ 14.455867, 53.472622 ], [ 14.455866, 53.472623 ], [ 14.455867, 53.472623 ], [ 14.457791, 53.474941 ], [ 14.457792, 53.474944 ], [ 14.457792, 53.474948 ], [ 14.45779, 53.47495 ], [ 14.455391, 53.4771 ], [ 14.455387, 53.477102 ], [ 14.455383, 53.477104 ], [ 14.455378, 53.477104 ], [ 14.45105, 53.476939 ], [ 14.451049, 53.476939 ], [ 14.451048, 53.47694 ], [ 14.448645, 53.479093 ], [ 14.448641, 53.479095 ], [ 14.448637, 53.479096 ], [ 14.448631, 53.479097 ], [ 14.444304, 53.478931 ], [ 14.444303, 53.478931 ], [ 14.444302, 53.478932 ], [ 14.441894, 53.481089 ], [ 14.441894, 53.481089 ], [ 14.441894, 53.48109 ], [ 14.443818, 53.483408 ], [ 14.443819, 53.483411 ], [ 14.443819, 53.483414 ], [ 14.443817, 53.483417 ], [ 14.441413, 53.48557 ], [ 14.441412, 53.485571 ], [ 14.441413, 53.485571 ], [ 14.443337, 53.48789 ], [ 14.443338, 53.487893 ], [ 14.443338, 53.487896 ], [ 14.443336, 53.487899 ], [ 14.440931, 53.490052 ], [ 14.440931, 53.490052 ], [ 14.440931, 53.490053 ], [ 14.442855, 53.492371 ], [ 14.442857, 53.492374 ], [ 14.442856, 53.492377 ], [ 14.442854, 53.49238 ], [ 14.44045, 53.494533 ], [ 14.440449, 53.494534 ], [ 14.440449, 53.494534 ], [ 14.442377, 53.496857 ], [ 14.442378, 53.496857 ], [ 14.442379, 53.496857 ], [ 14.446708, 53.497023 ], [ 14.446713, 53.497023 ], [ 14.446717, 53.497025 ], [ 14.446721, 53.497028 ], [ 14.448645, 53.499346 ], [ 14.448646, 53.499346 ], [ 14.448647, 53.499347 ], [ 14.452984, 53.499512 ], [ 14.452985, 53.499512 ], [ 14.452986, 53.499511 ], [ 14.45539, 53.497358 ], [ 14.455394, 53.497356 ], [ 14.455399, 53.497355 ], [ 14.455404, 53.497354 ], [ 14.459726, 53.497519 ], [ 14.459731, 53.49752 ], [ 14.459735, 53.497521 ], [ 14.459738, 53.497524 ], [ 14.461664, 53.499842 ], [ 14.461665, 53.499842 ], [ 14.461666, 53.499843 ], [ 14.466003, 53.500007 ], [ 14.466004, 53.500007 ], [ 14.466005, 53.500007 ], [ 14.468408, 53.497853 ], [ 14.468412, 53.497851 ], [ 14.468417, 53.49785 ], [ 14.468422, 53.497849 ], [ 14.472751, 53.498014 ], [ 14.472753, 53.498014 ], [ 14.472753, 53.498013 ], [ 14.475157, 53.49586 ], [ 14.47516, 53.495857 ], [ 14.475165, 53.495856 ], [ 14.47517, 53.495856 ], [ 14.479492, 53.49602 ], [ 14.479497, 53.49602 ], [ 14.479501, 53.496022 ], [ 14.479505, 53.496025 ], [ 14.481431, 53.498342 ], [ 14.481432, 53.498343 ], [ 14.481433, 53.498343 ], [ 14.48577, 53.498507 ], [ 14.485771, 53.498507 ], [ 14.485772, 53.498507 ], [ 14.488175, 53.496353 ], [ 14.488178, 53.496351 ], [ 14.488183, 53.496349 ], [ 14.488188, 53.496349 ], [ 14.492517, 53.496512 ], [ 14.492519, 53.496512 ], [ 14.49252, 53.496512 ], [ 14.494922, 53.494358 ], [ 14.494925, 53.494356 ], [ 14.49493, 53.494354 ], [ 14.494935, 53.494354 ], [ 14.499264, 53.494517 ], [ 14.499266, 53.494517 ], [ 14.499266, 53.494517 ], [ 14.501668, 53.492363 ], [ 14.501672, 53.49236 ], [ 14.501676, 53.492359 ], [ 14.501682, 53.492359 ], [ 14.506003, 53.492522 ], [ 14.506008, 53.492522 ], [ 14.506013, 53.492524 ], [ 14.506016, 53.492527 ], [ 14.50794, 53.49484 ], [ 14.507942, 53.494843 ], [ 14.507942, 53.494846 ], [ 14.507939, 53.494849 ], [ 14.505538, 53.497003 ], [ 14.505537, 53.497004 ], [ 14.505538, 53.497004 ], [ 14.507469, 53.499326 ], [ 14.50747, 53.499326 ], [ 14.507471, 53.499326 ], [ 14.511808, 53.49949 ], [ 14.511809, 53.49949 ], [ 14.51181, 53.499489 ], [ 14.514212, 53.497335 ], [ 14.514215, 53.497332 ], [ 14.51422, 53.497331 ], [ 14.514225, 53.497331 ], [ 14.518547, 53.497493 ], [ 14.518552, 53.497494 ], [ 14.518557, 53.497496 ], [ 14.51856, 53.497498 ], [ 14.520489, 53.499815 ], [ 14.520489, 53.499816 ], [ 14.520491, 53.499816 ], [ 14.524828, 53.499979 ], [ 14.524829, 53.499979 ], [ 14.52483, 53.499978 ], [ 14.527231, 53.497824 ], [ 14.527234, 53.497821 ], [ 14.527239, 53.49782 ], [ 14.527244, 53.49782 ], [ 14.531567, 53.497982 ], [ 14.531572, 53.497982 ], [ 14.531576, 53.497984 ], [ 14.531579, 53.497987 ], [ 14.533509, 53.500303 ], [ 14.533509, 53.500304 ], [ 14.53351, 53.500304 ], [ 14.537841, 53.500466 ], [ 14.537846, 53.500467 ], [ 14.53785, 53.500469 ], [ 14.537853, 53.500471 ], [ 14.539783, 53.502788 ], [ 14.539784, 53.502789 ], [ 14.539785, 53.502789 ], [ 14.544123, 53.502951 ], [ 14.544124, 53.502951 ], [ 14.544125, 53.50295 ], [ 14.546529, 53.500792 ], [ 14.546529, 53.500791 ], [ 14.546529, 53.50079 ], [ 14.544599, 53.498473 ], [ 14.544597, 53.49847 ], [ 14.544598, 53.498467 ], [ 14.5446, 53.498465 ], [ 14.546995, 53.496313 ], [ 14.546999, 53.496311 ], [ 14.547004, 53.496309 ], [ 14.547009, 53.496309 ], [ 14.551331, 53.49647 ], [ 14.551336, 53.496471 ], [ 14.551341, 53.496473 ], [ 14.551344, 53.496475 ], [ 14.553274, 53.498792 ], [ 14.553275, 53.498793 ], [ 14.553276, 53.498793 ], [ 14.557606, 53.498954 ], [ 14.557611, 53.498955 ], [ 14.557616, 53.498957 ], [ 14.557619, 53.498959 ], [ 14.55955, 53.501276 ], [ 14.55955, 53.501276 ], [ 14.559551, 53.501276 ], [ 14.563882, 53.501437 ], [ 14.563887, 53.501438 ], [ 14.563891, 53.50144 ], [ 14.563894, 53.501442 ], [ 14.565826, 53.503759 ], [ 14.565826, 53.503759 ], [ 14.565828, 53.50376 ], [ 14.570166, 53.503921 ], [ 14.570167, 53.503921 ], [ 14.570168, 53.50392 ], [ 14.572566, 53.501764 ], [ 14.57257, 53.501762 ], [ 14.572575, 53.501761 ], [ 14.57258, 53.50176 ], [ 14.576903, 53.501921 ], [ 14.576908, 53.501922 ], [ 14.576912, 53.501923 ], [ 14.576916, 53.501926 ], [ 14.578844, 53.504238 ], [ 14.578846, 53.504241 ], [ 14.578846, 53.504244 ], [ 14.578844, 53.504247 ], [ 14.576445, 53.506403 ], [ 14.576444, 53.506403 ], [ 14.576445, 53.506404 ], [ 14.578377, 53.50872 ], [ 14.578379, 53.508723 ], [ 14.578378, 53.508727 ], [ 14.578376, 53.508729 ], [ 14.575977, 53.510885 ], [ 14.575977, 53.510886 ], [ 14.575977, 53.510886 ], [ 14.57791, 53.513203 ], [ 14.577911, 53.513206 ], [ 14.577911, 53.513209 ], [ 14.577909, 53.513212 ], [ 14.575514, 53.515364 ], [ 14.57551, 53.515366 ], [ 14.575505, 53.515367 ], [ 14.5755, 53.515368 ], [ 14.571168, 53.515207 ], [ 14.571167, 53.515207 ], [ 14.571166, 53.515208 ], [ 14.568767, 53.517363 ], [ 14.568763, 53.517365 ], [ 14.568758, 53.517367 ], [ 14.568753, 53.517367 ], [ 14.564421, 53.517206 ], [ 14.56442, 53.517206 ], [ 14.564419, 53.517207 ], [ 14.562019, 53.519362 ], [ 14.562015, 53.519364 ], [ 14.562011, 53.519366 ], [ 14.562005, 53.519366 ], [ 14.557673, 53.519205 ], [ 14.557672, 53.519205 ], [ 14.557671, 53.519206 ], [ 14.555271, 53.521361 ], [ 14.555267, 53.521363 ], [ 14.555262, 53.521364 ], [ 14.555257, 53.521365 ], [ 14.550925, 53.521203 ], [ 14.550924, 53.521203 ], [ 14.550923, 53.521204 ], [ 14.548518, 53.523363 ], [ 14.548517, 53.523363 ], [ 14.548518, 53.523364 ], [ 14.550449, 53.525681 ], [ 14.550451, 53.525684 ], [ 14.55045, 53.525687 ], [ 14.550448, 53.52569 ], [ 14.548047, 53.527845 ], [ 14.548046, 53.527846 ], [ 14.548047, 53.527846 ], [ 14.549978, 53.530163 ], [ 14.54998, 53.530166 ], [ 14.54998, 53.530169 ], [ 14.549977, 53.530172 ], [ 14.547576, 53.532327 ], [ 14.547575, 53.532328 ], [ 14.547576, 53.532328 ], [ 14.549511, 53.534649 ], [ 14.549512, 53.53465 ], [ 14.549513, 53.53465 ], [ 14.553846, 53.534811 ], [ 14.553851, 53.534812 ], [ 14.553856, 53.534814 ], [ 14.553859, 53.534816 ], [ 14.555791, 53.537133 ], [ 14.555792, 53.537133 ], [ 14.555793, 53.537134 ], [ 14.560134, 53.537295 ], [ 14.560136, 53.537295 ], [ 14.560136, 53.537295 ], [ 14.562538, 53.535139 ], [ 14.562541, 53.535137 ], [ 14.562546, 53.535136 ], [ 14.562551, 53.535135 ], [ 14.566878, 53.535296 ], [ 14.566883, 53.535297 ], [ 14.566887, 53.535298 ], [ 14.56689, 53.535301 ], [ 14.568823, 53.537617 ], [ 14.568824, 53.537618 ], [ 14.568825, 53.537618 ], [ 14.573167, 53.537779 ], [ 14.573168, 53.537779 ], [ 14.573169, 53.537779 ], [ 14.575569, 53.535623 ], [ 14.575573, 53.535621 ], [ 14.575578, 53.535619 ], [ 14.575583, 53.535619 ], [ 14.579909, 53.535779 ], [ 14.579914, 53.53578 ], [ 14.579919, 53.535782 ], [ 14.579922, 53.535784 ], [ 14.581856, 53.5381 ], [ 14.581856, 53.538101 ], [ 14.581858, 53.538101 ], [ 14.586199, 53.538262 ], [ 14.5862, 53.538262 ], [ 14.586201, 53.538261 ], [ 14.588601, 53.536105 ], [ 14.588605, 53.536103 ], [ 14.588609, 53.536102 ], [ 14.588615, 53.536101 ], [ 14.592949, 53.536261 ], [ 14.59295, 53.536261 ], [ 14.592951, 53.536261 ], [ 14.59535, 53.534105 ], [ 14.595354, 53.534103 ], [ 14.595359, 53.534101 ], [ 14.595364, 53.534101 ], [ 14.59969, 53.53426 ], [ 14.599695, 53.534261 ], [ 14.5997, 53.534263 ], [ 14.599703, 53.534265 ], [ 14.601638, 53.536581 ], [ 14.601638, 53.536582 ], [ 14.60164, 53.536582 ], [ 14.605974, 53.536742 ], [ 14.605979, 53.536742 ], [ 14.605983, 53.536744 ], [ 14.605986, 53.536747 ], [ 14.607922, 53.539062 ], [ 14.607922, 53.539063 ], [ 14.607923, 53.539063 ], [ 14.612265, 53.539223 ], [ 14.612267, 53.539223 ], [ 14.612267, 53.539222 ], [ 14.614666, 53.537066 ], [ 14.61467, 53.537064 ], [ 14.614674, 53.537062 ], [ 14.61468, 53.537062 ], [ 14.619014, 53.537221 ], [ 14.619015, 53.537221 ], [ 14.619016, 53.53722 ], [ 14.621414, 53.535064 ], [ 14.621418, 53.535062 ], [ 14.621423, 53.53506 ], [ 14.621428, 53.53506 ], [ 14.625755, 53.535219 ], [ 14.62576, 53.535219 ], [ 14.625764, 53.535221 ], [ 14.625767, 53.535223 ], [ 14.627703, 53.537539 ], [ 14.627704, 53.53754 ], [ 14.627705, 53.53754 ], [ 14.632047, 53.537699 ], [ 14.632048, 53.537699 ], [ 14.632049, 53.537698 ], [ 14.634447, 53.535541 ], [ 14.63445, 53.535539 ], [ 14.634455, 53.535538 ], [ 14.63446, 53.535537 ], [ 14.638795, 53.535696 ], [ 14.638796, 53.535696 ], [ 14.638797, 53.535695 ], [ 14.641198, 53.533534 ], [ 14.641198, 53.533534 ], [ 14.641198, 53.533533 ], [ 14.639261, 53.531218 ], [ 14.63926, 53.531215 ], [ 14.63926, 53.531212 ], [ 14.639262, 53.531209 ], [ 14.641655, 53.529055 ], [ 14.641659, 53.529053 ], [ 14.641663, 53.529052 ], [ 14.641668, 53.529051 ], [ 14.645995, 53.529209 ], [ 14.646, 53.52921 ], [ 14.646004, 53.529212 ], [ 14.646007, 53.529214 ], [ 14.647944, 53.53153 ], [ 14.647945, 53.53153 ], [ 14.647946, 53.53153 ], [ 14.65228, 53.531688 ], [ 14.652285, 53.531689 ], [ 14.65229, 53.531691 ], [ 14.652293, 53.531693 ], [ 14.654227, 53.534004 ], [ 14.654229, 53.534007 ], [ 14.654228, 53.53401 ], [ 14.654226, 53.534013 ], [ 14.65183, 53.536171 ], [ 14.651829, 53.536171 ], [ 14.651829, 53.536172 ], [ 14.653771, 53.538491 ], [ 14.653771, 53.538492 ], [ 14.653772, 53.538492 ], [ 14.658114, 53.53865 ], [ 14.658116, 53.53865 ], [ 14.658117, 53.538649 ], [ 14.660513, 53.536492 ], [ 14.660517, 53.53649 ], [ 14.660521, 53.536488 ], [ 14.660526, 53.536488 ], [ 14.664854, 53.536645 ], [ 14.664859, 53.536646 ], [ 14.664863, 53.536647 ], [ 14.664866, 53.53665 ], [ 14.666805, 53.538965 ], [ 14.666805, 53.538966 ], [ 14.666807, 53.538966 ], [ 14.671149, 53.539123 ], [ 14.67115, 53.539123 ], [ 14.671151, 53.539123 ], [ 14.673547, 53.536965 ], [ 14.67355, 53.536963 ], [ 14.673555, 53.536961 ], [ 14.67356, 53.536961 ], [ 14.677895, 53.537118 ], [ 14.677896, 53.537118 ], [ 14.677897, 53.537117 ], [ 14.680292, 53.53496 ], [ 14.680296, 53.534957 ], [ 14.6803, 53.534956 ], [ 14.680306, 53.534956 ], [ 14.68464, 53.535112 ], [ 14.684641, 53.535112 ], [ 14.684642, 53.535112 ], [ 14.687041, 53.53295 ], [ 14.687042, 53.532949 ], [ 14.687041, 53.532949 ], [ 14.685102, 53.530634 ], [ 14.6851, 53.530631 ], [ 14.685101, 53.530628 ], [ 14.685103, 53.530625 ], [ 14.687497, 53.528467 ], [ 14.687498, 53.528466 ], [ 14.687498, 53.528466 ], [ 14.685558, 53.526151 ], [ 14.685557, 53.526148 ], [ 14.685557, 53.526145 ], [ 14.685559, 53.526142 ], [ 14.687954, 53.523984 ], [ 14.687954, 53.523984 ], [ 14.687954, 53.523983 ], [ 14.686011, 53.521664 ], [ 14.686011, 53.521664 ], [ 14.68601, 53.521664 ], [ 14.681676, 53.521507 ], [ 14.681671, 53.521506 ], [ 14.681667, 53.521504 ], [ 14.681664, 53.521502 ], [ 14.679729, 53.519191 ], [ 14.679727, 53.519188 ], [ 14.679727, 53.519185 ], [ 14.67973, 53.519182 ], [ 14.682124, 53.517024 ], [ 14.682124, 53.517024 ], [ 14.682124, 53.517023 ], [ 14.680185, 53.514708 ], [ 14.680184, 53.514705 ], [ 14.680184, 53.514702 ], [ 14.680186, 53.514699 ], [ 14.682576, 53.512545 ], [ 14.68258, 53.512543 ], [ 14.682585, 53.512541 ], [ 14.68259, 53.512541 ], [ 14.686915, 53.512697 ], [ 14.68692, 53.512698 ], [ 14.686924, 53.5127 ], [ 14.686927, 53.512702 ], [ 14.688866, 53.515017 ], [ 14.688867, 53.515018 ], [ 14.688868, 53.515018 ], [ 14.693208, 53.515174 ], [ 14.693209, 53.515174 ], [ 14.69321, 53.515174 ], [ 14.695603, 53.513016 ], [ 14.695606, 53.513013 ], [ 14.695611, 53.513012 ], [ 14.695616, 53.513012 ], [ 14.699949, 53.513168 ], [ 14.69995, 53.513168 ], [ 14.699951, 53.513167 ], [ 14.702348, 53.511005 ], [ 14.702348, 53.511005 ], [ 14.702348, 53.511004 ], [ 14.700409, 53.50869 ], [ 14.700407, 53.508687 ], [ 14.700407, 53.508683 ], [ 14.700409, 53.508681 ], [ 14.702798, 53.506526 ], [ 14.702802, 53.506524 ], [ 14.702806, 53.506522 ], [ 14.702811, 53.506522 ], [ 14.707143, 53.506678 ], [ 14.707144, 53.506678 ], [ 14.707145, 53.506677 ], [ 14.709541, 53.504515 ], [ 14.709542, 53.504514 ], [ 14.709541, 53.504514 ], [ 14.707599, 53.502195 ], [ 14.707598, 53.502195 ], [ 14.707597, 53.502195 ], [ 14.703266, 53.502039 ], [ 14.703261, 53.502038 ], [ 14.703256, 53.502036 ], [ 14.703253, 53.502034 ], [ 14.701317, 53.499723 ], [ 14.701316, 53.49972 ], [ 14.701316, 53.499717 ], [ 14.701318, 53.499715 ], [ 14.70371, 53.497556 ], [ 14.703711, 53.497555 ], [ 14.70371, 53.497555 ], [ 14.701772, 53.49524 ], [ 14.70177, 53.495237 ], [ 14.70177, 53.495234 ], [ 14.701773, 53.495231 ], [ 14.704164, 53.493073 ], [ 14.704165, 53.493072 ], [ 14.704164, 53.493072 ], [ 14.702222, 53.490753 ], [ 14.702222, 53.490753 ], [ 14.702221, 53.490753 ], [ 14.697891, 53.490597 ], [ 14.697885, 53.490596 ], [ 14.697881, 53.490594 ], [ 14.697878, 53.490592 ], [ 14.695943, 53.488281 ], [ 14.695942, 53.488278 ], [ 14.695942, 53.488275 ], [ 14.695944, 53.488272 ], [ 14.698332, 53.486118 ], [ 14.698335, 53.486115 ], [ 14.69834, 53.486114 ], [ 14.698345, 53.486114 ], [ 14.702675, 53.48627 ], [ 14.702676, 53.48627 ], [ 14.702677, 53.486269 ], [ 14.705072, 53.484107 ], [ 14.705072, 53.484106 ], [ 14.705072, 53.484106 ], [ 14.703134, 53.481791 ], [ 14.703132, 53.481788 ], [ 14.703132, 53.481785 ], [ 14.703135, 53.481782 ], [ 14.705525, 53.479624 ], [ 14.705526, 53.479623 ], [ 14.705526, 53.479623 ], [ 14.703584, 53.477304 ], [ 14.703583, 53.477304 ], [ 14.703582, 53.477304 ], [ 14.699254, 53.477148 ], [ 14.699248, 53.477147 ], [ 14.699244, 53.477145 ], [ 14.699241, 53.477143 ], [ 14.697307, 53.474832 ], [ 14.697305, 53.474829 ], [ 14.697305, 53.474826 ], [ 14.697308, 53.474823 ], [ 14.699694, 53.472669 ], [ 14.699698, 53.472666 ], [ 14.699702, 53.472665 ], [ 14.699708, 53.472665 ], [ 14.704036, 53.472821 ], [ 14.704037, 53.47282 ], [ 14.704038, 53.47282 ], [ 14.706428, 53.470661 ], [ 14.706432, 53.470659 ], [ 14.706436, 53.470658 ], [ 14.706442, 53.470657 ], [ 14.71077, 53.470813 ], [ 14.710771, 53.470813 ], [ 14.710772, 53.470813 ], [ 14.713166, 53.46865 ], [ 14.713166, 53.46865 ], [ 14.713166, 53.468649 ], [ 14.711228, 53.466335 ], [ 14.711226, 53.466332 ], [ 14.711226, 53.466329 ], [ 14.711229, 53.466326 ], [ 14.713618, 53.464167 ], [ 14.713619, 53.464166 ], [ 14.713618, 53.464166 ], [ 14.71168, 53.461852 ], [ 14.711679, 53.461849 ], [ 14.711679, 53.461846 ], [ 14.711681, 53.461843 ], [ 14.71407, 53.459684 ], [ 14.714071, 53.459683 ], [ 14.714071, 53.459683 ], [ 14.712133, 53.457368 ], [ 14.712131, 53.457366 ], [ 14.712132, 53.457362 ], [ 14.712134, 53.45736 ], [ 14.714523, 53.455201 ], [ 14.714523, 53.4552 ], [ 14.714523, 53.4552 ], [ 14.712585, 53.452885 ], [ 14.712584, 53.452882 ], [ 14.712584, 53.452879 ], [ 14.712586, 53.452876 ], [ 14.714975, 53.450718 ], [ 14.714975, 53.450717 ], [ 14.714975, 53.450716 ], [ 14.713038, 53.448402 ], [ 14.713036, 53.448399 ], [ 14.713036, 53.448396 ], [ 14.713038, 53.448393 ], [ 14.715427, 53.446235 ], [ 14.715427, 53.446234 ], [ 14.715427, 53.446233 ], [ 14.713486, 53.443915 ], [ 14.713486, 53.443915 ], [ 14.713485, 53.443914 ], [ 14.709159, 53.443759 ], [ 14.709154, 53.443758 ], [ 14.70915, 53.443756 ], [ 14.709147, 53.443754 ], [ 14.707213, 53.441444 ], [ 14.707212, 53.441441 ], [ 14.707212, 53.441438 ], [ 14.707214, 53.441435 ], [ 14.709602, 53.439276 ], [ 14.709603, 53.439275 ], [ 14.709602, 53.439275 ], [ 14.707663, 53.436957 ], [ 14.707662, 53.436956 ], [ 14.707661, 53.436956 ], [ 14.703336, 53.4368 ], [ 14.703331, 53.436799 ], [ 14.703327, 53.436798 ], [ 14.703323, 53.436795 ], [ 14.701391, 53.434485 ], [ 14.701389, 53.434482 ], [ 14.701389, 53.434479 ], [ 14.701391, 53.434476 ], [ 14.703776, 53.432321 ], [ 14.703779, 53.432319 ], [ 14.703784, 53.432317 ], [ 14.703789, 53.432317 ], [ 14.708113, 53.432473 ], [ 14.708114, 53.432473 ], [ 14.708115, 53.432472 ], [ 14.710503, 53.430313 ], [ 14.710506, 53.430311 ], [ 14.710511, 53.43031 ], [ 14.710516, 53.430309 ], [ 14.71484, 53.430465 ], [ 14.714842, 53.430465 ], [ 14.714842, 53.430464 ], [ 14.71723, 53.428306 ], [ 14.717233, 53.428303 ], [ 14.717238, 53.428302 ], [ 14.717243, 53.428302 ], [ 14.721559, 53.428457 ], [ 14.721565, 53.428457 ], [ 14.721569, 53.428459 ], [ 14.721572, 53.428462 ], [ 14.723506, 53.430772 ], [ 14.723507, 53.430775 ], [ 14.723507, 53.430778 ], [ 14.723505, 53.430781 ], [ 14.721118, 53.432939 ], [ 14.721117, 53.43294 ], [ 14.721118, 53.432941 ], [ 14.723058, 53.435259 ], [ 14.723059, 53.435259 ], [ 14.72306, 53.435259 ], [ 14.727385, 53.435415 ], [ 14.72739, 53.435415 ], [ 14.727394, 53.435417 ], [ 14.727397, 53.435419 ], [ 14.729335, 53.437733 ], [ 14.729336, 53.437734 ], [ 14.729337, 53.437734 ], [ 14.733662, 53.437889 ], [ 14.733667, 53.43789 ], [ 14.733671, 53.437891 ], [ 14.733674, 53.437894 ], [ 14.735612, 53.440208 ], [ 14.735613, 53.440208 ], [ 14.735614, 53.440208 ], [ 14.739939, 53.440363 ], [ 14.739944, 53.440364 ], [ 14.739949, 53.440366 ], [ 14.739952, 53.440368 ], [ 14.741887, 53.442678 ], [ 14.741889, 53.442681 ], [ 14.741888, 53.442684 ], [ 14.741886, 53.442687 ], [ 14.739499, 53.444846 ], [ 14.739499, 53.444847 ], [ 14.739499, 53.444847 ], [ 14.741441, 53.447165 ], [ 14.741442, 53.447166 ], [ 14.741443, 53.447166 ], [ 14.745776, 53.44732 ], [ 14.745778, 53.44732 ], [ 14.745778, 53.44732 ], [ 14.748165, 53.44516 ], [ 14.748169, 53.445158 ], [ 14.748173, 53.445157 ], [ 14.748179, 53.445156 ], [ 14.752504, 53.445311 ], [ 14.752505, 53.445311 ], [ 14.752506, 53.44531 ], [ 14.754892, 53.44315 ], [ 14.754896, 53.443148 ], [ 14.754901, 53.443147 ], [ 14.754906, 53.443146 ], [ 14.759224, 53.4433 ], [ 14.759229, 53.443301 ], [ 14.759234, 53.443303 ], [ 14.759237, 53.443305 ], [ 14.761176, 53.445619 ], [ 14.761177, 53.445619 ], [ 14.761178, 53.445619 ], [ 14.765512, 53.445773 ], [ 14.765513, 53.445773 ], [ 14.765514, 53.445773 ], [ 14.767903, 53.443609 ], [ 14.767904, 53.443608 ], [ 14.767903, 53.443608 ], [ 14.765963, 53.441294 ], [ 14.765962, 53.441291 ], [ 14.765962, 53.441288 ], [ 14.765964, 53.441285 ], [ 14.76835, 53.439126 ], [ 14.76835, 53.439125 ], [ 14.76835, 53.439124 ], [ 14.766406, 53.436807 ], [ 14.766406, 53.436806 ], [ 14.766405, 53.436806 ], [ 14.76208, 53.436653 ], [ 14.762075, 53.436652 ], [ 14.76207, 53.43665 ], [ 14.762067, 53.436648 ], [ 14.760128, 53.434334 ], [ 14.760127, 53.434334 ], [ 14.760126, 53.434334 ], [ 14.755801, 53.43418 ], [ 14.755796, 53.434179 ], [ 14.755792, 53.434177 ], [ 14.755789, 53.434175 ], [ 14.753853, 53.431865 ], [ 14.753851, 53.431862 ], [ 14.753852, 53.431859 ], [ 14.753854, 53.431856 ], [ 14.756239, 53.429697 ], [ 14.75624, 53.429696 ], [ 14.756239, 53.429695 ], [ 14.754301, 53.427382 ], [ 14.754299, 53.427379 ], [ 14.754299, 53.427376 ], [ 14.754301, 53.427373 ], [ 14.756687, 53.425213 ], [ 14.756687, 53.425213 ], [ 14.756687, 53.425212 ], [ 14.754745, 53.422894 ], [ 14.754744, 53.422894 ], [ 14.754743, 53.422894 ], [ 14.750419, 53.42274 ], [ 14.750414, 53.422739 ], [ 14.75041, 53.422737 ], [ 14.750407, 53.422735 ], [ 14.748469, 53.420421 ], [ 14.748468, 53.420421 ], [ 14.748467, 53.42042 ], [ 14.744144, 53.420266 ], [ 14.744139, 53.420265 ], [ 14.744134, 53.420264 ], [ 14.744131, 53.420261 ], [ 14.742193, 53.417948 ], [ 14.742193, 53.417947 ], [ 14.742191, 53.417947 ], [ 14.737869, 53.417792 ], [ 14.737863, 53.417792 ], [ 14.737859, 53.41779 ], [ 14.737856, 53.417787 ], [ 14.735919, 53.415474 ], [ 14.735918, 53.415473 ], [ 14.735917, 53.415473 ], [ 14.731594, 53.415318 ], [ 14.731589, 53.415317 ], [ 14.731585, 53.415316 ], [ 14.731582, 53.415313 ], [ 14.729645, 53.412999 ], [ 14.729644, 53.412999 ], [ 14.729643, 53.412999 ], [ 14.725321, 53.412844 ], [ 14.725316, 53.412843 ], [ 14.725311, 53.412841 ], [ 14.725308, 53.412839 ], [ 14.723375, 53.410529 ], [ 14.723374, 53.410526 ], [ 14.723374, 53.410523 ], [ 14.723376, 53.41052 ], [ 14.725758, 53.408364 ], [ 14.725761, 53.408362 ], [ 14.725766, 53.408361 ], [ 14.725771, 53.40836 ], [ 14.730093, 53.408515 ], [ 14.730094, 53.408515 ], [ 14.730095, 53.408515 ], [ 14.73248, 53.406356 ], [ 14.732484, 53.406353 ], [ 14.732488, 53.406352 ], [ 14.732493, 53.406352 ], [ 14.736808, 53.406506 ], [ 14.736813, 53.406507 ], [ 14.736817, 53.406508 ], [ 14.73682, 53.406511 ], [ 14.738757, 53.408825 ], [ 14.738758, 53.408825 ], [ 14.738759, 53.408825 ], [ 14.743089, 53.40898 ], [ 14.74309, 53.40898 ], [ 14.743091, 53.408979 ], [ 14.745475, 53.40682 ], [ 14.745479, 53.406818 ], [ 14.745483, 53.406816 ], [ 14.745489, 53.406816 ], [ 14.749803, 53.40697 ], [ 14.749808, 53.406971 ], [ 14.749812, 53.406972 ], [ 14.749816, 53.406975 ], [ 14.751753, 53.409289 ], [ 14.751754, 53.409289 ], [ 14.751755, 53.409289 ], [ 14.756085, 53.409443 ], [ 14.756086, 53.409443 ], [ 14.756087, 53.409443 ], [ 14.758471, 53.407283 ], [ 14.758474, 53.407281 ], [ 14.758479, 53.40728 ], [ 14.758484, 53.407279 ], [ 14.762799, 53.407433 ], [ 14.762804, 53.407433 ], [ 14.762808, 53.407435 ], [ 14.762811, 53.407438 ], [ 14.76475, 53.409751 ], [ 14.76475, 53.409752 ], [ 14.764751, 53.409752 ], [ 14.769081, 53.409905 ], [ 14.769082, 53.409905 ], [ 14.769083, 53.409905 ], [ 14.771466, 53.407745 ], [ 14.77147, 53.407743 ], [ 14.771475, 53.407741 ], [ 14.77148, 53.407741 ], [ 14.775802, 53.407894 ], [ 14.775803, 53.407894 ], [ 14.775804, 53.407894 ], [ 14.778187, 53.405733 ], [ 14.77819, 53.405731 ], [ 14.778195, 53.40573 ], [ 14.7782, 53.405729 ], [ 14.782522, 53.405882 ], [ 14.782523, 53.405882 ], [ 14.782524, 53.405882 ], [ 14.784906, 53.403722 ], [ 14.78491, 53.403719 ], [ 14.784915, 53.403718 ], [ 14.78492, 53.403718 ], [ 14.789242, 53.40387 ], [ 14.789243, 53.40387 ], [ 14.789244, 53.40387 ], [ 14.79163, 53.401706 ], [ 14.79163, 53.401705 ], [ 14.79163, 53.401704 ], [ 14.78969, 53.399391 ], [ 14.789689, 53.399388 ], [ 14.789689, 53.399385 ], [ 14.789691, 53.399382 ], [ 14.792069, 53.397226 ], [ 14.792072, 53.397224 ], [ 14.792077, 53.397222 ], [ 14.792082, 53.397222 ], [ 14.796403, 53.397374 ], [ 14.796404, 53.397374 ], [ 14.796405, 53.397374 ], [ 14.798791, 53.395209 ], [ 14.798791, 53.395209 ], [ 14.798791, 53.395208 ], [ 14.796848, 53.392891 ], [ 14.796847, 53.392891 ], [ 14.796846, 53.392891 ], [ 14.792525, 53.392738 ], [ 14.79252, 53.392737 ], [ 14.792516, 53.392736 ], [ 14.792513, 53.392733 ], [ 14.790573, 53.39042 ], [ 14.790573, 53.39042 ], [ 14.790572, 53.390419 ], [ 14.786251, 53.390267 ], [ 14.786246, 53.390266 ], [ 14.786242, 53.390264 ], [ 14.786239, 53.390262 ], [ 14.7843, 53.387949 ], [ 14.784299, 53.387948 ], [ 14.784298, 53.387948 ], [ 14.779978, 53.387795 ], [ 14.779973, 53.387795 ], [ 14.779968, 53.387793 ], [ 14.779965, 53.38779 ], [ 14.77803, 53.385481 ], [ 14.778029, 53.385478 ], [ 14.778029, 53.385475 ], [ 14.778031, 53.385472 ], [ 14.780413, 53.383312 ], [ 14.780413, 53.383311 ], [ 14.780413, 53.383311 ], [ 14.778475, 53.380998 ], [ 14.778473, 53.380995 ], [ 14.778473, 53.380991 ], [ 14.778476, 53.380989 ], [ 14.780857, 53.378828 ], [ 14.780857, 53.378828 ], [ 14.780857, 53.378827 ], [ 14.778916, 53.37651 ], [ 14.778915, 53.376509 ], [ 14.778914, 53.376509 ], [ 14.774595, 53.376356 ], [ 14.77459, 53.376355 ], [ 14.774585, 53.376354 ], [ 14.774582, 53.376351 ], [ 14.772645, 53.374038 ], [ 14.772644, 53.374038 ], [ 14.772643, 53.374037 ], [ 14.768317, 53.373884 ], [ 14.768316, 53.373884 ], [ 14.768315, 53.373884 ], [ 14.765933, 53.376044 ], [ 14.76593, 53.376047 ], [ 14.765925, 53.376048 ], [ 14.76592, 53.376048 ], [ 14.761601, 53.375895 ], [ 14.7616, 53.375895 ], [ 14.761599, 53.375895 ], [ 14.759217, 53.378055 ], [ 14.759214, 53.378057 ], [ 14.759209, 53.378059 ], [ 14.759204, 53.378059 ], [ 14.754892, 53.377906 ], [ 14.754887, 53.377905 ], [ 14.754883, 53.377903 ], [ 14.75488, 53.377901 ], [ 14.752943, 53.375587 ], [ 14.752942, 53.375587 ], [ 14.752941, 53.375586 ], [ 14.748623, 53.375432 ], [ 14.748617, 53.375432 ], [ 14.748613, 53.37543 ], [ 14.74861, 53.375428 ], [ 14.746674, 53.373114 ], [ 14.746673, 53.373113 ], [ 14.746672, 53.373113 ], [ 14.742354, 53.372959 ], [ 14.742349, 53.372958 ], [ 14.742344, 53.372957 ], [ 14.742341, 53.372954 ], [ 14.740409, 53.370644 ], [ 14.740407, 53.370641 ], [ 14.740408, 53.370638 ], [ 14.74041, 53.370635 ], [ 14.742788, 53.36848 ], [ 14.742792, 53.368477 ], [ 14.742796, 53.368476 ], [ 14.742802, 53.368476 ], [ 14.747119, 53.36863 ], [ 14.747121, 53.36863 ], [ 14.747121, 53.368629 ], [ 14.749503, 53.36647 ], [ 14.749507, 53.366467 ], [ 14.749512, 53.366466 ], [ 14.749517, 53.366466 ], [ 14.753835, 53.36662 ], [ 14.753836, 53.36662 ], [ 14.753837, 53.366619 ], [ 14.756218, 53.364459 ], [ 14.756222, 53.364457 ], [ 14.756226, 53.364456 ], [ 14.756232, 53.364455 ], [ 14.760549, 53.364609 ], [ 14.76055, 53.364609 ], [ 14.760551, 53.364608 ], [ 14.762936, 53.362445 ], [ 14.762937, 53.362444 ], [ 14.762936, 53.362444 ], [ 14.761, 53.36013 ], [ 14.760999, 53.360127 ], [ 14.760999, 53.360124 ], [ 14.761001, 53.360121 ], [ 14.763382, 53.357961 ], [ 14.763382, 53.357961 ], [ 14.763382, 53.35796 ], [ 14.761446, 53.355647 ], [ 14.761444, 53.355644 ], [ 14.761445, 53.355641 ], [ 14.761447, 53.355638 ], [ 14.763823, 53.353482 ], [ 14.763827, 53.353479 ], [ 14.763831, 53.353478 ], [ 14.763837, 53.353478 ], [ 14.768153, 53.353631 ], [ 14.768154, 53.353631 ], [ 14.768155, 53.35363 ], [ 14.770535, 53.35147 ], [ 14.770539, 53.351468 ], [ 14.770544, 53.351467 ], [ 14.770549, 53.351466 ], [ 14.774858, 53.351619 ], [ 14.774863, 53.35162 ], [ 14.774867, 53.351622 ], [ 14.77487, 53.351624 ], [ 14.776807, 53.353937 ], [ 14.776808, 53.353938 ], [ 14.776809, 53.353938 ], [ 14.781133, 53.354091 ], [ 14.781134, 53.354091 ], [ 14.781135, 53.354091 ], [ 14.783514, 53.35193 ], [ 14.783518, 53.351928 ], [ 14.783523, 53.351927 ], [ 14.783528, 53.351926 ], [ 14.787844, 53.352079 ], [ 14.787845, 53.352079 ], [ 14.787846, 53.352079 ], [ 14.790225, 53.349918 ], [ 14.790229, 53.349916 ], [ 14.790233, 53.349915 ], [ 14.790239, 53.349914 ], [ 14.794555, 53.350067 ], [ 14.794556, 53.350067 ], [ 14.794557, 53.350066 ], [ 14.79694, 53.347902 ], [ 14.79694, 53.347901 ], [ 14.79694, 53.3479 ], [ 14.795002, 53.345588 ], [ 14.795001, 53.345585 ], [ 14.795001, 53.345581 ], [ 14.795003, 53.345579 ], [ 14.797381, 53.343418 ], [ 14.797382, 53.343417 ], [ 14.797381, 53.343417 ], [ 14.795444, 53.341104 ], [ 14.795442, 53.341101 ], [ 14.795443, 53.341098 ], [ 14.795445, 53.341095 ], [ 14.797819, 53.338938 ], [ 14.797822, 53.338936 ], [ 14.797827, 53.338934 ], [ 14.797832, 53.338934 ], [ 14.802147, 53.339086 ], [ 14.802149, 53.339086 ], [ 14.802149, 53.339086 ], [ 14.804527, 53.336925 ], [ 14.804531, 53.336923 ], [ 14.804535, 53.336921 ], [ 14.80454, 53.336921 ], [ 14.808855, 53.337073 ], [ 14.808857, 53.337073 ], [ 14.808857, 53.337072 ], [ 14.811239, 53.334908 ], [ 14.811239, 53.334907 ], [ 14.811239, 53.334906 ], [ 14.809301, 53.332594 ], [ 14.809299, 53.332591 ], [ 14.8093, 53.332588 ], [ 14.809302, 53.332585 ], [ 14.811679, 53.330424 ], [ 14.811679, 53.330423 ], [ 14.811679, 53.330422 ], [ 14.809738, 53.328106 ], [ 14.809737, 53.328105 ], [ 14.809736, 53.328105 ], [ 14.805422, 53.327953 ], [ 14.805417, 53.327953 ], [ 14.805412, 53.327951 ], [ 14.805409, 53.327948 ], [ 14.803472, 53.325636 ], [ 14.803471, 53.325635 ], [ 14.80347, 53.325635 ], [ 14.799149, 53.325483 ], [ 14.799148, 53.325483 ], [ 14.799147, 53.325483 ], [ 14.79677, 53.327644 ], [ 14.796766, 53.327646 ], [ 14.796762, 53.327647 ], [ 14.796756, 53.327648 ], [ 14.792442, 53.327496 ], [ 14.792441, 53.327496 ], [ 14.79244, 53.327496 ], [ 14.790059, 53.32966 ], [ 14.790058, 53.329661 ], [ 14.790059, 53.329662 ], [ 14.791995, 53.331975 ], [ 14.791997, 53.331978 ], [ 14.791996, 53.331981 ], [ 14.791994, 53.331983 ], [ 14.78962, 53.33414 ], [ 14.789617, 53.334143 ], [ 14.789612, 53.334144 ], [ 14.789607, 53.334144 ], [ 14.785292, 53.333992 ], [ 14.785291, 53.333992 ], [ 14.78529, 53.333992 ], [ 14.782912, 53.336153 ], [ 14.782908, 53.336155 ], [ 14.782904, 53.336156 ], [ 14.782899, 53.336157 ], [ 14.778591, 53.336004 ], [ 14.778586, 53.336003 ], [ 14.778582, 53.336002 ], [ 14.778579, 53.335999 ], [ 14.776643, 53.333686 ], [ 14.776642, 53.333685 ], [ 14.776641, 53.333685 ], [ 14.772326, 53.333532 ], [ 14.772321, 53.333531 ], [ 14.772317, 53.33353 ], [ 14.772314, 53.333527 ], [ 14.770381, 53.331218 ], [ 14.77038, 53.331215 ], [ 14.77038, 53.331212 ], [ 14.770382, 53.331209 ], [ 14.772761, 53.329049 ], [ 14.772761, 53.329048 ], [ 14.772761, 53.329048 ], [ 14.770822, 53.32673 ], [ 14.770822, 53.32673 ], [ 14.77082, 53.32673 ], [ 14.766507, 53.326576 ], [ 14.766501, 53.326576 ], [ 14.766497, 53.326574 ], [ 14.766494, 53.326572 ], [ 14.764559, 53.324258 ], [ 14.764558, 53.324258 ], [ 14.764557, 53.324257 ], [ 14.760236, 53.324104 ], [ 14.760235, 53.324104 ], [ 14.760234, 53.324104 ], [ 14.757855, 53.326264 ], [ 14.757852, 53.326266 ], [ 14.757847, 53.326268 ], [ 14.757842, 53.326268 ], [ 14.753528, 53.326114 ], [ 14.753527, 53.326115 ], [ 14.753526, 53.326115 ], [ 14.751147, 53.328275 ], [ 14.751143, 53.328277 ], [ 14.751138, 53.328278 ], [ 14.751133, 53.328279 ], [ 14.746819, 53.328125 ], [ 14.746818, 53.328125 ], [ 14.746817, 53.328125 ], [ 14.744438, 53.330285 ], [ 14.744434, 53.330287 ], [ 14.744429, 53.330289 ], [ 14.744424, 53.330289 ], [ 14.74011, 53.330135 ], [ 14.740109, 53.330135 ], [ 14.740108, 53.330135 ], [ 14.737728, 53.332295 ], [ 14.737724, 53.332297 ], [ 14.73772, 53.332298 ], [ 14.737714, 53.332299 ], [ 14.7334, 53.332144 ], [ 14.733399, 53.332144 ], [ 14.733398, 53.332145 ], [ 14.731017, 53.334304 ], [ 14.731014, 53.334306 ], [ 14.731009, 53.334308 ], [ 14.731004, 53.334308 ], [ 14.72669, 53.334153 ], [ 14.726688, 53.334153 ], [ 14.726688, 53.334154 ], [ 14.724306, 53.336313 ], [ 14.724303, 53.336315 ], [ 14.724298, 53.336317 ], [ 14.724293, 53.336317 ], [ 14.719978, 53.336162 ], [ 14.719977, 53.336162 ], [ 14.719976, 53.336163 ], [ 14.717591, 53.338325 ], [ 14.71759, 53.338326 ], [ 14.717591, 53.338327 ], [ 14.719524, 53.340641 ], [ 14.719525, 53.340644 ], [ 14.719525, 53.340647 ], [ 14.719523, 53.34065 ], [ 14.717145, 53.342805 ], [ 14.717141, 53.342807 ], [ 14.717136, 53.342809 ], [ 14.717131, 53.342809 ], [ 14.712816, 53.342654 ], [ 14.712815, 53.342654 ], [ 14.712814, 53.342654 ], [ 14.710428, 53.344817 ], [ 14.710427, 53.344817 ], [ 14.710428, 53.344818 ], [ 14.71236, 53.347132 ], [ 14.712362, 53.347135 ], [ 14.712362, 53.347138 ], [ 14.71236, 53.347141 ], [ 14.709981, 53.349296 ], [ 14.709977, 53.349298 ], [ 14.709973, 53.3493 ], [ 14.709967, 53.3493 ], [ 14.705652, 53.349145 ], [ 14.70565, 53.349145 ], [ 14.70565, 53.349145 ], [ 14.703262, 53.351308 ], [ 14.703262, 53.351308 ], [ 14.703262, 53.351309 ], [ 14.705198, 53.353627 ], [ 14.705199, 53.353628 ], [ 14.7052, 53.353628 ], [ 14.709516, 53.353783 ], [ 14.709522, 53.353784 ], [ 14.709526, 53.353786 ], [ 14.709529, 53.353788 ], [ 14.711462, 53.356102 ], [ 14.711463, 53.356103 ], [ 14.711464, 53.356103 ], [ 14.715781, 53.356259 ], [ 14.715786, 53.356259 ], [ 14.71579, 53.356261 ], [ 14.715793, 53.356263 ], [ 14.717723, 53.358574 ], [ 14.717725, 53.358577 ], [ 14.717725, 53.35858 ], [ 14.717723, 53.358583 ], [ 14.715343, 53.360738 ], [ 14.71534, 53.36074 ], [ 14.715335, 53.360741 ], [ 14.71533, 53.360742 ], [ 14.71102, 53.360587 ], [ 14.711015, 53.360586 ], [ 14.711011, 53.360584 ], [ 14.711008, 53.360582 ], [ 14.709075, 53.358268 ], [ 14.709074, 53.358267 ], [ 14.709073, 53.358267 ], [ 14.704756, 53.358111 ], [ 14.704751, 53.358111 ], [ 14.704747, 53.358109 ], [ 14.704744, 53.358106 ], [ 14.702811, 53.355792 ], [ 14.70281, 53.355792 ], [ 14.702809, 53.355791 ], [ 14.698492, 53.355636 ], [ 14.698487, 53.355635 ], [ 14.698483, 53.355633 ], [ 14.69848, 53.355631 ], [ 14.696547, 53.353316 ], [ 14.696547, 53.353316 ], [ 14.696545, 53.353316 ], [ 14.692222, 53.353159 ], [ 14.692221, 53.353159 ], [ 14.69222, 53.35316 ], [ 14.689836, 53.355318 ], [ 14.689832, 53.35532 ], [ 14.689828, 53.355322 ], [ 14.689823, 53.355322 ], [ 14.685514, 53.355166 ], [ 14.685509, 53.355166 ], [ 14.685504, 53.355164 ], [ 14.685501, 53.355161 ], [ 14.683569, 53.352847 ], [ 14.683569, 53.352846 ], [ 14.683568, 53.352846 ], [ 14.679252, 53.35269 ], [ 14.679247, 53.352689 ], [ 14.679242, 53.352687 ], [ 14.679239, 53.352685 ], [ 14.677308, 53.35037 ], [ 14.677307, 53.350369 ], [ 14.677306, 53.350369 ], [ 14.672983, 53.350212 ], [ 14.672982, 53.350212 ], [ 14.672981, 53.350213 ], [ 14.670596, 53.352371 ], [ 14.670592, 53.352373 ], [ 14.670588, 53.352374 ], [ 14.670583, 53.352375 ], [ 14.666267, 53.352218 ], [ 14.666266, 53.352218 ], [ 14.666265, 53.352219 ], [ 14.663879, 53.354376 ], [ 14.663876, 53.354379 ], [ 14.663871, 53.35438 ], [ 14.663866, 53.35438 ], [ 14.65955, 53.354223 ], [ 14.659549, 53.354223 ], [ 14.659548, 53.354224 ], [ 14.657158, 53.356385 ], [ 14.657158, 53.356386 ], [ 14.657158, 53.356386 ], [ 14.659088, 53.358701 ], [ 14.65909, 53.358704 ], [ 14.65909, 53.358707 ], [ 14.659088, 53.35871 ], [ 14.656706, 53.360864 ], [ 14.656702, 53.360866 ], [ 14.656697, 53.360868 ], [ 14.656692, 53.360868 ], [ 14.652376, 53.360711 ], [ 14.652374, 53.360711 ], [ 14.652374, 53.360711 ], [ 14.649987, 53.362869 ], [ 14.649984, 53.362871 ], [ 14.649979, 53.362873 ], [ 14.649974, 53.362873 ], [ 14.645664, 53.362715 ], [ 14.645659, 53.362715 ], [ 14.645655, 53.362713 ], [ 14.645652, 53.36271 ], [ 14.643722, 53.360395 ], [ 14.643721, 53.360395 ], [ 14.64372, 53.360395 ], [ 14.639396, 53.360236 ], [ 14.639395, 53.360236 ], [ 14.639394, 53.360237 ], [ 14.637007, 53.362394 ], [ 14.637003, 53.362396 ], [ 14.636999, 53.362398 ], [ 14.636994, 53.362398 ], [ 14.632677, 53.36224 ], [ 14.632676, 53.36224 ], [ 14.632675, 53.362241 ], [ 14.630287, 53.364398 ], [ 14.630284, 53.3644 ], [ 14.630279, 53.364401 ], [ 14.630274, 53.364402 ], [ 14.625964, 53.364244 ], [ 14.625959, 53.364243 ], [ 14.625955, 53.364241 ], [ 14.625952, 53.364239 ], [ 14.624026, 53.361927 ], [ 14.624025, 53.361924 ], [ 14.624025, 53.361921 ], [ 14.624027, 53.361918 ], [ 14.626415, 53.359761 ], [ 14.626416, 53.359761 ], [ 14.626415, 53.35976 ], [ 14.624487, 53.357444 ], [ 14.624485, 53.357441 ], [ 14.624485, 53.357438 ], [ 14.624487, 53.357435 ], [ 14.626875, 53.355279 ], [ 14.626875, 53.355278 ], [ 14.626875, 53.355277 ], [ 14.624943, 53.352958 ], [ 14.624942, 53.352957 ], [ 14.624941, 53.352957 ], [ 14.620626, 53.352798 ], [ 14.620621, 53.352798 ], [ 14.620616, 53.352796 ], [ 14.620613, 53.352794 ], [ 14.618685, 53.350478 ], [ 14.618684, 53.350477 ], [ 14.618683, 53.350477 ], [ 14.614361, 53.350318 ], [ 14.614359, 53.350318 ], [ 14.614359, 53.350319 ], [ 14.611971, 53.352475 ], [ 14.611967, 53.352478 ], [ 14.611963, 53.352479 ], [ 14.611957, 53.352479 ], [ 14.607649, 53.352321 ], [ 14.607644, 53.35232 ], [ 14.60764, 53.352318 ], [ 14.607637, 53.352316 ], [ 14.605713, 53.350004 ], [ 14.605711, 53.350001 ], [ 14.605712, 53.349998 ], [ 14.605714, 53.349995 ], [ 14.608101, 53.347838 ], [ 14.608102, 53.347838 ], [ 14.608102, 53.347837 ], [ 14.606171, 53.345517 ], [ 14.60617, 53.345517 ], [ 14.606169, 53.345517 ], [ 14.601855, 53.345357 ], [ 14.601849, 53.345357 ], [ 14.601845, 53.345355 ], [ 14.601842, 53.345353 ], [ 14.599915, 53.343037 ], [ 14.599915, 53.343036 ], [ 14.599913, 53.343036 ], [ 14.595599, 53.342877 ], [ 14.595594, 53.342876 ], [ 14.59559, 53.342874 ], [ 14.595586, 53.342872 ], [ 14.593663, 53.34056 ], [ 14.593662, 53.340557 ], [ 14.593662, 53.340553 ], [ 14.593664, 53.340551 ], [ 14.596052, 53.338394 ], [ 14.596053, 53.338394 ], [ 14.596052, 53.338393 ], [ 14.594123, 53.336073 ], [ 14.594122, 53.336073 ], [ 14.594121, 53.336072 ], [ 14.589807, 53.335913 ], [ 14.589802, 53.335912 ], [ 14.589798, 53.33591 ], [ 14.589795, 53.335908 ], [ 14.587869, 53.333592 ], [ 14.587869, 53.333591 ], [ 14.587867, 53.333591 ], [ 14.583554, 53.333431 ], [ 14.583549, 53.33343 ], [ 14.583545, 53.333429 ], [ 14.583542, 53.333426 ], [ 14.58162, 53.331114 ], [ 14.581618, 53.331111 ], [ 14.581618, 53.331108 ], [ 14.581621, 53.331105 ], [ 14.584004, 53.328953 ], [ 14.584008, 53.32895 ], [ 14.584013, 53.328949 ], [ 14.584018, 53.328949 ], [ 14.588331, 53.329109 ], [ 14.588332, 53.329109 ], [ 14.588333, 53.329108 ], [ 14.590724, 53.326948 ], [ 14.590725, 53.326947 ], [ 14.590725, 53.326947 ], [ 14.588799, 53.324631 ], [ 14.588798, 53.324628 ], [ 14.588798, 53.324625 ], [ 14.5888, 53.324622 ], [ 14.591187, 53.322466 ], [ 14.591188, 53.322465 ], [ 14.591188, 53.322464 ], [ 14.589259, 53.320144 ], [ 14.589258, 53.320144 ], [ 14.589257, 53.320144 ], [ 14.584938, 53.319984 ], [ 14.584937, 53.319984 ], [ 14.584936, 53.319984 ], [ 14.582548, 53.32214 ], [ 14.582545, 53.322143 ], [ 14.58254, 53.322144 ], [ 14.582535, 53.322144 ], [ 14.57823, 53.321984 ], [ 14.578225, 53.321984 ], [ 14.578221, 53.321982 ], [ 14.578218, 53.32198 ], [ 14.576293, 53.319663 ], [ 14.576292, 53.319663 ], [ 14.576291, 53.319663 ], [ 14.571972, 53.319502 ], [ 14.571971, 53.319502 ], [ 14.57197, 53.319503 ], [ 14.569582, 53.321659 ], [ 14.569578, 53.321661 ], [ 14.569574, 53.321662 ], [ 14.569568, 53.321663 ], [ 14.565256, 53.321502 ], [ 14.565255, 53.321502 ], [ 14.565254, 53.321503 ], [ 14.562862, 53.323662 ], [ 14.562861, 53.323663 ], [ 14.562862, 53.323663 ], [ 14.564785, 53.32598 ], [ 14.564787, 53.325983 ], [ 14.564787, 53.325986 ], [ 14.564785, 53.325989 ], [ 14.5624, 53.328141 ], [ 14.562396, 53.328143 ], [ 14.562392, 53.328144 ], [ 14.562386, 53.328145 ], [ 14.558074, 53.327984 ], [ 14.558072, 53.327984 ], [ 14.558072, 53.327984 ], [ 14.555682, 53.33014 ], [ 14.555679, 53.330142 ], [ 14.555674, 53.330144 ], [ 14.555669, 53.330144 ], [ 14.551363, 53.329983 ], [ 14.551358, 53.329982 ], [ 14.551354, 53.329981 ], [ 14.551351, 53.329978 ], [ 14.549428, 53.327662 ], [ 14.549427, 53.327661 ], [ 14.549426, 53.327661 ], [ 14.545106, 53.327499 ], [ 14.545105, 53.327499 ], [ 14.545104, 53.3275 ], [ 14.542714, 53.329655 ], [ 14.54271, 53.329658 ], [ 14.542706, 53.329659 ], [ 14.542701, 53.329659 ], [ 14.538388, 53.329498 ], [ 14.538387, 53.329498 ], [ 14.538386, 53.329498 ], [ 14.535995, 53.331653 ], [ 14.535992, 53.331656 ], [ 14.535987, 53.331657 ], [ 14.535982, 53.331657 ], [ 14.531669, 53.331496 ], [ 14.531668, 53.331496 ], [ 14.531667, 53.331496 ], [ 14.529272, 53.333655 ], [ 14.529272, 53.333656 ], [ 14.529272, 53.333656 ], [ 14.531195, 53.335973 ], [ 14.531196, 53.335976 ], [ 14.531196, 53.335979 ], [ 14.531194, 53.335982 ], [ 14.528803, 53.338137 ], [ 14.528802, 53.338138 ], [ 14.528802, 53.338138 ], [ 14.530728, 53.340459 ], [ 14.530729, 53.34046 ], [ 14.53073, 53.34046 ], [ 14.535044, 53.340622 ], [ 14.535049, 53.340623 ], [ 14.535053, 53.340624 ], [ 14.535057, 53.340627 ], [ 14.536976, 53.34294 ], [ 14.536978, 53.342943 ], [ 14.536977, 53.342946 ], [ 14.536975, 53.342949 ], [ 14.534584, 53.345104 ], [ 14.534584, 53.345104 ], [ 14.534584, 53.345105 ], [ 14.536511, 53.347426 ], [ 14.536511, 53.347426 ], [ 14.536512, 53.347426 ], [ 14.540827, 53.347588 ], [ 14.540832, 53.347589 ], [ 14.540836, 53.34759 ], [ 14.540839, 53.347593 ], [ 14.542763, 53.34991 ], [ 14.542764, 53.34991 ], [ 14.542765, 53.34991 ], [ 14.54708, 53.350072 ], [ 14.547085, 53.350073 ], [ 14.547089, 53.350074 ], [ 14.547092, 53.350077 ], [ 14.549013, 53.352389 ], [ 14.549015, 53.352392 ], [ 14.549014, 53.352396 ], [ 14.549012, 53.352398 ], [ 14.546621, 53.354554 ], [ 14.546621, 53.354554 ], [ 14.546621, 53.354555 ], [ 14.548549, 53.356876 ], [ 14.548549, 53.356876 ], [ 14.54855, 53.356876 ], [ 14.552866, 53.357038 ], [ 14.552871, 53.357038 ], [ 14.552875, 53.35704 ], [ 14.552879, 53.357043 ], [ 14.554803, 53.359359 ], [ 14.554804, 53.35936 ], [ 14.554805, 53.35936 ], [ 14.559121, 53.359521 ], [ 14.559126, 53.359521 ], [ 14.55913, 53.359523 ], [ 14.559134, 53.359526 ], [ 14.561059, 53.361842 ], [ 14.561059, 53.361843 ], [ 14.561061, 53.361843 ], [ 14.565377, 53.362004 ], [ 14.565382, 53.362004 ], [ 14.565386, 53.362006 ], [ 14.565389, 53.362009 ], [ 14.567315, 53.364325 ], [ 14.567316, 53.364326 ], [ 14.567317, 53.364326 ], [ 14.571641, 53.364486 ], [ 14.571642, 53.364486 ], [ 14.571643, 53.364486 ], [ 14.574033, 53.36233 ], [ 14.574037, 53.362328 ], [ 14.574041, 53.362326 ], [ 14.574046, 53.362326 ], [ 14.578355, 53.362486 ], [ 14.578361, 53.362487 ], [ 14.578365, 53.362489 ], [ 14.578368, 53.362491 ], [ 14.580291, 53.364803 ], [ 14.580293, 53.364806 ], [ 14.580292, 53.364809 ], [ 14.58029, 53.364812 ], [ 14.577904, 53.366964 ], [ 14.5779, 53.366967 ], [ 14.577896, 53.366968 ], [ 14.57789, 53.366968 ], [ 14.573574, 53.366808 ], [ 14.573572, 53.366808 ], [ 14.573572, 53.366809 ], [ 14.571181, 53.368965 ], [ 14.571177, 53.368967 ], [ 14.571173, 53.368968 ], [ 14.571167, 53.368969 ], [ 14.566851, 53.368808 ], [ 14.566849, 53.368808 ], [ 14.566849, 53.368809 ], [ 14.564457, 53.370964 ], [ 14.564454, 53.370967 ], [ 14.564449, 53.370968 ], [ 14.564444, 53.370968 ], [ 14.560134, 53.370808 ], [ 14.560129, 53.370807 ], [ 14.560125, 53.370805 ], [ 14.560122, 53.370803 ], [ 14.558196, 53.368486 ], [ 14.558195, 53.368486 ], [ 14.558194, 53.368486 ], [ 14.55387, 53.368324 ], [ 14.553869, 53.368324 ], [ 14.553868, 53.368325 ], [ 14.551476, 53.37048 ], [ 14.551473, 53.370483 ], [ 14.551468, 53.370484 ], [ 14.551463, 53.370484 ], [ 14.547146, 53.370323 ], [ 14.547145, 53.370323 ], [ 14.547144, 53.370324 ], [ 14.544752, 53.372479 ], [ 14.544748, 53.372481 ], [ 14.544743, 53.372482 ], [ 14.544738, 53.372483 ], [ 14.540428, 53.372322 ], [ 14.540423, 53.372321 ], [ 14.540419, 53.372319 ], [ 14.540416, 53.372317 ], [ 14.538491, 53.37 ], [ 14.538491, 53.369999 ], [ 14.53849, 53.369999 ], [ 14.534165, 53.369837 ], [ 14.534164, 53.369837 ], [ 14.534163, 53.369838 ], [ 14.531771, 53.371993 ], [ 14.531767, 53.371995 ], [ 14.531762, 53.371996 ], [ 14.531757, 53.371997 ], [ 14.52744, 53.371835 ], [ 14.527439, 53.371835 ], [ 14.527438, 53.371835 ], [ 14.525041, 53.373994 ], [ 14.52504, 53.373994 ], [ 14.525041, 53.373995 ], [ 14.526968, 53.376316 ], [ 14.526968, 53.376317 ], [ 14.52697, 53.376317 ], [ 14.531287, 53.376479 ], [ 14.531292, 53.37648 ], [ 14.531296, 53.376481 ], [ 14.5313, 53.376484 ], [ 14.533221, 53.378797 ], [ 14.533222, 53.3788 ], [ 14.533222, 53.378803 ], [ 14.53322, 53.378806 ], [ 14.53083, 53.380957 ], [ 14.530827, 53.380959 ], [ 14.530822, 53.380961 ], [ 14.530817, 53.380961 ], [ 14.526499, 53.380799 ], [ 14.526498, 53.380799 ], [ 14.526497, 53.380799 ], [ 14.524103, 53.382954 ], [ 14.524099, 53.382956 ], [ 14.524095, 53.382958 ], [ 14.52409, 53.382958 ], [ 14.519771, 53.382796 ], [ 14.51977, 53.382796 ], [ 14.519769, 53.382797 ], [ 14.517375, 53.384951 ], [ 14.517372, 53.384953 ], [ 14.517367, 53.384955 ], [ 14.517362, 53.384955 ], [ 14.513043, 53.384793 ], [ 14.513042, 53.384793 ], [ 14.513041, 53.384793 ], [ 14.510647, 53.386948 ], [ 14.510643, 53.38695 ], [ 14.510638, 53.386951 ], [ 14.510633, 53.386952 ], [ 14.506315, 53.386789 ], [ 14.506314, 53.386789 ], [ 14.506313, 53.38679 ], [ 14.503918, 53.388944 ], [ 14.503914, 53.388946 ], [ 14.503909, 53.388948 ], [ 14.503904, 53.388948 ], [ 14.499586, 53.388785 ], [ 14.499584, 53.388785 ], [ 14.499583, 53.388785 ], [ 14.497188, 53.39094 ], [ 14.497184, 53.390942 ], [ 14.49718, 53.390943 ], [ 14.497174, 53.390944 ], [ 14.492863, 53.390781 ], [ 14.492858, 53.39078 ], [ 14.492854, 53.390778 ], [ 14.49285, 53.390776 ], [ 14.490928, 53.388458 ], [ 14.490927, 53.388458 ], [ 14.490926, 53.388457 ], [ 14.4866, 53.388294 ], [ 14.486599, 53.388294 ], [ 14.486598, 53.388294 ], [ 14.484202, 53.390448 ], [ 14.484198, 53.39045 ], [ 14.484194, 53.390452 ], [ 14.484188, 53.390452 ], [ 14.47987, 53.390288 ], [ 14.479869, 53.390289 ], [ 14.479868, 53.390289 ], [ 14.477467, 53.392447 ], [ 14.477467, 53.392447 ], [ 14.477467, 53.392448 ], [ 14.479389, 53.394766 ], [ 14.47939, 53.394769 ], [ 14.47939, 53.394772 ], [ 14.479388, 53.394775 ], [ 14.476995, 53.396925 ], [ 14.476991, 53.396927 ], [ 14.476987, 53.396928 ], [ 14.476981, 53.396929 ], [ 14.472662, 53.396765 ], [ 14.472661, 53.396765 ], [ 14.47266, 53.396765 ], [ 14.470263, 53.398919 ], [ 14.470259, 53.398921 ], [ 14.470254, 53.398922 ], [ 14.470249, 53.398923 ], [ 14.46593, 53.398759 ], [ 14.465929, 53.398759 ], [ 14.465928, 53.398759 ], [ 14.463526, 53.400916 ], [ 14.463525, 53.400917 ], [ 14.463526, 53.400918 ], [ 14.465451, 53.403239 ], [ 14.465451, 53.40324 ], [ 14.465453, 53.40324 ], [ 14.469772, 53.403405 ], [ 14.469777, 53.403405 ], [ 14.469782, 53.403407 ], [ 14.469785, 53.403409 ], [ 14.471704, 53.405723 ], [ 14.471705, 53.405726 ], [ 14.471705, 53.405729 ], [ 14.471703, 53.405732 ], [ 14.469305, 53.407886 ], [ 14.469304, 53.407887 ], [ 14.469304, 53.407887 ], [ 14.47123, 53.410209 ], [ 14.471231, 53.41021 ], [ 14.471232, 53.41021 ], [ 14.47556, 53.410374 ], [ 14.475561, 53.410374 ], [ 14.475562, 53.410374 ], [ 14.47796, 53.40822 ], [ 14.477963, 53.408218 ], [ 14.477968, 53.408216 ], [ 14.477973, 53.408216 ], [ 14.482286, 53.408379 ], [ 14.482291, 53.40838 ], [ 14.482296, 53.408382 ], [ 14.482299, 53.408384 ], [ 14.484218, 53.410698 ], [ 14.48422, 53.410701 ], [ 14.484219, 53.410704 ], [ 14.484217, 53.410707 ], [ 14.481824, 53.412857 ], [ 14.48182, 53.412859 ], [ 14.481815, 53.412861 ], [ 14.48181, 53.412861 ], [ 14.477489, 53.412697 ], [ 14.477488, 53.412697 ], [ 14.477487, 53.412698 ], [ 14.475089, 53.414852 ], [ 14.475086, 53.414854 ], [ 14.475081, 53.414855 ], [ 14.475076, 53.414856 ], [ 14.470755, 53.414691 ], [ 14.470754, 53.414692 ], [ 14.470753, 53.414692 ], [ 14.46835, 53.416849 ], [ 14.468349, 53.41685 ], [ 14.46835, 53.416851 ], [ 14.470272, 53.419168 ], [ 14.470274, 53.419171 ], [ 14.470273, 53.419175 ], [ 14.470271, 53.419177 ], [ 14.467872, 53.421331 ], [ 14.467872, 53.421332 ], [ 14.467872, 53.421332 ], [ 14.469795, 53.42365 ], [ 14.469796, 53.423653 ], [ 14.469796, 53.423656 ], [ 14.469794, 53.423659 ], [ 14.467395, 53.425813 ], [ 14.467394, 53.425813 ], [ 14.467395, 53.425814 ], [ 14.469321, 53.428136 ], [ 14.469322, 53.428136 ], [ 14.469323, 53.428136 ], [ 14.473645, 53.428301 ], [ 14.47365, 53.428301 ], [ 14.473654, 53.428303 ], [ 14.473658, 53.428306 ], [ 14.475578, 53.430619 ], [ 14.475579, 53.430622 ], [ 14.475579, 53.430626 ], [ 14.475577, 53.430628 ], [ 14.473177, 53.432782 ], [ 14.473177, 53.432783 ], [ 14.473177, 53.432783 ], [ 14.475101, 53.435101 ], [ 14.475102, 53.435104 ], [ 14.475102, 53.435107 ], [ 14.4751, 53.43511 ], [ 14.472704, 53.43726 ], [ 14.4727, 53.437262 ], [ 14.472696, 53.437264 ], [ 14.472691, 53.437264 ], [ 14.468367, 53.4371 ], [ 14.468366, 53.4371 ], [ 14.468365, 53.4371 ], [ 14.465965, 53.439254 ], [ 14.465962, 53.439256 ], [ 14.465957, 53.439258 ], [ 14.465952, 53.439258 ], [ 14.461628, 53.439093 ], [ 14.461627, 53.439093 ], [ 14.461626, 53.439094 ], [ 14.459226, 53.441247 ], [ 14.459222, 53.44125 ], [ 14.459217, 53.441251 ], [ 14.459212, 53.441251 ], [ 14.454896, 53.441087 ], [ 14.454891, 53.441086 ], [ 14.454887, 53.441084 ], [ 14.454884, 53.441082 ], [ 14.452961, 53.438764 ], [ 14.45296, 53.438763 ], [ 14.452959, 53.438763 ], [ 14.448628, 53.438598 ], [ 14.448627, 53.438598 ], [ 14.448626, 53.438598 ], [ 14.446221, 53.440755 ], [ 14.446221, 53.440756 ] ] ] } }
]
}
