{
"type": "FeatureCollection",
"name": "boundary_poznan_500",
"crs": { "type": "name", "properties": { "name": "urn:ogc:def:crs:OGC:1.3:CRS84" } },
"xy_coordinate_resolution": 1e-06,
"features": [
{ "type": "Feature", "properties": { "fid": 1, "name": "Poznań" }, "geometry": { "type": "Polygon", "coordinates": [ [ [ 16.731895, 52.457772 ], [ 16.731896, 52.457773 ], [ 16.733899, 52.460055 ], [ 16.7339, 52.460058 ], [ 16.7339, 52.460061 ], [ 16.733898, 52.460064 ], [ 16.731665, 52.462264 ], [ 16.731664, 52.462265 ], [ 16.731665, 52.462266 ], [ 16.733668, 52.464547 ], [ 16.73367, 52.46455 ], [ 16.733669, 52.464554 ], [ 16.733668, 52.464556 ], [ 16.731434, 52.466757 ], [ 16.731433, 52.466758 ], [ 16.731434, 52.466759 ], [ 16.733441, 52.469044 ], [ 16.733441, 52.469045 ], [ 16.733442, 52.469045 ], [ 16.73768, 52.469126 ], [ 16.737685, 52.469127 ], [ 16.737689, 52.469128 ], [ 16.737693, 52.469131 ], [ 16.739697, 52.471413 ], [ 16.739697, 52.471413 ], [ 16.739699, 52.471413 ], [ 16.743937, 52.471494 ], [ 16.743942, 52.471495 ], [ 16.743946, 52.471497 ], [ 16.743949, 52.471499 ], [ 16.745953, 52.473781 ], [ 16.745954, 52.473781 ], [ 16.745955, 52.473782 ], [ 16.750194, 52.473862 ], [ 16.750199, 52.473863 ], [ 16.750203, 52.473865 ], [ 16.750206, 52.473867 ], [ 16.752211, 52.476149 ], [ 16.752212, 52.476149 ], [ 16.752213, 52.476149 ], [ 16.756451, 52.47623 ], [ 16.756456, 52.476231 ], [ 16.756461, 52.476232 ], [ 16.756464, 52.476235 ], [ 16.758469, 52.478516 ], [ 16.75847, 52.478517 ], [ 16.758471, 52.478517 ], [ 16.76271, 52.478597 ], [ 16.762715, 52.478598 ], [ 16.762719, 52.478599 ], [ 16.762722, 52.478602 ], [ 16.764728, 52.480883 ], [ 16.764729, 52.480884 ], [ 16.76473, 52.480884 ], [ 16.768969, 52.480964 ], [ 16.768974, 52.480965 ], [ 16.768978, 52.480966 ], [ 16.768981, 52.480969 ], [ 16.770987, 52.48325 ], [ 16.770988, 52.483251 ], [ 16.770989, 52.483251 ], [ 16.775229, 52.483331 ], [ 16.775234, 52.483331 ], [ 16.775238, 52.483333 ], [ 16.775241, 52.483335 ], [ 16.777248, 52.485617 ], [ 16.777248, 52.485617 ], [ 16.77725, 52.485617 ], [ 16.781496, 52.485697 ], [ 16.781497, 52.485697 ], [ 16.781498, 52.485696 ], [ 16.783731, 52.483495 ], [ 16.783734, 52.483492 ], [ 16.783739, 52.483491 ], [ 16.783744, 52.483491 ], [ 16.787983, 52.48357 ], [ 16.787984, 52.48357 ], [ 16.787985, 52.483569 ], [ 16.790217, 52.481368 ], [ 16.79022, 52.481365 ], [ 16.790225, 52.481364 ], [ 16.79023, 52.481363 ], [ 16.794462, 52.481442 ], [ 16.794467, 52.481443 ], [ 16.794471, 52.481445 ], [ 16.794474, 52.481447 ], [ 16.796482, 52.483728 ], [ 16.796482, 52.483728 ], [ 16.796484, 52.483729 ], [ 16.80073, 52.483808 ], [ 16.800731, 52.483808 ], [ 16.800732, 52.483807 ], [ 16.802963, 52.481605 ], [ 16.802967, 52.481603 ], [ 16.802971, 52.481601 ], [ 16.802976, 52.481601 ], [ 16.807216, 52.481679 ], [ 16.807217, 52.481679 ], [ 16.807218, 52.481679 ], [ 16.809448, 52.479477 ], [ 16.809452, 52.479474 ], [ 16.809456, 52.479473 ], [ 16.809461, 52.479472 ], [ 16.8137, 52.479551 ], [ 16.813702, 52.479551 ], [ 16.813702, 52.47955 ], [ 16.815933, 52.477348 ], [ 16.815936, 52.477346 ], [ 16.815941, 52.477344 ], [ 16.815946, 52.477344 ], [ 16.820185, 52.477422 ], [ 16.820186, 52.477422 ], [ 16.820187, 52.477421 ], [ 16.82242, 52.475215 ], [ 16.822421, 52.475214 ], [ 16.822421, 52.475214 ], [ 16.820412, 52.472933 ], [ 16.82041, 52.47293 ], [ 16.820411, 52.472927 ], [ 16.820412, 52.472924 ], [ 16.822639, 52.470726 ], [ 16.822642, 52.470723 ], [ 16.822646, 52.470722 ], [ 16.822652, 52.470721 ], [ 16.826882, 52.470799 ], [ 16.826887, 52.4708 ], [ 16.826892, 52.470801 ], [ 16.826895, 52.470804 ], [ 16.828904, 52.473084 ], [ 16.828904, 52.473085 ], [ 16.828906, 52.473085 ], [ 16.833144, 52.473163 ], [ 16.833149, 52.473163 ], [ 16.833153, 52.473165 ], [ 16.833157, 52.473167 ], [ 16.835166, 52.475448 ], [ 16.835166, 52.475448 ], [ 16.835168, 52.475448 ], [ 16.839406, 52.475526 ], [ 16.839411, 52.475527 ], [ 16.839416, 52.475528 ], [ 16.839419, 52.475531 ], [ 16.841428, 52.477811 ], [ 16.841429, 52.477811 ], [ 16.84143, 52.477812 ], [ 16.845669, 52.477889 ], [ 16.845674, 52.47789 ], [ 16.845678, 52.477891 ], [ 16.845682, 52.477894 ], [ 16.847692, 52.480174 ], [ 16.847692, 52.480174 ], [ 16.847694, 52.480174 ], [ 16.85194, 52.480252 ], [ 16.851941, 52.480251 ], [ 16.851942, 52.480251 ], [ 16.85417, 52.478048 ], [ 16.854174, 52.478046 ], [ 16.854178, 52.478044 ], [ 16.854183, 52.478044 ], [ 16.858422, 52.478121 ], [ 16.858424, 52.47812 ], [ 16.858424, 52.47812 ], [ 16.860656, 52.475913 ], [ 16.860657, 52.475912 ], [ 16.860656, 52.475912 ], [ 16.858646, 52.473632 ], [ 16.858644, 52.473629 ], [ 16.858644, 52.473626 ], [ 16.858646, 52.473623 ], [ 16.860874, 52.47142 ], [ 16.860875, 52.471419 ], [ 16.860874, 52.471418 ], [ 16.858864, 52.469138 ], [ 16.858863, 52.469136 ], [ 16.858863, 52.469132 ], [ 16.858865, 52.469129 ], [ 16.861089, 52.46693 ], [ 16.861092, 52.466928 ], [ 16.861096, 52.466926 ], [ 16.861101, 52.466926 ], [ 16.865332, 52.467002 ], [ 16.865337, 52.467003 ], [ 16.865342, 52.467005 ], [ 16.865345, 52.467007 ], [ 16.867355, 52.469287 ], [ 16.867356, 52.469287 ], [ 16.867357, 52.469287 ], [ 16.871602, 52.469364 ], [ 16.871604, 52.469364 ], [ 16.871604, 52.469363 ], [ 16.873832, 52.46716 ], [ 16.873835, 52.467158 ], [ 16.873839, 52.467156 ], [ 16.873845, 52.467156 ], [ 16.878075, 52.467232 ], [ 16.87808, 52.467232 ], [ 16.878085, 52.467234 ], [ 16.878088, 52.467236 ], [ 16.880099, 52.469516 ], [ 16.8801, 52.469516 ], [ 16.880101, 52.469517 ], [ 16.884346, 52.469593 ], [ 16.884348, 52.469593 ], [ 16.884348, 52.469592 ], [ 16.886575, 52.467388 ], [ 16.886578, 52.467386 ], [ 16.886583, 52.467385 ], [ 16.886588, 52.467384 ], [ 16.890819, 52.46746 ], [ 16.890824, 52.46746 ], [ 16.890828, 52.467462 ], [ 16.890831, 52.467464 ], [ 16.89284, 52.46974 ], [ 16.892841, 52.469743 ], [ 16.892841, 52.469746 ], [ 16.892839, 52.469749 ], [ 16.890613, 52.471953 ], [ 16.890612, 52.471953 ], [ 16.890613, 52.471954 ], [ 16.892625, 52.474233 ], [ 16.892626, 52.474236 ], [ 16.892626, 52.474239 ], [ 16.892624, 52.474242 ], [ 16.890402, 52.476442 ], [ 16.890398, 52.476445 ], [ 16.890394, 52.476446 ], [ 16.890389, 52.476446 ], [ 16.88615, 52.476371 ], [ 16.886149, 52.476371 ], [ 16.886148, 52.476371 ], [ 16.883917, 52.478579 ], [ 16.883917, 52.478579 ], [ 16.883917, 52.47858 ], [ 16.885929, 52.48086 ], [ 16.885931, 52.480863 ], [ 16.885931, 52.480866 ], [ 16.885929, 52.480869 ], [ 16.883701, 52.483072 ], [ 16.883701, 52.483073 ], [ 16.883701, 52.483074 ], [ 16.885714, 52.485353 ], [ 16.885715, 52.485356 ], [ 16.885715, 52.485359 ], [ 16.885713, 52.485362 ], [ 16.883486, 52.487566 ], [ 16.883485, 52.487566 ], [ 16.883486, 52.487567 ], [ 16.885498, 52.489846 ], [ 16.8855, 52.489849 ], [ 16.885499, 52.489852 ], [ 16.885498, 52.489855 ], [ 16.88327, 52.492059 ], [ 16.883269, 52.49206 ], [ 16.88327, 52.49206 ], [ 16.885282, 52.49434 ], [ 16.885284, 52.494343 ], [ 16.885284, 52.494346 ], [ 16.885282, 52.494349 ], [ 16.883054, 52.496552 ], [ 16.883054, 52.496553 ], [ 16.883054, 52.496554 ], [ 16.88507, 52.498837 ], [ 16.885071, 52.498838 ], [ 16.885072, 52.498838 ], [ 16.889313, 52.498913 ], [ 16.889318, 52.498914 ], [ 16.889322, 52.498916 ], [ 16.889326, 52.498918 ], [ 16.891339, 52.501198 ], [ 16.89134, 52.501198 ], [ 16.891341, 52.501198 ], [ 16.895589, 52.501274 ], [ 16.89559, 52.501274 ], [ 16.895591, 52.501273 ], [ 16.897819, 52.499069 ], [ 16.897822, 52.499067 ], [ 16.897827, 52.499066 ], [ 16.897832, 52.499065 ], [ 16.902066, 52.49914 ], [ 16.902071, 52.499141 ], [ 16.902075, 52.499143 ], [ 16.902078, 52.499145 ], [ 16.904092, 52.501424 ], [ 16.904093, 52.501425 ], [ 16.904094, 52.501425 ], [ 16.908342, 52.5015 ], [ 16.908344, 52.5015 ], [ 16.908344, 52.501499 ], [ 16.910571, 52.499295 ], [ 16.910575, 52.499293 ], [ 16.910579, 52.499292 ], [ 16.910584, 52.499291 ], [ 16.914825, 52.499366 ], [ 16.914827, 52.499366 ], [ 16.914827, 52.499365 ], [ 16.917054, 52.497161 ], [ 16.917057, 52.497159 ], [ 16.917062, 52.497157 ], [ 16.917067, 52.497157 ], [ 16.921301, 52.497231 ], [ 16.921306, 52.497232 ], [ 16.92131, 52.497234 ], [ 16.921313, 52.497236 ], [ 16.923325, 52.499511 ], [ 16.923326, 52.499514 ], [ 16.923326, 52.499517 ], [ 16.923324, 52.49952 ], [ 16.921098, 52.501724 ], [ 16.921097, 52.501725 ], [ 16.921098, 52.501726 ], [ 16.923116, 52.504008 ], [ 16.923117, 52.504009 ], [ 16.923118, 52.504009 ], [ 16.927367, 52.504084 ], [ 16.927368, 52.504084 ], [ 16.927369, 52.504083 ], [ 16.929595, 52.501879 ], [ 16.929599, 52.501876 ], [ 16.929603, 52.501875 ], [ 16.929608, 52.501874 ], [ 16.933842, 52.501948 ], [ 16.933847, 52.501949 ], [ 16.933852, 52.501951 ], [ 16.933855, 52.501953 ], [ 16.935871, 52.504232 ], [ 16.935871, 52.504232 ], [ 16.935872, 52.504232 ], [ 16.940114, 52.504306 ], [ 16.940119, 52.504307 ], [ 16.940123, 52.504309 ], [ 16.940127, 52.504311 ], [ 16.942143, 52.506589 ], [ 16.942143, 52.50659 ], [ 16.942145, 52.50659 ], [ 16.946387, 52.506664 ], [ 16.946392, 52.506665 ], [ 16.946396, 52.506666 ], [ 16.946399, 52.506669 ], [ 16.948416, 52.508947 ], [ 16.948416, 52.508948 ], [ 16.948418, 52.508948 ], [ 16.952667, 52.509021 ], [ 16.952668, 52.509021 ], [ 16.952669, 52.509021 ], [ 16.954894, 52.506816 ], [ 16.954897, 52.506813 ], [ 16.954902, 52.506812 ], [ 16.954907, 52.506812 ], [ 16.959142, 52.506885 ], [ 16.959147, 52.506885 ], [ 16.959151, 52.506887 ], [ 16.959154, 52.506889 ], [ 16.961172, 52.509168 ], [ 16.961172, 52.509168 ], [ 16.961173, 52.509168 ], [ 16.965423, 52.509241 ], [ 16.965424, 52.509241 ], [ 16.965425, 52.509241 ], [ 16.967649, 52.507036 ], [ 16.967653, 52.507033 ], [ 16.967657, 52.507032 ], [ 16.967662, 52.507031 ], [ 16.971904, 52.507104 ], [ 16.971906, 52.507104 ], [ 16.971906, 52.507104 ], [ 16.974134, 52.504894 ], [ 16.974135, 52.504894 ], [ 16.974134, 52.504893 ], [ 16.972117, 52.502615 ], [ 16.972115, 52.502612 ], [ 16.972115, 52.502609 ], [ 16.972117, 52.502606 ], [ 16.974337, 52.500405 ], [ 16.974341, 52.500402 ], [ 16.974345, 52.500401 ], [ 16.97435, 52.5004 ], [ 16.978592, 52.500473 ], [ 16.978593, 52.500473 ], [ 16.978594, 52.500472 ], [ 16.980821, 52.498263 ], [ 16.980821, 52.498262 ], [ 16.980821, 52.498262 ], [ 16.978803, 52.495984 ], [ 16.978801, 52.495981 ], [ 16.978802, 52.495978 ], [ 16.978803, 52.495975 ], [ 16.981027, 52.493769 ], [ 16.981027, 52.493769 ], [ 16.981027, 52.493768 ], [ 16.979009, 52.49149 ], [ 16.979008, 52.491487 ], [ 16.979008, 52.491484 ], [ 16.97901, 52.491481 ], [ 16.981233, 52.489276 ], [ 16.981233, 52.489275 ], [ 16.981233, 52.489274 ], [ 16.979212, 52.486993 ], [ 16.979211, 52.486992 ], [ 16.97921, 52.486992 ], [ 16.97497, 52.486919 ], [ 16.974965, 52.486919 ], [ 16.97496, 52.486917 ], [ 16.974957, 52.486915 ], [ 16.972944, 52.484641 ], [ 16.972942, 52.484638 ], [ 16.972942, 52.484635 ], [ 16.972944, 52.484632 ], [ 16.975167, 52.482426 ], [ 16.975167, 52.482426 ], [ 16.975167, 52.482425 ], [ 16.97315, 52.480147 ], [ 16.973149, 52.480144 ], [ 16.973149, 52.480141 ], [ 16.973151, 52.480138 ], [ 16.975373, 52.477933 ], [ 16.975374, 52.477932 ], [ 16.975373, 52.477931 ], [ 16.973357, 52.475653 ], [ 16.973355, 52.47565 ], [ 16.973355, 52.475647 ], [ 16.973357, 52.475644 ], [ 16.975576, 52.473443 ], [ 16.975579, 52.47344 ], [ 16.975584, 52.473439 ], [ 16.975589, 52.473438 ], [ 16.979828, 52.473511 ], [ 16.979829, 52.473511 ], [ 16.97983, 52.47351 ], [ 16.982055, 52.471301 ], [ 16.982056, 52.4713 ], [ 16.982055, 52.4713 ], [ 16.980039, 52.469022 ], [ 16.980037, 52.469019 ], [ 16.980037, 52.469016 ], [ 16.980039, 52.469013 ], [ 16.982261, 52.466807 ], [ 16.982261, 52.466807 ], [ 16.982261, 52.466806 ], [ 16.980245, 52.464528 ], [ 16.980243, 52.464525 ], [ 16.980243, 52.464522 ], [ 16.980245, 52.464519 ], [ 16.982467, 52.462314 ], [ 16.982467, 52.462313 ], [ 16.982467, 52.462312 ], [ 16.98045, 52.460034 ], [ 16.980449, 52.460032 ], [ 16.980449, 52.460028 ], [ 16.980451, 52.460026 ], [ 16.982672, 52.45782 ], [ 16.982672, 52.457819 ], [ 16.982672, 52.457819 ], [ 16.980653, 52.455537 ], [ 16.980652, 52.455536 ], [ 16.980651, 52.455536 ], [ 16.976414, 52.455464 ], [ 16.976409, 52.455463 ], [ 16.976404, 52.455462 ], [ 16.976401, 52.455459 ], [ 16.974389, 52.453185 ], [ 16.974387, 52.453182 ], [ 16.974387, 52.453179 ], [ 16.974389, 52.453176 ], [ 16.97661, 52.450971 ], [ 16.976611, 52.45097 ], [ 16.976611, 52.450969 ], [ 16.974595, 52.448691 ], [ 16.974593, 52.448688 ], [ 16.974594, 52.448685 ], [ 16.974595, 52.448682 ], [ 16.976813, 52.446481 ], [ 16.976816, 52.446478 ], [ 16.976821, 52.446477 ], [ 16.976826, 52.446476 ], [ 16.981062, 52.446549 ], [ 16.981063, 52.446549 ], [ 16.981064, 52.446548 ], [ 16.983284, 52.444343 ], [ 16.983288, 52.44434 ], [ 16.983292, 52.444339 ], [ 16.983297, 52.444338 ], [ 16.987533, 52.444411 ], [ 16.987534, 52.44441 ], [ 16.987535, 52.44441 ], [ 16.989755, 52.442204 ], [ 16.989759, 52.442202 ], [ 16.989763, 52.4422 ], [ 16.989768, 52.4422 ], [ 16.994004, 52.442272 ], [ 16.994005, 52.442272 ], [ 16.994006, 52.442271 ], [ 16.996226, 52.440066 ], [ 16.996229, 52.440063 ], [ 16.996234, 52.440062 ], [ 16.996239, 52.440061 ], [ 17.000467, 52.440133 ], [ 17.000472, 52.440133 ], [ 17.000477, 52.440135 ], [ 17.00048, 52.440138 ], [ 17.002493, 52.442411 ], [ 17.002494, 52.442414 ], [ 17.002494, 52.442417 ], [ 17.002492, 52.44242 ], [ 17.000273, 52.444626 ], [ 17.000272, 52.444627 ], [ 17.000273, 52.444627 ], [ 17.002293, 52.446909 ], [ 17.002294, 52.446909 ], [ 17.002295, 52.44691 ], [ 17.006531, 52.446981 ], [ 17.006536, 52.446982 ], [ 17.00654, 52.446983 ], [ 17.006544, 52.446986 ], [ 17.008561, 52.449263 ], [ 17.008561, 52.449264 ], [ 17.008563, 52.449264 ], [ 17.012799, 52.449335 ], [ 17.012804, 52.449336 ], [ 17.012808, 52.449337 ], [ 17.012812, 52.44934 ], [ 17.014829, 52.451617 ], [ 17.01483, 52.451618 ], [ 17.014831, 52.451618 ], [ 17.019075, 52.451689 ], [ 17.019076, 52.451689 ], [ 17.019077, 52.451688 ], [ 17.021296, 52.449482 ], [ 17.021299, 52.44948 ], [ 17.021304, 52.449478 ], [ 17.021309, 52.449478 ], [ 17.025546, 52.449549 ], [ 17.025547, 52.449549 ], [ 17.025547, 52.449548 ], [ 17.02777, 52.447338 ], [ 17.02777, 52.447337 ], [ 17.02777, 52.447337 ], [ 17.025752, 52.445059 ], [ 17.02575, 52.445056 ], [ 17.02575, 52.445053 ], [ 17.025752, 52.44505 ], [ 17.027971, 52.442844 ], [ 17.027971, 52.442843 ], [ 17.027971, 52.442843 ], [ 17.025953, 52.440566 ], [ 17.025951, 52.440563 ], [ 17.025951, 52.44056 ], [ 17.025953, 52.440557 ], [ 17.028171, 52.43835 ], [ 17.028172, 52.43835 ], [ 17.028171, 52.438349 ], [ 17.02615, 52.436068 ], [ 17.02615, 52.436067 ], [ 17.026148, 52.436067 ], [ 17.021913, 52.435996 ], [ 17.021908, 52.435996 ], [ 17.021904, 52.435994 ], [ 17.021901, 52.435992 ], [ 17.019883, 52.433715 ], [ 17.019883, 52.433714 ], [ 17.019881, 52.433714 ], [ 17.015646, 52.433643 ], [ 17.015641, 52.433642 ], [ 17.015637, 52.433641 ], [ 17.015634, 52.433638 ], [ 17.013621, 52.431365 ], [ 17.013619, 52.431362 ], [ 17.013619, 52.431359 ], [ 17.013621, 52.431356 ], [ 17.015835, 52.429153 ], [ 17.015839, 52.429151 ], [ 17.015843, 52.429149 ], [ 17.015848, 52.429149 ], [ 17.020076, 52.42922 ], [ 17.020081, 52.429221 ], [ 17.020085, 52.429222 ], [ 17.020088, 52.429225 ], [ 17.022105, 52.431502 ], [ 17.022106, 52.431502 ], [ 17.022107, 52.431502 ], [ 17.026342, 52.431573 ], [ 17.026347, 52.431574 ], [ 17.026351, 52.431576 ], [ 17.026355, 52.431578 ], [ 17.028372, 52.433855 ], [ 17.028373, 52.433856 ], [ 17.028374, 52.433856 ], [ 17.032616, 52.433926 ], [ 17.032617, 52.433926 ], [ 17.032618, 52.433926 ], [ 17.034835, 52.431719 ], [ 17.034839, 52.431717 ], [ 17.034843, 52.431715 ], [ 17.034848, 52.431715 ], [ 17.039083, 52.431785 ], [ 17.039085, 52.431785 ], [ 17.039085, 52.431785 ], [ 17.041302, 52.429578 ], [ 17.041306, 52.429576 ], [ 17.04131, 52.429574 ], [ 17.041315, 52.429574 ], [ 17.04555, 52.429644 ], [ 17.045551, 52.429644 ], [ 17.045552, 52.429643 ], [ 17.047768, 52.427436 ], [ 17.047772, 52.427434 ], [ 17.047776, 52.427433 ], [ 17.047781, 52.427432 ], [ 17.052016, 52.427502 ], [ 17.052017, 52.427502 ], [ 17.052018, 52.427501 ], [ 17.054234, 52.425294 ], [ 17.054237, 52.425292 ], [ 17.054242, 52.425291 ], [ 17.054247, 52.42529 ], [ 17.058474, 52.42536 ], [ 17.058479, 52.42536 ], [ 17.058483, 52.425362 ], [ 17.058487, 52.425364 ], [ 17.060505, 52.427641 ], [ 17.060506, 52.427641 ], [ 17.060507, 52.427642 ], [ 17.064742, 52.427711 ], [ 17.064747, 52.427712 ], [ 17.064751, 52.427713 ], [ 17.064754, 52.427716 ], [ 17.066774, 52.429992 ], [ 17.066774, 52.429993 ], [ 17.066776, 52.429993 ], [ 17.071018, 52.430062 ], [ 17.071019, 52.430062 ], [ 17.07102, 52.430061 ], [ 17.073235, 52.427854 ], [ 17.073238, 52.427852 ], [ 17.073243, 52.42785 ], [ 17.073248, 52.42785 ], [ 17.077482, 52.427919 ], [ 17.077484, 52.427919 ], [ 17.077484, 52.427918 ], [ 17.079703, 52.425707 ], [ 17.079703, 52.425706 ], [ 17.079703, 52.425706 ], [ 17.07768, 52.423426 ], [ 17.077679, 52.423425 ], [ 17.077678, 52.423425 ], [ 17.073444, 52.423356 ], [ 17.073439, 52.423355 ], [ 17.073434, 52.423354 ], [ 17.073431, 52.423351 ], [ 17.071415, 52.421079 ], [ 17.071414, 52.421076 ], [ 17.071414, 52.421073 ], [ 17.071416, 52.42107 ], [ 17.073631, 52.418863 ], [ 17.073631, 52.418862 ], [ 17.073631, 52.418861 ], [ 17.071608, 52.416581 ], [ 17.071607, 52.41658 ], [ 17.071606, 52.41658 ], [ 17.067373, 52.416511 ], [ 17.067368, 52.41651 ], [ 17.067363, 52.416509 ], [ 17.06736, 52.416506 ], [ 17.065345, 52.414234 ], [ 17.065343, 52.414231 ], [ 17.065343, 52.414228 ], [ 17.065345, 52.414225 ], [ 17.06756, 52.412018 ], [ 17.06756, 52.412017 ], [ 17.06756, 52.412016 ], [ 17.065538, 52.409736 ], [ 17.065537, 52.409735 ], [ 17.065536, 52.409735 ], [ 17.061296, 52.409666 ], [ 17.061295, 52.409666 ], [ 17.061294, 52.409667 ], [ 17.059079, 52.411874 ], [ 17.059076, 52.411876 ], [ 17.059071, 52.411877 ], [ 17.059066, 52.411878 ], [ 17.05484, 52.411808 ], [ 17.054835, 52.411808 ], [ 17.054831, 52.411806 ], [ 17.054828, 52.411804 ], [ 17.052814, 52.409531 ], [ 17.052812, 52.409528 ], [ 17.052812, 52.409525 ], [ 17.052814, 52.409522 ], [ 17.055029, 52.407315 ], [ 17.055029, 52.407314 ], [ 17.055029, 52.407314 ], [ 17.053008, 52.405033 ], [ 17.053007, 52.405033 ], [ 17.053006, 52.405032 ], [ 17.048774, 52.404963 ], [ 17.048769, 52.404962 ], [ 17.048764, 52.40496 ], [ 17.048761, 52.404958 ], [ 17.046747, 52.402685 ], [ 17.046746, 52.402682 ], [ 17.046746, 52.402679 ], [ 17.046748, 52.402676 ], [ 17.048963, 52.400469 ], [ 17.048963, 52.400469 ], [ 17.048963, 52.400468 ], [ 17.046946, 52.398191 ], [ 17.046944, 52.398188 ], [ 17.046944, 52.398185 ], [ 17.046946, 52.398182 ], [ 17.049157, 52.395979 ], [ 17.049161, 52.395977 ], [ 17.049165, 52.395975 ], [ 17.04917, 52.395975 ], [ 17.053402, 52.396045 ], [ 17.053403, 52.396044 ], [ 17.053404, 52.396044 ], [ 17.055622, 52.393833 ], [ 17.055622, 52.393833 ], [ 17.055622, 52.393832 ], [ 17.053605, 52.391555 ], [ 17.053603, 52.391552 ], [ 17.053604, 52.391549 ], [ 17.053605, 52.391546 ], [ 17.05582, 52.389339 ], [ 17.05582, 52.389339 ], [ 17.05582, 52.389338 ], [ 17.053803, 52.387061 ], [ 17.053801, 52.387058 ], [ 17.053801, 52.387055 ], [ 17.053803, 52.387052 ], [ 17.056017, 52.384845 ], [ 17.056017, 52.384845 ], [ 17.056017, 52.384844 ], [ 17.054, 52.382567 ], [ 17.053999, 52.382564 ], [ 17.053999, 52.382561 ], [ 17.054001, 52.382558 ], [ 17.056214, 52.380351 ], [ 17.056215, 52.380351 ], [ 17.056214, 52.38035 ], [ 17.054198, 52.378073 ], [ 17.054196, 52.37807 ], [ 17.054197, 52.378067 ], [ 17.054198, 52.378064 ], [ 17.056408, 52.375861 ], [ 17.056411, 52.375859 ], [ 17.056416, 52.375857 ], [ 17.056421, 52.375857 ], [ 17.060651, 52.375926 ], [ 17.060652, 52.375926 ], [ 17.060653, 52.375926 ], [ 17.062869, 52.373715 ], [ 17.06287, 52.373714 ], [ 17.062869, 52.373714 ], [ 17.060853, 52.371437 ], [ 17.060851, 52.371434 ], [ 17.060851, 52.371431 ], [ 17.060853, 52.371428 ], [ 17.063066, 52.369221 ], [ 17.063066, 52.36922 ], [ 17.063066, 52.36922 ], [ 17.06105, 52.366943 ], [ 17.061048, 52.36694 ], [ 17.061048, 52.366937 ], [ 17.06105, 52.366934 ], [ 17.063263, 52.364727 ], [ 17.063263, 52.364726 ], [ 17.063263, 52.364726 ], [ 17.061247, 52.362449 ], [ 17.061245, 52.362446 ], [ 17.061245, 52.362443 ], [ 17.061247, 52.36244 ], [ 17.063459, 52.360233 ], [ 17.06346, 52.360232 ], [ 17.063459, 52.360232 ], [ 17.061443, 52.357955 ], [ 17.061442, 52.357952 ], [ 17.061442, 52.357949 ], [ 17.061444, 52.357946 ], [ 17.063656, 52.355739 ], [ 17.063656, 52.355738 ], [ 17.063656, 52.355738 ], [ 17.061637, 52.353457 ], [ 17.061636, 52.353457 ], [ 17.061635, 52.353457 ], [ 17.057407, 52.353387 ], [ 17.057402, 52.353386 ], [ 17.057398, 52.353385 ], [ 17.057395, 52.353382 ], [ 17.055383, 52.35111 ], [ 17.055381, 52.351107 ], [ 17.055381, 52.351104 ], [ 17.055383, 52.351101 ], [ 17.057595, 52.348894 ], [ 17.057595, 52.348893 ], [ 17.057595, 52.348892 ], [ 17.05558, 52.346616 ], [ 17.055578, 52.346613 ], [ 17.055578, 52.34661 ], [ 17.05558, 52.346607 ], [ 17.057792, 52.3444 ], [ 17.057793, 52.344399 ], [ 17.057792, 52.344398 ], [ 17.055774, 52.342118 ], [ 17.055773, 52.342117 ], [ 17.055772, 52.342117 ], [ 17.051545, 52.342047 ], [ 17.05154, 52.342047 ], [ 17.051536, 52.342045 ], [ 17.051533, 52.342043 ], [ 17.049522, 52.33977 ], [ 17.04952, 52.339767 ], [ 17.04952, 52.339764 ], [ 17.049522, 52.339761 ], [ 17.051734, 52.337554 ], [ 17.051734, 52.337553 ], [ 17.051734, 52.337553 ], [ 17.049716, 52.335272 ], [ 17.049715, 52.335272 ], [ 17.049714, 52.335271 ], [ 17.045488, 52.335202 ], [ 17.045483, 52.335201 ], [ 17.045479, 52.335199 ], [ 17.045476, 52.335197 ], [ 17.043465, 52.332924 ], [ 17.043464, 52.332921 ], [ 17.043464, 52.332918 ], [ 17.043466, 52.332915 ], [ 17.045677, 52.330708 ], [ 17.045678, 52.330707 ], [ 17.045678, 52.330707 ], [ 17.04366, 52.328426 ], [ 17.04366, 52.328426 ], [ 17.043659, 52.328425 ], [ 17.039433, 52.328355 ], [ 17.039428, 52.328355 ], [ 17.039424, 52.328353 ], [ 17.039421, 52.328351 ], [ 17.037408, 52.326074 ], [ 17.037407, 52.326073 ], [ 17.037406, 52.326073 ], [ 17.033174, 52.326003 ], [ 17.033172, 52.326003 ], [ 17.033172, 52.326003 ], [ 17.03096, 52.32821 ], [ 17.030956, 52.328212 ], [ 17.030952, 52.328214 ], [ 17.030947, 52.328214 ], [ 17.026722, 52.328144 ], [ 17.026721, 52.328144 ], [ 17.02672, 52.328144 ], [ 17.024507, 52.330351 ], [ 17.024504, 52.330353 ], [ 17.0245, 52.330355 ], [ 17.024494, 52.330355 ], [ 17.020269, 52.330284 ], [ 17.020268, 52.330284 ], [ 17.020267, 52.330285 ], [ 17.018054, 52.332491 ], [ 17.018051, 52.332494 ], [ 17.018047, 52.332495 ], [ 17.018042, 52.332496 ], [ 17.013823, 52.332425 ], [ 17.013818, 52.332424 ], [ 17.013814, 52.332422 ], [ 17.013811, 52.33242 ], [ 17.011799, 52.330143 ], [ 17.011798, 52.330142 ], [ 17.011797, 52.330142 ], [ 17.007572, 52.330071 ], [ 17.007567, 52.33007 ], [ 17.007562, 52.330069 ], [ 17.007559, 52.330066 ], [ 17.005547, 52.327789 ], [ 17.005547, 52.327788 ], [ 17.005545, 52.327788 ], [ 17.001313, 52.327716 ], [ 17.001312, 52.327716 ], [ 17.001311, 52.327717 ], [ 16.999098, 52.329923 ], [ 16.999094, 52.329925 ], [ 16.99909, 52.329927 ], [ 16.999085, 52.329927 ], [ 16.994867, 52.329856 ], [ 16.994862, 52.329855 ], [ 16.994858, 52.329853 ], [ 16.994854, 52.329851 ], [ 16.992847, 52.327577 ], [ 16.992845, 52.327574 ], [ 16.992845, 52.327571 ], [ 16.992847, 52.327568 ], [ 16.995061, 52.325362 ], [ 16.995061, 52.325362 ], [ 16.995061, 52.325361 ], [ 16.99305, 52.323083 ], [ 16.993049, 52.323081 ], [ 16.993049, 52.323077 ], [ 16.993051, 52.323074 ], [ 16.99526, 52.320872 ], [ 16.995264, 52.32087 ], [ 16.995268, 52.320869 ], [ 16.995273, 52.320868 ], [ 16.999498, 52.32094 ], [ 16.999499, 52.32094 ], [ 16.9995, 52.320939 ], [ 17.001716, 52.318729 ], [ 17.001717, 52.318729 ], [ 17.001717, 52.318728 ], [ 16.999706, 52.31645 ], [ 16.999704, 52.316448 ], [ 16.999704, 52.316444 ], [ 16.999706, 52.316441 ], [ 17.001915, 52.314239 ], [ 17.001919, 52.314237 ], [ 17.001923, 52.314235 ], [ 17.001928, 52.314235 ], [ 17.006152, 52.314306 ], [ 17.006153, 52.314306 ], [ 17.006154, 52.314306 ], [ 17.00837, 52.312096 ], [ 17.00837, 52.312095 ], [ 17.00837, 52.312094 ], [ 17.006356, 52.309813 ], [ 17.006355, 52.309813 ], [ 17.006354, 52.309812 ], [ 17.00213, 52.309741 ], [ 17.002125, 52.30974 ], [ 17.002121, 52.309739 ], [ 17.002118, 52.309736 ], [ 17.000111, 52.307463 ], [ 17.000109, 52.30746 ], [ 17.000109, 52.307457 ], [ 17.000111, 52.307454 ], [ 17.002324, 52.305248 ], [ 17.002324, 52.305247 ], [ 17.002324, 52.305246 ], [ 17.000313, 52.302969 ], [ 17.000312, 52.302966 ], [ 17.000312, 52.302963 ], [ 17.000314, 52.30296 ], [ 17.002526, 52.300754 ], [ 17.002526, 52.300753 ], [ 17.002526, 52.300753 ], [ 17.000516, 52.298475 ], [ 17.000514, 52.298472 ], [ 17.000514, 52.298469 ], [ 17.000516, 52.298466 ], [ 17.002724, 52.296264 ], [ 17.002728, 52.296261 ], [ 17.002732, 52.29626 ], [ 17.002737, 52.29626 ], [ 17.006959, 52.296331 ], [ 17.006961, 52.296331 ], [ 17.006961, 52.29633 ], [ 17.009177, 52.29412 ], [ 17.009177, 52.29412 ], [ 17.009177, 52.294119 ], [ 17.007163, 52.291838 ], [ 17.007162, 52.291837 ], [ 17.007161, 52.291837 ], [ 17.00294, 52.291766 ], [ 17.002935, 52.291765 ], [ 17.00293, 52.291763 ], [ 17.002927, 52.291761 ], [ 17.000917, 52.289483 ], [ 17.000917, 52.289483 ], [ 17.000915, 52.289483 ], [ 16.996687, 52.289411 ], [ 16.996686, 52.289411 ], [ 16.996685, 52.289412 ], [ 16.994473, 52.291618 ], [ 16.99447, 52.29162 ], [ 16.994465, 52.291621 ], [ 16.99446, 52.291622 ], [ 16.990239, 52.29155 ], [ 16.990238, 52.29155 ], [ 16.990237, 52.291551 ], [ 16.988024, 52.293757 ], [ 16.988021, 52.293759 ], [ 16.988017, 52.29376 ], [ 16.988012, 52.293761 ], [ 16.98379, 52.293689 ], [ 16.983789, 52.293689 ], [ 16.983788, 52.293689 ], [ 16.981575, 52.295895 ], [ 16.981572, 52.295897 ], [ 16.981567, 52.295899 ], [ 16.981562, 52.295899 ], [ 16.97734, 52.295827 ], [ 16.977339, 52.295827 ], [ 16.977338, 52.295828 ], [ 16.975121, 52.298037 ], [ 16.975121, 52.298038 ], [ 16.975121, 52.298038 ], [ 16.97713, 52.300316 ], [ 16.977132, 52.300319 ], [ 16.977132, 52.300322 ], [ 16.97713, 52.300325 ], [ 16.97492, 52.302527 ], [ 16.974917, 52.302529 ], [ 16.974912, 52.302531 ], [ 16.974907, 52.302531 ], [ 16.970685, 52.302459 ], [ 16.970684, 52.302459 ], [ 16.970683, 52.30246 ], [ 16.968469, 52.304665 ], [ 16.968466, 52.304667 ], [ 16.968461, 52.304669 ], [ 16.968456, 52.304669 ], [ 16.964233, 52.304597 ], [ 16.964232, 52.304597 ], [ 16.964232, 52.304597 ], [ 16.962017, 52.306802 ], [ 16.962014, 52.306805 ], [ 16.962009, 52.306806 ], [ 16.962004, 52.306807 ], [ 16.957781, 52.306734 ], [ 16.95778, 52.306734 ], [ 16.95778, 52.306734 ], [ 16.955565, 52.30894 ], [ 16.955561, 52.308942 ], [ 16.955557, 52.308943 ], [ 16.955552, 52.308944 ], [ 16.951336, 52.308871 ], [ 16.951331, 52.30887 ], [ 16.951327, 52.308868 ], [ 16.951324, 52.308866 ], [ 16.949316, 52.306588 ], [ 16.949315, 52.306587 ], [ 16.949314, 52.306587 ], [ 16.945084, 52.306513 ], [ 16.945083, 52.306514 ], [ 16.945082, 52.306514 ], [ 16.942863, 52.308723 ], [ 16.942862, 52.308723 ], [ 16.942863, 52.308724 ], [ 16.94487, 52.311003 ], [ 16.944872, 52.311006 ], [ 16.944872, 52.311009 ], [ 16.94487, 52.311012 ], [ 16.942658, 52.313213 ], [ 16.942655, 52.313215 ], [ 16.94265, 52.313217 ], [ 16.942645, 52.313217 ], [ 16.938422, 52.313143 ], [ 16.938421, 52.313143 ], [ 16.93842, 52.313144 ], [ 16.936204, 52.315349 ], [ 16.936201, 52.315351 ], [ 16.936196, 52.315353 ], [ 16.936191, 52.315353 ], [ 16.931967, 52.315279 ], [ 16.931966, 52.315279 ], [ 16.931965, 52.31528 ], [ 16.929749, 52.317484 ], [ 16.929746, 52.317487 ], [ 16.929741, 52.317488 ], [ 16.929736, 52.317489 ], [ 16.925512, 52.317415 ], [ 16.925511, 52.317415 ], [ 16.92551, 52.317415 ], [ 16.923294, 52.31962 ], [ 16.92329, 52.319622 ], [ 16.923286, 52.319624 ], [ 16.923281, 52.319624 ], [ 16.919057, 52.31955 ], [ 16.919056, 52.31955 ], [ 16.919055, 52.31955 ], [ 16.916834, 52.321758 ], [ 16.916833, 52.321759 ], [ 16.916834, 52.32176 ], [ 16.91884, 52.324039 ], [ 16.918842, 52.324042 ], [ 16.918842, 52.324045 ], [ 16.91884, 52.324048 ], [ 16.916623, 52.326252 ], [ 16.916622, 52.326253 ], [ 16.916622, 52.326253 ], [ 16.91863, 52.328532 ], [ 16.918631, 52.328535 ], [ 16.918631, 52.328538 ], [ 16.918629, 52.328541 ], [ 16.916415, 52.330742 ], [ 16.916412, 52.330744 ], [ 16.916407, 52.330746 ], [ 16.916402, 52.330746 ], [ 16.912177, 52.330672 ], [ 16.912176, 52.330672 ], [ 16.912175, 52.330672 ], [ 16.909957, 52.332876 ], [ 16.909954, 52.332879 ], [ 16.909949, 52.33288 ], [ 16.909944, 52.332881 ], [ 16.905719, 52.332806 ], [ 16.905718, 52.332806 ], [ 16.905717, 52.332806 ], [ 16.903498, 52.335011 ], [ 16.903495, 52.335013 ], [ 16.903491, 52.335014 ], [ 16.903485, 52.335015 ], [ 16.89926, 52.33494 ], [ 16.899259, 52.33494 ], [ 16.899258, 52.33494 ], [ 16.897035, 52.337148 ], [ 16.897035, 52.337149 ], [ 16.897035, 52.33715 ], [ 16.899042, 52.339429 ], [ 16.899043, 52.339432 ], [ 16.899043, 52.339435 ], [ 16.899041, 52.339438 ], [ 16.896822, 52.341642 ], [ 16.896822, 52.341642 ], [ 16.896822, 52.341643 ], [ 16.898829, 52.343922 ], [ 16.89883, 52.343925 ], [ 16.89883, 52.343928 ], [ 16.898828, 52.343931 ], [ 16.896609, 52.346135 ], [ 16.896608, 52.346136 ], [ 16.896609, 52.346137 ], [ 16.898616, 52.348416 ], [ 16.898617, 52.348419 ], [ 16.898617, 52.348422 ], [ 16.898615, 52.348425 ], [ 16.896395, 52.350629 ], [ 16.896395, 52.350629 ], [ 16.896395, 52.35063 ], [ 16.898402, 52.352909 ], [ 16.898404, 52.352912 ], [ 16.898404, 52.352915 ], [ 16.898402, 52.352918 ], [ 16.896186, 52.355119 ], [ 16.896182, 52.355121 ], [ 16.896178, 52.355122 ], [ 16.896173, 52.355123 ], [ 16.891953, 52.355048 ], [ 16.891948, 52.355047 ], [ 16.891943, 52.355045 ], [ 16.89194, 52.355043 ], [ 16.889933, 52.352764 ], [ 16.889933, 52.352763 ], [ 16.889932, 52.352763 ], [ 16.885697, 52.352687 ], [ 16.885696, 52.352687 ], [ 16.885695, 52.352688 ], [ 16.883475, 52.354891 ], [ 16.883471, 52.354894 ], [ 16.883467, 52.354895 ], [ 16.883462, 52.354896 ], [ 16.879242, 52.35482 ], [ 16.879237, 52.354819 ], [ 16.879232, 52.354818 ], [ 16.879229, 52.354815 ], [ 16.877223, 52.352536 ], [ 16.877222, 52.352535 ], [ 16.877221, 52.352535 ], [ 16.872987, 52.352459 ], [ 16.872986, 52.352459 ], [ 16.872985, 52.35246 ], [ 16.870764, 52.354663 ], [ 16.870761, 52.354665 ], [ 16.870756, 52.354667 ], [ 16.870751, 52.354667 ], [ 16.866531, 52.354591 ], [ 16.866526, 52.354591 ], [ 16.866522, 52.354589 ], [ 16.866519, 52.354586 ], [ 16.864513, 52.352307 ], [ 16.864512, 52.352306 ], [ 16.864511, 52.352306 ], [ 16.860284, 52.35223 ], [ 16.860279, 52.352229 ], [ 16.860275, 52.352227 ], [ 16.860272, 52.352225 ], [ 16.858267, 52.349945 ], [ 16.858266, 52.349944 ], [ 16.858265, 52.349944 ], [ 16.854038, 52.349868 ], [ 16.854033, 52.349867 ], [ 16.854029, 52.349865 ], [ 16.854026, 52.349863 ], [ 16.852021, 52.347583 ], [ 16.85202, 52.347582 ], [ 16.852019, 52.347582 ], [ 16.847793, 52.347505 ], [ 16.847788, 52.347505 ], [ 16.847783, 52.347503 ], [ 16.84778, 52.3475 ], [ 16.845779, 52.345224 ], [ 16.845778, 52.345221 ], [ 16.845778, 52.345218 ], [ 16.84578, 52.345215 ], [ 16.848002, 52.343012 ], [ 16.848002, 52.343012 ], [ 16.848002, 52.343011 ], [ 16.845994, 52.340727 ], [ 16.845994, 52.340726 ], [ 16.845993, 52.340726 ], [ 16.84176, 52.340649 ], [ 16.841758, 52.340649 ], [ 16.841758, 52.34065 ], [ 16.839536, 52.342853 ], [ 16.839532, 52.342855 ], [ 16.839528, 52.342856 ], [ 16.839523, 52.342857 ], [ 16.835297, 52.342779 ], [ 16.835296, 52.34278 ], [ 16.835295, 52.34278 ], [ 16.833068, 52.344987 ], [ 16.833068, 52.344987 ], [ 16.833068, 52.344988 ], [ 16.835072, 52.347268 ], [ 16.835073, 52.347271 ], [ 16.835073, 52.347274 ], [ 16.835071, 52.347277 ], [ 16.832852, 52.349476 ], [ 16.832849, 52.349479 ], [ 16.832844, 52.34948 ], [ 16.832839, 52.34948 ], [ 16.828613, 52.349403 ], [ 16.828612, 52.349403 ], [ 16.828611, 52.349403 ], [ 16.826388, 52.351606 ], [ 16.826384, 52.351608 ], [ 16.82638, 52.35161 ], [ 16.826375, 52.35161 ], [ 16.822148, 52.351533 ], [ 16.822147, 52.351533 ], [ 16.822146, 52.351533 ], [ 16.819919, 52.353739 ], [ 16.819918, 52.35374 ], [ 16.819918, 52.353741 ], [ 16.821922, 52.356021 ], [ 16.821923, 52.356024 ], [ 16.821923, 52.356027 ], [ 16.821921, 52.35603 ], [ 16.819697, 52.358233 ], [ 16.819697, 52.358233 ], [ 16.819697, 52.358234 ], [ 16.821704, 52.360518 ], [ 16.821705, 52.360519 ], [ 16.821706, 52.360519 ], [ 16.825934, 52.360597 ], [ 16.825939, 52.360598 ], [ 16.825943, 52.360599 ], [ 16.825946, 52.360602 ], [ 16.827946, 52.362878 ], [ 16.827948, 52.362881 ], [ 16.827948, 52.362884 ], [ 16.827946, 52.362887 ], [ 16.825722, 52.36509 ], [ 16.825722, 52.36509 ], [ 16.825722, 52.365091 ], [ 16.827726, 52.367372 ], [ 16.827728, 52.367375 ], [ 16.827727, 52.367378 ], [ 16.827726, 52.367381 ], [ 16.825501, 52.369583 ], [ 16.825501, 52.369584 ], [ 16.825501, 52.369584 ], [ 16.827505, 52.371865 ], [ 16.827507, 52.371868 ], [ 16.827507, 52.371871 ], [ 16.827505, 52.371874 ], [ 16.825284, 52.374073 ], [ 16.825281, 52.374075 ], [ 16.825276, 52.374076 ], [ 16.825271, 52.374077 ], [ 16.821043, 52.373999 ], [ 16.821041, 52.373999 ], [ 16.821041, 52.374 ], [ 16.818816, 52.376202 ], [ 16.818812, 52.376204 ], [ 16.818808, 52.376206 ], [ 16.818803, 52.376206 ], [ 16.814581, 52.376128 ], [ 16.814576, 52.376128 ], [ 16.814571, 52.376126 ], [ 16.814568, 52.376124 ], [ 16.812565, 52.373843 ], [ 16.812564, 52.373842 ], [ 16.812563, 52.373842 ], [ 16.808327, 52.373764 ], [ 16.808326, 52.373764 ], [ 16.808325, 52.373764 ], [ 16.806099, 52.375967 ], [ 16.806096, 52.375969 ], [ 16.806091, 52.37597 ], [ 16.806086, 52.375971 ], [ 16.801864, 52.375892 ], [ 16.801859, 52.375892 ], [ 16.801855, 52.37589 ], [ 16.801852, 52.375888 ], [ 16.799849, 52.373607 ], [ 16.799848, 52.373606 ], [ 16.799847, 52.373606 ], [ 16.795611, 52.373527 ], [ 16.79561, 52.373527 ], [ 16.795609, 52.373528 ], [ 16.793383, 52.37573 ], [ 16.79338, 52.375732 ], [ 16.793375, 52.375734 ], [ 16.79337, 52.375734 ], [ 16.789141, 52.375655 ], [ 16.78914, 52.375655 ], [ 16.789139, 52.375656 ], [ 16.786909, 52.377861 ], [ 16.786908, 52.377862 ], [ 16.786909, 52.377863 ], [ 16.788915, 52.380147 ], [ 16.788915, 52.380148 ], [ 16.788917, 52.380148 ], [ 16.793146, 52.380227 ], [ 16.793151, 52.380228 ], [ 16.793155, 52.38023 ], [ 16.793158, 52.380232 ], [ 16.795161, 52.382513 ], [ 16.795162, 52.382513 ], [ 16.795163, 52.382514 ], [ 16.799393, 52.382592 ], [ 16.799398, 52.382593 ], [ 16.799402, 52.382595 ], [ 16.799405, 52.382597 ], [ 16.801405, 52.384874 ], [ 16.801407, 52.384877 ], [ 16.801407, 52.38488 ], [ 16.801405, 52.384883 ], [ 16.799179, 52.387085 ], [ 16.799178, 52.387086 ], [ 16.799179, 52.387087 ], [ 16.801186, 52.389371 ], [ 16.801186, 52.389372 ], [ 16.801187, 52.389372 ], [ 16.805418, 52.389451 ], [ 16.805423, 52.389451 ], [ 16.805427, 52.389453 ], [ 16.80543, 52.389455 ], [ 16.807431, 52.391732 ], [ 16.807432, 52.391735 ], [ 16.807432, 52.391738 ], [ 16.80743, 52.391741 ], [ 16.805208, 52.39394 ], [ 16.805204, 52.393942 ], [ 16.8052, 52.393943 ], [ 16.805195, 52.393944 ], [ 16.800964, 52.393865 ], [ 16.800963, 52.393865 ], [ 16.800962, 52.393866 ], [ 16.798731, 52.396072 ], [ 16.798731, 52.396072 ], [ 16.798731, 52.396073 ], [ 16.800735, 52.398354 ], [ 16.800737, 52.398357 ], [ 16.800737, 52.39836 ], [ 16.800735, 52.398363 ], [ 16.798511, 52.400561 ], [ 16.798508, 52.400563 ], [ 16.798504, 52.400565 ], [ 16.798498, 52.400565 ], [ 16.794267, 52.400486 ], [ 16.794266, 52.400487 ], [ 16.794265, 52.400487 ], [ 16.792034, 52.402693 ], [ 16.792033, 52.402693 ], [ 16.792034, 52.402694 ], [ 16.794038, 52.404975 ], [ 16.794039, 52.404978 ], [ 16.794039, 52.404981 ], [ 16.794037, 52.404984 ], [ 16.791809, 52.407186 ], [ 16.791809, 52.407187 ], [ 16.791809, 52.407187 ], [ 16.793813, 52.409468 ], [ 16.793815, 52.409471 ], [ 16.793815, 52.409474 ], [ 16.793813, 52.409477 ], [ 16.791585, 52.411679 ], [ 16.791584, 52.41168 ], [ 16.791585, 52.41168 ], [ 16.793589, 52.413961 ], [ 16.793591, 52.413964 ], [ 16.793591, 52.413967 ], [ 16.793589, 52.41397 ], [ 16.79136, 52.416172 ], [ 16.79136, 52.416173 ], [ 16.79136, 52.416174 ], [ 16.793368, 52.418458 ], [ 16.793369, 52.418459 ], [ 16.79337, 52.418459 ], [ 16.797603, 52.418538 ], [ 16.797608, 52.418539 ], [ 16.797612, 52.41854 ], [ 16.797616, 52.418543 ], [ 16.799617, 52.42082 ], [ 16.799619, 52.420823 ], [ 16.799619, 52.420826 ], [ 16.799617, 52.420829 ], [ 16.797392, 52.423027 ], [ 16.797389, 52.423029 ], [ 16.797384, 52.423031 ], [ 16.797379, 52.423031 ], [ 16.793146, 52.422952 ], [ 16.793144, 52.422952 ], [ 16.793144, 52.422953 ], [ 16.790911, 52.425159 ], [ 16.790911, 52.425159 ], [ 16.790911, 52.42516 ], [ 16.792919, 52.427445 ], [ 16.79292, 52.427445 ], [ 16.792921, 52.427445 ], [ 16.797155, 52.427524 ], [ 16.79716, 52.427525 ], [ 16.797164, 52.427527 ], [ 16.797168, 52.427529 ], [ 16.799169, 52.429806 ], [ 16.799171, 52.429809 ], [ 16.799171, 52.429812 ], [ 16.799169, 52.429815 ], [ 16.79694, 52.432017 ], [ 16.79694, 52.432018 ], [ 16.79694, 52.432018 ], [ 16.798945, 52.434299 ], [ 16.798947, 52.434302 ], [ 16.798947, 52.434305 ], [ 16.798945, 52.434308 ], [ 16.79672, 52.436507 ], [ 16.796716, 52.436509 ], [ 16.796712, 52.43651 ], [ 16.796707, 52.436511 ], [ 16.792472, 52.436432 ], [ 16.792471, 52.436432 ], [ 16.79247, 52.436432 ], [ 16.790237, 52.438638 ], [ 16.790236, 52.438639 ], [ 16.790237, 52.438639 ], [ 16.792242, 52.44092 ], [ 16.792244, 52.440923 ], [ 16.792243, 52.440926 ], [ 16.792242, 52.440929 ], [ 16.790016, 52.443127 ], [ 16.790012, 52.44313 ], [ 16.790008, 52.443131 ], [ 16.790003, 52.443132 ], [ 16.785767, 52.443052 ], [ 16.785766, 52.443053 ], [ 16.785765, 52.443053 ], [ 16.783531, 52.445259 ], [ 16.783531, 52.445259 ], [ 16.783531, 52.44526 ], [ 16.785536, 52.447541 ], [ 16.785538, 52.447544 ], [ 16.785538, 52.447547 ], [ 16.785536, 52.44755 ], [ 16.783306, 52.449752 ], [ 16.783305, 52.449752 ], [ 16.783305, 52.449753 ], [ 16.785311, 52.452034 ], [ 16.785313, 52.452037 ], [ 16.785312, 52.45204 ], [ 16.785311, 52.452043 ], [ 16.783084, 52.454241 ], [ 16.78308, 52.454243 ], [ 16.783076, 52.454245 ], [ 16.783071, 52.454245 ], [ 16.778834, 52.454166 ], [ 16.778833, 52.454166 ], [ 16.778832, 52.454166 ], [ 16.776597, 52.456372 ], [ 16.776597, 52.456372 ], [ 16.776597, 52.456373 ], [ 16.778603, 52.458654 ], [ 16.778604, 52.458657 ], [ 16.778604, 52.45866 ], [ 16.778602, 52.458663 ], [ 16.776375, 52.460861 ], [ 16.776371, 52.460863 ], [ 16.776367, 52.460865 ], [ 16.776362, 52.460865 ], [ 16.772132, 52.460786 ], [ 16.772127, 52.460785 ], [ 16.772123, 52.460783 ], [ 16.772119, 52.460781 ], [ 16.770114, 52.4585 ], [ 16.770113, 52.458499 ], [ 16.770112, 52.458499 ], [ 16.765875, 52.458419 ], [ 16.76587, 52.458418 ], [ 16.765866, 52.458417 ], [ 16.765863, 52.458414 ], [ 16.763858, 52.456133 ], [ 16.763857, 52.456132 ], [ 16.763856, 52.456132 ], [ 16.75962, 52.456052 ], [ 16.759615, 52.456051 ], [ 16.75961, 52.45605 ], [ 16.759607, 52.456047 ], [ 16.757603, 52.453766 ], [ 16.757602, 52.453765 ], [ 16.757601, 52.453765 ], [ 16.753365, 52.453684 ], [ 16.75336, 52.453684 ], [ 16.753355, 52.453682 ], [ 16.753352, 52.45368 ], [ 16.751348, 52.451398 ], [ 16.751347, 52.451398 ], [ 16.751346, 52.451397 ], [ 16.747103, 52.451317 ], [ 16.747102, 52.451317 ], [ 16.747101, 52.451317 ], [ 16.744865, 52.453522 ], [ 16.744864, 52.453523 ], [ 16.744865, 52.453523 ], [ 16.746868, 52.455805 ], [ 16.74687, 52.455808 ], [ 16.74687, 52.455811 ], [ 16.746868, 52.455814 ], [ 16.744639, 52.458011 ], [ 16.744635, 52.458014 ], [ 16.744631, 52.458015 ], [ 16.744626, 52.458015 ], [ 16.740396, 52.457935 ], [ 16.740391, 52.457934 ], [ 16.740387, 52.457932 ], [ 16.740384, 52.45793 ], [ 16.73838, 52.455648 ], [ 16.73838, 52.455648 ], [ 16.738379, 52.455647 ], [ 16.734135, 52.455566 ], [ 16.734134, 52.455566 ], [ 16.734133, 52.455567 ], [ 16.731896, 52.457771 ], [ 16.731895, 52.457772 ] ] ] } }
]
}
