{
"type": "FeatureCollection",
"name": "boundary_poznan_250",
"crs": { "type": "name", "properties": { "name": "urn:ogc:def:crs:OGC:1.3:CRS84" } },
"xy_coordinate_resolution": 1e-06,
"features": [
{ "type": "Feature", "properties": { "fid": 1, "name": "Poznań" }, "geometry": { "type": "Polygon", "coordinates": [ [ [ 16.731838, 52.458895 ], [ 16.731838, 52.458896 ], [ 16.732837, 52.460034 ], [ 16.732839, 52.460037 ], [ 16.732839, 52.46004 ], [ 16.732837, 52.460043 ], [ 16.731722, 52.461141 ], [ 16.731722, 52.461142 ], [ 16.731722, 52.461142 ], [ 16.732722, 52.462281 ], [ 16.732723, 52.462284 ], [ 16.732723, 52.462287 ], [ 16.732721, 52.46229 ], [ 16.731607, 52.463387 ], [ 16.731606, 52.463388 ], [ 16.731607, 52.463389 ], [ 16.73261, 52.464531 ], [ 16.73261, 52.464532 ], [ 16.732612, 52.464532 ], [ 16.734725, 52.464572 ], [ 16.73473, 52.464573 ], [ 16.734735, 52.464575 ], [ 16.734738, 52.464577 ], [ 16.735737, 52.465715 ], [ 16.735738, 52.465716 ], [ 16.735739, 52.465716 ], [ 16.737853, 52.465756 ], [ 16.737858, 52.465757 ], [ 16.737862, 52.465759 ], [ 16.737865, 52.465761 ], [ 16.738865, 52.4669 ], [ 16.738866, 52.4669 ], [ 16.738867, 52.4669 ], [ 16.740981, 52.466941 ], [ 16.740986, 52.466941 ], [ 16.74099, 52.466943 ], [ 16.740993, 52.466945 ], [ 16.741993, 52.468084 ], [ 16.741994, 52.468084 ], [ 16.741995, 52.468084 ], [ 16.744109, 52.468125 ], [ 16.744114, 52.468125 ], [ 16.744118, 52.468127 ], [ 16.744121, 52.468129 ], [ 16.745118, 52.469264 ], [ 16.745119, 52.469267 ], [ 16.745119, 52.46927 ], [ 16.745117, 52.469273 ], [ 16.744003, 52.470371 ], [ 16.744003, 52.470371 ], [ 16.744003, 52.470372 ], [ 16.745006, 52.471514 ], [ 16.745007, 52.471515 ], [ 16.745008, 52.471515 ], [ 16.747122, 52.471555 ], [ 16.747127, 52.471556 ], [ 16.747132, 52.471557 ], [ 16.747135, 52.47156 ], [ 16.748135, 52.472698 ], [ 16.748136, 52.472699 ], [ 16.748137, 52.472699 ], [ 16.750251, 52.472739 ], [ 16.750256, 52.47274 ], [ 16.75026, 52.472741 ], [ 16.750263, 52.472744 ], [ 16.751263, 52.473882 ], [ 16.751264, 52.473883 ], [ 16.751265, 52.473883 ], [ 16.75338, 52.473923 ], [ 16.753385, 52.473924 ], [ 16.753389, 52.473925 ], [ 16.753392, 52.473928 ], [ 16.754389, 52.475062 ], [ 16.75439, 52.475065 ], [ 16.75439, 52.475068 ], [ 16.754388, 52.475071 ], [ 16.753274, 52.476169 ], [ 16.753274, 52.47617 ], [ 16.753274, 52.47617 ], [ 16.754278, 52.477312 ], [ 16.754279, 52.477313 ], [ 16.75428, 52.477313 ], [ 16.756394, 52.477353 ], [ 16.756399, 52.477354 ], [ 16.756403, 52.477355 ], [ 16.756407, 52.477358 ], [ 16.757407, 52.478496 ], [ 16.757408, 52.478497 ], [ 16.757409, 52.478497 ], [ 16.759523, 52.478537 ], [ 16.759528, 52.478537 ], [ 16.759533, 52.478539 ], [ 16.759536, 52.478542 ], [ 16.760536, 52.47968 ], [ 16.760537, 52.47968 ], [ 16.760538, 52.47968 ], [ 16.76266, 52.479721 ], [ 16.762661, 52.47972 ], [ 16.762662, 52.47972 ], [ 16.763776, 52.478622 ], [ 16.763779, 52.478619 ], [ 16.763784, 52.478618 ], [ 16.763789, 52.478618 ], [ 16.765896, 52.478657 ], [ 16.765901, 52.478658 ], [ 16.765905, 52.47866 ], [ 16.765909, 52.478662 ], [ 16.766909, 52.4798 ], [ 16.76691, 52.479801 ], [ 16.766911, 52.479801 ], [ 16.769033, 52.479841 ], [ 16.769034, 52.479841 ], [ 16.769035, 52.47984 ], [ 16.770149, 52.478742 ], [ 16.770152, 52.47874 ], [ 16.770157, 52.478738 ], [ 16.770162, 52.478738 ], [ 16.772269, 52.478778 ], [ 16.772274, 52.478778 ], [ 16.772278, 52.47878 ], [ 16.772281, 52.478782 ], [ 16.773282, 52.47992 ], [ 16.773283, 52.479921 ], [ 16.773284, 52.479921 ], [ 16.775399, 52.479961 ], [ 16.775404, 52.479961 ], [ 16.775408, 52.479963 ], [ 16.775411, 52.479966 ], [ 16.776409, 52.4811 ], [ 16.77641, 52.481103 ], [ 16.77641, 52.481106 ], [ 16.776408, 52.481109 ], [ 16.775294, 52.482207 ], [ 16.775294, 52.482208 ], [ 16.775294, 52.482208 ], [ 16.776299, 52.48335 ], [ 16.776299, 52.483351 ], [ 16.776301, 52.483351 ], [ 16.778415, 52.483391 ], [ 16.77842, 52.483391 ], [ 16.778425, 52.483393 ], [ 16.778428, 52.483395 ], [ 16.779429, 52.484533 ], [ 16.77943, 52.484534 ], [ 16.779431, 52.484534 ], [ 16.781553, 52.484574 ], [ 16.781554, 52.484574 ], [ 16.781555, 52.484573 ], [ 16.782668, 52.483475 ], [ 16.782672, 52.483473 ], [ 16.782676, 52.483471 ], [ 16.782681, 52.483471 ], [ 16.784796, 52.48351 ], [ 16.784797, 52.48351 ], [ 16.784798, 52.48351 ], [ 16.785915, 52.482408 ], [ 16.785916, 52.482407 ], [ 16.785915, 52.482406 ], [ 16.784914, 52.481268 ], [ 16.784913, 52.481265 ], [ 16.784913, 52.481262 ], [ 16.784915, 52.481259 ], [ 16.786024, 52.480165 ], [ 16.786028, 52.480162 ], [ 16.786032, 52.480161 ], [ 16.786037, 52.480161 ], [ 16.788152, 52.4802 ], [ 16.788153, 52.4802 ], [ 16.788154, 52.480199 ], [ 16.789271, 52.479097 ], [ 16.789272, 52.479097 ], [ 16.789271, 52.479096 ], [ 16.78827, 52.477958 ], [ 16.788268, 52.477955 ], [ 16.788269, 52.477952 ], [ 16.78827, 52.477949 ], [ 16.78938, 52.476855 ], [ 16.789383, 52.476852 ], [ 16.789388, 52.476851 ], [ 16.789393, 52.47685 ], [ 16.7915, 52.47689 ], [ 16.791505, 52.47689 ], [ 16.791509, 52.476892 ], [ 16.791513, 52.476894 ], [ 16.79251, 52.478028 ], [ 16.792512, 52.478031 ], [ 16.792512, 52.478034 ], [ 16.79251, 52.478037 ], [ 16.791397, 52.479136 ], [ 16.791396, 52.479136 ], [ 16.791397, 52.479137 ], [ 16.792401, 52.480279 ], [ 16.792402, 52.480279 ], [ 16.792403, 52.48028 ], [ 16.794518, 52.480319 ], [ 16.794523, 52.48032 ], [ 16.794527, 52.480321 ], [ 16.79453, 52.480324 ], [ 16.795532, 52.481462 ], [ 16.795532, 52.481462 ], [ 16.795534, 52.481462 ], [ 16.797648, 52.481502 ], [ 16.797653, 52.481502 ], [ 16.797658, 52.481504 ], [ 16.797661, 52.481506 ], [ 16.798662, 52.482644 ], [ 16.798663, 52.482645 ], [ 16.798664, 52.482645 ], [ 16.800786, 52.482684 ], [ 16.800787, 52.482684 ], [ 16.800788, 52.482684 ], [ 16.801901, 52.481585 ], [ 16.801905, 52.481583 ], [ 16.801909, 52.481581 ], [ 16.801914, 52.481581 ], [ 16.804029, 52.48162 ], [ 16.80403, 52.48162 ], [ 16.804031, 52.48162 ], [ 16.805144, 52.480521 ], [ 16.805147, 52.480519 ], [ 16.805152, 52.480517 ], [ 16.805157, 52.480517 ], [ 16.807271, 52.480556 ], [ 16.807273, 52.480556 ], [ 16.807273, 52.480555 ], [ 16.808386, 52.479457 ], [ 16.80839, 52.479455 ], [ 16.808394, 52.479453 ], [ 16.808399, 52.479453 ], [ 16.810514, 52.479492 ], [ 16.810515, 52.479492 ], [ 16.810516, 52.479491 ], [ 16.811629, 52.478393 ], [ 16.811632, 52.47839 ], [ 16.811637, 52.478389 ], [ 16.811642, 52.478388 ], [ 16.813756, 52.478428 ], [ 16.813757, 52.478427 ], [ 16.813758, 52.478427 ], [ 16.814875, 52.477325 ], [ 16.814875, 52.477324 ], [ 16.814875, 52.477323 ], [ 16.813873, 52.476186 ], [ 16.813871, 52.476183 ], [ 16.813871, 52.476179 ], [ 16.813873, 52.476177 ], [ 16.814982, 52.475082 ], [ 16.814985, 52.475079 ], [ 16.81499, 52.475078 ], [ 16.814995, 52.475077 ], [ 16.817109, 52.475117 ], [ 16.817111, 52.475116 ], [ 16.817111, 52.475116 ], [ 16.818228, 52.474014 ], [ 16.818228, 52.474013 ], [ 16.818228, 52.474012 ], [ 16.817226, 52.472875 ], [ 16.817224, 52.472872 ], [ 16.817225, 52.472868 ], [ 16.817226, 52.472866 ], [ 16.818335, 52.471771 ], [ 16.818338, 52.471768 ], [ 16.818343, 52.471767 ], [ 16.818348, 52.471766 ], [ 16.820455, 52.471805 ], [ 16.82046, 52.471806 ], [ 16.820464, 52.471808 ], [ 16.820468, 52.47181 ], [ 16.821469, 52.472948 ], [ 16.82147, 52.472948 ], [ 16.821471, 52.472948 ], [ 16.823593, 52.472987 ], [ 16.823594, 52.472987 ], [ 16.823595, 52.472987 ], [ 16.824707, 52.471888 ], [ 16.82471, 52.471886 ], [ 16.824715, 52.471884 ], [ 16.82472, 52.471884 ], [ 16.826834, 52.471923 ], [ 16.826835, 52.471923 ], [ 16.826836, 52.471922 ], [ 16.827948, 52.470823 ], [ 16.827952, 52.470821 ], [ 16.827956, 52.470819 ], [ 16.827961, 52.470819 ], [ 16.830068, 52.470858 ], [ 16.830073, 52.470858 ], [ 16.830078, 52.47086 ], [ 16.830081, 52.470862 ], [ 16.831083, 52.472 ], [ 16.831084, 52.472001 ], [ 16.831085, 52.472001 ], [ 16.833199, 52.472039 ], [ 16.833204, 52.47204 ], [ 16.833209, 52.472042 ], [ 16.833212, 52.472044 ], [ 16.83421, 52.473178 ], [ 16.834212, 52.473181 ], [ 16.834212, 52.473184 ], [ 16.83421, 52.473187 ], [ 16.833098, 52.474286 ], [ 16.833098, 52.474286 ], [ 16.833098, 52.474287 ], [ 16.834104, 52.475428 ], [ 16.834104, 52.475429 ], [ 16.834105, 52.475429 ], [ 16.83622, 52.475468 ], [ 16.836225, 52.475468 ], [ 16.836229, 52.47547 ], [ 16.836232, 52.475472 ], [ 16.837235, 52.47661 ], [ 16.837236, 52.476611 ], [ 16.837237, 52.476611 ], [ 16.839351, 52.476649 ], [ 16.839356, 52.47665 ], [ 16.839361, 52.476652 ], [ 16.839364, 52.476654 ], [ 16.840366, 52.477791 ], [ 16.840367, 52.477792 ], [ 16.840368, 52.477792 ], [ 16.84249, 52.477831 ], [ 16.842491, 52.477831 ], [ 16.842492, 52.47783 ], [ 16.843604, 52.476731 ], [ 16.843607, 52.476729 ], [ 16.843612, 52.476728 ], [ 16.843617, 52.476727 ], [ 16.845724, 52.476766 ], [ 16.845729, 52.476766 ], [ 16.845733, 52.476768 ], [ 16.845736, 52.47677 ], [ 16.846739, 52.477908 ], [ 16.84674, 52.477908 ], [ 16.846741, 52.477908 ], [ 16.848863, 52.477947 ], [ 16.848864, 52.477947 ], [ 16.848865, 52.477946 ], [ 16.849977, 52.476847 ], [ 16.84998, 52.476845 ], [ 16.849984, 52.476844 ], [ 16.84999, 52.476843 ], [ 16.852104, 52.476882 ], [ 16.852105, 52.476882 ], [ 16.852106, 52.476881 ], [ 16.853218, 52.475782 ], [ 16.853221, 52.47578 ], [ 16.853226, 52.475778 ], [ 16.853231, 52.475778 ], [ 16.855345, 52.475816 ], [ 16.855346, 52.475816 ], [ 16.855347, 52.475815 ], [ 16.856462, 52.474713 ], [ 16.856463, 52.474712 ], [ 16.856463, 52.474711 ], [ 16.85546, 52.473574 ], [ 16.855458, 52.473571 ], [ 16.855458, 52.473568 ], [ 16.85546, 52.473565 ], [ 16.856568, 52.47247 ], [ 16.856571, 52.472468 ], [ 16.856576, 52.472466 ], [ 16.856581, 52.472466 ], [ 16.858695, 52.472504 ], [ 16.858696, 52.472504 ], [ 16.858697, 52.472503 ], [ 16.859812, 52.4714 ], [ 16.859813, 52.4714 ], [ 16.859812, 52.471399 ], [ 16.85881, 52.470262 ], [ 16.858808, 52.470259 ], [ 16.858808, 52.470256 ], [ 16.85881, 52.470253 ], [ 16.859921, 52.469154 ], [ 16.859922, 52.469153 ], [ 16.859921, 52.469152 ], [ 16.858919, 52.468015 ], [ 16.858917, 52.468012 ], [ 16.858917, 52.468009 ], [ 16.858919, 52.468006 ], [ 16.860027, 52.466911 ], [ 16.86003, 52.466909 ], [ 16.860034, 52.466907 ], [ 16.86004, 52.466907 ], [ 16.862154, 52.466945 ], [ 16.862155, 52.466945 ], [ 16.862156, 52.466944 ], [ 16.863267, 52.465845 ], [ 16.86327, 52.465843 ], [ 16.863275, 52.465841 ], [ 16.86328, 52.465841 ], [ 16.865387, 52.465879 ], [ 16.865392, 52.46588 ], [ 16.865396, 52.465881 ], [ 16.865399, 52.465884 ], [ 16.866402, 52.467021 ], [ 16.866403, 52.467021 ], [ 16.866404, 52.467022 ], [ 16.868525, 52.46706 ], [ 16.868526, 52.46706 ], [ 16.868527, 52.467059 ], [ 16.869638, 52.46596 ], [ 16.869642, 52.465958 ], [ 16.869646, 52.465956 ], [ 16.869651, 52.465956 ], [ 16.871758, 52.465994 ], [ 16.871763, 52.465994 ], [ 16.871767, 52.465996 ], [ 16.87177, 52.465999 ], [ 16.872773, 52.467136 ], [ 16.872774, 52.467136 ], [ 16.872775, 52.467136 ], [ 16.874897, 52.467175 ], [ 16.874898, 52.467174 ], [ 16.874899, 52.467174 ], [ 16.87601, 52.466075 ], [ 16.876013, 52.466072 ], [ 16.876017, 52.466071 ], [ 16.876022, 52.46607 ], [ 16.878129, 52.466108 ], [ 16.878134, 52.466109 ], [ 16.878139, 52.466111 ], [ 16.878142, 52.466113 ], [ 16.879145, 52.46725 ], [ 16.879146, 52.467251 ], [ 16.879147, 52.467251 ], [ 16.881268, 52.467289 ], [ 16.881269, 52.467289 ], [ 16.88127, 52.467288 ], [ 16.882381, 52.466189 ], [ 16.882384, 52.466187 ], [ 16.882389, 52.466185 ], [ 16.882394, 52.466185 ], [ 16.884508, 52.466223 ], [ 16.884509, 52.466222 ], [ 16.88451, 52.466222 ], [ 16.885621, 52.465123 ], [ 16.885624, 52.46512 ], [ 16.885628, 52.465119 ], [ 16.885634, 52.465118 ], [ 16.88774, 52.465156 ], [ 16.887745, 52.465157 ], [ 16.88775, 52.465158 ], [ 16.887753, 52.465161 ], [ 16.888756, 52.466298 ], [ 16.888757, 52.466298 ], [ 16.888758, 52.466299 ], [ 16.890879, 52.466336 ], [ 16.890881, 52.466336 ], [ 16.890881, 52.466336 ], [ 16.891992, 52.465236 ], [ 16.891995, 52.465234 ], [ 16.892, 52.465233 ], [ 16.892005, 52.465232 ], [ 16.894112, 52.46527 ], [ 16.894117, 52.46527 ], [ 16.894121, 52.465272 ], [ 16.894124, 52.465274 ], [ 16.895124, 52.466408 ], [ 16.895126, 52.466411 ], [ 16.895126, 52.466414 ], [ 16.895124, 52.466417 ], [ 16.894014, 52.467516 ], [ 16.894013, 52.467517 ], [ 16.894014, 52.467517 ], [ 16.895021, 52.468658 ], [ 16.895021, 52.468659 ], [ 16.895023, 52.468659 ], [ 16.897137, 52.468696 ], [ 16.897142, 52.468697 ], [ 16.897146, 52.468699 ], [ 16.897149, 52.468701 ], [ 16.89815, 52.469834 ], [ 16.898151, 52.469837 ], [ 16.898151, 52.46984 ], [ 16.898149, 52.469843 ], [ 16.897039, 52.470943 ], [ 16.897038, 52.470943 ], [ 16.897039, 52.470944 ], [ 16.898043, 52.472081 ], [ 16.898044, 52.472084 ], [ 16.898044, 52.472087 ], [ 16.898042, 52.47209 ], [ 16.896935, 52.473186 ], [ 16.896932, 52.473188 ], [ 16.896927, 52.473189 ], [ 16.896922, 52.47319 ], [ 16.894808, 52.473152 ], [ 16.894807, 52.473152 ], [ 16.894806, 52.473153 ], [ 16.893695, 52.474252 ], [ 16.893692, 52.474255 ], [ 16.893688, 52.474256 ], [ 16.893683, 52.474257 ], [ 16.891568, 52.474219 ], [ 16.891567, 52.474219 ], [ 16.891566, 52.47422 ], [ 16.890452, 52.475323 ], [ 16.890451, 52.475323 ], [ 16.890452, 52.475324 ], [ 16.891455, 52.476461 ], [ 16.891457, 52.476464 ], [ 16.891457, 52.476467 ], [ 16.891455, 52.47647 ], [ 16.890348, 52.477566 ], [ 16.890344, 52.477568 ], [ 16.89034, 52.477569 ], [ 16.890335, 52.47757 ], [ 16.88822, 52.477532 ], [ 16.888219, 52.477532 ], [ 16.888218, 52.477533 ], [ 16.887104, 52.478636 ], [ 16.887103, 52.478636 ], [ 16.887104, 52.478637 ], [ 16.888107, 52.479774 ], [ 16.888109, 52.479777 ], [ 16.888109, 52.47978 ], [ 16.888107, 52.479783 ], [ 16.887, 52.480879 ], [ 16.886996, 52.480881 ], [ 16.886992, 52.480883 ], [ 16.886987, 52.480883 ], [ 16.884872, 52.480845 ], [ 16.884871, 52.480845 ], [ 16.88487, 52.480846 ], [ 16.883755, 52.481949 ], [ 16.883755, 52.48195 ], [ 16.883755, 52.48195 ], [ 16.884759, 52.483087 ], [ 16.884761, 52.48309 ], [ 16.88476, 52.483093 ], [ 16.884759, 52.483096 ], [ 16.883647, 52.484196 ], [ 16.883647, 52.484196 ], [ 16.883647, 52.484197 ], [ 16.884655, 52.485338 ], [ 16.884655, 52.485338 ], [ 16.884656, 52.485339 ], [ 16.886771, 52.485376 ], [ 16.886776, 52.485377 ], [ 16.886781, 52.485379 ], [ 16.886784, 52.485381 ], [ 16.887784, 52.486514 ], [ 16.887786, 52.486517 ], [ 16.887786, 52.48652 ], [ 16.887784, 52.486523 ], [ 16.886673, 52.487623 ], [ 16.886672, 52.487623 ], [ 16.886673, 52.487624 ], [ 16.887677, 52.488761 ], [ 16.887678, 52.488764 ], [ 16.887678, 52.488767 ], [ 16.887676, 52.48877 ], [ 16.886565, 52.489869 ], [ 16.886565, 52.48987 ], [ 16.886565, 52.489871 ], [ 16.887569, 52.491008 ], [ 16.887571, 52.491011 ], [ 16.887571, 52.491014 ], [ 16.887569, 52.491017 ], [ 16.886457, 52.492116 ], [ 16.886457, 52.492117 ], [ 16.886457, 52.492117 ], [ 16.887461, 52.493254 ], [ 16.887463, 52.493257 ], [ 16.887463, 52.49326 ], [ 16.887461, 52.493263 ], [ 16.88635, 52.494363 ], [ 16.886349, 52.494363 ], [ 16.88635, 52.494364 ], [ 16.887357, 52.495505 ], [ 16.887358, 52.495506 ], [ 16.887359, 52.495506 ], [ 16.889474, 52.495543 ], [ 16.889479, 52.495544 ], [ 16.889484, 52.495546 ], [ 16.889487, 52.495548 ], [ 16.890491, 52.496685 ], [ 16.890492, 52.496686 ], [ 16.890493, 52.496686 ], [ 16.892609, 52.496724 ], [ 16.892614, 52.496724 ], [ 16.892618, 52.496726 ], [ 16.892621, 52.496728 ], [ 16.893625, 52.497865 ], [ 16.893626, 52.497866 ], [ 16.893627, 52.497866 ], [ 16.895743, 52.497904 ], [ 16.895748, 52.497904 ], [ 16.895752, 52.497906 ], [ 16.895755, 52.497908 ], [ 16.89676, 52.499045 ], [ 16.896761, 52.499046 ], [ 16.896762, 52.499046 ], [ 16.898877, 52.499084 ], [ 16.898882, 52.499084 ], [ 16.898887, 52.499086 ], [ 16.89889, 52.499088 ], [ 16.899894, 52.500225 ], [ 16.899895, 52.500226 ], [ 16.899896, 52.500226 ], [ 16.902012, 52.500264 ], [ 16.902017, 52.500264 ], [ 16.902021, 52.500266 ], [ 16.902025, 52.500268 ], [ 16.903029, 52.501405 ], [ 16.90303, 52.501406 ], [ 16.903031, 52.501406 ], [ 16.905147, 52.501444 ], [ 16.905152, 52.501444 ], [ 16.905156, 52.501446 ], [ 16.905159, 52.501448 ], [ 16.906164, 52.502585 ], [ 16.906165, 52.502586 ], [ 16.906166, 52.502586 ], [ 16.908289, 52.502623 ], [ 16.90829, 52.502623 ], [ 16.908291, 52.502623 ], [ 16.909406, 52.50152 ], [ 16.909406, 52.501519 ], [ 16.909406, 52.501518 ], [ 16.908401, 52.500381 ], [ 16.908399, 52.500378 ], [ 16.9084, 52.500375 ], [ 16.908402, 52.500372 ], [ 16.909512, 52.499273 ], [ 16.909513, 52.499272 ], [ 16.909513, 52.499272 ], [ 16.908508, 52.498135 ], [ 16.908506, 52.498132 ], [ 16.908506, 52.498129 ], [ 16.908508, 52.498126 ], [ 16.909615, 52.49703 ], [ 16.909619, 52.497028 ], [ 16.909623, 52.497026 ], [ 16.909628, 52.497026 ], [ 16.911737, 52.497063 ], [ 16.911742, 52.497064 ], [ 16.911746, 52.497065 ], [ 16.911749, 52.497068 ], [ 16.912754, 52.498204 ], [ 16.912755, 52.498205 ], [ 16.912756, 52.498205 ], [ 16.914879, 52.498243 ], [ 16.91488, 52.498243 ], [ 16.914881, 52.498242 ], [ 16.915991, 52.497142 ], [ 16.915995, 52.49714 ], [ 16.915999, 52.497139 ], [ 16.916004, 52.497138 ], [ 16.918113, 52.497175 ], [ 16.918118, 52.497176 ], [ 16.918122, 52.497178 ], [ 16.918125, 52.49718 ], [ 16.91913, 52.498317 ], [ 16.919131, 52.498317 ], [ 16.919132, 52.498318 ], [ 16.921255, 52.498355 ], [ 16.921256, 52.498355 ], [ 16.921257, 52.498354 ], [ 16.922367, 52.497255 ], [ 16.922371, 52.497252 ], [ 16.922375, 52.497251 ], [ 16.92238, 52.49725 ], [ 16.924489, 52.497287 ], [ 16.924494, 52.497288 ], [ 16.924498, 52.49729 ], [ 16.924501, 52.497292 ], [ 16.925503, 52.498425 ], [ 16.925505, 52.498428 ], [ 16.925504, 52.498431 ], [ 16.925503, 52.498434 ], [ 16.924392, 52.499534 ], [ 16.924392, 52.499534 ], [ 16.924392, 52.499535 ], [ 16.925397, 52.500672 ], [ 16.925399, 52.500675 ], [ 16.925399, 52.500678 ], [ 16.925397, 52.500681 ], [ 16.924286, 52.50178 ], [ 16.924286, 52.501781 ], [ 16.924286, 52.501782 ], [ 16.925295, 52.502922 ], [ 16.925296, 52.502923 ], [ 16.925297, 52.502923 ], [ 16.92742, 52.50296 ], [ 16.927421, 52.50296 ], [ 16.927422, 52.50296 ], [ 16.928532, 52.50186 ], [ 16.928536, 52.501858 ], [ 16.92854, 52.501856 ], [ 16.928545, 52.501856 ], [ 16.930661, 52.501893 ], [ 16.930662, 52.501893 ], [ 16.930663, 52.501892 ], [ 16.931773, 52.500792 ], [ 16.931777, 52.50079 ], [ 16.931781, 52.500789 ], [ 16.931786, 52.500788 ], [ 16.933895, 52.500825 ], [ 16.9339, 52.500826 ], [ 16.933904, 52.500827 ], [ 16.933908, 52.50083 ], [ 16.934913, 52.501966 ], [ 16.934914, 52.501967 ], [ 16.934915, 52.501967 ], [ 16.937031, 52.502004 ], [ 16.937036, 52.502005 ], [ 16.93704, 52.502006 ], [ 16.937043, 52.502009 ], [ 16.938049, 52.503145 ], [ 16.93805, 52.503146 ], [ 16.938051, 52.503146 ], [ 16.940174, 52.503183 ], [ 16.940175, 52.503183 ], [ 16.940176, 52.503182 ], [ 16.941286, 52.502083 ], [ 16.941289, 52.50208 ], [ 16.941294, 52.502079 ], [ 16.941299, 52.502078 ], [ 16.943408, 52.502115 ], [ 16.943413, 52.502116 ], [ 16.943417, 52.502117 ], [ 16.94342, 52.50212 ], [ 16.944422, 52.503252 ], [ 16.944424, 52.503255 ], [ 16.944424, 52.503259 ], [ 16.944422, 52.503261 ], [ 16.943312, 52.504361 ], [ 16.943311, 52.504362 ], [ 16.943312, 52.504363 ], [ 16.944318, 52.505499 ], [ 16.944319, 52.505502 ], [ 16.944319, 52.505505 ], [ 16.944317, 52.505508 ], [ 16.943207, 52.506608 ], [ 16.943207, 52.506609 ], [ 16.943207, 52.506609 ], [ 16.944216, 52.50775 ], [ 16.944217, 52.50775 ], [ 16.944218, 52.507751 ], [ 16.946334, 52.507787 ], [ 16.946339, 52.507788 ], [ 16.946344, 52.50779 ], [ 16.946347, 52.507792 ], [ 16.947353, 52.508929 ], [ 16.947353, 52.508929 ], [ 16.947355, 52.508929 ], [ 16.949478, 52.508966 ], [ 16.949479, 52.508966 ], [ 16.94948, 52.508965 ], [ 16.95059, 52.507866 ], [ 16.950593, 52.507863 ], [ 16.950598, 52.507862 ], [ 16.950603, 52.507861 ], [ 16.952719, 52.507898 ], [ 16.95272, 52.507898 ], [ 16.952721, 52.507897 ], [ 16.953831, 52.506797 ], [ 16.953835, 52.506795 ], [ 16.953839, 52.506794 ], [ 16.953844, 52.506793 ], [ 16.95596, 52.50683 ], [ 16.955961, 52.50683 ], [ 16.955962, 52.506829 ], [ 16.957072, 52.505729 ], [ 16.957075, 52.505727 ], [ 16.95708, 52.505725 ], [ 16.957085, 52.505725 ], [ 16.959194, 52.505761 ], [ 16.959199, 52.505762 ], [ 16.959203, 52.505764 ], [ 16.959206, 52.505766 ], [ 16.960213, 52.506902 ], [ 16.960213, 52.506903 ], [ 16.960215, 52.506903 ], [ 16.962331, 52.50694 ], [ 16.962336, 52.50694 ], [ 16.96234, 52.506942 ], [ 16.962343, 52.506944 ], [ 16.96335, 52.508081 ], [ 16.96335, 52.508081 ], [ 16.963351, 52.508082 ], [ 16.965468, 52.508118 ], [ 16.965473, 52.508119 ], [ 16.965477, 52.50812 ], [ 16.96548, 52.508123 ], [ 16.966487, 52.509259 ], [ 16.966487, 52.50926 ], [ 16.966489, 52.50926 ], [ 16.968612, 52.509296 ], [ 16.968613, 52.509296 ], [ 16.968614, 52.509296 ], [ 16.969724, 52.508196 ], [ 16.969727, 52.508193 ], [ 16.969731, 52.508192 ], [ 16.969737, 52.508191 ], [ 16.971853, 52.508228 ], [ 16.971854, 52.508227 ], [ 16.971855, 52.508227 ], [ 16.972968, 52.507123 ], [ 16.972968, 52.507122 ], [ 16.972968, 52.507122 ], [ 16.971958, 52.505981 ], [ 16.971957, 52.505981 ], [ 16.971956, 52.505981 ], [ 16.96984, 52.505944 ], [ 16.969835, 52.505944 ], [ 16.969831, 52.505942 ], [ 16.969828, 52.50594 ], [ 16.968825, 52.504807 ], [ 16.968823, 52.504804 ], [ 16.968823, 52.504801 ], [ 16.968825, 52.504798 ], [ 16.969931, 52.503702 ], [ 16.969934, 52.5037 ], [ 16.969939, 52.503698 ], [ 16.969944, 52.503698 ], [ 16.97206, 52.503734 ], [ 16.972061, 52.503734 ], [ 16.972062, 52.503733 ], [ 16.973175, 52.502629 ], [ 16.973175, 52.502629 ], [ 16.973175, 52.502628 ], [ 16.972168, 52.501492 ], [ 16.972167, 52.501489 ], [ 16.972167, 52.501486 ], [ 16.972169, 52.501483 ], [ 16.973278, 52.500383 ], [ 16.973279, 52.500382 ], [ 16.973278, 52.500381 ], [ 16.972272, 52.499245 ], [ 16.97227, 52.499242 ], [ 16.97227, 52.499239 ], [ 16.972272, 52.499236 ], [ 16.973378, 52.49814 ], [ 16.973381, 52.498137 ], [ 16.973386, 52.498136 ], [ 16.973391, 52.498135 ], [ 16.975506, 52.498172 ], [ 16.975508, 52.498171 ], [ 16.975508, 52.498171 ], [ 16.976621, 52.497067 ], [ 16.976622, 52.497066 ], [ 16.976621, 52.497066 ], [ 16.975615, 52.495929 ], [ 16.975613, 52.495926 ], [ 16.975613, 52.495923 ], [ 16.975615, 52.49592 ], [ 16.976725, 52.49482 ], [ 16.976725, 52.494819 ], [ 16.976725, 52.494819 ], [ 16.975718, 52.493682 ], [ 16.975717, 52.49368 ], [ 16.975717, 52.493676 ], [ 16.975719, 52.493673 ], [ 16.976828, 52.492573 ], [ 16.976828, 52.492573 ], [ 16.976828, 52.492572 ], [ 16.975821, 52.491436 ], [ 16.97582, 52.491433 ], [ 16.97582, 52.49143 ], [ 16.975822, 52.491427 ], [ 16.976931, 52.490327 ], [ 16.976931, 52.490326 ], [ 16.976931, 52.490325 ], [ 16.975925, 52.489189 ], [ 16.975923, 52.489186 ], [ 16.975923, 52.489183 ], [ 16.975925, 52.48918 ], [ 16.977034, 52.48808 ], [ 16.977034, 52.488079 ], [ 16.977034, 52.488078 ], [ 16.976024, 52.486938 ], [ 16.976024, 52.486938 ], [ 16.976022, 52.486937 ], [ 16.973907, 52.486901 ], [ 16.973902, 52.486901 ], [ 16.973898, 52.486899 ], [ 16.973895, 52.486896 ], [ 16.972892, 52.485764 ], [ 16.97289, 52.485761 ], [ 16.972891, 52.485758 ], [ 16.972892, 52.485755 ], [ 16.974001, 52.484655 ], [ 16.974002, 52.484654 ], [ 16.974001, 52.484654 ], [ 16.972995, 52.483517 ], [ 16.972994, 52.483514 ], [ 16.972994, 52.483511 ], [ 16.972996, 52.483508 ], [ 16.974105, 52.482408 ], [ 16.974105, 52.482407 ], [ 16.974105, 52.482407 ], [ 16.973099, 52.48127 ], [ 16.973097, 52.481267 ], [ 16.973097, 52.481264 ], [ 16.973099, 52.481261 ], [ 16.974208, 52.480161 ], [ 16.974208, 52.480161 ], [ 16.974208, 52.48016 ], [ 16.973202, 52.479024 ], [ 16.9732, 52.479021 ], [ 16.9732, 52.479017 ], [ 16.973202, 52.479015 ], [ 16.974311, 52.477914 ], [ 16.974312, 52.477914 ], [ 16.974311, 52.477913 ], [ 16.973305, 52.476777 ], [ 16.973304, 52.476774 ], [ 16.973304, 52.476771 ], [ 16.973306, 52.476768 ], [ 16.974414, 52.475668 ], [ 16.974415, 52.475667 ], [ 16.974414, 52.475666 ], [ 16.973408, 52.47453 ], [ 16.973407, 52.474527 ], [ 16.973407, 52.474524 ], [ 16.973409, 52.474521 ], [ 16.974518, 52.473421 ], [ 16.974518, 52.47342 ], [ 16.974518, 52.473419 ], [ 16.973512, 52.472283 ], [ 16.97351, 52.47228 ], [ 16.97351, 52.472277 ], [ 16.973512, 52.472274 ], [ 16.974617, 52.471178 ], [ 16.97462, 52.471175 ], [ 16.974625, 52.471174 ], [ 16.97463, 52.471173 ], [ 16.976744, 52.47121 ], [ 16.976745, 52.47121 ], [ 16.976746, 52.471209 ], [ 16.977859, 52.470105 ], [ 16.977859, 52.470104 ], [ 16.977859, 52.470104 ], [ 16.976853, 52.468967 ], [ 16.976851, 52.468964 ], [ 16.976851, 52.468961 ], [ 16.976853, 52.468958 ], [ 16.977962, 52.467858 ], [ 16.977962, 52.467858 ], [ 16.977962, 52.467857 ], [ 16.976956, 52.466721 ], [ 16.976954, 52.466718 ], [ 16.976954, 52.466714 ], [ 16.976956, 52.466712 ], [ 16.978065, 52.465611 ], [ 16.978065, 52.465611 ], [ 16.978065, 52.46561 ], [ 16.977059, 52.464474 ], [ 16.977057, 52.464471 ], [ 16.977057, 52.464468 ], [ 16.977059, 52.464465 ], [ 16.978164, 52.463368 ], [ 16.978167, 52.463366 ], [ 16.978172, 52.463364 ], [ 16.978177, 52.463364 ], [ 16.980291, 52.4634 ], [ 16.980292, 52.4634 ], [ 16.980293, 52.4634 ], [ 16.981405, 52.462296 ], [ 16.981405, 52.462295 ], [ 16.981405, 52.462294 ], [ 16.980399, 52.461158 ], [ 16.980397, 52.461155 ], [ 16.980397, 52.461152 ], [ 16.980399, 52.461149 ], [ 16.981507, 52.460049 ], [ 16.981508, 52.460048 ], [ 16.981507, 52.460047 ], [ 16.980502, 52.458911 ], [ 16.9805, 52.458908 ], [ 16.9805, 52.458905 ], [ 16.980502, 52.458902 ], [ 16.98161, 52.457802 ], [ 16.981611, 52.457801 ], [ 16.98161, 52.457801 ], [ 16.980605, 52.456664 ], [ 16.980603, 52.456661 ], [ 16.980603, 52.456658 ], [ 16.980605, 52.456655 ], [ 16.981713, 52.455555 ], [ 16.981713, 52.455554 ], [ 16.981713, 52.455554 ], [ 16.980704, 52.454414 ], [ 16.980703, 52.454413 ], [ 16.980702, 52.454413 ], [ 16.978588, 52.454377 ], [ 16.978583, 52.454376 ], [ 16.978579, 52.454374 ], [ 16.978576, 52.454372 ], [ 16.97757, 52.453236 ], [ 16.97757, 52.453235 ], [ 16.977568, 52.453235 ], [ 16.975448, 52.453199 ], [ 16.975447, 52.453199 ], [ 16.975446, 52.453199 ], [ 16.974338, 52.454299 ], [ 16.974334, 52.454302 ], [ 16.97433, 52.454303 ], [ 16.974325, 52.454304 ], [ 16.972218, 52.454268 ], [ 16.972213, 52.454267 ], [ 16.972209, 52.454265 ], [ 16.972206, 52.454263 ], [ 16.971204, 52.45313 ], [ 16.971202, 52.453127 ], [ 16.971202, 52.453124 ], [ 16.971204, 52.453121 ], [ 16.972309, 52.452025 ], [ 16.972312, 52.452023 ], [ 16.972317, 52.452021 ], [ 16.972322, 52.452021 ], [ 16.974435, 52.452057 ], [ 16.974436, 52.452057 ], [ 16.974437, 52.452056 ], [ 16.975549, 52.450952 ], [ 16.975549, 52.450952 ], [ 16.975549, 52.450951 ], [ 16.974543, 52.449815 ], [ 16.974542, 52.449812 ], [ 16.974542, 52.449809 ], [ 16.974544, 52.449806 ], [ 16.975648, 52.448709 ], [ 16.975652, 52.448707 ], [ 16.975656, 52.448706 ], [ 16.975661, 52.448705 ], [ 16.977774, 52.448741 ], [ 16.977776, 52.448741 ], [ 16.977776, 52.448741 ], [ 16.978888, 52.447637 ], [ 16.978888, 52.447636 ], [ 16.978888, 52.447635 ], [ 16.977883, 52.446499 ], [ 16.977881, 52.446496 ], [ 16.977881, 52.446493 ], [ 16.977883, 52.44649 ], [ 16.978991, 52.44539 ], [ 16.978991, 52.445389 ], [ 16.978991, 52.445388 ], [ 16.977986, 52.444252 ], [ 16.977984, 52.444249 ], [ 16.977984, 52.444246 ], [ 16.977986, 52.444243 ], [ 16.97909, 52.443147 ], [ 16.979093, 52.443144 ], [ 16.979098, 52.443143 ], [ 16.979103, 52.443142 ], [ 16.981216, 52.443179 ], [ 16.981217, 52.443178 ], [ 16.981218, 52.443178 ], [ 16.982326, 52.442078 ], [ 16.982329, 52.442075 ], [ 16.982333, 52.442074 ], [ 16.982339, 52.442073 ], [ 16.984452, 52.442109 ], [ 16.984453, 52.442109 ], [ 16.984453, 52.442109 ], [ 16.985561, 52.441009 ], [ 16.985564, 52.441006 ], [ 16.985569, 52.441005 ], [ 16.985574, 52.441004 ], [ 16.987687, 52.44104 ], [ 16.987688, 52.44104 ], [ 16.987689, 52.44104 ], [ 16.988796, 52.439939 ], [ 16.9888, 52.439937 ], [ 16.988804, 52.439936 ], [ 16.988809, 52.439935 ], [ 16.990915, 52.439971 ], [ 16.99092, 52.439972 ], [ 16.990924, 52.439973 ], [ 16.990928, 52.439976 ], [ 16.991933, 52.441112 ], [ 16.991934, 52.441112 ], [ 16.991935, 52.441113 ], [ 16.994055, 52.441149 ], [ 16.994056, 52.441148 ], [ 16.994057, 52.441148 ], [ 16.995164, 52.440048 ], [ 16.995168, 52.440045 ], [ 16.995172, 52.440044 ], [ 16.995177, 52.440043 ], [ 16.997283, 52.440079 ], [ 16.997288, 52.44008 ], [ 16.997293, 52.440081 ], [ 16.997296, 52.440084 ], [ 16.998301, 52.44122 ], [ 16.998302, 52.44122 ], [ 16.998303, 52.441221 ], [ 17.000424, 52.441256 ], [ 17.000425, 52.441256 ], [ 17.000426, 52.441256 ], [ 17.001533, 52.440155 ], [ 17.001536, 52.440153 ], [ 17.001541, 52.440152 ], [ 17.001546, 52.440151 ], [ 17.003651, 52.440187 ], [ 17.003656, 52.440187 ], [ 17.003661, 52.440189 ], [ 17.003664, 52.440191 ], [ 17.004666, 52.441324 ], [ 17.004668, 52.441327 ], [ 17.004668, 52.44133 ], [ 17.004666, 52.441333 ], [ 17.003559, 52.442433 ], [ 17.003558, 52.442434 ], [ 17.003559, 52.442434 ], [ 17.004565, 52.44357 ], [ 17.004566, 52.443573 ], [ 17.004566, 52.443577 ], [ 17.004564, 52.443579 ], [ 17.003457, 52.44468 ], [ 17.003457, 52.444681 ], [ 17.003457, 52.444681 ], [ 17.004467, 52.445821 ], [ 17.004467, 52.445822 ], [ 17.004469, 52.445822 ], [ 17.006582, 52.445858 ], [ 17.006587, 52.445858 ], [ 17.006591, 52.44586 ], [ 17.006594, 52.445862 ], [ 17.0076, 52.446998 ], [ 17.007601, 52.446999 ], [ 17.007602, 52.446999 ], [ 17.009716, 52.447035 ], [ 17.009721, 52.447035 ], [ 17.009725, 52.447037 ], [ 17.009728, 52.447039 ], [ 17.010734, 52.448175 ], [ 17.010735, 52.448176 ], [ 17.010736, 52.448176 ], [ 17.01285, 52.448212 ], [ 17.012855, 52.448212 ], [ 17.012859, 52.448214 ], [ 17.012862, 52.448216 ], [ 17.013869, 52.449352 ], [ 17.013869, 52.449353 ], [ 17.013871, 52.449353 ], [ 17.015984, 52.449389 ], [ 17.015989, 52.449389 ], [ 17.015993, 52.449391 ], [ 17.015996, 52.449393 ], [ 17.017003, 52.450529 ], [ 17.017004, 52.45053 ], [ 17.017005, 52.45053 ], [ 17.019126, 52.450566 ], [ 17.019127, 52.450565 ], [ 17.019127, 52.450565 ], [ 17.020234, 52.449464 ], [ 17.020238, 52.449462 ], [ 17.020242, 52.449461 ], [ 17.020247, 52.44946 ], [ 17.022361, 52.449495 ], [ 17.022362, 52.449495 ], [ 17.022363, 52.449495 ], [ 17.023473, 52.44839 ], [ 17.023474, 52.44839 ], [ 17.023473, 52.448389 ], [ 17.022467, 52.447253 ], [ 17.022465, 52.44725 ], [ 17.022465, 52.447247 ], [ 17.022467, 52.447244 ], [ 17.02357, 52.446147 ], [ 17.023573, 52.446145 ], [ 17.023578, 52.446143 ], [ 17.023583, 52.446143 ], [ 17.025696, 52.446178 ], [ 17.025697, 52.446178 ], [ 17.025698, 52.446178 ], [ 17.026809, 52.445073 ], [ 17.026809, 52.445073 ], [ 17.026809, 52.445072 ], [ 17.025802, 52.443936 ], [ 17.0258, 52.443933 ], [ 17.025801, 52.44393 ], [ 17.025803, 52.443927 ], [ 17.026909, 52.442826 ], [ 17.02691, 52.442826 ], [ 17.026909, 52.442825 ], [ 17.025903, 52.441689 ], [ 17.025901, 52.441686 ], [ 17.025901, 52.441683 ], [ 17.025903, 52.44168 ], [ 17.027006, 52.440583 ], [ 17.027009, 52.440581 ], [ 17.027014, 52.440579 ], [ 17.027019, 52.440579 ], [ 17.029132, 52.440614 ], [ 17.029133, 52.440614 ], [ 17.029134, 52.440614 ], [ 17.030244, 52.439509 ], [ 17.030244, 52.439508 ], [ 17.030244, 52.439508 ], [ 17.029234, 52.438368 ], [ 17.029233, 52.438367 ], [ 17.029232, 52.438367 ], [ 17.027119, 52.438332 ], [ 17.027114, 52.438331 ], [ 17.02711, 52.43833 ], [ 17.027107, 52.438327 ], [ 17.0261, 52.437191 ], [ 17.026099, 52.437191 ], [ 17.026098, 52.437191 ], [ 17.023985, 52.437155 ], [ 17.02398, 52.437155 ], [ 17.023976, 52.437153 ], [ 17.023973, 52.437151 ], [ 17.02297, 52.436019 ], [ 17.022968, 52.436016 ], [ 17.022968, 52.436013 ], [ 17.02297, 52.43601 ], [ 17.024077, 52.434909 ], [ 17.024077, 52.434908 ], [ 17.024077, 52.434908 ], [ 17.023067, 52.433768 ], [ 17.023066, 52.433767 ], [ 17.023065, 52.433767 ], [ 17.020945, 52.433732 ], [ 17.020944, 52.433732 ], [ 17.020943, 52.433732 ], [ 17.019837, 52.434833 ], [ 17.019833, 52.434835 ], [ 17.019829, 52.434837 ], [ 17.019824, 52.434837 ], [ 17.017718, 52.434802 ], [ 17.017713, 52.434801 ], [ 17.017709, 52.4348 ], [ 17.017706, 52.434797 ], [ 17.0167, 52.433661 ], [ 17.016699, 52.433661 ], [ 17.016698, 52.43366 ], [ 17.014585, 52.433625 ], [ 17.01458, 52.433624 ], [ 17.014576, 52.433623 ], [ 17.014573, 52.43362 ], [ 17.013567, 52.432484 ], [ 17.013566, 52.432484 ], [ 17.013565, 52.432484 ], [ 17.011452, 52.432448 ], [ 17.011447, 52.432447 ], [ 17.011443, 52.432446 ], [ 17.01144, 52.432443 ], [ 17.010437, 52.431311 ], [ 17.010435, 52.431308 ], [ 17.010436, 52.431305 ], [ 17.010437, 52.431302 ], [ 17.01154, 52.430205 ], [ 17.011544, 52.430203 ], [ 17.011548, 52.430202 ], [ 17.011553, 52.430201 ], [ 17.013666, 52.430237 ], [ 17.013667, 52.430237 ], [ 17.013668, 52.430236 ], [ 17.014774, 52.429135 ], [ 17.014778, 52.429133 ], [ 17.014782, 52.429132 ], [ 17.014787, 52.429131 ], [ 17.016892, 52.429167 ], [ 17.016897, 52.429167 ], [ 17.016902, 52.429169 ], [ 17.016905, 52.429171 ], [ 17.017911, 52.430307 ], [ 17.017912, 52.430308 ], [ 17.017913, 52.430308 ], [ 17.020033, 52.430343 ], [ 17.020034, 52.430343 ], [ 17.020035, 52.430343 ], [ 17.021141, 52.429242 ], [ 17.021144, 52.42924 ], [ 17.021149, 52.429238 ], [ 17.021154, 52.429238 ], [ 17.023259, 52.429273 ], [ 17.023264, 52.429274 ], [ 17.023268, 52.429275 ], [ 17.023272, 52.429278 ], [ 17.024278, 52.430414 ], [ 17.024279, 52.430414 ], [ 17.02428, 52.430415 ], [ 17.026392, 52.43045 ], [ 17.026397, 52.43045 ], [ 17.026402, 52.430452 ], [ 17.026405, 52.430455 ], [ 17.027411, 52.43159 ], [ 17.027412, 52.431591 ], [ 17.027413, 52.431591 ], [ 17.029533, 52.431626 ], [ 17.029534, 52.431626 ], [ 17.029535, 52.431626 ], [ 17.030641, 52.430525 ], [ 17.030644, 52.430523 ], [ 17.030649, 52.430521 ], [ 17.030654, 52.430521 ], [ 17.032766, 52.430556 ], [ 17.032768, 52.430556 ], [ 17.032768, 52.430555 ], [ 17.033874, 52.429455 ], [ 17.033878, 52.429452 ], [ 17.033882, 52.429451 ], [ 17.033887, 52.42945 ], [ 17.036, 52.429486 ], [ 17.036001, 52.429485 ], [ 17.036002, 52.429485 ], [ 17.037108, 52.428384 ], [ 17.037111, 52.428382 ], [ 17.037116, 52.42838 ], [ 17.037121, 52.42838 ], [ 17.039226, 52.428415 ], [ 17.039231, 52.428415 ], [ 17.039235, 52.428417 ], [ 17.039238, 52.428419 ], [ 17.040245, 52.429555 ], [ 17.040246, 52.429556 ], [ 17.040247, 52.429556 ], [ 17.042367, 52.429591 ], [ 17.042368, 52.429591 ], [ 17.042369, 52.42959 ], [ 17.043474, 52.42849 ], [ 17.043478, 52.428487 ], [ 17.043482, 52.428486 ], [ 17.043487, 52.428485 ], [ 17.0456, 52.42852 ], [ 17.045601, 52.42852 ], [ 17.045602, 52.42852 ], [ 17.046711, 52.427415 ], [ 17.046712, 52.427414 ], [ 17.046711, 52.427414 ], [ 17.045704, 52.426278 ], [ 17.045703, 52.426275 ], [ 17.045703, 52.426272 ], [ 17.045705, 52.426269 ], [ 17.046807, 52.425172 ], [ 17.04681, 52.42517 ], [ 17.046815, 52.425168 ], [ 17.04682, 52.425168 ], [ 17.048932, 52.425203 ], [ 17.048933, 52.425202 ], [ 17.048934, 52.425202 ], [ 17.050039, 52.424101 ], [ 17.050043, 52.424099 ], [ 17.050047, 52.424097 ], [ 17.050052, 52.424097 ], [ 17.052165, 52.424132 ], [ 17.052166, 52.424131 ], [ 17.052167, 52.424131 ], [ 17.053272, 52.42303 ], [ 17.053275, 52.423028 ], [ 17.05328, 52.423026 ], [ 17.053285, 52.423026 ], [ 17.05539, 52.42306 ], [ 17.055395, 52.423061 ], [ 17.055399, 52.423063 ], [ 17.055402, 52.423065 ], [ 17.056409, 52.424201 ], [ 17.05641, 52.424201 ], [ 17.056411, 52.424201 ], [ 17.058523, 52.424236 ], [ 17.058528, 52.424237 ], [ 17.058533, 52.424238 ], [ 17.058536, 52.424241 ], [ 17.05954, 52.425373 ], [ 17.059541, 52.425376 ], [ 17.059541, 52.425379 ], [ 17.059539, 52.425382 ], [ 17.058434, 52.426483 ], [ 17.058433, 52.426483 ], [ 17.058434, 52.426484 ], [ 17.059444, 52.427623 ], [ 17.059445, 52.427624 ], [ 17.059446, 52.427624 ], [ 17.061559, 52.427659 ], [ 17.061564, 52.427659 ], [ 17.061568, 52.427661 ], [ 17.061571, 52.427664 ], [ 17.062578, 52.428799 ], [ 17.062579, 52.4288 ], [ 17.06258, 52.4288 ], [ 17.0647, 52.428835 ], [ 17.064701, 52.428834 ], [ 17.064702, 52.428834 ], [ 17.065807, 52.427733 ], [ 17.06581, 52.427731 ], [ 17.065815, 52.427729 ], [ 17.06582, 52.427729 ], [ 17.067925, 52.427763 ], [ 17.06793, 52.427764 ], [ 17.067935, 52.427765 ], [ 17.067938, 52.427768 ], [ 17.068945, 52.428903 ], [ 17.068946, 52.428904 ], [ 17.068947, 52.428904 ], [ 17.071067, 52.428939 ], [ 17.071068, 52.428939 ], [ 17.071069, 52.428938 ], [ 17.072174, 52.427837 ], [ 17.072177, 52.427835 ], [ 17.072182, 52.427833 ], [ 17.072187, 52.427833 ], [ 17.074299, 52.427867 ], [ 17.0743, 52.427867 ], [ 17.074301, 52.427866 ], [ 17.07541, 52.426762 ], [ 17.07541, 52.426761 ], [ 17.07541, 52.42676 ], [ 17.074399, 52.425621 ], [ 17.074398, 52.42562 ], [ 17.074397, 52.42562 ], [ 17.072285, 52.425586 ], [ 17.07228, 52.425585 ], [ 17.072275, 52.425583 ], [ 17.072272, 52.425581 ], [ 17.071268, 52.424449 ], [ 17.071267, 52.424446 ], [ 17.071267, 52.424443 ], [ 17.071269, 52.42444 ], [ 17.072374, 52.423339 ], [ 17.072374, 52.423339 ], [ 17.072374, 52.423338 ], [ 17.071363, 52.422198 ], [ 17.071362, 52.422198 ], [ 17.071361, 52.422198 ], [ 17.069249, 52.422163 ], [ 17.069244, 52.422163 ], [ 17.06924, 52.422161 ], [ 17.069236, 52.422159 ], [ 17.068233, 52.421027 ], [ 17.068231, 52.421024 ], [ 17.068231, 52.421021 ], [ 17.068233, 52.421018 ], [ 17.069338, 52.419917 ], [ 17.069338, 52.419916 ], [ 17.069338, 52.419915 ], [ 17.068331, 52.41878 ], [ 17.068329, 52.418777 ], [ 17.068329, 52.418774 ], [ 17.068331, 52.418771 ], [ 17.069436, 52.41767 ], [ 17.069436, 52.417669 ], [ 17.069436, 52.417668 ], [ 17.068426, 52.416529 ], [ 17.068425, 52.416528 ], [ 17.068424, 52.416528 ], [ 17.066312, 52.416494 ], [ 17.066307, 52.416493 ], [ 17.066302, 52.416492 ], [ 17.066299, 52.416489 ], [ 17.065296, 52.415357 ], [ 17.065294, 52.415354 ], [ 17.065294, 52.415351 ], [ 17.065296, 52.415348 ], [ 17.066401, 52.414247 ], [ 17.066401, 52.414247 ], [ 17.066401, 52.414246 ], [ 17.065391, 52.413107 ], [ 17.06539, 52.413106 ], [ 17.065389, 52.413106 ], [ 17.063277, 52.413071 ], [ 17.063272, 52.413071 ], [ 17.063268, 52.413069 ], [ 17.063264, 52.413067 ], [ 17.062258, 52.411931 ], [ 17.062257, 52.41193 ], [ 17.062256, 52.41193 ], [ 17.060137, 52.411895 ], [ 17.060136, 52.411896 ], [ 17.060135, 52.411896 ], [ 17.05903, 52.412997 ], [ 17.059027, 52.412999 ], [ 17.059022, 52.413001 ], [ 17.059017, 52.413001 ], [ 17.056912, 52.412967 ], [ 17.056907, 52.412966 ], [ 17.056903, 52.412964 ], [ 17.0569, 52.412962 ], [ 17.055893, 52.411826 ], [ 17.055893, 52.411826 ], [ 17.055891, 52.411826 ], [ 17.05378, 52.411791 ], [ 17.053775, 52.41179 ], [ 17.05377, 52.411789 ], [ 17.053767, 52.411786 ], [ 17.052761, 52.410651 ], [ 17.05276, 52.41065 ], [ 17.052759, 52.41065 ], [ 17.050647, 52.410615 ], [ 17.050642, 52.410614 ], [ 17.050638, 52.410613 ], [ 17.050635, 52.41061 ], [ 17.049632, 52.409478 ], [ 17.04963, 52.409475 ], [ 17.04963, 52.409472 ], [ 17.049632, 52.409469 ], [ 17.050737, 52.408369 ], [ 17.050737, 52.408368 ], [ 17.050737, 52.408367 ], [ 17.049731, 52.407231 ], [ 17.049729, 52.407229 ], [ 17.049729, 52.407225 ], [ 17.049731, 52.407222 ], [ 17.050836, 52.406122 ], [ 17.050837, 52.406121 ], [ 17.050836, 52.40612 ], [ 17.049826, 52.404981 ], [ 17.049826, 52.40498 ], [ 17.049824, 52.40498 ], [ 17.047713, 52.404945 ], [ 17.047708, 52.404944 ], [ 17.047704, 52.404943 ], [ 17.047701, 52.40494 ], [ 17.046694, 52.403805 ], [ 17.046694, 52.403804 ], [ 17.046692, 52.403804 ], [ 17.044581, 52.403769 ], [ 17.044576, 52.403768 ], [ 17.044572, 52.403767 ], [ 17.044569, 52.403764 ], [ 17.043563, 52.402629 ], [ 17.043562, 52.402628 ], [ 17.043561, 52.402628 ], [ 17.041449, 52.402593 ], [ 17.041444, 52.402592 ], [ 17.04144, 52.402591 ], [ 17.041437, 52.402588 ], [ 17.040434, 52.401456 ], [ 17.040433, 52.401453 ], [ 17.040433, 52.40145 ], [ 17.040435, 52.401447 ], [ 17.041536, 52.40035 ], [ 17.041539, 52.400348 ], [ 17.041544, 52.400346 ], [ 17.041549, 52.400346 ], [ 17.04366, 52.400381 ], [ 17.043661, 52.400381 ], [ 17.043662, 52.40038 ], [ 17.044767, 52.399279 ], [ 17.04477, 52.399277 ], [ 17.044775, 52.399276 ], [ 17.04478, 52.399275 ], [ 17.046891, 52.39931 ], [ 17.046892, 52.39931 ], [ 17.046893, 52.399309 ], [ 17.047998, 52.398209 ], [ 17.048001, 52.398206 ], [ 17.048006, 52.398205 ], [ 17.048011, 52.398204 ], [ 17.050122, 52.398239 ], [ 17.050123, 52.398239 ], [ 17.050124, 52.398238 ], [ 17.051232, 52.397134 ], [ 17.051233, 52.397133 ], [ 17.051232, 52.397132 ], [ 17.050226, 52.395997 ], [ 17.050225, 52.395994 ], [ 17.050225, 52.395991 ], [ 17.050227, 52.395988 ], [ 17.051331, 52.394887 ], [ 17.051332, 52.394886 ], [ 17.051331, 52.394885 ], [ 17.050325, 52.39375 ], [ 17.050324, 52.393747 ], [ 17.050324, 52.393744 ], [ 17.050326, 52.393741 ], [ 17.05143, 52.39264 ], [ 17.051431, 52.392639 ], [ 17.05143, 52.392638 ], [ 17.050424, 52.391503 ], [ 17.050423, 52.3915 ], [ 17.050423, 52.391497 ], [ 17.050425, 52.391494 ], [ 17.051529, 52.390393 ], [ 17.05153, 52.390392 ], [ 17.051529, 52.390392 ], [ 17.050523, 52.389256 ], [ 17.050522, 52.389253 ], [ 17.050522, 52.38925 ], [ 17.050524, 52.389247 ], [ 17.051628, 52.388146 ], [ 17.051629, 52.388145 ], [ 17.051628, 52.388145 ], [ 17.050622, 52.387009 ], [ 17.050621, 52.387006 ], [ 17.050621, 52.387003 ], [ 17.050623, 52.387 ], [ 17.051727, 52.385899 ], [ 17.051728, 52.385898 ], [ 17.051727, 52.385898 ], [ 17.050721, 52.384762 ], [ 17.05072, 52.384759 ], [ 17.05072, 52.384756 ], [ 17.050722, 52.384753 ], [ 17.051826, 52.383652 ], [ 17.051827, 52.383651 ], [ 17.051826, 52.383651 ], [ 17.05082, 52.382515 ], [ 17.050819, 52.382512 ], [ 17.050819, 52.382509 ], [ 17.050821, 52.382506 ], [ 17.051921, 52.381409 ], [ 17.051925, 52.381406 ], [ 17.051929, 52.381405 ], [ 17.051934, 52.381404 ], [ 17.054044, 52.381439 ], [ 17.054046, 52.381439 ], [ 17.054046, 52.381439 ], [ 17.055154, 52.380334 ], [ 17.055155, 52.380333 ], [ 17.055155, 52.380333 ], [ 17.054149, 52.379197 ], [ 17.054147, 52.379194 ], [ 17.054147, 52.379191 ], [ 17.054149, 52.379188 ], [ 17.055253, 52.378087 ], [ 17.055254, 52.378086 ], [ 17.055253, 52.378086 ], [ 17.054247, 52.37695 ], [ 17.054246, 52.376947 ], [ 17.054246, 52.376944 ], [ 17.054248, 52.376941 ], [ 17.055348, 52.375844 ], [ 17.055352, 52.375841 ], [ 17.055356, 52.37584 ], [ 17.055361, 52.375839 ], [ 17.057471, 52.375874 ], [ 17.057472, 52.375874 ], [ 17.057473, 52.375874 ], [ 17.058581, 52.374769 ], [ 17.058581, 52.374768 ], [ 17.058581, 52.374767 ], [ 17.057575, 52.373632 ], [ 17.057573, 52.373629 ], [ 17.057574, 52.373626 ], [ 17.057575, 52.373623 ], [ 17.058679, 52.372522 ], [ 17.05868, 52.372521 ], [ 17.058679, 52.37252 ], [ 17.057674, 52.371385 ], [ 17.057672, 52.371382 ], [ 17.057672, 52.371379 ], [ 17.057674, 52.371376 ], [ 17.058778, 52.370275 ], [ 17.058778, 52.370274 ], [ 17.058778, 52.370273 ], [ 17.057772, 52.369138 ], [ 17.057771, 52.369135 ], [ 17.057771, 52.369132 ], [ 17.057773, 52.369129 ], [ 17.058876, 52.368028 ], [ 17.058877, 52.368027 ], [ 17.058877, 52.368026 ], [ 17.057871, 52.366891 ], [ 17.057869, 52.366888 ], [ 17.057869, 52.366885 ], [ 17.057871, 52.366882 ], [ 17.058975, 52.365781 ], [ 17.058975, 52.36578 ], [ 17.058975, 52.365779 ], [ 17.057969, 52.364644 ], [ 17.057968, 52.364641 ], [ 17.057968, 52.364638 ], [ 17.05797, 52.364635 ], [ 17.05907, 52.363538 ], [ 17.059073, 52.363535 ], [ 17.059078, 52.363534 ], [ 17.059083, 52.363533 ], [ 17.061192, 52.363568 ], [ 17.061193, 52.363568 ], [ 17.061194, 52.363567 ], [ 17.062301, 52.362463 ], [ 17.062302, 52.362462 ], [ 17.062301, 52.362461 ], [ 17.061292, 52.361322 ], [ 17.061292, 52.361321 ], [ 17.06129, 52.361321 ], [ 17.059181, 52.361286 ], [ 17.059176, 52.361286 ], [ 17.059172, 52.361284 ], [ 17.059169, 52.361282 ], [ 17.058166, 52.36015 ], [ 17.058165, 52.360147 ], [ 17.058165, 52.360144 ], [ 17.058167, 52.360141 ], [ 17.059267, 52.359044 ], [ 17.05927, 52.359041 ], [ 17.059275, 52.35904 ], [ 17.05928, 52.359039 ], [ 17.061389, 52.359074 ], [ 17.06139, 52.359074 ], [ 17.061391, 52.359073 ], [ 17.062498, 52.357969 ], [ 17.062498, 52.357968 ], [ 17.062498, 52.357967 ], [ 17.061489, 52.356828 ], [ 17.061488, 52.356827 ], [ 17.061487, 52.356827 ], [ 17.059378, 52.356792 ], [ 17.059373, 52.356792 ], [ 17.059369, 52.35679 ], [ 17.059366, 52.356788 ], [ 17.058364, 52.355656 ], [ 17.058362, 52.355653 ], [ 17.058362, 52.35565 ], [ 17.058364, 52.355647 ], [ 17.059467, 52.354546 ], [ 17.059468, 52.354545 ], [ 17.059467, 52.354545 ], [ 17.058462, 52.353409 ], [ 17.05846, 52.353406 ], [ 17.058461, 52.353403 ], [ 17.058462, 52.3534 ], [ 17.059566, 52.352299 ], [ 17.059566, 52.352298 ], [ 17.059566, 52.352298 ], [ 17.058557, 52.351158 ], [ 17.058556, 52.351157 ], [ 17.058555, 52.351157 ], [ 17.056446, 52.351123 ], [ 17.056441, 52.351122 ], [ 17.056437, 52.35112 ], [ 17.056434, 52.351118 ], [ 17.055432, 52.349986 ], [ 17.05543, 52.349983 ], [ 17.055431, 52.34998 ], [ 17.055432, 52.349977 ], [ 17.056536, 52.348876 ], [ 17.056536, 52.348876 ], [ 17.056536, 52.348875 ], [ 17.055527, 52.347735 ], [ 17.055526, 52.347735 ], [ 17.055525, 52.347735 ], [ 17.053417, 52.3477 ], [ 17.053412, 52.347699 ], [ 17.053407, 52.347698 ], [ 17.053404, 52.347695 ], [ 17.052402, 52.346563 ], [ 17.052401, 52.34656 ], [ 17.052401, 52.346557 ], [ 17.052403, 52.346554 ], [ 17.053506, 52.345453 ], [ 17.053507, 52.345453 ], [ 17.053506, 52.345452 ], [ 17.052501, 52.344316 ], [ 17.0525, 52.344313 ], [ 17.0525, 52.34431 ], [ 17.052502, 52.344307 ], [ 17.053605, 52.343206 ], [ 17.053605, 52.343206 ], [ 17.053605, 52.343205 ], [ 17.052597, 52.342066 ], [ 17.052596, 52.342065 ], [ 17.052595, 52.342065 ], [ 17.050486, 52.34203 ], [ 17.050481, 52.342029 ], [ 17.050477, 52.342028 ], [ 17.050474, 52.342025 ], [ 17.049469, 52.34089 ], [ 17.049468, 52.340889 ], [ 17.049467, 52.340889 ], [ 17.047359, 52.340854 ], [ 17.047354, 52.340853 ], [ 17.047349, 52.340852 ], [ 17.047346, 52.340849 ], [ 17.046345, 52.339717 ], [ 17.046343, 52.339715 ], [ 17.046343, 52.339711 ], [ 17.046345, 52.339708 ], [ 17.047449, 52.338608 ], [ 17.047449, 52.338607 ], [ 17.047449, 52.338606 ], [ 17.046444, 52.33747 ], [ 17.046442, 52.337468 ], [ 17.046442, 52.337464 ], [ 17.046444, 52.337462 ], [ 17.047548, 52.336361 ], [ 17.047548, 52.33636 ], [ 17.047548, 52.336359 ], [ 17.04654, 52.33522 ], [ 17.046539, 52.335219 ], [ 17.046538, 52.335219 ], [ 17.04443, 52.335184 ], [ 17.044425, 52.335183 ], [ 17.04442, 52.335182 ], [ 17.044417, 52.335179 ], [ 17.043416, 52.334047 ], [ 17.043414, 52.334044 ], [ 17.043414, 52.334041 ], [ 17.043416, 52.334038 ], [ 17.04452, 52.332938 ], [ 17.04452, 52.332937 ], [ 17.04452, 52.332936 ], [ 17.043512, 52.331797 ], [ 17.043511, 52.331796 ], [ 17.04351, 52.331796 ], [ 17.041402, 52.331761 ], [ 17.041397, 52.33176 ], [ 17.041393, 52.331759 ], [ 17.041389, 52.331756 ], [ 17.040388, 52.330624 ], [ 17.040387, 52.330621 ], [ 17.040387, 52.330618 ], [ 17.040389, 52.330615 ], [ 17.041492, 52.329515 ], [ 17.041492, 52.329514 ], [ 17.041492, 52.329513 ], [ 17.040484, 52.328373 ], [ 17.040484, 52.328373 ], [ 17.040482, 52.328373 ], [ 17.038375, 52.328338 ], [ 17.03837, 52.328337 ], [ 17.038365, 52.328336 ], [ 17.038362, 52.328333 ], [ 17.037358, 52.327197 ], [ 17.037357, 52.327197 ], [ 17.037356, 52.327197 ], [ 17.035241, 52.327161 ], [ 17.03524, 52.327161 ], [ 17.035239, 52.327162 ], [ 17.034136, 52.328263 ], [ 17.034132, 52.328265 ], [ 17.034128, 52.328267 ], [ 17.034123, 52.328267 ], [ 17.032015, 52.328232 ], [ 17.032014, 52.328232 ], [ 17.032013, 52.328233 ], [ 17.03091, 52.329333 ], [ 17.030906, 52.329336 ], [ 17.030902, 52.329337 ], [ 17.030897, 52.329338 ], [ 17.028789, 52.329302 ], [ 17.028788, 52.329303 ], [ 17.028787, 52.329303 ], [ 17.027684, 52.330404 ], [ 17.02768, 52.330406 ], [ 17.027676, 52.330408 ], [ 17.027671, 52.330408 ], [ 17.025563, 52.330373 ], [ 17.025562, 52.330373 ], [ 17.025561, 52.330374 ], [ 17.024457, 52.331474 ], [ 17.024454, 52.331477 ], [ 17.024449, 52.331478 ], [ 17.024444, 52.331479 ], [ 17.022337, 52.331443 ], [ 17.022335, 52.331443 ], [ 17.022335, 52.331444 ], [ 17.021231, 52.332545 ], [ 17.021227, 52.332547 ], [ 17.021223, 52.332548 ], [ 17.021218, 52.332549 ], [ 17.01911, 52.332513 ], [ 17.019109, 52.332514 ], [ 17.019108, 52.332514 ], [ 17.018004, 52.333615 ], [ 17.018001, 52.333617 ], [ 17.017996, 52.333619 ], [ 17.017991, 52.333619 ], [ 17.015883, 52.333584 ], [ 17.015882, 52.333584 ], [ 17.015881, 52.333584 ], [ 17.014777, 52.334685 ], [ 17.014774, 52.334687 ], [ 17.01477, 52.334689 ], [ 17.014765, 52.334689 ], [ 17.012664, 52.334654 ], [ 17.012659, 52.334653 ], [ 17.012654, 52.334652 ], [ 17.012651, 52.334649 ], [ 17.011651, 52.333517 ], [ 17.011649, 52.333514 ], [ 17.011649, 52.333511 ], [ 17.011651, 52.333508 ], [ 17.012755, 52.332407 ], [ 17.012756, 52.332407 ], [ 17.012755, 52.332406 ], [ 17.011748, 52.331266 ], [ 17.011748, 52.331266 ], [ 17.011746, 52.331265 ], [ 17.009639, 52.33123 ], [ 17.009634, 52.331229 ], [ 17.009629, 52.331228 ], [ 17.009626, 52.331225 ], [ 17.008622, 52.330089 ], [ 17.008622, 52.330089 ], [ 17.008621, 52.330088 ], [ 17.006506, 52.330053 ], [ 17.006504, 52.330053 ], [ 17.006504, 52.330053 ], [ 17.0054, 52.331154 ], [ 17.005396, 52.331156 ], [ 17.005392, 52.331158 ], [ 17.005387, 52.331158 ], [ 17.003279, 52.331123 ], [ 17.003278, 52.331123 ], [ 17.003277, 52.331123 ], [ 17.002169, 52.332227 ], [ 17.002168, 52.332228 ], [ 17.002169, 52.332229 ], [ 17.003172, 52.333365 ], [ 17.003174, 52.333368 ], [ 17.003174, 52.333371 ], [ 17.003172, 52.333374 ], [ 17.002071, 52.334471 ], [ 17.002068, 52.334473 ], [ 17.002063, 52.334474 ], [ 17.002058, 52.334475 ], [ 16.999958, 52.334439 ], [ 16.999953, 52.334439 ], [ 16.999948, 52.334437 ], [ 16.999945, 52.334435 ], [ 16.998945, 52.333302 ], [ 16.998944, 52.333299 ], [ 16.998944, 52.333296 ], [ 16.998946, 52.333293 ], [ 17.00005, 52.332193 ], [ 17.00005, 52.332192 ], [ 17.00005, 52.332192 ], [ 16.999043, 52.331052 ], [ 16.999042, 52.331051 ], [ 16.999041, 52.331051 ], [ 16.996934, 52.331015 ], [ 16.996929, 52.331015 ], [ 16.996924, 52.331013 ], [ 16.996921, 52.33101 ], [ 16.995918, 52.329874 ], [ 16.995917, 52.329874 ], [ 16.995916, 52.329874 ], [ 16.993808, 52.329838 ], [ 16.993803, 52.329837 ], [ 16.993799, 52.329836 ], [ 16.993796, 52.329833 ], [ 16.992796, 52.328701 ], [ 16.992794, 52.328698 ], [ 16.992794, 52.328695 ], [ 16.992796, 52.328692 ], [ 16.993901, 52.327591 ], [ 16.993901, 52.327591 ], [ 16.993901, 52.32759 ], [ 16.992894, 52.32645 ], [ 16.992893, 52.326449 ], [ 16.992892, 52.326449 ], [ 16.990785, 52.326413 ], [ 16.99078, 52.326413 ], [ 16.990775, 52.326411 ], [ 16.990772, 52.326409 ], [ 16.989769, 52.325272 ], [ 16.989768, 52.325272 ], [ 16.989767, 52.325272 ], [ 16.98766, 52.325236 ], [ 16.987655, 52.325235 ], [ 16.987651, 52.325234 ], [ 16.987647, 52.325231 ], [ 16.986648, 52.324099 ], [ 16.986646, 52.324096 ], [ 16.986646, 52.324093 ], [ 16.986648, 52.32409 ], [ 16.987749, 52.322993 ], [ 16.987752, 52.322991 ], [ 16.987757, 52.322989 ], [ 16.987762, 52.322989 ], [ 16.989869, 52.323025 ], [ 16.98987, 52.323025 ], [ 16.989871, 52.323024 ], [ 16.990975, 52.321924 ], [ 16.990979, 52.321922 ], [ 16.990983, 52.32192 ], [ 16.990988, 52.32192 ], [ 16.993096, 52.321955 ], [ 16.993097, 52.321955 ], [ 16.993098, 52.321955 ], [ 16.994202, 52.320854 ], [ 16.994205, 52.320852 ], [ 16.99421, 52.320851 ], [ 16.994215, 52.32085 ], [ 16.996322, 52.320886 ], [ 16.996323, 52.320886 ], [ 16.996324, 52.320885 ], [ 16.997432, 52.319781 ], [ 16.997432, 52.31978 ], [ 16.997432, 52.31978 ], [ 16.996429, 52.318644 ], [ 16.996427, 52.318641 ], [ 16.996427, 52.318637 ], [ 16.996429, 52.318635 ], [ 16.99753, 52.317538 ], [ 16.997533, 52.317536 ], [ 16.997537, 52.317534 ], [ 16.997542, 52.317534 ], [ 16.99965, 52.317569 ], [ 16.999651, 52.317569 ], [ 16.999652, 52.317569 ], [ 17.000756, 52.316468 ], [ 17.000759, 52.316466 ], [ 17.000763, 52.316464 ], [ 17.000768, 52.316464 ], [ 17.002875, 52.3165 ], [ 17.002877, 52.3165 ], [ 17.002877, 52.316499 ], [ 17.003985, 52.315395 ], [ 17.003985, 52.315394 ], [ 17.003985, 52.315393 ], [ 17.002982, 52.314257 ], [ 17.00298, 52.314254 ], [ 17.002981, 52.314251 ], [ 17.002982, 52.314248 ], [ 17.004086, 52.313148 ], [ 17.004087, 52.313147 ], [ 17.004086, 52.313146 ], [ 17.003083, 52.31201 ], [ 17.003082, 52.312007 ], [ 17.003082, 52.312004 ], [ 17.003084, 52.312001 ], [ 17.004187, 52.310901 ], [ 17.004188, 52.3109 ], [ 17.004187, 52.3109 ], [ 17.003181, 52.30976 ], [ 17.00318, 52.309759 ], [ 17.003179, 52.309759 ], [ 17.001072, 52.309723 ], [ 17.001067, 52.309723 ], [ 17.001063, 52.309721 ], [ 17.00106, 52.309718 ], [ 17.000057, 52.308582 ], [ 17.000056, 52.308582 ], [ 17.000055, 52.308582 ], [ 16.997948, 52.308546 ], [ 16.997943, 52.308545 ], [ 16.997939, 52.308544 ], [ 16.997936, 52.308541 ], [ 16.996936, 52.307409 ], [ 16.996935, 52.307406 ], [ 16.996935, 52.307403 ], [ 16.996937, 52.3074 ], [ 16.99804, 52.3063 ], [ 16.998041, 52.306299 ], [ 16.998041, 52.306298 ], [ 16.997038, 52.305162 ], [ 16.997036, 52.305159 ], [ 16.997036, 52.305156 ], [ 16.997038, 52.305153 ], [ 16.998142, 52.304053 ], [ 16.998142, 52.304052 ], [ 16.998142, 52.304051 ], [ 16.997139, 52.302915 ], [ 16.997138, 52.302912 ], [ 16.997138, 52.302909 ], [ 16.99714, 52.302906 ], [ 16.998239, 52.301809 ], [ 16.998243, 52.301807 ], [ 16.998247, 52.301806 ], [ 16.998252, 52.301805 ], [ 17.000359, 52.301841 ], [ 17.00036, 52.301841 ], [ 17.000361, 52.30184 ], [ 17.001468, 52.300736 ], [ 17.001468, 52.300735 ], [ 17.001468, 52.300735 ], [ 17.000465, 52.299599 ], [ 17.000464, 52.299596 ], [ 17.000464, 52.299592 ], [ 17.000466, 52.29959 ], [ 17.001565, 52.298493 ], [ 17.001569, 52.298491 ], [ 17.001573, 52.298489 ], [ 17.001578, 52.298489 ], [ 17.003685, 52.298524 ], [ 17.003686, 52.298524 ], [ 17.003686, 52.298524 ], [ 17.004794, 52.297419 ], [ 17.004794, 52.297419 ], [ 17.004794, 52.297418 ], [ 17.003791, 52.296282 ], [ 17.003789, 52.296279 ], [ 17.003789, 52.296276 ], [ 17.003791, 52.296273 ], [ 17.004895, 52.295172 ], [ 17.004895, 52.295172 ], [ 17.004895, 52.295171 ], [ 17.003889, 52.294031 ], [ 17.003888, 52.29403 ], [ 17.003887, 52.29403 ], [ 17.001781, 52.293995 ], [ 17.001776, 52.293994 ], [ 17.001771, 52.293992 ], [ 17.001768, 52.29399 ], [ 17.000766, 52.292854 ], [ 17.000765, 52.292853 ], [ 17.000764, 52.292853 ], [ 16.998658, 52.292817 ], [ 16.998653, 52.292817 ], [ 16.998648, 52.292815 ], [ 16.998645, 52.292813 ], [ 16.997643, 52.291677 ], [ 16.997642, 52.291676 ], [ 16.997641, 52.291676 ], [ 16.995535, 52.29164 ], [ 16.99553, 52.29164 ], [ 16.995526, 52.291638 ], [ 16.995522, 52.291635 ], [ 16.99452, 52.290499 ], [ 16.994519, 52.290499 ], [ 16.994518, 52.290499 ], [ 16.992405, 52.290463 ], [ 16.992404, 52.290463 ], [ 16.992403, 52.290463 ], [ 16.9913, 52.291564 ], [ 16.991296, 52.291566 ], [ 16.991292, 52.291568 ], [ 16.991287, 52.291568 ], [ 16.989181, 52.291532 ], [ 16.98918, 52.291532 ], [ 16.989179, 52.291533 ], [ 16.988072, 52.292637 ], [ 16.988071, 52.292638 ], [ 16.988072, 52.292638 ], [ 16.989074, 52.293774 ], [ 16.989075, 52.293777 ], [ 16.989075, 52.293781 ], [ 16.989073, 52.293783 ], [ 16.987973, 52.29488 ], [ 16.98797, 52.294882 ], [ 16.987966, 52.294884 ], [ 16.987961, 52.294884 ], [ 16.985855, 52.294848 ], [ 16.985853, 52.294849 ], [ 16.985853, 52.294849 ], [ 16.984749, 52.295949 ], [ 16.984745, 52.295952 ], [ 16.984741, 52.295953 ], [ 16.984736, 52.295954 ], [ 16.98263, 52.295918 ], [ 16.982629, 52.295918 ], [ 16.982628, 52.295918 ], [ 16.981524, 52.297019 ], [ 16.981521, 52.297021 ], [ 16.981516, 52.297022 ], [ 16.981511, 52.297023 ], [ 16.979405, 52.296987 ], [ 16.979404, 52.296987 ], [ 16.979403, 52.296987 ], [ 16.978295, 52.298091 ], [ 16.978295, 52.298092 ], [ 16.978295, 52.298093 ], [ 16.979297, 52.299229 ], [ 16.979299, 52.299232 ], [ 16.979299, 52.299235 ], [ 16.979297, 52.299238 ], [ 16.978197, 52.300335 ], [ 16.978193, 52.300337 ], [ 16.978189, 52.300338 ], [ 16.978184, 52.300339 ], [ 16.976078, 52.300303 ], [ 16.976076, 52.300303 ], [ 16.976076, 52.300303 ], [ 16.974968, 52.301407 ], [ 16.974967, 52.301408 ], [ 16.974968, 52.301409 ], [ 16.97597, 52.302545 ], [ 16.975971, 52.302548 ], [ 16.975971, 52.302551 ], [ 16.975969, 52.302554 ], [ 16.974869, 52.303651 ], [ 16.974866, 52.303653 ], [ 16.974861, 52.303654 ], [ 16.974856, 52.303655 ], [ 16.97275, 52.303619 ], [ 16.972748, 52.303619 ], [ 16.972748, 52.303619 ], [ 16.971643, 52.30472 ], [ 16.97164, 52.304722 ], [ 16.971635, 52.304723 ], [ 16.97163, 52.304724 ], [ 16.969524, 52.304688 ], [ 16.969523, 52.304688 ], [ 16.969522, 52.304688 ], [ 16.968418, 52.305788 ], [ 16.968414, 52.305791 ], [ 16.96841, 52.305792 ], [ 16.968405, 52.305793 ], [ 16.966298, 52.305756 ], [ 16.966297, 52.305757 ], [ 16.966296, 52.305757 ], [ 16.965192, 52.306857 ], [ 16.965188, 52.30686 ], [ 16.965184, 52.306861 ], [ 16.965179, 52.306861 ], [ 16.963072, 52.306825 ], [ 16.963071, 52.306825 ], [ 16.96307, 52.306826 ], [ 16.961966, 52.307926 ], [ 16.961962, 52.307928 ], [ 16.961958, 52.30793 ], [ 16.961953, 52.30793 ], [ 16.959846, 52.307894 ], [ 16.959845, 52.307894 ], [ 16.959844, 52.307894 ], [ 16.958739, 52.308994 ], [ 16.958736, 52.308997 ], [ 16.958732, 52.308998 ], [ 16.958726, 52.308999 ], [ 16.95662, 52.308962 ], [ 16.956619, 52.308962 ], [ 16.956618, 52.308963 ], [ 16.955509, 52.310067 ], [ 16.955509, 52.310067 ], [ 16.955509, 52.310068 ], [ 16.956511, 52.311205 ], [ 16.956513, 52.311208 ], [ 16.956513, 52.311211 ], [ 16.956511, 52.311214 ], [ 16.955409, 52.31231 ], [ 16.955406, 52.312312 ], [ 16.955402, 52.312314 ], [ 16.955397, 52.312314 ], [ 16.953297, 52.312278 ], [ 16.953292, 52.312277 ], [ 16.953288, 52.312275 ], [ 16.953284, 52.312273 ], [ 16.952283, 52.311137 ], [ 16.952282, 52.311136 ], [ 16.952281, 52.311136 ], [ 16.950174, 52.311099 ], [ 16.950169, 52.311099 ], [ 16.950165, 52.311097 ], [ 16.950162, 52.311095 ], [ 16.94916, 52.309958 ], [ 16.949159, 52.309957 ], [ 16.949158, 52.309957 ], [ 16.947044, 52.309921 ], [ 16.947043, 52.309921 ], [ 16.947042, 52.309921 ], [ 16.945937, 52.311021 ], [ 16.945934, 52.311023 ], [ 16.945929, 52.311025 ], [ 16.945924, 52.311025 ], [ 16.943817, 52.310989 ], [ 16.943816, 52.310989 ], [ 16.943815, 52.310989 ], [ 16.94271, 52.312089 ], [ 16.942707, 52.312092 ], [ 16.942702, 52.312093 ], [ 16.942697, 52.312094 ], [ 16.940591, 52.312057 ], [ 16.940589, 52.312057 ], [ 16.940589, 52.312057 ], [ 16.939483, 52.313157 ], [ 16.93948, 52.31316 ], [ 16.939475, 52.313161 ], [ 16.93947, 52.313162 ], [ 16.937364, 52.313125 ], [ 16.937362, 52.313125 ], [ 16.937362, 52.313125 ], [ 16.936252, 52.314229 ], [ 16.936252, 52.31423 ], [ 16.936252, 52.31423 ], [ 16.937254, 52.315367 ], [ 16.937255, 52.31537 ], [ 16.937255, 52.315373 ], [ 16.937253, 52.315376 ], [ 16.936152, 52.316472 ], [ 16.936148, 52.316474 ], [ 16.936144, 52.316476 ], [ 16.936139, 52.316476 ], [ 16.934032, 52.31644 ], [ 16.934031, 52.31644 ], [ 16.93403, 52.31644 ], [ 16.932924, 52.31754 ], [ 16.932921, 52.317542 ], [ 16.932916, 52.317544 ], [ 16.932911, 52.317544 ], [ 16.930804, 52.317507 ], [ 16.930803, 52.317507 ], [ 16.930802, 52.317508 ], [ 16.929697, 52.318608 ], [ 16.929693, 52.31861 ], [ 16.929689, 52.318612 ], [ 16.929684, 52.318612 ], [ 16.927584, 52.318575 ], [ 16.927579, 52.318575 ], [ 16.927574, 52.318573 ], [ 16.927571, 52.318571 ], [ 16.92657, 52.317434 ], [ 16.926569, 52.317433 ], [ 16.926568, 52.317433 ], [ 16.924454, 52.317396 ], [ 16.924453, 52.317396 ], [ 16.924452, 52.317397 ], [ 16.923342, 52.3185 ], [ 16.923342, 52.318501 ], [ 16.923342, 52.318501 ], [ 16.924344, 52.319638 ], [ 16.924345, 52.319641 ], [ 16.924345, 52.319644 ], [ 16.924343, 52.319647 ], [ 16.923237, 52.320747 ], [ 16.923237, 52.320748 ], [ 16.923237, 52.320748 ], [ 16.924238, 52.321885 ], [ 16.92424, 52.321888 ], [ 16.92424, 52.321891 ], [ 16.924238, 52.321894 ], [ 16.923136, 52.32299 ], [ 16.923132, 52.322992 ], [ 16.923128, 52.322994 ], [ 16.923123, 52.322994 ], [ 16.921016, 52.322957 ], [ 16.921014, 52.322957 ], [ 16.921014, 52.322958 ], [ 16.919904, 52.324061 ], [ 16.919903, 52.324062 ], [ 16.919904, 52.324063 ], [ 16.920908, 52.325203 ], [ 16.920909, 52.325204 ], [ 16.92091, 52.325204 ], [ 16.923018, 52.325241 ], [ 16.923023, 52.325242 ], [ 16.923027, 52.325243 ], [ 16.92303, 52.325246 ], [ 16.924028, 52.326379 ], [ 16.92403, 52.326382 ], [ 16.924029, 52.326385 ], [ 16.924028, 52.326388 ], [ 16.922921, 52.327487 ], [ 16.922921, 52.327488 ], [ 16.922921, 52.327489 ], [ 16.923923, 52.328625 ], [ 16.923924, 52.328628 ], [ 16.923924, 52.328632 ], [ 16.923922, 52.328634 ], [ 16.92282, 52.32973 ], [ 16.922817, 52.329733 ], [ 16.922812, 52.329734 ], [ 16.922807, 52.329735 ], [ 16.920699, 52.329698 ], [ 16.920698, 52.329698 ], [ 16.920697, 52.329698 ], [ 16.919591, 52.330798 ], [ 16.919588, 52.3308 ], [ 16.919583, 52.330802 ], [ 16.919578, 52.330802 ], [ 16.917471, 52.330765 ], [ 16.917469, 52.330765 ], [ 16.917469, 52.330766 ], [ 16.916362, 52.331865 ], [ 16.916359, 52.331868 ], [ 16.916354, 52.331869 ], [ 16.916349, 52.33187 ], [ 16.914249, 52.331832 ], [ 16.914244, 52.331832 ], [ 16.91424, 52.33183 ], [ 16.914236, 52.331828 ], [ 16.913235, 52.330691 ], [ 16.913234, 52.33069 ], [ 16.913233, 52.33069 ], [ 16.911119, 52.330653 ], [ 16.911117, 52.330653 ], [ 16.911117, 52.330653 ], [ 16.91001, 52.331753 ], [ 16.910007, 52.331755 ], [ 16.910002, 52.331757 ], [ 16.909997, 52.331757 ], [ 16.907889, 52.33172 ], [ 16.907888, 52.33172 ], [ 16.907888, 52.331721 ], [ 16.906777, 52.332824 ], [ 16.906777, 52.332825 ], [ 16.906777, 52.332825 ], [ 16.907778, 52.333962 ], [ 16.90778, 52.333965 ], [ 16.90778, 52.333968 ], [ 16.907778, 52.333971 ], [ 16.906675, 52.335067 ], [ 16.906671, 52.335069 ], [ 16.906667, 52.335071 ], [ 16.906662, 52.335071 ], [ 16.904554, 52.335034 ], [ 16.904553, 52.335034 ], [ 16.904552, 52.335034 ], [ 16.903445, 52.336134 ], [ 16.903442, 52.336136 ], [ 16.903437, 52.336138 ], [ 16.903432, 52.336138 ], [ 16.901324, 52.336101 ], [ 16.901323, 52.336101 ], [ 16.901323, 52.336101 ], [ 16.900216, 52.337201 ], [ 16.900212, 52.337203 ], [ 16.900208, 52.337205 ], [ 16.900203, 52.337205 ], [ 16.898095, 52.337168 ], [ 16.898094, 52.337168 ], [ 16.898093, 52.337168 ], [ 16.896982, 52.338272 ], [ 16.896982, 52.338272 ], [ 16.896982, 52.338273 ], [ 16.897983, 52.33941 ], [ 16.897985, 52.339413 ], [ 16.897984, 52.339416 ], [ 16.897982, 52.339419 ], [ 16.896875, 52.340518 ], [ 16.896875, 52.340519 ], [ 16.896875, 52.34052 ], [ 16.897876, 52.341657 ], [ 16.897878, 52.34166 ], [ 16.897878, 52.341663 ], [ 16.897876, 52.341666 ], [ 16.896769, 52.342765 ], [ 16.896768, 52.342766 ], [ 16.896769, 52.342766 ], [ 16.897773, 52.343907 ], [ 16.897774, 52.343908 ], [ 16.897775, 52.343908 ], [ 16.899883, 52.343946 ], [ 16.899888, 52.343946 ], [ 16.899893, 52.343948 ], [ 16.899896, 52.34395 ], [ 16.900893, 52.345083 ], [ 16.900895, 52.345086 ], [ 16.900895, 52.345089 ], [ 16.900893, 52.345092 ], [ 16.899786, 52.346192 ], [ 16.899785, 52.346192 ], [ 16.899786, 52.346193 ], [ 16.900787, 52.34733 ], [ 16.900789, 52.347333 ], [ 16.900788, 52.347336 ], [ 16.900787, 52.347339 ], [ 16.899679, 52.348439 ], [ 16.899679, 52.348439 ], [ 16.899679, 52.34844 ], [ 16.900681, 52.349577 ], [ 16.900682, 52.34958 ], [ 16.900682, 52.349583 ], [ 16.90068, 52.349586 ], [ 16.899573, 52.350685 ], [ 16.899572, 52.350686 ], [ 16.899573, 52.350687 ], [ 16.900574, 52.351824 ], [ 16.900576, 52.351827 ], [ 16.900576, 52.35183 ], [ 16.900574, 52.351833 ], [ 16.899466, 52.352932 ], [ 16.899466, 52.352933 ], [ 16.899466, 52.352933 ], [ 16.900468, 52.35407 ], [ 16.900469, 52.354073 ], [ 16.900469, 52.354077 ], [ 16.900467, 52.354079 ], [ 16.899364, 52.355175 ], [ 16.89936, 52.355177 ], [ 16.899356, 52.355179 ], [ 16.899351, 52.355179 ], [ 16.897249, 52.355142 ], [ 16.897244, 52.355141 ], [ 16.89724, 52.35514 ], [ 16.897237, 52.355137 ], [ 16.896235, 52.354 ], [ 16.896235, 52.354 ], [ 16.896233, 52.354 ], [ 16.894117, 52.353962 ], [ 16.894116, 52.353962 ], [ 16.894116, 52.353963 ], [ 16.893008, 52.355062 ], [ 16.893005, 52.355064 ], [ 16.893, 52.355066 ], [ 16.892995, 52.355066 ], [ 16.890893, 52.355029 ], [ 16.890888, 52.355028 ], [ 16.890884, 52.355026 ], [ 16.890881, 52.355024 ], [ 16.88988, 52.353887 ], [ 16.889879, 52.353886 ], [ 16.889878, 52.353886 ], [ 16.887769, 52.353849 ], [ 16.887764, 52.353848 ], [ 16.88776, 52.353846 ], [ 16.887757, 52.353844 ], [ 16.886756, 52.352707 ], [ 16.886755, 52.352706 ], [ 16.886754, 52.352706 ], [ 16.884638, 52.352668 ], [ 16.884637, 52.352668 ], [ 16.884636, 52.352669 ], [ 16.883525, 52.353772 ], [ 16.883524, 52.353773 ], [ 16.883525, 52.353773 ], [ 16.884525, 52.35491 ], [ 16.884527, 52.354913 ], [ 16.884527, 52.354916 ], [ 16.884525, 52.354919 ], [ 16.883421, 52.356015 ], [ 16.883418, 52.356017 ], [ 16.883413, 52.356019 ], [ 16.883408, 52.356019 ], [ 16.881307, 52.355981 ], [ 16.881302, 52.355981 ], [ 16.881297, 52.355979 ], [ 16.881294, 52.355977 ], [ 16.880293, 52.35484 ], [ 16.880292, 52.354839 ], [ 16.880291, 52.354839 ], [ 16.878175, 52.354801 ], [ 16.878174, 52.354801 ], [ 16.878173, 52.354802 ], [ 16.877065, 52.355901 ], [ 16.877062, 52.355903 ], [ 16.877058, 52.355905 ], [ 16.877053, 52.355905 ], [ 16.874944, 52.355867 ], [ 16.874943, 52.355867 ], [ 16.874942, 52.355868 ], [ 16.873834, 52.356967 ], [ 16.87383, 52.356969 ], [ 16.873826, 52.356971 ], [ 16.873821, 52.356971 ], [ 16.871712, 52.356933 ], [ 16.871711, 52.356933 ], [ 16.87171, 52.356934 ], [ 16.870602, 52.358033 ], [ 16.870598, 52.358035 ], [ 16.870594, 52.358037 ], [ 16.870589, 52.358037 ], [ 16.868487, 52.358 ], [ 16.868482, 52.357999 ], [ 16.868478, 52.357997 ], [ 16.868475, 52.357995 ], [ 16.867474, 52.356858 ], [ 16.867473, 52.356857 ], [ 16.867472, 52.356857 ], [ 16.865363, 52.356819 ], [ 16.865359, 52.356818 ], [ 16.865354, 52.356816 ], [ 16.865351, 52.356814 ], [ 16.864354, 52.355681 ], [ 16.864352, 52.355678 ], [ 16.864352, 52.355675 ], [ 16.864354, 52.355672 ], [ 16.865463, 52.354573 ], [ 16.865463, 52.354572 ], [ 16.865463, 52.354571 ], [ 16.864459, 52.35343 ], [ 16.864458, 52.35343 ], [ 16.864457, 52.353429 ], [ 16.862348, 52.353391 ], [ 16.862343, 52.353391 ], [ 16.862339, 52.353389 ], [ 16.862336, 52.353387 ], [ 16.861336, 52.352249 ], [ 16.861335, 52.352249 ], [ 16.861334, 52.352249 ], [ 16.859225, 52.35221 ], [ 16.85922, 52.35221 ], [ 16.859216, 52.352208 ], [ 16.859213, 52.352206 ], [ 16.858216, 52.351072 ], [ 16.858214, 52.351069 ], [ 16.858214, 52.351066 ], [ 16.858216, 52.351063 ], [ 16.859325, 52.349964 ], [ 16.859325, 52.349963 ], [ 16.859325, 52.349963 ], [ 16.858321, 52.348822 ], [ 16.85832, 52.348821 ], [ 16.858319, 52.348821 ], [ 16.856211, 52.348783 ], [ 16.856206, 52.348782 ], [ 16.856201, 52.34878 ], [ 16.856198, 52.348778 ], [ 16.855198, 52.347641 ], [ 16.855197, 52.34764 ], [ 16.855196, 52.34764 ], [ 16.853088, 52.347602 ], [ 16.853083, 52.347601 ], [ 16.853079, 52.347599 ], [ 16.853075, 52.347597 ], [ 16.852075, 52.34646 ], [ 16.852075, 52.346459 ], [ 16.852074, 52.346459 ], [ 16.849958, 52.34642 ], [ 16.849957, 52.34642 ], [ 16.849956, 52.346421 ], [ 16.848848, 52.34752 ], [ 16.848844, 52.347522 ], [ 16.84884, 52.347524 ], [ 16.848835, 52.347524 ], [ 16.846734, 52.347486 ], [ 16.846729, 52.347485 ], [ 16.846724, 52.347484 ], [ 16.846721, 52.347481 ], [ 16.845725, 52.346348 ], [ 16.845723, 52.346345 ], [ 16.845723, 52.346342 ], [ 16.845725, 52.346339 ], [ 16.846834, 52.34524 ], [ 16.846834, 52.345239 ], [ 16.846834, 52.345238 ], [ 16.845831, 52.344097 ], [ 16.84583, 52.344097 ], [ 16.845829, 52.344096 ], [ 16.843721, 52.344058 ], [ 16.843716, 52.344057 ], [ 16.843711, 52.344056 ], [ 16.843708, 52.344053 ], [ 16.842708, 52.342916 ], [ 16.842708, 52.342915 ], [ 16.842707, 52.342915 ], [ 16.840591, 52.342876 ], [ 16.84059, 52.342876 ], [ 16.840589, 52.342877 ], [ 16.839481, 52.343976 ], [ 16.839477, 52.343978 ], [ 16.839473, 52.34398 ], [ 16.839468, 52.34398 ], [ 16.83736, 52.343942 ], [ 16.837359, 52.343942 ], [ 16.837358, 52.343942 ], [ 16.836245, 52.345045 ], [ 16.836245, 52.345046 ], [ 16.836245, 52.345046 ], [ 16.837245, 52.346184 ], [ 16.837246, 52.346187 ], [ 16.837246, 52.34619 ], [ 16.837244, 52.346193 ], [ 16.836139, 52.347288 ], [ 16.836136, 52.34729 ], [ 16.836131, 52.347292 ], [ 16.836126, 52.347292 ], [ 16.834018, 52.347253 ], [ 16.834017, 52.347254 ], [ 16.834016, 52.347254 ], [ 16.832903, 52.348357 ], [ 16.832903, 52.348357 ], [ 16.832903, 52.348358 ], [ 16.833903, 52.349495 ], [ 16.833905, 52.349498 ], [ 16.833904, 52.349502 ], [ 16.833902, 52.349504 ], [ 16.832797, 52.3506 ], [ 16.832794, 52.350602 ], [ 16.832789, 52.350603 ], [ 16.832784, 52.350604 ], [ 16.830676, 52.350565 ], [ 16.830675, 52.350565 ], [ 16.830674, 52.350566 ], [ 16.829565, 52.351665 ], [ 16.829562, 52.351667 ], [ 16.829557, 52.351668 ], [ 16.829552, 52.351669 ], [ 16.827444, 52.35163 ], [ 16.827442, 52.35163 ], [ 16.827442, 52.351631 ], [ 16.826329, 52.352733 ], [ 16.826328, 52.352734 ], [ 16.826329, 52.352735 ], [ 16.827328, 52.353872 ], [ 16.82733, 52.353875 ], [ 16.82733, 52.353878 ], [ 16.827328, 52.353881 ], [ 16.826222, 52.354976 ], [ 16.826219, 52.354978 ], [ 16.826214, 52.35498 ], [ 16.826209, 52.35498 ], [ 16.824101, 52.354942 ], [ 16.824099, 52.354942 ], [ 16.824099, 52.354942 ], [ 16.822986, 52.356045 ], [ 16.822985, 52.356045 ], [ 16.822986, 52.356046 ], [ 16.823988, 52.357187 ], [ 16.823989, 52.357188 ], [ 16.82399, 52.357188 ], [ 16.826099, 52.357227 ], [ 16.826104, 52.357228 ], [ 16.826108, 52.357229 ], [ 16.826111, 52.357232 ], [ 16.827108, 52.358365 ], [ 16.827109, 52.358368 ], [ 16.827109, 52.358372 ], [ 16.827107, 52.358374 ], [ 16.825998, 52.359473 ], [ 16.825997, 52.359474 ], [ 16.825998, 52.359475 ], [ 16.827001, 52.360616 ], [ 16.827001, 52.360617 ], [ 16.827003, 52.360617 ], [ 16.829112, 52.360655 ], [ 16.829117, 52.360656 ], [ 16.829121, 52.360658 ], [ 16.829124, 52.36066 ], [ 16.83012, 52.361794 ], [ 16.830122, 52.361797 ], [ 16.830122, 52.3618 ], [ 16.83012, 52.361803 ], [ 16.829011, 52.362902 ], [ 16.82901, 52.362902 ], [ 16.82901, 52.362903 ], [ 16.83001, 52.36404 ], [ 16.830012, 52.364043 ], [ 16.830012, 52.364047 ], [ 16.83001, 52.364049 ], [ 16.8289, 52.365148 ], [ 16.8289, 52.365149 ], [ 16.8289, 52.36515 ], [ 16.8299, 52.366287 ], [ 16.829902, 52.36629 ], [ 16.829902, 52.366293 ], [ 16.8299, 52.366296 ], [ 16.82879, 52.367395 ], [ 16.82879, 52.367396 ], [ 16.82879, 52.367396 ], [ 16.829793, 52.368538 ], [ 16.829794, 52.368538 ], [ 16.829795, 52.368538 ], [ 16.831905, 52.368577 ], [ 16.83191, 52.368578 ], [ 16.831914, 52.368579 ], [ 16.831917, 52.368582 ], [ 16.832914, 52.369715 ], [ 16.832915, 52.369718 ], [ 16.832915, 52.369722 ], [ 16.832913, 52.369724 ], [ 16.831807, 52.37082 ], [ 16.831804, 52.370822 ], [ 16.8318, 52.370823 ], [ 16.831794, 52.370824 ], [ 16.829685, 52.370785 ], [ 16.829684, 52.370785 ], [ 16.829683, 52.370786 ], [ 16.82857, 52.371888 ], [ 16.828569, 52.371889 ], [ 16.82857, 52.37189 ], [ 16.82957, 52.373027 ], [ 16.829571, 52.37303 ], [ 16.829571, 52.373033 ], [ 16.829569, 52.373036 ], [ 16.828463, 52.374131 ], [ 16.82846, 52.374133 ], [ 16.828455, 52.374135 ], [ 16.82845, 52.374135 ], [ 16.826341, 52.374097 ], [ 16.82634, 52.374097 ], [ 16.826339, 52.374097 ], [ 16.825225, 52.3752 ], [ 16.825225, 52.3752 ], [ 16.825225, 52.375201 ], [ 16.826225, 52.376339 ], [ 16.826227, 52.376342 ], [ 16.826227, 52.376345 ], [ 16.826225, 52.376348 ], [ 16.825119, 52.377443 ], [ 16.825115, 52.377445 ], [ 16.825111, 52.377446 ], [ 16.825106, 52.377447 ], [ 16.823003, 52.377408 ], [ 16.822998, 52.377408 ], [ 16.822994, 52.377406 ], [ 16.822991, 52.377403 ], [ 16.821991, 52.376266 ], [ 16.82199, 52.376265 ], [ 16.821989, 52.376265 ], [ 16.819872, 52.376226 ], [ 16.819871, 52.376226 ], [ 16.81987, 52.376227 ], [ 16.81876, 52.377325 ], [ 16.818757, 52.377328 ], [ 16.818752, 52.377329 ], [ 16.818747, 52.37733 ], [ 16.816645, 52.377291 ], [ 16.81664, 52.37729 ], [ 16.816635, 52.377289 ], [ 16.816632, 52.377286 ], [ 16.815633, 52.376148 ], [ 16.815632, 52.376148 ], [ 16.815631, 52.376148 ], [ 16.813514, 52.376109 ], [ 16.813513, 52.376109 ], [ 16.813512, 52.376109 ], [ 16.812402, 52.377208 ], [ 16.812398, 52.37721 ], [ 16.812394, 52.377212 ], [ 16.812389, 52.377212 ], [ 16.810286, 52.377173 ], [ 16.810281, 52.377173 ], [ 16.810277, 52.377171 ], [ 16.810274, 52.377168 ], [ 16.809274, 52.376031 ], [ 16.809274, 52.37603 ], [ 16.809273, 52.37603 ], [ 16.807156, 52.375991 ], [ 16.807155, 52.375991 ], [ 16.807154, 52.375991 ], [ 16.806044, 52.37709 ], [ 16.80604, 52.377092 ], [ 16.806036, 52.377094 ], [ 16.806031, 52.377094 ], [ 16.803928, 52.377055 ], [ 16.803923, 52.377055 ], [ 16.803919, 52.377053 ], [ 16.803916, 52.37705 ], [ 16.802916, 52.375913 ], [ 16.802916, 52.375912 ], [ 16.802914, 52.375912 ], [ 16.800805, 52.375873 ], [ 16.8008, 52.375872 ], [ 16.800795, 52.37587 ], [ 16.800792, 52.375868 ], [ 16.799793, 52.37473 ], [ 16.799792, 52.37473 ], [ 16.799791, 52.374729 ], [ 16.797674, 52.37469 ], [ 16.797673, 52.37469 ], [ 16.797672, 52.374691 ], [ 16.796562, 52.375789 ], [ 16.796559, 52.375791 ], [ 16.796554, 52.375793 ], [ 16.796549, 52.375793 ], [ 16.794447, 52.375754 ], [ 16.794442, 52.375754 ], [ 16.794437, 52.375752 ], [ 16.794434, 52.375749 ], [ 16.793435, 52.374612 ], [ 16.793434, 52.374611 ], [ 16.793433, 52.374611 ], [ 16.791317, 52.374571 ], [ 16.791315, 52.374571 ], [ 16.791315, 52.374572 ], [ 16.790204, 52.37567 ], [ 16.790201, 52.375673 ], [ 16.790196, 52.375674 ], [ 16.790191, 52.375675 ], [ 16.788081, 52.375635 ], [ 16.78808, 52.375635 ], [ 16.788079, 52.375636 ], [ 16.786965, 52.376738 ], [ 16.786965, 52.376739 ], [ 16.786965, 52.376739 ], [ 16.787967, 52.377881 ], [ 16.787968, 52.377882 ], [ 16.787969, 52.377882 ], [ 16.790079, 52.377921 ], [ 16.790084, 52.377922 ], [ 16.790088, 52.377924 ], [ 16.790091, 52.377926 ], [ 16.79109, 52.379064 ], [ 16.791091, 52.379064 ], [ 16.791092, 52.379065 ], [ 16.793202, 52.379104 ], [ 16.793207, 52.379105 ], [ 16.793211, 52.379106 ], [ 16.793214, 52.379109 ], [ 16.794214, 52.380247 ], [ 16.794214, 52.380247 ], [ 16.794216, 52.380247 ], [ 16.796325, 52.380287 ], [ 16.79633, 52.380287 ], [ 16.796335, 52.380289 ], [ 16.796338, 52.380291 ], [ 16.797337, 52.381429 ], [ 16.797338, 52.38143 ], [ 16.797339, 52.38143 ], [ 16.799449, 52.381469 ], [ 16.799454, 52.38147 ], [ 16.799458, 52.381471 ], [ 16.799461, 52.381474 ], [ 16.800457, 52.382608 ], [ 16.800459, 52.382611 ], [ 16.800459, 52.382614 ], [ 16.800457, 52.382617 ], [ 16.799346, 52.383715 ], [ 16.799346, 52.383716 ], [ 16.799346, 52.383717 ], [ 16.800349, 52.384858 ], [ 16.80035, 52.384859 ], [ 16.800351, 52.384859 ], [ 16.802461, 52.384898 ], [ 16.802466, 52.384899 ], [ 16.80247, 52.384901 ], [ 16.802473, 52.384903 ], [ 16.80347, 52.386037 ], [ 16.803471, 52.38604 ], [ 16.803471, 52.386043 ], [ 16.803469, 52.386046 ], [ 16.802358, 52.387144 ], [ 16.802358, 52.387145 ], [ 16.802358, 52.387146 ], [ 16.803361, 52.388287 ], [ 16.803362, 52.388288 ], [ 16.803363, 52.388288 ], [ 16.805473, 52.388327 ], [ 16.805478, 52.388328 ], [ 16.805483, 52.38833 ], [ 16.805486, 52.388332 ], [ 16.806482, 52.389466 ], [ 16.806484, 52.389469 ], [ 16.806484, 52.389472 ], [ 16.806482, 52.389475 ], [ 16.805371, 52.390573 ], [ 16.805371, 52.390574 ], [ 16.805371, 52.390575 ], [ 16.806371, 52.391712 ], [ 16.806372, 52.391715 ], [ 16.806372, 52.391719 ], [ 16.80637, 52.391721 ], [ 16.80526, 52.39282 ], [ 16.805259, 52.392821 ], [ 16.80526, 52.392821 ], [ 16.806259, 52.393959 ], [ 16.806261, 52.393962 ], [ 16.806261, 52.393965 ], [ 16.806259, 52.393968 ], [ 16.805152, 52.395063 ], [ 16.805149, 52.395065 ], [ 16.805144, 52.395067 ], [ 16.805139, 52.395067 ], [ 16.803028, 52.395028 ], [ 16.803027, 52.395028 ], [ 16.803027, 52.395029 ], [ 16.801916, 52.396127 ], [ 16.801912, 52.396129 ], [ 16.801908, 52.396131 ], [ 16.801903, 52.396131 ], [ 16.799792, 52.396092 ], [ 16.799791, 52.396092 ], [ 16.79979, 52.396093 ], [ 16.798675, 52.397195 ], [ 16.798675, 52.397196 ], [ 16.798675, 52.397196 ], [ 16.799675, 52.398334 ], [ 16.799677, 52.398337 ], [ 16.799676, 52.39834 ], [ 16.799675, 52.398343 ], [ 16.798567, 52.399438 ], [ 16.798564, 52.39944 ], [ 16.798559, 52.399442 ], [ 16.798554, 52.399442 ], [ 16.796444, 52.399403 ], [ 16.796443, 52.399403 ], [ 16.796442, 52.399403 ], [ 16.795327, 52.400506 ], [ 16.795326, 52.400506 ], [ 16.795327, 52.400507 ], [ 16.796326, 52.401645 ], [ 16.796328, 52.401648 ], [ 16.796328, 52.401651 ], [ 16.796326, 52.401654 ], [ 16.795215, 52.402752 ], [ 16.795214, 52.402753 ], [ 16.795215, 52.402753 ], [ 16.796214, 52.403891 ], [ 16.796216, 52.403894 ], [ 16.796216, 52.403897 ], [ 16.796214, 52.4039 ], [ 16.795103, 52.404999 ], [ 16.795102, 52.404999 ], [ 16.795103, 52.405 ], [ 16.796102, 52.406138 ], [ 16.796104, 52.406141 ], [ 16.796104, 52.406144 ], [ 16.796102, 52.406147 ], [ 16.794991, 52.407245 ], [ 16.79499, 52.407246 ], [ 16.794991, 52.407247 ], [ 16.79599, 52.408384 ], [ 16.795992, 52.408387 ], [ 16.795992, 52.408391 ], [ 16.79599, 52.408393 ], [ 16.794882, 52.409488 ], [ 16.794879, 52.40949 ], [ 16.794874, 52.409492 ], [ 16.794869, 52.409492 ], [ 16.792758, 52.409453 ], [ 16.792757, 52.409453 ], [ 16.792756, 52.409454 ], [ 16.791641, 52.410556 ], [ 16.791641, 52.410556 ], [ 16.791641, 52.410557 ], [ 16.792644, 52.411699 ], [ 16.792645, 52.411699 ], [ 16.792646, 52.4117 ], [ 16.794757, 52.411739 ], [ 16.794762, 52.41174 ], [ 16.794767, 52.411741 ], [ 16.79477, 52.411744 ], [ 16.795766, 52.412878 ], [ 16.795768, 52.412881 ], [ 16.795768, 52.412884 ], [ 16.795766, 52.412887 ], [ 16.794654, 52.413985 ], [ 16.794654, 52.413986 ], [ 16.794654, 52.413986 ], [ 16.795658, 52.415128 ], [ 16.795658, 52.415129 ], [ 16.79566, 52.415129 ], [ 16.797771, 52.415168 ], [ 16.797776, 52.415169 ], [ 16.79778, 52.41517 ], [ 16.797784, 52.415173 ], [ 16.79878, 52.416307 ], [ 16.798782, 52.41631 ], [ 16.798782, 52.416313 ], [ 16.79878, 52.416316 ], [ 16.797668, 52.417414 ], [ 16.797668, 52.417415 ], [ 16.797668, 52.417416 ], [ 16.798668, 52.418553 ], [ 16.79867, 52.418556 ], [ 16.79867, 52.41856 ], [ 16.798668, 52.418562 ], [ 16.797556, 52.419661 ], [ 16.797556, 52.419662 ], [ 16.797556, 52.419662 ], [ 16.798556, 52.4208 ], [ 16.798558, 52.420803 ], [ 16.798558, 52.420806 ], [ 16.798556, 52.420809 ], [ 16.797444, 52.421907 ], [ 16.797444, 52.421908 ], [ 16.797444, 52.421909 ], [ 16.798444, 52.423047 ], [ 16.798446, 52.42305 ], [ 16.798446, 52.423053 ], [ 16.798444, 52.423056 ], [ 16.797336, 52.42415 ], [ 16.797333, 52.424153 ], [ 16.797328, 52.424154 ], [ 16.797323, 52.424155 ], [ 16.795211, 52.424115 ], [ 16.79521, 52.424115 ], [ 16.795209, 52.424116 ], [ 16.794094, 52.425218 ], [ 16.794093, 52.425219 ], [ 16.794094, 52.425219 ], [ 16.795097, 52.426361 ], [ 16.795098, 52.426362 ], [ 16.795099, 52.426362 ], [ 16.797218, 52.426401 ], [ 16.797219, 52.426401 ], [ 16.79722, 52.426401 ], [ 16.798332, 52.425302 ], [ 16.798335, 52.4253 ], [ 16.79834, 52.425298 ], [ 16.798345, 52.425298 ], [ 16.80045, 52.425337 ], [ 16.800455, 52.425338 ], [ 16.800459, 52.425339 ], [ 16.800462, 52.425342 ], [ 16.801459, 52.426476 ], [ 16.801461, 52.426479 ], [ 16.801461, 52.426482 ], [ 16.801459, 52.426485 ], [ 16.800347, 52.427583 ], [ 16.800347, 52.427584 ], [ 16.800347, 52.427585 ], [ 16.801347, 52.428722 ], [ 16.801349, 52.428725 ], [ 16.801349, 52.428728 ], [ 16.801347, 52.428731 ], [ 16.800239, 52.429826 ], [ 16.800235, 52.429828 ], [ 16.800231, 52.42983 ], [ 16.800226, 52.42983 ], [ 16.798114, 52.429791 ], [ 16.798113, 52.429791 ], [ 16.798112, 52.429792 ], [ 16.796996, 52.430894 ], [ 16.796996, 52.430894 ], [ 16.796996, 52.430895 ], [ 16.797996, 52.432033 ], [ 16.797998, 52.432036 ], [ 16.797998, 52.432039 ], [ 16.797996, 52.432042 ], [ 16.796884, 52.43314 ], [ 16.796884, 52.433141 ], [ 16.796884, 52.433142 ], [ 16.797884, 52.43428 ], [ 16.797886, 52.434283 ], [ 16.797886, 52.434286 ], [ 16.797884, 52.434289 ], [ 16.796772, 52.435387 ], [ 16.796771, 52.435388 ], [ 16.796772, 52.435388 ], [ 16.797772, 52.436526 ], [ 16.797774, 52.436529 ], [ 16.797774, 52.436532 ], [ 16.797772, 52.436535 ], [ 16.79666, 52.437634 ], [ 16.796659, 52.437634 ], [ 16.79666, 52.437635 ], [ 16.79766, 52.438773 ], [ 16.797662, 52.438776 ], [ 16.797662, 52.438779 ], [ 16.79766, 52.438782 ], [ 16.796551, 52.439876 ], [ 16.796548, 52.439879 ], [ 16.796544, 52.43988 ], [ 16.796539, 52.439881 ], [ 16.794426, 52.439841 ], [ 16.794425, 52.439841 ], [ 16.794424, 52.439842 ], [ 16.793312, 52.44094 ], [ 16.793308, 52.440943 ], [ 16.793304, 52.440944 ], [ 16.793299, 52.440945 ], [ 16.791186, 52.440905 ], [ 16.791185, 52.440905 ], [ 16.791184, 52.440906 ], [ 16.790068, 52.442008 ], [ 16.790068, 52.442009 ], [ 16.790068, 52.442009 ], [ 16.791068, 52.443147 ], [ 16.79107, 52.44315 ], [ 16.79107, 52.443153 ], [ 16.791068, 52.443156 ], [ 16.789959, 52.444251 ], [ 16.789956, 52.444253 ], [ 16.789951, 52.444255 ], [ 16.789946, 52.444255 ], [ 16.787833, 52.444215 ], [ 16.787832, 52.444216 ], [ 16.787831, 52.444216 ], [ 16.786719, 52.445314 ], [ 16.786716, 52.445317 ], [ 16.786711, 52.445318 ], [ 16.786706, 52.445319 ], [ 16.784593, 52.445279 ], [ 16.784592, 52.445279 ], [ 16.784591, 52.44528 ], [ 16.783475, 52.446382 ], [ 16.783474, 52.446382 ], [ 16.783475, 52.446383 ], [ 16.784478, 52.447525 ], [ 16.784479, 52.447526 ], [ 16.78448, 52.447526 ], [ 16.786593, 52.447565 ], [ 16.786598, 52.447566 ], [ 16.786603, 52.447568 ], [ 16.786606, 52.44757 ], [ 16.787603, 52.448704 ], [ 16.787605, 52.448707 ], [ 16.787604, 52.44871 ], [ 16.787602, 52.448713 ], [ 16.78649, 52.449811 ], [ 16.786489, 52.449812 ], [ 16.78649, 52.449813 ], [ 16.78749, 52.450951 ], [ 16.787492, 52.450953 ], [ 16.787492, 52.450957 ], [ 16.78749, 52.45096 ], [ 16.786381, 52.452054 ], [ 16.786378, 52.452056 ], [ 16.786373, 52.452058 ], [ 16.786368, 52.452058 ], [ 16.784255, 52.452019 ], [ 16.784254, 52.452019 ], [ 16.784253, 52.452019 ], [ 16.783136, 52.453121 ], [ 16.783136, 52.453122 ], [ 16.783136, 52.453123 ], [ 16.784137, 52.454261 ], [ 16.784138, 52.454264 ], [ 16.784138, 52.454267 ], [ 16.784136, 52.45427 ], [ 16.783027, 52.455364 ], [ 16.783024, 52.455367 ], [ 16.783019, 52.455368 ], [ 16.783014, 52.455369 ], [ 16.780901, 52.455329 ], [ 16.7809, 52.455329 ], [ 16.780899, 52.45533 ], [ 16.779786, 52.456428 ], [ 16.779783, 52.45643 ], [ 16.779778, 52.456432 ], [ 16.779773, 52.456432 ], [ 16.77766, 52.456392 ], [ 16.777658, 52.456392 ], [ 16.777658, 52.456393 ], [ 16.776541, 52.457495 ], [ 16.77654, 52.457496 ], [ 16.776541, 52.457496 ], [ 16.777541, 52.458634 ], [ 16.777543, 52.458637 ], [ 16.777543, 52.45864 ], [ 16.777541, 52.458643 ], [ 16.776427, 52.459741 ], [ 16.776427, 52.459742 ], [ 16.776427, 52.459743 ], [ 16.777428, 52.460881 ], [ 16.777429, 52.460884 ], [ 16.777429, 52.460887 ], [ 16.777427, 52.46089 ], [ 16.776314, 52.461988 ], [ 16.776314, 52.461989 ], [ 16.776314, 52.461989 ], [ 16.777318, 52.463131 ], [ 16.777319, 52.463132 ], [ 16.77732, 52.463132 ], [ 16.779434, 52.463172 ], [ 16.779439, 52.463172 ], [ 16.779443, 52.463174 ], [ 16.779446, 52.463176 ], [ 16.780443, 52.46431 ], [ 16.780445, 52.464313 ], [ 16.780445, 52.464317 ], [ 16.780443, 52.464319 ], [ 16.779334, 52.465414 ], [ 16.77933, 52.465416 ], [ 16.779326, 52.465418 ], [ 16.779321, 52.465418 ], [ 16.777214, 52.465379 ], [ 16.777209, 52.465378 ], [ 16.777205, 52.465376 ], [ 16.777201, 52.465374 ], [ 16.776201, 52.464236 ], [ 16.7762, 52.464235 ], [ 16.776199, 52.464235 ], [ 16.774085, 52.464195 ], [ 16.77408, 52.464195 ], [ 16.774076, 52.464193 ], [ 16.774073, 52.464191 ], [ 16.773072, 52.463053 ], [ 16.773072, 52.463052 ], [ 16.77307, 52.463052 ], [ 16.770949, 52.463012 ], [ 16.770948, 52.463012 ], [ 16.770947, 52.463013 ], [ 16.769834, 52.464111 ], [ 16.769831, 52.464113 ], [ 16.769826, 52.464115 ], [ 16.769821, 52.464115 ], [ 16.767715, 52.464075 ], [ 16.76771, 52.464075 ], [ 16.767705, 52.464073 ], [ 16.767702, 52.464071 ], [ 16.766705, 52.462936 ], [ 16.766704, 52.462933 ], [ 16.766704, 52.46293 ], [ 16.766706, 52.462927 ], [ 16.767819, 52.461829 ], [ 16.767819, 52.461829 ], [ 16.767819, 52.461828 ], [ 16.766815, 52.460686 ], [ 16.766815, 52.460685 ], [ 16.766814, 52.460685 ], [ 16.7647, 52.460645 ], [ 16.764695, 52.460645 ], [ 16.764691, 52.460643 ], [ 16.764687, 52.460641 ], [ 16.763687, 52.459503 ], [ 16.763687, 52.459502 ], [ 16.763685, 52.459502 ], [ 16.761572, 52.459462 ], [ 16.761567, 52.459461 ], [ 16.761563, 52.45946 ], [ 16.761559, 52.459457 ], [ 16.760559, 52.458319 ], [ 16.760559, 52.458318 ], [ 16.760557, 52.458318 ], [ 16.758444, 52.458278 ], [ 16.758439, 52.458278 ], [ 16.758435, 52.458276 ], [ 16.758431, 52.458274 ], [ 16.757432, 52.457135 ], [ 16.757431, 52.457135 ], [ 16.75743, 52.457135 ], [ 16.755316, 52.457095 ], [ 16.755311, 52.457094 ], [ 16.755307, 52.457092 ], [ 16.755304, 52.45709 ], [ 16.754307, 52.455956 ], [ 16.754306, 52.455953 ], [ 16.754306, 52.455949 ], [ 16.754308, 52.455947 ], [ 16.755421, 52.454849 ], [ 16.755422, 52.454848 ], [ 16.755421, 52.454847 ], [ 16.754418, 52.453705 ], [ 16.754418, 52.453705 ], [ 16.754416, 52.453704 ], [ 16.752296, 52.453664 ], [ 16.752295, 52.453664 ], [ 16.752294, 52.453665 ], [ 16.75118, 52.454763 ], [ 16.751177, 52.454765 ], [ 16.751172, 52.454767 ], [ 16.751167, 52.454767 ], [ 16.749054, 52.454727 ], [ 16.749053, 52.454727 ], [ 16.749052, 52.454727 ], [ 16.747938, 52.455825 ], [ 16.747935, 52.455828 ], [ 16.74793, 52.455829 ], [ 16.747925, 52.45583 ], [ 16.745812, 52.455789 ], [ 16.745811, 52.45579 ], [ 16.74581, 52.45579 ], [ 16.744696, 52.456888 ], [ 16.744693, 52.45689 ], [ 16.744688, 52.456892 ], [ 16.744683, 52.456892 ], [ 16.74257, 52.456852 ], [ 16.742569, 52.456852 ], [ 16.742568, 52.456853 ], [ 16.741454, 52.45795 ], [ 16.741451, 52.457953 ], [ 16.741446, 52.457954 ], [ 16.741441, 52.457955 ], [ 16.739335, 52.457914 ], [ 16.73933, 52.457914 ], [ 16.739325, 52.457912 ], [ 16.739322, 52.45791 ], [ 16.738323, 52.456771 ], [ 16.738322, 52.456771 ], [ 16.738321, 52.456771 ], [ 16.7362, 52.45673 ], [ 16.736199, 52.45673 ], [ 16.736198, 52.456731 ], [ 16.735084, 52.457829 ], [ 16.735081, 52.457831 ], [ 16.735076, 52.457832 ], [ 16.735071, 52.457833 ], [ 16.732958, 52.457792 ], [ 16.732957, 52.457792 ], [ 16.732956, 52.457793 ], [ 16.731838, 52.458894 ], [ 16.731838, 52.458895 ] ] ] } }
]
}
