{
"type": "FeatureCollection",
"name": "boundary_krakow_500",
"crs": { "type": "name", "properties": { "name": "urn:ogc:def:crs:OGC:1.3:CRS84" } },
"xy_coordinate_resolution": 1e-06,
"features": [
{ "type": "Feature", "properties": { "fid": 1, "name": "Kraków" }, "geometry": { "type": "Polygon", "coordinates": [ [ [ 19.791949, 49.994203 ], [ 19.791949, 49.994204 ], [ 19.793996, 49.996434 ], [ 19.793998, 49.996437 ], [ 19.793998, 49.99644 ], [ 19.793996, 49.996443 ], [ 19.792023, 49.9987 ], [ 19.792023, 49.998701 ], [ 19.792023, 49.998702 ], [ 19.79407, 50.000932 ], [ 19.794072, 50.000935 ], [ 19.794072, 50.000938 ], [ 19.79407, 50.000941 ], [ 19.792097, 50.003198 ], [ 19.792097, 50.003199 ], [ 19.792097, 50.0032 ], [ 19.794144, 50.00543 ], [ 19.794146, 50.005433 ], [ 19.794146, 50.005436 ], [ 19.794144, 50.005439 ], [ 19.792171, 50.007696 ], [ 19.792171, 50.007697 ], [ 19.792171, 50.007698 ], [ 19.794218, 50.009928 ], [ 19.79422, 50.009931 ], [ 19.79422, 50.009934 ], [ 19.794218, 50.009937 ], [ 19.792245, 50.012194 ], [ 19.792245, 50.012195 ], [ 19.792245, 50.012196 ], [ 19.794292, 50.014426 ], [ 19.794294, 50.014428 ], [ 19.794294, 50.014432 ], [ 19.794293, 50.014435 ], [ 19.792319, 50.016692 ], [ 19.792319, 50.016693 ], [ 19.792319, 50.016693 ], [ 19.79437, 50.018927 ], [ 19.794371, 50.018928 ], [ 19.794372, 50.018928 ], [ 19.798393, 50.0189 ], [ 19.798398, 50.018901 ], [ 19.798402, 50.018902 ], [ 19.798405, 50.018905 ], [ 19.80045, 50.021131 ], [ 19.800451, 50.021134 ], [ 19.800451, 50.021137 ], [ 19.80045, 50.02114 ], [ 19.798476, 50.023398 ], [ 19.798476, 50.023398 ], [ 19.798476, 50.023399 ], [ 19.800528, 50.025633 ], [ 19.800529, 50.025633 ], [ 19.80053, 50.025633 ], [ 19.804551, 50.025605 ], [ 19.804556, 50.025606 ], [ 19.80456, 50.025608 ], [ 19.804563, 50.02561 ], [ 19.806612, 50.02784 ], [ 19.806613, 50.02784 ], [ 19.806614, 50.02784 ], [ 19.810642, 50.027812 ], [ 19.810644, 50.027812 ], [ 19.810644, 50.027812 ], [ 19.812617, 50.025554 ], [ 19.81262, 50.025551 ], [ 19.812625, 50.02555 ], [ 19.812629, 50.025549 ], [ 19.816651, 50.025521 ], [ 19.816652, 50.025521 ], [ 19.816653, 50.02552 ], [ 19.818625, 50.023262 ], [ 19.818629, 50.02326 ], [ 19.818633, 50.023258 ], [ 19.818637, 50.023258 ], [ 19.822652, 50.023229 ], [ 19.822657, 50.02323 ], [ 19.822661, 50.023231 ], [ 19.822664, 50.023234 ], [ 19.82471, 50.025459 ], [ 19.824712, 50.025462 ], [ 19.824712, 50.025466 ], [ 19.82471, 50.025468 ], [ 19.822741, 50.027723 ], [ 19.822738, 50.027725 ], [ 19.822734, 50.027727 ], [ 19.822729, 50.027727 ], [ 19.818707, 50.027756 ], [ 19.818706, 50.027756 ], [ 19.818705, 50.027756 ], [ 19.816732, 50.030014 ], [ 19.816729, 50.030017 ], [ 19.816725, 50.030018 ], [ 19.81672, 50.030019 ], [ 19.812698, 50.030047 ], [ 19.812697, 50.030047 ], [ 19.812697, 50.030048 ], [ 19.81072, 50.03231 ], [ 19.81072, 50.03231 ], [ 19.81072, 50.032311 ], [ 19.812769, 50.034541 ], [ 19.812771, 50.034543 ], [ 19.812771, 50.034547 ], [ 19.812769, 50.03455 ], [ 19.810799, 50.036804 ], [ 19.810796, 50.036806 ], [ 19.810792, 50.036808 ], [ 19.810787, 50.036808 ], [ 19.806764, 50.036836 ], [ 19.806763, 50.036836 ], [ 19.806763, 50.036837 ], [ 19.804785, 50.039098 ], [ 19.804785, 50.039099 ], [ 19.804785, 50.0391 ], [ 19.806834, 50.04133 ], [ 19.806836, 50.041333 ], [ 19.806836, 50.041336 ], [ 19.806835, 50.041339 ], [ 19.804861, 50.043596 ], [ 19.80486, 50.043597 ], [ 19.804861, 50.043598 ], [ 19.806913, 50.045831 ], [ 19.806914, 50.045832 ], [ 19.806915, 50.045832 ], [ 19.810939, 50.045804 ], [ 19.810943, 50.045804 ], [ 19.810948, 50.045806 ], [ 19.810951, 50.045808 ], [ 19.812997, 50.048034 ], [ 19.812999, 50.048037 ], [ 19.812999, 50.04804 ], [ 19.812997, 50.048043 ], [ 19.811023, 50.050301 ], [ 19.811023, 50.050302 ], [ 19.811023, 50.050302 ], [ 19.813076, 50.052536 ], [ 19.813077, 50.052536 ], [ 19.813078, 50.052537 ], [ 19.817102, 50.052508 ], [ 19.817107, 50.052509 ], [ 19.817111, 50.05251 ], [ 19.817114, 50.052513 ], [ 19.819161, 50.054739 ], [ 19.819163, 50.054741 ], [ 19.819163, 50.054745 ], [ 19.819161, 50.054748 ], [ 19.81719, 50.057002 ], [ 19.817187, 50.057004 ], [ 19.817183, 50.057006 ], [ 19.817178, 50.057006 ], [ 19.813161, 50.057034 ], [ 19.813156, 50.057034 ], [ 19.813152, 50.057032 ], [ 19.813149, 50.05703 ], [ 19.811099, 50.0548 ], [ 19.811098, 50.0548 ], [ 19.811097, 50.0548 ], [ 19.807066, 50.054828 ], [ 19.807065, 50.054828 ], [ 19.807064, 50.054828 ], [ 19.805086, 50.05709 ], [ 19.805086, 50.057091 ], [ 19.805086, 50.057091 ], [ 19.807136, 50.059321 ], [ 19.807138, 50.059324 ], [ 19.807138, 50.059327 ], [ 19.807136, 50.05933 ], [ 19.805165, 50.061584 ], [ 19.805162, 50.061586 ], [ 19.805158, 50.061588 ], [ 19.805153, 50.061589 ], [ 19.801128, 50.061617 ], [ 19.801127, 50.061617 ], [ 19.801126, 50.061617 ], [ 19.799148, 50.063879 ], [ 19.799148, 50.063879 ], [ 19.799148, 50.06388 ], [ 19.801198, 50.06611 ], [ 19.8012, 50.066113 ], [ 19.8012, 50.066116 ], [ 19.801198, 50.066119 ], [ 19.799223, 50.068377 ], [ 19.799222, 50.068377 ], [ 19.799223, 50.068378 ], [ 19.801273, 50.070608 ], [ 19.801275, 50.070611 ], [ 19.801275, 50.070614 ], [ 19.801273, 50.070617 ], [ 19.799298, 50.072874 ], [ 19.799297, 50.072875 ], [ 19.799298, 50.072876 ], [ 19.801351, 50.075109 ], [ 19.801352, 50.07511 ], [ 19.801353, 50.07511 ], [ 19.805379, 50.075082 ], [ 19.805384, 50.075083 ], [ 19.805388, 50.075084 ], [ 19.805391, 50.075087 ], [ 19.807438, 50.077313 ], [ 19.80744, 50.077316 ], [ 19.80744, 50.077319 ], [ 19.807438, 50.077322 ], [ 19.805463, 50.079579 ], [ 19.805463, 50.07958 ], [ 19.805463, 50.079581 ], [ 19.807517, 50.081814 ], [ 19.807518, 50.081815 ], [ 19.807519, 50.081815 ], [ 19.811545, 50.081787 ], [ 19.81155, 50.081787 ], [ 19.811554, 50.081789 ], [ 19.811558, 50.081791 ], [ 19.813609, 50.084021 ], [ 19.81361, 50.084022 ], [ 19.813611, 50.084022 ], [ 19.817637, 50.083993 ], [ 19.817642, 50.083994 ], [ 19.817646, 50.083995 ], [ 19.817649, 50.083998 ], [ 19.819701, 50.086227 ], [ 19.819702, 50.086228 ], [ 19.819703, 50.086228 ], [ 19.823729, 50.0862 ], [ 19.823734, 50.0862 ], [ 19.823739, 50.086202 ], [ 19.823742, 50.086204 ], [ 19.825794, 50.088433 ], [ 19.825794, 50.088434 ], [ 19.825795, 50.088434 ], [ 19.829822, 50.088405 ], [ 19.829827, 50.088406 ], [ 19.829831, 50.088407 ], [ 19.829835, 50.08841 ], [ 19.831887, 50.090639 ], [ 19.831888, 50.09064 ], [ 19.831889, 50.09064 ], [ 19.835916, 50.090611 ], [ 19.835921, 50.090611 ], [ 19.835925, 50.090613 ], [ 19.835928, 50.090615 ], [ 19.837981, 50.092844 ], [ 19.837981, 50.092845 ], [ 19.837982, 50.092845 ], [ 19.84201, 50.092816 ], [ 19.842014, 50.092816 ], [ 19.842019, 50.092818 ], [ 19.842022, 50.09282 ], [ 19.844075, 50.095049 ], [ 19.844076, 50.09505 ], [ 19.844077, 50.09505 ], [ 19.848104, 50.095021 ], [ 19.848109, 50.095021 ], [ 19.848113, 50.095023 ], [ 19.848116, 50.095025 ], [ 19.85017, 50.097254 ], [ 19.850171, 50.097255 ], [ 19.850172, 50.097255 ], [ 19.854206, 50.097225 ], [ 19.854207, 50.097225 ], [ 19.854208, 50.097225 ], [ 19.856182, 50.094966 ], [ 19.856185, 50.094964 ], [ 19.856189, 50.094962 ], [ 19.856194, 50.094961 ], [ 19.860214, 50.094932 ], [ 19.860219, 50.094932 ], [ 19.860223, 50.094934 ], [ 19.860227, 50.094936 ], [ 19.862277, 50.097161 ], [ 19.862279, 50.097164 ], [ 19.862279, 50.097167 ], [ 19.862277, 50.09717 ], [ 19.860304, 50.099429 ], [ 19.860303, 50.099429 ], [ 19.860304, 50.09943 ], [ 19.862358, 50.101659 ], [ 19.86236, 50.101662 ], [ 19.86236, 50.101665 ], [ 19.862358, 50.101668 ], [ 19.860388, 50.103923 ], [ 19.860384, 50.103925 ], [ 19.86038, 50.103927 ], [ 19.860375, 50.103927 ], [ 19.856347, 50.103957 ], [ 19.856346, 50.103957 ], [ 19.856345, 50.103958 ], [ 19.854368, 50.10622 ], [ 19.854368, 50.106221 ], [ 19.854368, 50.106222 ], [ 19.856426, 50.108454 ], [ 19.856426, 50.108455 ], [ 19.856428, 50.108455 ], [ 19.860456, 50.108425 ], [ 19.860461, 50.108426 ], [ 19.860465, 50.108427 ], [ 19.860468, 50.108429 ], [ 19.862523, 50.110658 ], [ 19.862524, 50.110659 ], [ 19.862525, 50.110659 ], [ 19.866553, 50.110629 ], [ 19.866558, 50.110629 ], [ 19.866562, 50.110631 ], [ 19.866566, 50.110633 ], [ 19.868621, 50.112862 ], [ 19.868621, 50.112863 ], [ 19.868622, 50.112863 ], [ 19.872651, 50.112832 ], [ 19.872656, 50.112833 ], [ 19.87266, 50.112834 ], [ 19.872664, 50.112837 ], [ 19.874715, 50.115062 ], [ 19.874717, 50.115065 ], [ 19.874717, 50.115068 ], [ 19.874715, 50.115071 ], [ 19.872742, 50.117329 ], [ 19.872741, 50.11733 ], [ 19.872742, 50.117331 ], [ 19.874801, 50.119563 ], [ 19.874802, 50.119564 ], [ 19.874803, 50.119564 ], [ 19.878832, 50.119533 ], [ 19.878837, 50.119534 ], [ 19.878841, 50.119535 ], [ 19.878844, 50.119538 ], [ 19.880897, 50.121762 ], [ 19.880898, 50.121765 ], [ 19.880898, 50.121768 ], [ 19.880897, 50.121771 ], [ 19.878923, 50.12403 ], [ 19.878923, 50.124031 ], [ 19.878923, 50.124032 ], [ 19.880983, 50.126264 ], [ 19.880983, 50.126265 ], [ 19.880985, 50.126265 ], [ 19.885021, 50.126234 ], [ 19.885023, 50.126234 ], [ 19.885023, 50.126233 ], [ 19.886997, 50.123974 ], [ 19.887, 50.123972 ], [ 19.887004, 50.12397 ], [ 19.887009, 50.12397 ], [ 19.891032, 50.123939 ], [ 19.891037, 50.123939 ], [ 19.891041, 50.123941 ], [ 19.891044, 50.123943 ], [ 19.893101, 50.126171 ], [ 19.893101, 50.126172 ], [ 19.893103, 50.126172 ], [ 19.897139, 50.126141 ], [ 19.897141, 50.126141 ], [ 19.897141, 50.12614 ], [ 19.899114, 50.123881 ], [ 19.899117, 50.123879 ], [ 19.899121, 50.123877 ], [ 19.899126, 50.123876 ], [ 19.903149, 50.123845 ], [ 19.903154, 50.123846 ], [ 19.903158, 50.123847 ], [ 19.903161, 50.12385 ], [ 19.905219, 50.126078 ], [ 19.905219, 50.126078 ], [ 19.90522, 50.126078 ], [ 19.909257, 50.126047 ], [ 19.909258, 50.126047 ], [ 19.909259, 50.126046 ], [ 19.911235, 50.123783 ], [ 19.911235, 50.123782 ], [ 19.911235, 50.123781 ], [ 19.909177, 50.121553 ], [ 19.909176, 50.121551 ], [ 19.909176, 50.121547 ], [ 19.909177, 50.121544 ], [ 19.911149, 50.119285 ], [ 19.91115, 50.119284 ], [ 19.911149, 50.119284 ], [ 19.909092, 50.117056 ], [ 19.90909, 50.117053 ], [ 19.90909, 50.11705 ], [ 19.909092, 50.117047 ], [ 19.911061, 50.114791 ], [ 19.911064, 50.114789 ], [ 19.911068, 50.114787 ], [ 19.911073, 50.114787 ], [ 19.915102, 50.114755 ], [ 19.915103, 50.114755 ], [ 19.915104, 50.114754 ], [ 19.917079, 50.112491 ], [ 19.917079, 50.11249 ], [ 19.917079, 50.112489 ], [ 19.915021, 50.110262 ], [ 19.91502, 50.110259 ], [ 19.91502, 50.110256 ], [ 19.915021, 50.110253 ], [ 19.916993, 50.107993 ], [ 19.916993, 50.107992 ], [ 19.916993, 50.107992 ], [ 19.914936, 50.105764 ], [ 19.914934, 50.105761 ], [ 19.914934, 50.105758 ], [ 19.914936, 50.105755 ], [ 19.916903, 50.103499 ], [ 19.916907, 50.103497 ], [ 19.916911, 50.103495 ], [ 19.916915, 50.103495 ], [ 19.920937, 50.103463 ], [ 19.920941, 50.103463 ], [ 19.920946, 50.103465 ], [ 19.920949, 50.103467 ], [ 19.923003, 50.105691 ], [ 19.923004, 50.105694 ], [ 19.923004, 50.105697 ], [ 19.923003, 50.1057 ], [ 19.921032, 50.10796 ], [ 19.921031, 50.10796 ], [ 19.921032, 50.107961 ], [ 19.923089, 50.110189 ], [ 19.923091, 50.110192 ], [ 19.923091, 50.110195 ], [ 19.923089, 50.110198 ], [ 19.921118, 50.112457 ], [ 19.921118, 50.112458 ], [ 19.921118, 50.112459 ], [ 19.923179, 50.11469 ], [ 19.92318, 50.114691 ], [ 19.923181, 50.114691 ], [ 19.92721, 50.114659 ], [ 19.927215, 50.114659 ], [ 19.927219, 50.114661 ], [ 19.927222, 50.114663 ], [ 19.92928, 50.116891 ], [ 19.929281, 50.116891 ], [ 19.929282, 50.116891 ], [ 19.933311, 50.116859 ], [ 19.933316, 50.11686 ], [ 19.93332, 50.116861 ], [ 19.933323, 50.116863 ], [ 19.935381, 50.119091 ], [ 19.935382, 50.119091 ], [ 19.935383, 50.119092 ], [ 19.939413, 50.119059 ], [ 19.939417, 50.11906 ], [ 19.939422, 50.119061 ], [ 19.939425, 50.119063 ], [ 19.941484, 50.121291 ], [ 19.941484, 50.121291 ], [ 19.941485, 50.121291 ], [ 19.945515, 50.121259 ], [ 19.94552, 50.121259 ], [ 19.945524, 50.121261 ], [ 19.945527, 50.121263 ], [ 19.947586, 50.12349 ], [ 19.947587, 50.123491 ], [ 19.947588, 50.123491 ], [ 19.951625, 50.123458 ], [ 19.951626, 50.123458 ], [ 19.951626, 50.123457 ], [ 19.9536, 50.121193 ], [ 19.9536, 50.121193 ], [ 19.9536, 50.121192 ], [ 19.951541, 50.118965 ], [ 19.951539, 50.118962 ], [ 19.951539, 50.118959 ], [ 19.951541, 50.118956 ], [ 19.953507, 50.116699 ], [ 19.95351, 50.116697 ], [ 19.953515, 50.116695 ], [ 19.953519, 50.116695 ], [ 19.957549, 50.116662 ], [ 19.95755, 50.116662 ], [ 19.95755, 50.116661 ], [ 19.95952, 50.114401 ], [ 19.959523, 50.114398 ], [ 19.959527, 50.114397 ], [ 19.959532, 50.114396 ], [ 19.963561, 50.114363 ], [ 19.963562, 50.114363 ], [ 19.963563, 50.114362 ], [ 19.965532, 50.112102 ], [ 19.965535, 50.112099 ], [ 19.965539, 50.112098 ], [ 19.965544, 50.112097 ], [ 19.969573, 50.112064 ], [ 19.969574, 50.112063 ], [ 19.969575, 50.112063 ], [ 19.971544, 50.109802 ], [ 19.971547, 50.1098 ], [ 19.971551, 50.109798 ], [ 19.971556, 50.109798 ], [ 19.975584, 50.109764 ], [ 19.975585, 50.109764 ], [ 19.975586, 50.109763 ], [ 19.977555, 50.107503 ], [ 19.977558, 50.1075 ], [ 19.977562, 50.107499 ], [ 19.977567, 50.107498 ], [ 19.981588, 50.107464 ], [ 19.981593, 50.107465 ], [ 19.981597, 50.107466 ], [ 19.9816, 50.107469 ], [ 19.983661, 50.109695 ], [ 19.983661, 50.109696 ], [ 19.983662, 50.109696 ], [ 19.987698, 50.109662 ], [ 19.987699, 50.109661 ], [ 19.9877, 50.109661 ], [ 19.989668, 50.1074 ], [ 19.989671, 50.107398 ], [ 19.989675, 50.107396 ], [ 19.98968, 50.107395 ], [ 19.993701, 50.107361 ], [ 19.993706, 50.107362 ], [ 19.99371, 50.107363 ], [ 19.993713, 50.107366 ], [ 19.995774, 50.109592 ], [ 19.995775, 50.109592 ], [ 19.995776, 50.109593 ], [ 19.999811, 50.109558 ], [ 19.999812, 50.109558 ], [ 19.999813, 50.109557 ], [ 20.00178, 50.107296 ], [ 20.001783, 50.107294 ], [ 20.001788, 50.107292 ], [ 20.001792, 50.107292 ], [ 20.005814, 50.107257 ], [ 20.005819, 50.107257 ], [ 20.005823, 50.107259 ], [ 20.005826, 50.107261 ], [ 20.007887, 50.109487 ], [ 20.007888, 50.109488 ], [ 20.007889, 50.109488 ], [ 20.011924, 50.109453 ], [ 20.011926, 50.109453 ], [ 20.011926, 50.109452 ], [ 20.013893, 50.107191 ], [ 20.013896, 50.107189 ], [ 20.0139, 50.107187 ], [ 20.013905, 50.107186 ], [ 20.017927, 50.107151 ], [ 20.017931, 50.107152 ], [ 20.017936, 50.107153 ], [ 20.017939, 50.107156 ], [ 20.020001, 50.109382 ], [ 20.020001, 50.109382 ], [ 20.020002, 50.109382 ], [ 20.024038, 50.109347 ], [ 20.024039, 50.109347 ], [ 20.024039, 50.109346 ], [ 20.026006, 50.107085 ], [ 20.026009, 50.107082 ], [ 20.026013, 50.107081 ], [ 20.026018, 50.10708 ], [ 20.030039, 50.107044 ], [ 20.030044, 50.107045 ], [ 20.030048, 50.107046 ], [ 20.030051, 50.107049 ], [ 20.03211, 50.109271 ], [ 20.032112, 50.109274 ], [ 20.032112, 50.109277 ], [ 20.03211, 50.10928 ], [ 20.030144, 50.111541 ], [ 20.030144, 50.111542 ], [ 20.030144, 50.111543 ], [ 20.03221, 50.113772 ], [ 20.032211, 50.113773 ], [ 20.032212, 50.113773 ], [ 20.036241, 50.113737 ], [ 20.036246, 50.113737 ], [ 20.03625, 50.113739 ], [ 20.036253, 50.113741 ], [ 20.038316, 50.115967 ], [ 20.038317, 50.115967 ], [ 20.038318, 50.115968 ], [ 20.042354, 50.115931 ], [ 20.042355, 50.115931 ], [ 20.042356, 50.115931 ], [ 20.044321, 50.113669 ], [ 20.044324, 50.113667 ], [ 20.044329, 50.113665 ], [ 20.044333, 50.113664 ], [ 20.048355, 50.113628 ], [ 20.04836, 50.113629 ], [ 20.048364, 50.11363 ], [ 20.048367, 50.113633 ], [ 20.050431, 50.115858 ], [ 20.050432, 50.115858 ], [ 20.050433, 50.115859 ], [ 20.054462, 50.115822 ], [ 20.054467, 50.115823 ], [ 20.054471, 50.115824 ], [ 20.054474, 50.115826 ], [ 20.056538, 50.118052 ], [ 20.056539, 50.118052 ], [ 20.05654, 50.118052 ], [ 20.060576, 50.118016 ], [ 20.060577, 50.118015 ], [ 20.060577, 50.118015 ], [ 20.062542, 50.115753 ], [ 20.062545, 50.11575 ], [ 20.06255, 50.115749 ], [ 20.062554, 50.115748 ], [ 20.066576, 50.115711 ], [ 20.066581, 50.115712 ], [ 20.066585, 50.115713 ], [ 20.066589, 50.115716 ], [ 20.068653, 50.117941 ], [ 20.068654, 50.117941 ], [ 20.068655, 50.117941 ], [ 20.072691, 50.117904 ], [ 20.072692, 50.117904 ], [ 20.072693, 50.117904 ], [ 20.074657, 50.115641 ], [ 20.07466, 50.115639 ], [ 20.074664, 50.115637 ], [ 20.074669, 50.115637 ], [ 20.078698, 50.115599 ], [ 20.078699, 50.115599 ], [ 20.0787, 50.115599 ], [ 20.080664, 50.113336 ], [ 20.080667, 50.113334 ], [ 20.080671, 50.113332 ], [ 20.080676, 50.113332 ], [ 20.084697, 50.113294 ], [ 20.084702, 50.113295 ], [ 20.084707, 50.113296 ], [ 20.08471, 50.113299 ], [ 20.086775, 50.115523 ], [ 20.086776, 50.115524 ], [ 20.086777, 50.115524 ], [ 20.090806, 50.115486 ], [ 20.09081, 50.115487 ], [ 20.090815, 50.115488 ], [ 20.090818, 50.115491 ], [ 20.09288, 50.117711 ], [ 20.092881, 50.117714 ], [ 20.092882, 50.117718 ], [ 20.09288, 50.11772 ], [ 20.090916, 50.119983 ], [ 20.090916, 50.119984 ], [ 20.090916, 50.119984 ], [ 20.092986, 50.122213 ], [ 20.092986, 50.122213 ], [ 20.092988, 50.122213 ], [ 20.097024, 50.122175 ], [ 20.097025, 50.122175 ], [ 20.097026, 50.122175 ], [ 20.098989, 50.119912 ], [ 20.098992, 50.11991 ], [ 20.098996, 50.119908 ], [ 20.099001, 50.119907 ], [ 20.10303, 50.119869 ], [ 20.103031, 50.119869 ], [ 20.103032, 50.119869 ], [ 20.104995, 50.117606 ], [ 20.104998, 50.117603 ], [ 20.105002, 50.117602 ], [ 20.105007, 50.117601 ], [ 20.109029, 50.117563 ], [ 20.109034, 50.117563 ], [ 20.109038, 50.117565 ], [ 20.109041, 50.117567 ], [ 20.111108, 50.119792 ], [ 20.111109, 50.119792 ], [ 20.11111, 50.119792 ], [ 20.115146, 50.119753 ], [ 20.115147, 50.119753 ], [ 20.115147, 50.119753 ], [ 20.11711, 50.11749 ], [ 20.117113, 50.117487 ], [ 20.117117, 50.117486 ], [ 20.117122, 50.117485 ], [ 20.121151, 50.117446 ], [ 20.121152, 50.117446 ], [ 20.121153, 50.117446 ], [ 20.123118, 50.115179 ], [ 20.123118, 50.115178 ], [ 20.123118, 50.115178 ], [ 20.121051, 50.112953 ], [ 20.121049, 50.112951 ], [ 20.121049, 50.112947 ], [ 20.121051, 50.112944 ], [ 20.123009, 50.110685 ], [ 20.123013, 50.110683 ], [ 20.123017, 50.110681 ], [ 20.123021, 50.110681 ], [ 20.12705, 50.110642 ], [ 20.127051, 50.110642 ], [ 20.127052, 50.110641 ], [ 20.129013, 50.108378 ], [ 20.129016, 50.108375 ], [ 20.12902, 50.108374 ], [ 20.129025, 50.108373 ], [ 20.133047, 50.108334 ], [ 20.133051, 50.108335 ], [ 20.133056, 50.108336 ], [ 20.133059, 50.108338 ], [ 20.135126, 50.110562 ], [ 20.135127, 50.110563 ], [ 20.135128, 50.110563 ], [ 20.139156, 50.110524 ], [ 20.139161, 50.110524 ], [ 20.139165, 50.110526 ], [ 20.139168, 50.110528 ], [ 20.141236, 50.112752 ], [ 20.141237, 50.112752 ], [ 20.141238, 50.112752 ], [ 20.145266, 50.112713 ], [ 20.145271, 50.112713 ], [ 20.145275, 50.112715 ], [ 20.145278, 50.112717 ], [ 20.147343, 50.114937 ], [ 20.147345, 50.11494 ], [ 20.147345, 50.114943 ], [ 20.147343, 50.114946 ], [ 20.145382, 50.117209 ], [ 20.145382, 50.11721 ], [ 20.145382, 50.117211 ], [ 20.147454, 50.119438 ], [ 20.147455, 50.119439 ], [ 20.147456, 50.119439 ], [ 20.151485, 50.119399 ], [ 20.15149, 50.119399 ], [ 20.151494, 50.119401 ], [ 20.151497, 50.119403 ], [ 20.153566, 50.121627 ], [ 20.153566, 50.121627 ], [ 20.153567, 50.121627 ], [ 20.157597, 50.121587 ], [ 20.157601, 50.121588 ], [ 20.157606, 50.121589 ], [ 20.157609, 50.121592 ], [ 20.159678, 50.123815 ], [ 20.159678, 50.123816 ], [ 20.15968, 50.123816 ], [ 20.163716, 50.123775 ], [ 20.163717, 50.123775 ], [ 20.163718, 50.123775 ], [ 20.165678, 50.121511 ], [ 20.165681, 50.121508 ], [ 20.165685, 50.121507 ], [ 20.16569, 50.121506 ], [ 20.169712, 50.121466 ], [ 20.169717, 50.121466 ], [ 20.169721, 50.121468 ], [ 20.169725, 50.12147 ], [ 20.171794, 50.123693 ], [ 20.171795, 50.123694 ], [ 20.171796, 50.123694 ], [ 20.175832, 50.123653 ], [ 20.175833, 50.123653 ], [ 20.175834, 50.123653 ], [ 20.177794, 50.121389 ], [ 20.177797, 50.121386 ], [ 20.177801, 50.121385 ], [ 20.177806, 50.121384 ], [ 20.181835, 50.121343 ], [ 20.181836, 50.121343 ], [ 20.181837, 50.121342 ], [ 20.183796, 50.119078 ], [ 20.183799, 50.119076 ], [ 20.183803, 50.119074 ], [ 20.183808, 50.119074 ], [ 20.18783, 50.119033 ], [ 20.187835, 50.119033 ], [ 20.187839, 50.119035 ], [ 20.187842, 50.119037 ], [ 20.189912, 50.12126 ], [ 20.189913, 50.12126 ], [ 20.189914, 50.121261 ], [ 20.193944, 50.121219 ], [ 20.193948, 50.12122 ], [ 20.193953, 50.121221 ], [ 20.193956, 50.121224 ], [ 20.196026, 50.123446 ], [ 20.196027, 50.123447 ], [ 20.196028, 50.123447 ], [ 20.200064, 50.123405 ], [ 20.200065, 50.123405 ], [ 20.200066, 50.123405 ], [ 20.202025, 50.12114 ], [ 20.202028, 50.121138 ], [ 20.202032, 50.121136 ], [ 20.202037, 50.121136 ], [ 20.206066, 50.121094 ], [ 20.206067, 50.121094 ], [ 20.206068, 50.121093 ], [ 20.208026, 50.118829 ], [ 20.208029, 50.118826 ], [ 20.208033, 50.118825 ], [ 20.208038, 50.118824 ], [ 20.212067, 50.118782 ], [ 20.212068, 50.118782 ], [ 20.212069, 50.118781 ], [ 20.21403, 50.116513 ], [ 20.21403, 50.116512 ], [ 20.21403, 50.116512 ], [ 20.211955, 50.114286 ], [ 20.211954, 50.114285 ], [ 20.211953, 50.114285 ], [ 20.207925, 50.114327 ], [ 20.20792, 50.114326 ], [ 20.207916, 50.114325 ], [ 20.207912, 50.114323 ], [ 20.205845, 50.112104 ], [ 20.205844, 50.112101 ], [ 20.205843, 50.112098 ], [ 20.205845, 50.112095 ], [ 20.207803, 50.10983 ], [ 20.207803, 50.10983 ], [ 20.207803, 50.109829 ], [ 20.205729, 50.107603 ], [ 20.205728, 50.107602 ], [ 20.205727, 50.107602 ], [ 20.201699, 50.107644 ], [ 20.201694, 50.107643 ], [ 20.20169, 50.107642 ], [ 20.201687, 50.107639 ], [ 20.199617, 50.105417 ], [ 20.199616, 50.105416 ], [ 20.199615, 50.105416 ], [ 20.195587, 50.105458 ], [ 20.195582, 50.105457 ], [ 20.195578, 50.105456 ], [ 20.195575, 50.105453 ], [ 20.193509, 50.103234 ], [ 20.193507, 50.103231 ], [ 20.193507, 50.103228 ], [ 20.193508, 50.103225 ], [ 20.195466, 50.100961 ], [ 20.195467, 50.10096 ], [ 20.195466, 50.10096 ], [ 20.193397, 50.098737 ], [ 20.193395, 50.098734 ], [ 20.193395, 50.098731 ], [ 20.193397, 50.098728 ], [ 20.195354, 50.096464 ], [ 20.195355, 50.096463 ], [ 20.195354, 50.096462 ], [ 20.193285, 50.09424 ], [ 20.193283, 50.094237 ], [ 20.193283, 50.094234 ], [ 20.193285, 50.094231 ], [ 20.195242, 50.091966 ], [ 20.195243, 50.091966 ], [ 20.195242, 50.091965 ], [ 20.193173, 50.089742 ], [ 20.193172, 50.089739 ], [ 20.193172, 50.089736 ], [ 20.193173, 50.089733 ], [ 20.195131, 50.087469 ], [ 20.195131, 50.087468 ], [ 20.195131, 50.087468 ], [ 20.193062, 50.085245 ], [ 20.19306, 50.085242 ], [ 20.19306, 50.085239 ], [ 20.193061, 50.085236 ], [ 20.195019, 50.082972 ], [ 20.195019, 50.082971 ], [ 20.195019, 50.08297 ], [ 20.19295, 50.080748 ], [ 20.192948, 50.080745 ], [ 20.192948, 50.080742 ], [ 20.19295, 50.080739 ], [ 20.194904, 50.078478 ], [ 20.194907, 50.078476 ], [ 20.194911, 50.078474 ], [ 20.194916, 50.078474 ], [ 20.198941, 50.078432 ], [ 20.198942, 50.078432 ], [ 20.198943, 50.078431 ], [ 20.2009, 50.076167 ], [ 20.200903, 50.076165 ], [ 20.200907, 50.076163 ], [ 20.200912, 50.076163 ], [ 20.204937, 50.076121 ], [ 20.204938, 50.076121 ], [ 20.204939, 50.07612 ], [ 20.206899, 50.073852 ], [ 20.206899, 50.073851 ], [ 20.206899, 50.073851 ], [ 20.204826, 50.071624 ], [ 20.204826, 50.071624 ], [ 20.204824, 50.071624 ], [ 20.200799, 50.071665 ], [ 20.200795, 50.071665 ], [ 20.20079, 50.071663 ], [ 20.200787, 50.071661 ], [ 20.198722, 50.069442 ], [ 20.198721, 50.069439 ], [ 20.19872, 50.069436 ], [ 20.198722, 50.069433 ], [ 20.200675, 50.067173 ], [ 20.200678, 50.06717 ], [ 20.200682, 50.067169 ], [ 20.200687, 50.067168 ], [ 20.204712, 50.067126 ], [ 20.204713, 50.067126 ], [ 20.204714, 50.067126 ], [ 20.20667, 50.064861 ], [ 20.206673, 50.064859 ], [ 20.206677, 50.064857 ], [ 20.206682, 50.064857 ], [ 20.210706, 50.064815 ], [ 20.210707, 50.064814 ], [ 20.210708, 50.064814 ], [ 20.212667, 50.062546 ], [ 20.212667, 50.062545 ], [ 20.212667, 50.062544 ], [ 20.210598, 50.060322 ], [ 20.210597, 50.060319 ], [ 20.210596, 50.060316 ], [ 20.210598, 50.060313 ], [ 20.21255, 50.058052 ], [ 20.212553, 50.05805 ], [ 20.212557, 50.058048 ], [ 20.212562, 50.058047 ], [ 20.216586, 50.058005 ], [ 20.216587, 50.058005 ], [ 20.216588, 50.058005 ], [ 20.218543, 50.05574 ], [ 20.218546, 50.055738 ], [ 20.21855, 50.055736 ], [ 20.218555, 50.055735 ], [ 20.222579, 50.055693 ], [ 20.22258, 50.055693 ], [ 20.22258, 50.055692 ], [ 20.224538, 50.053424 ], [ 20.224539, 50.053423 ], [ 20.224538, 50.053423 ], [ 20.222466, 50.051196 ], [ 20.222465, 50.051196 ], [ 20.222464, 50.051196 ], [ 20.218441, 50.051238 ], [ 20.218436, 50.051238 ], [ 20.218432, 50.051236 ], [ 20.218429, 50.051234 ], [ 20.216364, 50.049015 ], [ 20.216362, 50.049012 ], [ 20.216362, 50.049009 ], [ 20.216364, 50.049006 ], [ 20.218319, 50.046742 ], [ 20.218319, 50.046741 ], [ 20.218318, 50.04674 ], [ 20.216247, 50.044514 ], [ 20.216246, 50.044513 ], [ 20.216245, 50.044513 ], [ 20.212222, 50.044555 ], [ 20.212217, 50.044555 ], [ 20.212213, 50.044553 ], [ 20.21221, 50.044551 ], [ 20.210142, 50.042329 ], [ 20.210141, 50.042328 ], [ 20.21014, 50.042328 ], [ 20.206118, 50.04237 ], [ 20.206113, 50.042369 ], [ 20.206109, 50.042368 ], [ 20.206106, 50.042365 ], [ 20.204038, 50.040143 ], [ 20.204037, 50.040142 ], [ 20.204036, 50.040142 ], [ 20.200007, 50.040184 ], [ 20.200006, 50.040184 ], [ 20.200005, 50.040185 ], [ 20.19805, 50.042449 ], [ 20.198047, 50.042451 ], [ 20.198043, 50.042453 ], [ 20.198038, 50.042454 ], [ 20.194015, 50.042495 ], [ 20.194014, 50.042495 ], [ 20.194013, 50.042496 ], [ 20.192058, 50.04476 ], [ 20.192055, 50.044762 ], [ 20.192051, 50.044764 ], [ 20.192046, 50.044764 ], [ 20.188023, 50.044806 ], [ 20.188022, 50.044806 ], [ 20.188021, 50.044806 ], [ 20.186065, 50.047071 ], [ 20.186062, 50.047073 ], [ 20.186058, 50.047075 ], [ 20.186053, 50.047075 ], [ 20.182037, 50.047116 ], [ 20.182032, 50.047116 ], [ 20.182028, 50.047114 ], [ 20.182025, 50.047112 ], [ 20.179958, 50.044889 ], [ 20.179957, 50.044888 ], [ 20.179956, 50.044888 ], [ 20.175933, 50.044929 ], [ 20.175929, 50.044928 ], [ 20.175924, 50.044927 ], [ 20.175921, 50.044924 ], [ 20.173855, 50.042701 ], [ 20.173854, 50.042701 ], [ 20.173853, 50.042701 ], [ 20.169831, 50.042741 ], [ 20.169826, 50.042741 ], [ 20.169822, 50.042739 ], [ 20.169818, 50.042737 ], [ 20.167753, 50.040514 ], [ 20.167752, 50.040513 ], [ 20.167751, 50.040513 ], [ 20.163728, 50.040553 ], [ 20.163724, 50.040553 ], [ 20.163719, 50.040551 ], [ 20.163716, 50.040549 ], [ 20.161651, 50.038326 ], [ 20.16165, 50.038325 ], [ 20.161649, 50.038325 ], [ 20.15762, 50.038365 ], [ 20.157619, 50.038365 ], [ 20.157618, 50.038366 ], [ 20.155661, 50.04063 ], [ 20.155658, 50.040632 ], [ 20.155653, 50.040634 ], [ 20.155649, 50.040634 ], [ 20.151626, 50.040674 ], [ 20.151625, 50.040674 ], [ 20.151624, 50.040675 ], [ 20.149667, 50.042938 ], [ 20.149664, 50.042941 ], [ 20.149659, 50.042942 ], [ 20.149655, 50.042943 ], [ 20.145632, 50.042983 ], [ 20.145631, 50.042983 ], [ 20.14563, 50.042983 ], [ 20.143672, 50.045247 ], [ 20.143669, 50.045249 ], [ 20.143665, 50.045251 ], [ 20.14366, 50.045251 ], [ 20.139644, 50.045291 ], [ 20.139639, 50.04529 ], [ 20.139635, 50.045289 ], [ 20.139632, 50.045287 ], [ 20.137567, 50.043063 ], [ 20.137567, 50.043062 ], [ 20.137565, 50.043062 ], [ 20.133543, 50.043101 ], [ 20.133538, 50.043101 ], [ 20.133534, 50.043099 ], [ 20.133531, 50.043097 ], [ 20.13147, 50.040877 ], [ 20.131468, 50.040874 ], [ 20.131468, 50.040871 ], [ 20.13147, 50.040868 ], [ 20.133428, 50.038605 ], [ 20.133429, 50.038604 ], [ 20.133428, 50.038603 ], [ 20.131361, 50.036376 ], [ 20.13136, 50.036375 ], [ 20.131359, 50.036375 ], [ 20.12733, 50.036414 ], [ 20.127329, 50.036414 ], [ 20.127328, 50.036415 ], [ 20.125369, 50.038678 ], [ 20.125366, 50.03868 ], [ 20.125362, 50.038682 ], [ 20.125357, 50.038683 ], [ 20.121335, 50.038721 ], [ 20.121334, 50.038722 ], [ 20.121333, 50.038722 ], [ 20.119374, 50.040985 ], [ 20.119371, 50.040988 ], [ 20.119367, 50.040989 ], [ 20.119362, 50.04099 ], [ 20.115346, 50.041028 ], [ 20.115342, 50.041028 ], [ 20.115337, 50.041026 ], [ 20.115334, 50.041024 ], [ 20.113271, 50.0388 ], [ 20.11327, 50.038799 ], [ 20.113269, 50.038799 ], [ 20.10924, 50.038838 ], [ 20.109239, 50.038838 ], [ 20.109238, 50.038838 ], [ 20.107279, 50.041101 ], [ 20.107275, 50.041104 ], [ 20.107271, 50.041105 ], [ 20.107267, 50.041106 ], [ 20.103251, 50.041144 ], [ 20.103246, 50.041144 ], [ 20.103242, 50.041142 ], [ 20.103239, 50.04114 ], [ 20.101179, 50.038919 ], [ 20.101178, 50.038916 ], [ 20.101178, 50.038913 ], [ 20.101179, 50.03891 ], [ 20.103139, 50.036647 ], [ 20.103139, 50.036647 ], [ 20.103139, 50.036646 ], [ 20.101073, 50.034418 ], [ 20.101072, 50.034417 ], [ 20.101071, 50.034417 ], [ 20.097042, 50.034455 ], [ 20.097041, 50.034455 ], [ 20.09704, 50.034456 ], [ 20.09508, 50.036718 ], [ 20.095077, 50.036721 ], [ 20.095073, 50.036722 ], [ 20.095068, 50.036723 ], [ 20.091046, 50.036761 ], [ 20.091045, 50.036761 ], [ 20.091044, 50.036762 ], [ 20.089084, 50.039024 ], [ 20.089081, 50.039027 ], [ 20.089077, 50.039028 ], [ 20.089072, 50.039029 ], [ 20.085056, 50.039066 ], [ 20.085052, 50.039066 ], [ 20.085047, 50.039064 ], [ 20.085044, 50.039062 ], [ 20.082986, 50.036841 ], [ 20.082984, 50.036838 ], [ 20.082984, 50.036835 ], [ 20.082986, 50.036832 ], [ 20.084946, 50.03457 ], [ 20.084947, 50.034569 ], [ 20.084946, 50.034568 ], [ 20.082881, 50.03234 ], [ 20.082881, 50.032339 ], [ 20.082879, 50.032339 ], [ 20.078858, 50.032376 ], [ 20.078853, 50.032376 ], [ 20.078849, 50.032374 ], [ 20.078845, 50.032372 ], [ 20.076784, 50.030147 ], [ 20.076784, 50.030147 ], [ 20.076782, 50.030146 ], [ 20.072761, 50.030184 ], [ 20.072756, 50.030183 ], [ 20.072752, 50.030182 ], [ 20.072748, 50.030179 ], [ 20.070691, 50.027958 ], [ 20.070689, 50.027955 ], [ 20.070689, 50.027952 ], [ 20.070691, 50.027949 ], [ 20.072652, 50.025687 ], [ 20.072652, 50.025686 ], [ 20.072652, 50.025686 ], [ 20.070591, 50.023461 ], [ 20.070589, 50.023458 ], [ 20.070589, 50.023454 ], [ 20.070591, 50.023452 ], [ 20.072552, 50.021189 ], [ 20.072552, 50.021189 ], [ 20.072552, 50.021188 ], [ 20.070491, 50.018963 ], [ 20.07049, 50.01896 ], [ 20.070489, 50.018957 ], [ 20.070491, 50.018954 ], [ 20.072452, 50.016692 ], [ 20.072452, 50.016691 ], [ 20.072451, 50.01669 ], [ 20.070391, 50.014465 ], [ 20.07039, 50.014462 ], [ 20.07039, 50.014459 ], [ 20.070391, 50.014456 ], [ 20.072351, 50.012194 ], [ 20.072352, 50.012194 ], [ 20.072351, 50.012193 ], [ 20.070291, 50.009968 ], [ 20.07029, 50.009965 ], [ 20.07029, 50.009962 ], [ 20.070291, 50.009959 ], [ 20.072251, 50.007697 ], [ 20.072252, 50.007696 ], [ 20.072251, 50.007695 ], [ 20.070188, 50.005466 ], [ 20.070187, 50.005466 ], [ 20.070186, 50.005466 ], [ 20.066167, 50.005503 ], [ 20.066162, 50.005502 ], [ 20.066157, 50.005501 ], [ 20.066154, 50.005498 ], [ 20.064095, 50.003273 ], [ 20.064094, 50.003273 ], [ 20.064093, 50.003273 ], [ 20.060074, 50.003309 ], [ 20.060069, 50.003309 ], [ 20.060065, 50.003307 ], [ 20.060061, 50.003305 ], [ 20.058002, 50.00108 ], [ 20.058002, 50.001079 ], [ 20.058001, 50.001079 ], [ 20.053981, 50.001116 ], [ 20.053976, 50.001115 ], [ 20.053972, 50.001114 ], [ 20.053969, 50.001111 ], [ 20.05191, 49.998886 ], [ 20.05191, 49.998885 ], [ 20.051909, 49.998885 ], [ 20.047889, 49.998921 ], [ 20.047885, 49.998921 ], [ 20.04788, 49.998919 ], [ 20.047877, 49.998917 ], [ 20.045819, 49.996692 ], [ 20.045818, 49.996691 ], [ 20.045817, 49.996691 ], [ 20.041791, 49.996727 ], [ 20.04179, 49.996727 ], [ 20.041789, 49.996728 ], [ 20.039828, 49.99899 ], [ 20.039825, 49.998992 ], [ 20.039821, 49.998994 ], [ 20.039816, 49.998994 ], [ 20.035804, 49.99903 ], [ 20.035799, 49.99903 ], [ 20.035795, 49.999028 ], [ 20.035792, 49.999026 ], [ 20.033734, 49.9968 ], [ 20.033733, 49.996799 ], [ 20.033732, 49.996799 ], [ 20.029706, 49.996835 ], [ 20.029705, 49.996835 ], [ 20.029705, 49.996836 ], [ 20.027743, 49.999097 ], [ 20.02774, 49.9991 ], [ 20.027736, 49.999101 ], [ 20.027731, 49.999102 ], [ 20.023712, 49.999137 ], [ 20.023711, 49.999137 ], [ 20.02371, 49.999138 ], [ 20.021748, 50.001399 ], [ 20.021745, 50.001402 ], [ 20.021741, 50.001403 ], [ 20.021736, 50.001404 ], [ 20.017723, 50.001439 ], [ 20.017718, 50.001439 ], [ 20.017714, 50.001437 ], [ 20.017711, 50.001435 ], [ 20.015658, 49.999213 ], [ 20.015656, 49.99921 ], [ 20.015656, 49.999207 ], [ 20.015657, 49.999204 ], [ 20.01762, 49.996942 ], [ 20.01762, 49.996942 ], [ 20.01762, 49.996941 ], [ 20.015563, 49.994715 ], [ 20.015561, 49.994712 ], [ 20.015561, 49.994709 ], [ 20.015563, 49.994706 ], [ 20.017525, 49.992445 ], [ 20.017525, 49.992444 ], [ 20.017525, 49.992443 ], [ 20.015468, 49.990217 ], [ 20.015466, 49.990214 ], [ 20.015466, 49.990211 ], [ 20.015468, 49.990208 ], [ 20.017427, 49.987951 ], [ 20.01743, 49.987948 ], [ 20.017434, 49.987947 ], [ 20.017438, 49.987946 ], [ 20.021457, 49.987911 ], [ 20.021458, 49.987911 ], [ 20.021459, 49.98791 ], [ 20.023423, 49.985645 ], [ 20.023424, 49.985644 ], [ 20.023423, 49.985644 ], [ 20.021363, 49.983414 ], [ 20.021363, 49.983413 ], [ 20.021362, 49.983413 ], [ 20.017344, 49.983449 ], [ 20.017339, 49.983448 ], [ 20.017335, 49.983447 ], [ 20.017331, 49.983444 ], [ 20.015279, 49.981222 ], [ 20.015277, 49.981219 ], [ 20.015277, 49.981216 ], [ 20.015279, 49.981213 ], [ 20.01724, 49.978952 ], [ 20.01724, 49.978951 ], [ 20.01724, 49.97895 ], [ 20.015181, 49.97672 ], [ 20.01518, 49.97672 ], [ 20.015179, 49.97672 ], [ 20.011161, 49.976755 ], [ 20.011157, 49.976754 ], [ 20.011152, 49.976753 ], [ 20.011149, 49.97675 ], [ 20.009094, 49.974524 ], [ 20.009093, 49.974524 ], [ 20.009092, 49.974524 ], [ 20.005075, 49.974559 ], [ 20.00507, 49.974558 ], [ 20.005066, 49.974556 ], [ 20.005062, 49.974554 ], [ 20.003007, 49.972328 ], [ 20.003006, 49.972327 ], [ 20.003005, 49.972327 ], [ 19.998988, 49.972362 ], [ 19.998984, 49.972361 ], [ 19.998979, 49.97236 ], [ 19.998976, 49.972357 ], [ 19.996921, 49.970131 ], [ 19.996921, 49.97013 ], [ 19.996919, 49.97013 ], [ 19.992896, 49.970165 ], [ 19.992895, 49.970165 ], [ 19.992894, 49.970166 ], [ 19.990932, 49.972426 ], [ 19.990929, 49.972429 ], [ 19.990924, 49.97243 ], [ 19.99092, 49.972431 ], [ 19.986909, 49.972465 ], [ 19.986905, 49.972465 ], [ 19.9869, 49.972463 ], [ 19.986897, 49.972461 ], [ 19.984843, 49.970234 ], [ 19.984842, 49.970234 ], [ 19.984841, 49.970234 ], [ 19.980817, 49.970268 ], [ 19.980816, 49.970268 ], [ 19.980816, 49.970268 ], [ 19.978849, 49.972533 ], [ 19.978849, 49.972534 ], [ 19.978849, 49.972534 ], [ 19.980903, 49.974761 ], [ 19.980905, 49.974764 ], [ 19.980905, 49.974767 ], [ 19.980904, 49.97477 ], [ 19.978944, 49.977027 ], [ 19.978941, 49.977029 ], [ 19.978937, 49.977031 ], [ 19.978932, 49.977031 ], [ 19.974914, 49.977065 ], [ 19.974913, 49.977065 ], [ 19.974913, 49.977066 ], [ 19.972949, 49.979326 ], [ 19.972946, 49.979329 ], [ 19.972942, 49.97933 ], [ 19.972937, 49.979331 ], [ 19.968926, 49.979365 ], [ 19.968922, 49.979364 ], [ 19.968917, 49.979363 ], [ 19.968914, 49.97936 ], [ 19.966864, 49.977137 ], [ 19.966862, 49.977134 ], [ 19.966862, 49.977131 ], [ 19.966864, 49.977128 ], [ 19.968827, 49.974868 ], [ 19.968828, 49.974867 ], [ 19.968827, 49.974866 ], [ 19.966774, 49.972639 ], [ 19.966772, 49.972636 ], [ 19.966772, 49.972633 ], [ 19.966774, 49.97263 ], [ 19.968737, 49.97037 ], [ 19.968737, 49.970369 ], [ 19.968737, 49.970368 ], [ 19.96668, 49.968138 ], [ 19.966679, 49.968137 ], [ 19.966678, 49.968137 ], [ 19.962662, 49.96817 ], [ 19.962657, 49.96817 ], [ 19.962653, 49.968168 ], [ 19.962649, 49.968166 ], [ 19.960596, 49.965939 ], [ 19.960596, 49.965938 ], [ 19.960595, 49.965938 ], [ 19.956571, 49.965972 ], [ 19.95657, 49.965972 ], [ 19.956569, 49.965972 ], [ 19.954606, 49.968233 ], [ 19.954602, 49.968235 ], [ 19.954598, 49.968237 ], [ 19.954594, 49.968237 ], [ 19.950577, 49.96827 ], [ 19.950576, 49.96827 ], [ 19.950575, 49.968271 ], [ 19.948611, 49.970531 ], [ 19.948608, 49.970533 ], [ 19.948604, 49.970535 ], [ 19.948599, 49.970536 ], [ 19.944582, 49.970568 ], [ 19.944581, 49.970568 ], [ 19.94458, 49.970569 ], [ 19.942615, 49.972829 ], [ 19.942612, 49.972831 ], [ 19.942608, 49.972833 ], [ 19.942603, 49.972834 ], [ 19.938593, 49.972866 ], [ 19.938588, 49.972866 ], [ 19.938584, 49.972864 ], [ 19.938581, 49.972862 ], [ 19.936529, 49.970634 ], [ 19.936528, 49.970634 ], [ 19.936527, 49.970634 ], [ 19.932503, 49.970666 ], [ 19.932502, 49.970666 ], [ 19.932501, 49.970667 ], [ 19.930533, 49.97293 ], [ 19.930532, 49.972931 ], [ 19.930533, 49.972932 ], [ 19.932585, 49.975159 ], [ 19.932586, 49.975162 ], [ 19.932587, 49.975165 ], [ 19.932585, 49.975168 ], [ 19.930623, 49.977424 ], [ 19.93062, 49.977427 ], [ 19.930616, 49.977428 ], [ 19.930611, 49.977429 ], [ 19.926593, 49.977461 ], [ 19.926592, 49.977461 ], [ 19.926592, 49.977462 ], [ 19.924626, 49.979722 ], [ 19.924623, 49.979724 ], [ 19.924619, 49.979726 ], [ 19.924614, 49.979726 ], [ 19.920603, 49.979758 ], [ 19.920598, 49.979758 ], [ 19.920594, 49.979756 ], [ 19.920591, 49.979754 ], [ 19.918539, 49.977526 ], [ 19.918538, 49.977525 ], [ 19.918537, 49.977525 ], [ 19.914513, 49.977557 ], [ 19.914512, 49.977557 ], [ 19.914511, 49.977558 ], [ 19.912545, 49.979817 ], [ 19.912542, 49.97982 ], [ 19.912538, 49.979821 ], [ 19.912533, 49.979822 ], [ 19.908522, 49.979853 ], [ 19.908517, 49.979853 ], [ 19.908513, 49.979851 ], [ 19.90851, 49.979849 ], [ 19.906459, 49.977621 ], [ 19.906458, 49.97762 ], [ 19.906457, 49.97762 ], [ 19.902432, 49.977652 ], [ 19.902431, 49.977652 ], [ 19.902431, 49.977652 ], [ 19.900464, 49.979912 ], [ 19.900461, 49.979914 ], [ 19.900456, 49.979916 ], [ 19.900452, 49.979916 ], [ 19.896441, 49.979947 ], [ 19.896436, 49.979947 ], [ 19.896432, 49.979945 ], [ 19.896429, 49.979943 ], [ 19.894378, 49.977715 ], [ 19.894377, 49.977714 ], [ 19.894376, 49.977714 ], [ 19.890359, 49.977745 ], [ 19.890354, 49.977744 ], [ 19.89035, 49.977743 ], [ 19.890347, 49.977741 ], [ 19.888296, 49.975512 ], [ 19.888296, 49.975512 ], [ 19.888295, 49.975511 ], [ 19.884277, 49.975542 ], [ 19.884272, 49.975542 ], [ 19.884268, 49.97554 ], [ 19.884265, 49.975538 ], [ 19.882219, 49.973313 ], [ 19.882217, 49.97331 ], [ 19.882217, 49.973307 ], [ 19.882219, 49.973304 ], [ 19.884186, 49.971045 ], [ 19.884186, 49.971044 ], [ 19.884186, 49.971044 ], [ 19.882133, 49.968811 ], [ 19.882132, 49.968811 ], [ 19.882131, 49.968811 ], [ 19.878108, 49.968841 ], [ 19.878106, 49.968841 ], [ 19.878106, 49.968842 ], [ 19.876138, 49.971101 ], [ 19.876135, 49.971103 ], [ 19.876131, 49.971105 ], [ 19.876126, 49.971106 ], [ 19.872116, 49.971136 ], [ 19.872111, 49.971135 ], [ 19.872107, 49.971134 ], [ 19.872104, 49.971131 ], [ 19.870055, 49.968903 ], [ 19.870054, 49.968902 ], [ 19.870053, 49.968902 ], [ 19.866029, 49.968932 ], [ 19.866028, 49.968932 ], [ 19.866027, 49.968933 ], [ 19.864059, 49.971192 ], [ 19.864056, 49.971194 ], [ 19.864052, 49.971196 ], [ 19.864047, 49.971196 ], [ 19.86003, 49.971226 ], [ 19.860029, 49.971226 ], [ 19.860028, 49.971227 ], [ 19.858056, 49.973489 ], [ 19.858056, 49.97349 ], [ 19.858056, 49.973491 ], [ 19.860105, 49.975719 ], [ 19.860106, 49.975722 ], [ 19.860107, 49.975725 ], [ 19.860105, 49.975728 ], [ 19.858136, 49.977987 ], [ 19.858136, 49.977988 ], [ 19.858136, 49.977988 ], [ 19.860185, 49.980217 ], [ 19.860187, 49.98022 ], [ 19.860187, 49.980223 ], [ 19.860185, 49.980226 ], [ 19.858219, 49.982481 ], [ 19.858216, 49.982484 ], [ 19.858212, 49.982485 ], [ 19.858207, 49.982486 ], [ 19.854189, 49.982515 ], [ 19.854188, 49.982515 ], [ 19.854188, 49.982516 ], [ 19.852218, 49.984775 ], [ 19.852215, 49.984777 ], [ 19.852211, 49.984779 ], [ 19.852206, 49.984779 ], [ 19.848188, 49.984809 ], [ 19.848187, 49.984809 ], [ 19.848186, 49.984809 ], [ 19.846213, 49.987072 ], [ 19.846213, 49.987072 ], [ 19.846213, 49.987073 ], [ 19.848262, 49.989302 ], [ 19.848264, 49.989305 ], [ 19.848264, 49.989308 ], [ 19.848262, 49.989311 ], [ 19.846295, 49.991566 ], [ 19.846292, 49.991568 ], [ 19.846288, 49.99157 ], [ 19.846283, 49.99157 ], [ 19.842265, 49.991599 ], [ 19.842263, 49.9916 ], [ 19.842263, 49.9916 ], [ 19.840292, 49.993859 ], [ 19.840289, 49.993861 ], [ 19.840285, 49.993863 ], [ 19.84028, 49.993863 ], [ 19.836268, 49.993892 ], [ 19.836264, 49.993892 ], [ 19.836259, 49.99389 ], [ 19.836256, 49.993888 ], [ 19.834208, 49.991658 ], [ 19.834207, 49.991658 ], [ 19.834206, 49.991658 ], [ 19.83018, 49.991687 ], [ 19.830179, 49.991687 ], [ 19.830179, 49.991687 ], [ 19.828208, 49.993945 ], [ 19.828205, 49.993948 ], [ 19.8282, 49.993949 ], [ 19.828196, 49.99395 ], [ 19.824177, 49.993979 ], [ 19.824176, 49.993979 ], [ 19.824175, 49.993979 ], [ 19.822204, 49.996237 ], [ 19.8222, 49.99624 ], [ 19.822196, 49.996241 ], [ 19.822192, 49.996242 ], [ 19.818179, 49.99627 ], [ 19.818174, 49.99627 ], [ 19.81817, 49.996268 ], [ 19.818167, 49.996266 ], [ 19.816119, 49.994036 ], [ 19.816119, 49.994036 ], [ 19.816118, 49.994036 ], [ 19.812099, 49.994064 ], [ 19.812094, 49.994063 ], [ 19.81209, 49.994062 ], [ 19.812086, 49.994059 ], [ 19.810039, 49.99183 ], [ 19.810038, 49.991829 ], [ 19.810037, 49.991829 ], [ 19.806018, 49.991857 ], [ 19.806014, 49.991856 ], [ 19.806009, 49.991855 ], [ 19.806006, 49.991853 ], [ 19.803959, 49.989623 ], [ 19.803959, 49.989622 ], [ 19.803958, 49.989622 ], [ 19.799932, 49.98965 ], [ 19.799931, 49.98965 ], [ 19.79993, 49.989651 ], [ 19.797958, 49.991908 ], [ 19.797955, 49.991911 ], [ 19.797951, 49.991912 ], [ 19.797946, 49.991913 ], [ 19.793927, 49.99194 ], [ 19.793926, 49.99194 ], [ 19.793925, 49.991941 ], [ 19.791949, 49.994202 ], [ 19.791949, 49.994203 ] ], [ [ 20.009556, 49.997012 ], [ 20.00956, 49.997013 ], [ 20.009565, 49.997014 ], [ 20.009568, 49.997017 ], [ 20.011621, 49.999239 ], [ 20.011623, 49.999242 ], [ 20.011623, 49.999245 ], [ 20.011621, 49.999248 ], [ 20.009662, 50.001505 ], [ 20.009659, 50.001508 ], [ 20.009655, 50.001509 ], [ 20.00965, 50.00151 ], [ 20.005637, 50.001545 ], [ 20.005632, 50.001544 ], [ 20.005628, 50.001543 ], [ 20.005625, 50.00154 ], [ 20.003572, 49.999318 ], [ 20.00357, 49.999315 ], [ 20.00357, 49.999312 ], [ 20.003572, 49.999309 ], [ 20.005531, 49.997052 ], [ 20.005534, 49.997049 ], [ 20.005539, 49.997048 ], [ 20.005543, 49.997047 ], [ 20.009556, 49.997012 ] ] ] } }
]
}
