{
"type": "FeatureCollection",
"name": "boundary_krakow_250",
"crs": { "type": "name", "properties": { "name": "urn:ogc:def:crs:OGC:1.3:CRS84" } },
"xy_coordinate_resolution": 1e-06,
"features": [
{ "type": "Feature", "properties": { "fid": 1, "name": "Kraków" }, "geometry": { "type": "Polygon", "coordinates": [ [ [ 19.791968, 49.995328 ], [ 19.791968, 49.995328 ], [ 19.792992, 49.996444 ], [ 19.792993, 49.996445 ], [ 19.792994, 49.996445 ], [ 19.794999, 49.996431 ], [ 19.795004, 49.996432 ], [ 19.795008, 49.996433 ], [ 19.795011, 49.996436 ], [ 19.796029, 49.997544 ], [ 19.796031, 49.997547 ], [ 19.796031, 49.997551 ], [ 19.796029, 49.997553 ], [ 19.795048, 49.998676 ], [ 19.795045, 49.998678 ], [ 19.795041, 49.99868 ], [ 19.795036, 49.99868 ], [ 19.793031, 49.998694 ], [ 19.79303, 49.998694 ], [ 19.793029, 49.998695 ], [ 19.792042, 49.999825 ], [ 19.792041, 49.999825 ], [ 19.792042, 49.999826 ], [ 19.793063, 50.000939 ], [ 19.793065, 50.000942 ], [ 19.793065, 50.000945 ], [ 19.793063, 50.000948 ], [ 19.792079, 50.002074 ], [ 19.792078, 50.002074 ], [ 19.792079, 50.002075 ], [ 19.7931, 50.003188 ], [ 19.793102, 50.003191 ], [ 19.793102, 50.003194 ], [ 19.7931, 50.003197 ], [ 19.792116, 50.004323 ], [ 19.792115, 50.004323 ], [ 19.792116, 50.004324 ], [ 19.793137, 50.005437 ], [ 19.793139, 50.005439 ], [ 19.793139, 50.005443 ], [ 19.793137, 50.005446 ], [ 19.792153, 50.006572 ], [ 19.792152, 50.006572 ], [ 19.792153, 50.006573 ], [ 19.793174, 50.007686 ], [ 19.793176, 50.007688 ], [ 19.793176, 50.007692 ], [ 19.793174, 50.007695 ], [ 19.79219, 50.008821 ], [ 19.792189, 50.008821 ], [ 19.79219, 50.008822 ], [ 19.793211, 50.009935 ], [ 19.793213, 50.009937 ], [ 19.793213, 50.009941 ], [ 19.793211, 50.009944 ], [ 19.792227, 50.01107 ], [ 19.792226, 50.01107 ], [ 19.792227, 50.011071 ], [ 19.793248, 50.012183 ], [ 19.79325, 50.012186 ], [ 19.79325, 50.01219 ], [ 19.793248, 50.012192 ], [ 19.792264, 50.013319 ], [ 19.792263, 50.013319 ], [ 19.792264, 50.01332 ], [ 19.793285, 50.014432 ], [ 19.793287, 50.014435 ], [ 19.793287, 50.014438 ], [ 19.793285, 50.014441 ], [ 19.792301, 50.015568 ], [ 19.7923, 50.015568 ], [ 19.792301, 50.015569 ], [ 19.793325, 50.016685 ], [ 19.793326, 50.016686 ], [ 19.793327, 50.016686 ], [ 19.795333, 50.016672 ], [ 19.795338, 50.016673 ], [ 19.795342, 50.016674 ], [ 19.795345, 50.016677 ], [ 19.796367, 50.017789 ], [ 19.796367, 50.01779 ], [ 19.796369, 50.01779 ], [ 19.798374, 50.017776 ], [ 19.798379, 50.017776 ], [ 19.798383, 50.017778 ], [ 19.798387, 50.01778 ], [ 19.799405, 50.018889 ], [ 19.799406, 50.018892 ], [ 19.799406, 50.018895 ], [ 19.799405, 50.018898 ], [ 19.79842, 50.020024 ], [ 19.79842, 50.020025 ], [ 19.79842, 50.020025 ], [ 19.799442, 50.021138 ], [ 19.799444, 50.021141 ], [ 19.799444, 50.021144 ], [ 19.799442, 50.021147 ], [ 19.798458, 50.022273 ], [ 19.798457, 50.022274 ], [ 19.798458, 50.022274 ], [ 19.799483, 50.023391 ], [ 19.799483, 50.023391 ], [ 19.799485, 50.023391 ], [ 19.801491, 50.023377 ], [ 19.801495, 50.023378 ], [ 19.8015, 50.023379 ], [ 19.801503, 50.023382 ], [ 19.802521, 50.02449 ], [ 19.802523, 50.024493 ], [ 19.802523, 50.024496 ], [ 19.802521, 50.024499 ], [ 19.801537, 50.025626 ], [ 19.801536, 50.025626 ], [ 19.801537, 50.025627 ], [ 19.802562, 50.026743 ], [ 19.802563, 50.026744 ], [ 19.802564, 50.026744 ], [ 19.80457, 50.02673 ], [ 19.804575, 50.02673 ], [ 19.804579, 50.026732 ], [ 19.804582, 50.026734 ], [ 19.805604, 50.027847 ], [ 19.805605, 50.027847 ], [ 19.805606, 50.027847 ], [ 19.807619, 50.027833 ], [ 19.80762, 50.027833 ], [ 19.807621, 50.027833 ], [ 19.808605, 50.026706 ], [ 19.808608, 50.026704 ], [ 19.808612, 50.026702 ], [ 19.808617, 50.026702 ], [ 19.810617, 50.026688 ], [ 19.810621, 50.026688 ], [ 19.810626, 50.02669 ], [ 19.810629, 50.026692 ], [ 19.811651, 50.027805 ], [ 19.811652, 50.027805 ], [ 19.811653, 50.027805 ], [ 19.813666, 50.027791 ], [ 19.813667, 50.027791 ], [ 19.813668, 50.02779 ], [ 19.814655, 50.02666 ], [ 19.814656, 50.02666 ], [ 19.814655, 50.026659 ], [ 19.813633, 50.025547 ], [ 19.813631, 50.025544 ], [ 19.813631, 50.025541 ], [ 19.813633, 50.025538 ], [ 19.814614, 50.024415 ], [ 19.814617, 50.024413 ], [ 19.814621, 50.024411 ], [ 19.814626, 50.024411 ], [ 19.816632, 50.024396 ], [ 19.816633, 50.024396 ], [ 19.816634, 50.024396 ], [ 19.817621, 50.023266 ], [ 19.817622, 50.023265 ], [ 19.817621, 50.023264 ], [ 19.816599, 50.022152 ], [ 19.816597, 50.022149 ], [ 19.816597, 50.022146 ], [ 19.816599, 50.022143 ], [ 19.81758, 50.02102 ], [ 19.817583, 50.021018 ], [ 19.817587, 50.021016 ], [ 19.817592, 50.021016 ], [ 19.819591, 50.021002 ], [ 19.819596, 50.021002 ], [ 19.8196, 50.021004 ], [ 19.819603, 50.021006 ], [ 19.820625, 50.022118 ], [ 19.820626, 50.022119 ], [ 19.820627, 50.022119 ], [ 19.822633, 50.022105 ], [ 19.822638, 50.022105 ], [ 19.822642, 50.022107 ], [ 19.822645, 50.022109 ], [ 19.823667, 50.023221 ], [ 19.823668, 50.023222 ], [ 19.823669, 50.023222 ], [ 19.825675, 50.023208 ], [ 19.82568, 50.023208 ], [ 19.825684, 50.02321 ], [ 19.825687, 50.023212 ], [ 19.826706, 50.024321 ], [ 19.826708, 50.024324 ], [ 19.826708, 50.024327 ], [ 19.826706, 50.02433 ], [ 19.825722, 50.025456 ], [ 19.825722, 50.025457 ], [ 19.825722, 50.025457 ], [ 19.826745, 50.02657 ], [ 19.826746, 50.026573 ], [ 19.826746, 50.026576 ], [ 19.826745, 50.026579 ], [ 19.825761, 50.027705 ], [ 19.825761, 50.027706 ], [ 19.825761, 50.027706 ], [ 19.826783, 50.028819 ], [ 19.826785, 50.028821 ], [ 19.826785, 50.028825 ], [ 19.826783, 50.028828 ], [ 19.825803, 50.02995 ], [ 19.8258, 50.029953 ], [ 19.825796, 50.029954 ], [ 19.825791, 50.029955 ], [ 19.823784, 50.029969 ], [ 19.823783, 50.029969 ], [ 19.823783, 50.02997 ], [ 19.822799, 50.031096 ], [ 19.822796, 50.031098 ], [ 19.822791, 50.0311 ], [ 19.822787, 50.031101 ], [ 19.820787, 50.031115 ], [ 19.820782, 50.031114 ], [ 19.820778, 50.031113 ], [ 19.820775, 50.03111 ], [ 19.819753, 50.029998 ], [ 19.819752, 50.029998 ], [ 19.819751, 50.029998 ], [ 19.817738, 50.030012 ], [ 19.817736, 50.030012 ], [ 19.817736, 50.030012 ], [ 19.816751, 50.031139 ], [ 19.816748, 50.031141 ], [ 19.816744, 50.031143 ], [ 19.816739, 50.031143 ], [ 19.814733, 50.031157 ], [ 19.814732, 50.031158 ], [ 19.814731, 50.031158 ], [ 19.813744, 50.032288 ], [ 19.813743, 50.032289 ], [ 19.813744, 50.03229 ], [ 19.814766, 50.033402 ], [ 19.814767, 50.033405 ], [ 19.814768, 50.033408 ], [ 19.814766, 50.033411 ], [ 19.813785, 50.034533 ], [ 19.813782, 50.034536 ], [ 19.813778, 50.034537 ], [ 19.813773, 50.034538 ], [ 19.811766, 50.034552 ], [ 19.811765, 50.034552 ], [ 19.811765, 50.034553 ], [ 19.810777, 50.035683 ], [ 19.810776, 50.035684 ], [ 19.810777, 50.035684 ], [ 19.811799, 50.036797 ], [ 19.811801, 50.036799 ], [ 19.811801, 50.036803 ], [ 19.811799, 50.036806 ], [ 19.810815, 50.037932 ], [ 19.810814, 50.037933 ], [ 19.810815, 50.037933 ], [ 19.811837, 50.039046 ], [ 19.811839, 50.039048 ], [ 19.811839, 50.039052 ], [ 19.811837, 50.039055 ], [ 19.810856, 50.040177 ], [ 19.810853, 50.040179 ], [ 19.810849, 50.040181 ], [ 19.810844, 50.040182 ], [ 19.808837, 50.040196 ], [ 19.808836, 50.040196 ], [ 19.808835, 50.040196 ], [ 19.807847, 50.041326 ], [ 19.807847, 50.041327 ], [ 19.807847, 50.041328 ], [ 19.80887, 50.04244 ], [ 19.808871, 50.042443 ], [ 19.808871, 50.042446 ], [ 19.80887, 50.042449 ], [ 19.807885, 50.043575 ], [ 19.807885, 50.043576 ], [ 19.807885, 50.043577 ], [ 19.808911, 50.044693 ], [ 19.808912, 50.044693 ], [ 19.808913, 50.044693 ], [ 19.81092, 50.044679 ], [ 19.810924, 50.04468 ], [ 19.810929, 50.044682 ], [ 19.810932, 50.044684 ], [ 19.811954, 50.045796 ], [ 19.811955, 50.045797 ], [ 19.811956, 50.045797 ], [ 19.813963, 50.045783 ], [ 19.813968, 50.045783 ], [ 19.813972, 50.045785 ], [ 19.813975, 50.045787 ], [ 19.814994, 50.046896 ], [ 19.814996, 50.046899 ], [ 19.814996, 50.046902 ], [ 19.814994, 50.046905 ], [ 19.81401, 50.048031 ], [ 19.814009, 50.048032 ], [ 19.81401, 50.048032 ], [ 19.815036, 50.049148 ], [ 19.815037, 50.049149 ], [ 19.815038, 50.049149 ], [ 19.817045, 50.049135 ], [ 19.81705, 50.049135 ], [ 19.817054, 50.049137 ], [ 19.817057, 50.049139 ], [ 19.818076, 50.050248 ], [ 19.818078, 50.050251 ], [ 19.818078, 50.050254 ], [ 19.818076, 50.050257 ], [ 19.817092, 50.051383 ], [ 19.817091, 50.051384 ], [ 19.817092, 50.051384 ], [ 19.818114, 50.052497 ], [ 19.818116, 50.0525 ], [ 19.818116, 50.052503 ], [ 19.818114, 50.052506 ], [ 19.81713, 50.053632 ], [ 19.817129, 50.053633 ], [ 19.81713, 50.053633 ], [ 19.818153, 50.054746 ], [ 19.818154, 50.054749 ], [ 19.818154, 50.054752 ], [ 19.818153, 50.054755 ], [ 19.817168, 50.055881 ], [ 19.817168, 50.055882 ], [ 19.817168, 50.055882 ], [ 19.818191, 50.056995 ], [ 19.818193, 50.056998 ], [ 19.818193, 50.057001 ], [ 19.818191, 50.057004 ], [ 19.81721, 50.058126 ], [ 19.817207, 50.058129 ], [ 19.817202, 50.05813 ], [ 19.817198, 50.058131 ], [ 19.815197, 50.058145 ], [ 19.815192, 50.058144 ], [ 19.815188, 50.058143 ], [ 19.815185, 50.05814 ], [ 19.814162, 50.057028 ], [ 19.814161, 50.057028 ], [ 19.81416, 50.057027 ], [ 19.812146, 50.057042 ], [ 19.812145, 50.057042 ], [ 19.812144, 50.057042 ], [ 19.811159, 50.058169 ], [ 19.811156, 50.058171 ], [ 19.811152, 50.058173 ], [ 19.811147, 50.058173 ], [ 19.809139, 50.058187 ], [ 19.809138, 50.058187 ], [ 19.809138, 50.058188 ], [ 19.808153, 50.059314 ], [ 19.80815, 50.059317 ], [ 19.808145, 50.059318 ], [ 19.808141, 50.059319 ], [ 19.806133, 50.059333 ], [ 19.806132, 50.059333 ], [ 19.806131, 50.059333 ], [ 19.805146, 50.06046 ], [ 19.805143, 50.060462 ], [ 19.805139, 50.060464 ], [ 19.805134, 50.060464 ], [ 19.803127, 50.060478 ], [ 19.803125, 50.060478 ], [ 19.803125, 50.060479 ], [ 19.802136, 50.061609 ], [ 19.802136, 50.06161 ], [ 19.802136, 50.06161 ], [ 19.803159, 50.062723 ], [ 19.80316, 50.062726 ], [ 19.80316, 50.062729 ], [ 19.803159, 50.062732 ], [ 19.802174, 50.063858 ], [ 19.802173, 50.063858 ], [ 19.802174, 50.063859 ], [ 19.803196, 50.064972 ], [ 19.803198, 50.064974 ], [ 19.803198, 50.064978 ], [ 19.803196, 50.064981 ], [ 19.802215, 50.066103 ], [ 19.802211, 50.066105 ], [ 19.802207, 50.066107 ], [ 19.802203, 50.066107 ], [ 19.800195, 50.066121 ], [ 19.800194, 50.066121 ], [ 19.800193, 50.066122 ], [ 19.799204, 50.067252 ], [ 19.799204, 50.067253 ], [ 19.799204, 50.067253 ], [ 19.800227, 50.068366 ], [ 19.800228, 50.068369 ], [ 19.800228, 50.068372 ], [ 19.800227, 50.068375 ], [ 19.799241, 50.069501 ], [ 19.799241, 50.069502 ], [ 19.799242, 50.069502 ], [ 19.800268, 50.070619 ], [ 19.800268, 50.070619 ], [ 19.800269, 50.070619 ], [ 19.802278, 50.070605 ], [ 19.802282, 50.070606 ], [ 19.802287, 50.070607 ], [ 19.80229, 50.07061 ], [ 19.803312, 50.071722 ], [ 19.803313, 50.071723 ], [ 19.803314, 50.071723 ], [ 19.805322, 50.071709 ], [ 19.805327, 50.071709 ], [ 19.805331, 50.071711 ], [ 19.805335, 50.071713 ], [ 19.806354, 50.072822 ], [ 19.806356, 50.072825 ], [ 19.806356, 50.072828 ], [ 19.806354, 50.072831 ], [ 19.805369, 50.073957 ], [ 19.805368, 50.073958 ], [ 19.805369, 50.073958 ], [ 19.806392, 50.075071 ], [ 19.806393, 50.075074 ], [ 19.806393, 50.075077 ], [ 19.806392, 50.07508 ], [ 19.805406, 50.076206 ], [ 19.805406, 50.076207 ], [ 19.805406, 50.076207 ], [ 19.806429, 50.07732 ], [ 19.806431, 50.077323 ], [ 19.806431, 50.077326 ], [ 19.80643, 50.077329 ], [ 19.805444, 50.078455 ], [ 19.805444, 50.078456 ], [ 19.805444, 50.078456 ], [ 19.806471, 50.079572 ], [ 19.806471, 50.079573 ], [ 19.806472, 50.079573 ], [ 19.808481, 50.079559 ], [ 19.808486, 50.07956 ], [ 19.80849, 50.079561 ], [ 19.808493, 50.079564 ], [ 19.809516, 50.080676 ], [ 19.809517, 50.080676 ], [ 19.809518, 50.080676 ], [ 19.811526, 50.080662 ], [ 19.811531, 50.080663 ], [ 19.811536, 50.080665 ], [ 19.811539, 50.080667 ], [ 19.812562, 50.081779 ], [ 19.812563, 50.08178 ], [ 19.812564, 50.08178 ], [ 19.814572, 50.081766 ], [ 19.814577, 50.081766 ], [ 19.814581, 50.081768 ], [ 19.814584, 50.08177 ], [ 19.815608, 50.082882 ], [ 19.815608, 50.082883 ], [ 19.815609, 50.082883 ], [ 19.817618, 50.082869 ], [ 19.817623, 50.082869 ], [ 19.817627, 50.082871 ], [ 19.81763, 50.082873 ], [ 19.818654, 50.083986 ], [ 19.818654, 50.083986 ], [ 19.818655, 50.083986 ], [ 19.820664, 50.083972 ], [ 19.820669, 50.083973 ], [ 19.820673, 50.083974 ], [ 19.820676, 50.083976 ], [ 19.8217, 50.085089 ], [ 19.8217, 50.085089 ], [ 19.821702, 50.085089 ], [ 19.82371, 50.085075 ], [ 19.823715, 50.085076 ], [ 19.823719, 50.085077 ], [ 19.823722, 50.085079 ], [ 19.824746, 50.086192 ], [ 19.824747, 50.086192 ], [ 19.824748, 50.086192 ], [ 19.826756, 50.086178 ], [ 19.826761, 50.086179 ], [ 19.826766, 50.08618 ], [ 19.826769, 50.086182 ], [ 19.827789, 50.087291 ], [ 19.827791, 50.087294 ], [ 19.827791, 50.087297 ], [ 19.827789, 50.0873 ], [ 19.826804, 50.088426 ], [ 19.826803, 50.088427 ], [ 19.826804, 50.088428 ], [ 19.827831, 50.089543 ], [ 19.827832, 50.089544 ], [ 19.827833, 50.089544 ], [ 19.829842, 50.08953 ], [ 19.829847, 50.08953 ], [ 19.829851, 50.089532 ], [ 19.829854, 50.089534 ], [ 19.830878, 50.090646 ], [ 19.830878, 50.090647 ], [ 19.83088, 50.090647 ], [ 19.832888, 50.090633 ], [ 19.832893, 50.090633 ], [ 19.832897, 50.090635 ], [ 19.832901, 50.090637 ], [ 19.833925, 50.091749 ], [ 19.833925, 50.09175 ], [ 19.833926, 50.09175 ], [ 19.835935, 50.091735 ], [ 19.83594, 50.091736 ], [ 19.835944, 50.091737 ], [ 19.835947, 50.09174 ], [ 19.836971, 50.092852 ], [ 19.836972, 50.092852 ], [ 19.836973, 50.092852 ], [ 19.838982, 50.092838 ], [ 19.838987, 50.092838 ], [ 19.838991, 50.09284 ], [ 19.838994, 50.092842 ], [ 19.840019, 50.093954 ], [ 19.840019, 50.093955 ], [ 19.84002, 50.093955 ], [ 19.842036, 50.09394 ], [ 19.842037, 50.09394 ], [ 19.842038, 50.09394 ], [ 19.843023, 50.092813 ], [ 19.843026, 50.092811 ], [ 19.84303, 50.092809 ], [ 19.843035, 50.092809 ], [ 19.845037, 50.092794 ], [ 19.845042, 50.092794 ], [ 19.845046, 50.092796 ], [ 19.845049, 50.092798 ], [ 19.846074, 50.09391 ], [ 19.846074, 50.093911 ], [ 19.846075, 50.093911 ], [ 19.848084, 50.093896 ], [ 19.848089, 50.093897 ], [ 19.848093, 50.093898 ], [ 19.848097, 50.093901 ], [ 19.849121, 50.095013 ], [ 19.849122, 50.095013 ], [ 19.849123, 50.095013 ], [ 19.851132, 50.094999 ], [ 19.851137, 50.094999 ], [ 19.851141, 50.095001 ], [ 19.851144, 50.095003 ], [ 19.852168, 50.096115 ], [ 19.852169, 50.096115 ], [ 19.85217, 50.096116 ], [ 19.854186, 50.096101 ], [ 19.854187, 50.096101 ], [ 19.854188, 50.0961 ], [ 19.855173, 50.094973 ], [ 19.855176, 50.094971 ], [ 19.85518, 50.094969 ], [ 19.855185, 50.094969 ], [ 19.857194, 50.094954 ], [ 19.857195, 50.094954 ], [ 19.857196, 50.094953 ], [ 19.85818, 50.093827 ], [ 19.858183, 50.093824 ], [ 19.858187, 50.093823 ], [ 19.858192, 50.093822 ], [ 19.860194, 50.093807 ], [ 19.860199, 50.093808 ], [ 19.860203, 50.093809 ], [ 19.860206, 50.093812 ], [ 19.861231, 50.094923 ], [ 19.861232, 50.094924 ], [ 19.861233, 50.094924 ], [ 19.863242, 50.094909 ], [ 19.863247, 50.09491 ], [ 19.863251, 50.094911 ], [ 19.863254, 50.094914 ], [ 19.864275, 50.096022 ], [ 19.864277, 50.096025 ], [ 19.864277, 50.096028 ], [ 19.864275, 50.096031 ], [ 19.863291, 50.097157 ], [ 19.863291, 50.097158 ], [ 19.863291, 50.097159 ], [ 19.864316, 50.098271 ], [ 19.864317, 50.098273 ], [ 19.864318, 50.098277 ], [ 19.864316, 50.09828 ], [ 19.863331, 50.099406 ], [ 19.863331, 50.099407 ], [ 19.863331, 50.099408 ], [ 19.864356, 50.100519 ], [ 19.864358, 50.100522 ], [ 19.864358, 50.100525 ], [ 19.864356, 50.100528 ], [ 19.863375, 50.101651 ], [ 19.863372, 50.101654 ], [ 19.863368, 50.101655 ], [ 19.863363, 50.101656 ], [ 19.861354, 50.101671 ], [ 19.861353, 50.101671 ], [ 19.861352, 50.101672 ], [ 19.860364, 50.102802 ], [ 19.860364, 50.102803 ], [ 19.860364, 50.102803 ], [ 19.861389, 50.103915 ], [ 19.861391, 50.103918 ], [ 19.861391, 50.103921 ], [ 19.861389, 50.103924 ], [ 19.860404, 50.105051 ], [ 19.860404, 50.105052 ], [ 19.860404, 50.105052 ], [ 19.861429, 50.106164 ], [ 19.861431, 50.106167 ], [ 19.861431, 50.10617 ], [ 19.861429, 50.106173 ], [ 19.860445, 50.1073 ], [ 19.860444, 50.107301 ], [ 19.860445, 50.107301 ], [ 19.861473, 50.108417 ], [ 19.861474, 50.108417 ], [ 19.861475, 50.108418 ], [ 19.863484, 50.108403 ], [ 19.863489, 50.108403 ], [ 19.863493, 50.108405 ], [ 19.863497, 50.108407 ], [ 19.864522, 50.109519 ], [ 19.864522, 50.109519 ], [ 19.864523, 50.109519 ], [ 19.866533, 50.109504 ], [ 19.866538, 50.109505 ], [ 19.866542, 50.109507 ], [ 19.866545, 50.109509 ], [ 19.86757, 50.110621 ], [ 19.867571, 50.110621 ], [ 19.867572, 50.110621 ], [ 19.869582, 50.110606 ], [ 19.869587, 50.110607 ], [ 19.869591, 50.110608 ], [ 19.869594, 50.110611 ], [ 19.870619, 50.111722 ], [ 19.87062, 50.111723 ], [ 19.870621, 50.111723 ], [ 19.872631, 50.111708 ], [ 19.872636, 50.111708 ], [ 19.87264, 50.11171 ], [ 19.872643, 50.111712 ], [ 19.873668, 50.112824 ], [ 19.873669, 50.112825 ], [ 19.87367, 50.112825 ], [ 19.87568, 50.11281 ], [ 19.875685, 50.11281 ], [ 19.875689, 50.112812 ], [ 19.875692, 50.112814 ], [ 19.876714, 50.113922 ], [ 19.876716, 50.113925 ], [ 19.876716, 50.113928 ], [ 19.876714, 50.113931 ], [ 19.87573, 50.115058 ], [ 19.875729, 50.115058 ], [ 19.87573, 50.115059 ], [ 19.876755, 50.116171 ], [ 19.876757, 50.116174 ], [ 19.876757, 50.116177 ], [ 19.876755, 50.11618 ], [ 19.875771, 50.117307 ], [ 19.87577, 50.117307 ], [ 19.875771, 50.117308 ], [ 19.8768, 50.118423 ], [ 19.8768, 50.118424 ], [ 19.876801, 50.118424 ], [ 19.878812, 50.118409 ], [ 19.878816, 50.118409 ], [ 19.878821, 50.118411 ], [ 19.878824, 50.118413 ], [ 19.879846, 50.119521 ], [ 19.879847, 50.119524 ], [ 19.879848, 50.119527 ], [ 19.879846, 50.11953 ], [ 19.878861, 50.120657 ], [ 19.878861, 50.120658 ], [ 19.878861, 50.120658 ], [ 19.87989, 50.121774 ], [ 19.879891, 50.121774 ], [ 19.879892, 50.121775 ], [ 19.881902, 50.121759 ], [ 19.881907, 50.12176 ], [ 19.881912, 50.121761 ], [ 19.881915, 50.121764 ], [ 19.88294, 50.122875 ], [ 19.882941, 50.122876 ], [ 19.882942, 50.122876 ], [ 19.884952, 50.122861 ], [ 19.884957, 50.122861 ], [ 19.884961, 50.122863 ], [ 19.884965, 50.122865 ], [ 19.88599, 50.123977 ], [ 19.885991, 50.123977 ], [ 19.885992, 50.123977 ], [ 19.888002, 50.123962 ], [ 19.888007, 50.123962 ], [ 19.888012, 50.123964 ], [ 19.888015, 50.123966 ], [ 19.889041, 50.125078 ], [ 19.889041, 50.125079 ], [ 19.889042, 50.125079 ], [ 19.891053, 50.125063 ], [ 19.891058, 50.125064 ], [ 19.891062, 50.125065 ], [ 19.891065, 50.125068 ], [ 19.892091, 50.126179 ], [ 19.892092, 50.12618 ], [ 19.892093, 50.12618 ], [ 19.89411, 50.126164 ], [ 19.894111, 50.126164 ], [ 19.894112, 50.126164 ], [ 19.895096, 50.125037 ], [ 19.895099, 50.125034 ], [ 19.895103, 50.125033 ], [ 19.895108, 50.125032 ], [ 19.897112, 50.125017 ], [ 19.897116, 50.125017 ], [ 19.897121, 50.125019 ], [ 19.897124, 50.125021 ], [ 19.89815, 50.126132 ], [ 19.898151, 50.126133 ], [ 19.898152, 50.126133 ], [ 19.900169, 50.126118 ], [ 19.90017, 50.126117 ], [ 19.900171, 50.126117 ], [ 19.901155, 50.12499 ], [ 19.901158, 50.124987 ], [ 19.901162, 50.124986 ], [ 19.901167, 50.124985 ], [ 19.903177, 50.12497 ], [ 19.903178, 50.124969 ], [ 19.903179, 50.124969 ], [ 19.904163, 50.123842 ], [ 19.904166, 50.123839 ], [ 19.90417, 50.123838 ], [ 19.904175, 50.123837 ], [ 19.906185, 50.123822 ], [ 19.906186, 50.123821 ], [ 19.906187, 50.123821 ], [ 19.907174, 50.12269 ], [ 19.907175, 50.122689 ], [ 19.907174, 50.122689 ], [ 19.906148, 50.121577 ], [ 19.906147, 50.121574 ], [ 19.906146, 50.121571 ], [ 19.906148, 50.121568 ], [ 19.907129, 50.120445 ], [ 19.907132, 50.120442 ], [ 19.907136, 50.120441 ], [ 19.907141, 50.12044 ], [ 19.909151, 50.120425 ], [ 19.909152, 50.120424 ], [ 19.909153, 50.120424 ], [ 19.91014, 50.119293 ], [ 19.91014, 50.119292 ], [ 19.91014, 50.119292 ], [ 19.909114, 50.11818 ], [ 19.909112, 50.118177 ], [ 19.909112, 50.118174 ], [ 19.909113, 50.118171 ], [ 19.910094, 50.117048 ], [ 19.910097, 50.117045 ], [ 19.910101, 50.117044 ], [ 19.910106, 50.117043 ], [ 19.912116, 50.117028 ], [ 19.912117, 50.117027 ], [ 19.912118, 50.117027 ], [ 19.913105, 50.115896 ], [ 19.913105, 50.115895 ], [ 19.913105, 50.115894 ], [ 19.912078, 50.114783 ], [ 19.912077, 50.11478 ], [ 19.912077, 50.114777 ], [ 19.912078, 50.114774 ], [ 19.913062, 50.113647 ], [ 19.913062, 50.113646 ], [ 19.913062, 50.113646 ], [ 19.912036, 50.112534 ], [ 19.912034, 50.112531 ], [ 19.912034, 50.112528 ], [ 19.912035, 50.112525 ], [ 19.913016, 50.111402 ], [ 19.913019, 50.1114 ], [ 19.913023, 50.111398 ], [ 19.913028, 50.111397 ], [ 19.915037, 50.111382 ], [ 19.915039, 50.111381 ], [ 19.915039, 50.111381 ], [ 19.916026, 50.11025 ], [ 19.916027, 50.110249 ], [ 19.916026, 50.110248 ], [ 19.915, 50.109137 ], [ 19.914998, 50.109134 ], [ 19.914998, 50.109131 ], [ 19.915, 50.109128 ], [ 19.915983, 50.108001 ], [ 19.915984, 50.108 ], [ 19.915983, 50.108 ], [ 19.914957, 50.106888 ], [ 19.914955, 50.106885 ], [ 19.914955, 50.106882 ], [ 19.914957, 50.106879 ], [ 19.91594, 50.105752 ], [ 19.915941, 50.105751 ], [ 19.91594, 50.105751 ], [ 19.914914, 50.104639 ], [ 19.914913, 50.104636 ], [ 19.914912, 50.104633 ], [ 19.914914, 50.10463 ], [ 19.915897, 50.103503 ], [ 19.915898, 50.103503 ], [ 19.915897, 50.103502 ], [ 19.914871, 50.102391 ], [ 19.91487, 50.102388 ], [ 19.91487, 50.102385 ], [ 19.914871, 50.102382 ], [ 19.915851, 50.101258 ], [ 19.915854, 50.101256 ], [ 19.915858, 50.101254 ], [ 19.915863, 50.101254 ], [ 19.917866, 50.101238 ], [ 19.91787, 50.101238 ], [ 19.917875, 50.10124 ], [ 19.917878, 50.101242 ], [ 19.918904, 50.102354 ], [ 19.918905, 50.102354 ], [ 19.918906, 50.102354 ], [ 19.920915, 50.102338 ], [ 19.92092, 50.102339 ], [ 19.920924, 50.10234 ], [ 19.920927, 50.102343 ], [ 19.92195, 50.10345 ], [ 19.921952, 50.103453 ], [ 19.921952, 50.103456 ], [ 19.92195, 50.103459 ], [ 19.920967, 50.104586 ], [ 19.920967, 50.104587 ], [ 19.920967, 50.104588 ], [ 19.921997, 50.105703 ], [ 19.921997, 50.105703 ], [ 19.921999, 50.105703 ], [ 19.924008, 50.105687 ], [ 19.924013, 50.105688 ], [ 19.924017, 50.10569 ], [ 19.92402, 50.105692 ], [ 19.925043, 50.106799 ], [ 19.925045, 50.106802 ], [ 19.925045, 50.106805 ], [ 19.925043, 50.106808 ], [ 19.92406, 50.107936 ], [ 19.92406, 50.107936 ], [ 19.92406, 50.107937 ], [ 19.925086, 50.109048 ], [ 19.925088, 50.109051 ], [ 19.925088, 50.109054 ], [ 19.925086, 50.109057 ], [ 19.924107, 50.110181 ], [ 19.924103, 50.110183 ], [ 19.924099, 50.110185 ], [ 19.924095, 50.110185 ], [ 19.922085, 50.110201 ], [ 19.922084, 50.110201 ], [ 19.922083, 50.110202 ], [ 19.921096, 50.111333 ], [ 19.921096, 50.111334 ], [ 19.921096, 50.111334 ], [ 19.922123, 50.112446 ], [ 19.922124, 50.112449 ], [ 19.922124, 50.112452 ], [ 19.922123, 50.112455 ], [ 19.921139, 50.113582 ], [ 19.921139, 50.113582 ], [ 19.92114, 50.113583 ], [ 19.922169, 50.114698 ], [ 19.92217, 50.114699 ], [ 19.922171, 50.114699 ], [ 19.924181, 50.114683 ], [ 19.924186, 50.114683 ], [ 19.92419, 50.114685 ], [ 19.924193, 50.114687 ], [ 19.92522, 50.115799 ], [ 19.925221, 50.115799 ], [ 19.925222, 50.115799 ], [ 19.927238, 50.115783 ], [ 19.92724, 50.115783 ], [ 19.92724, 50.115782 ], [ 19.928224, 50.114655 ], [ 19.928227, 50.114653 ], [ 19.928231, 50.114651 ], [ 19.928236, 50.114651 ], [ 19.930239, 50.114635 ], [ 19.930243, 50.114635 ], [ 19.930248, 50.114637 ], [ 19.930251, 50.114639 ], [ 19.931277, 50.11575 ], [ 19.931278, 50.115751 ], [ 19.931279, 50.115751 ], [ 19.933289, 50.115735 ], [ 19.933294, 50.115735 ], [ 19.933298, 50.115737 ], [ 19.933301, 50.115739 ], [ 19.934328, 50.11685 ], [ 19.934329, 50.116851 ], [ 19.93433, 50.116851 ], [ 19.93634, 50.116835 ], [ 19.936345, 50.116835 ], [ 19.936349, 50.116837 ], [ 19.936352, 50.116839 ], [ 19.937375, 50.117946 ], [ 19.937377, 50.117949 ], [ 19.937377, 50.117952 ], [ 19.937376, 50.117955 ], [ 19.936392, 50.119083 ], [ 19.936392, 50.119083 ], [ 19.936392, 50.119084 ], [ 19.937423, 50.120199 ], [ 19.937424, 50.1202 ], [ 19.937425, 50.1202 ], [ 19.939442, 50.120183 ], [ 19.939443, 50.120183 ], [ 19.939443, 50.120183 ], [ 19.940426, 50.119055 ], [ 19.94043, 50.119053 ], [ 19.940434, 50.119051 ], [ 19.940439, 50.119051 ], [ 19.942442, 50.119035 ], [ 19.942446, 50.119035 ], [ 19.942451, 50.119037 ], [ 19.942454, 50.119039 ], [ 19.943481, 50.12015 ], [ 19.943482, 50.120151 ], [ 19.943483, 50.120151 ], [ 19.945493, 50.120134 ], [ 19.945498, 50.120135 ], [ 19.945502, 50.120136 ], [ 19.945505, 50.120139 ], [ 19.946532, 50.12125 ], [ 19.946533, 50.12125 ], [ 19.946534, 50.12125 ], [ 19.948551, 50.121234 ], [ 19.948552, 50.121234 ], [ 19.948553, 50.121233 ], [ 19.949539, 50.120102 ], [ 19.949539, 50.120101 ], [ 19.949539, 50.120101 ], [ 19.948512, 50.11899 ], [ 19.94851, 50.118987 ], [ 19.94851, 50.118984 ], [ 19.948512, 50.118981 ], [ 19.949491, 50.117857 ], [ 19.949494, 50.117855 ], [ 19.949498, 50.117853 ], [ 19.949503, 50.117852 ], [ 19.951513, 50.117836 ], [ 19.951514, 50.117836 ], [ 19.951515, 50.117835 ], [ 19.952501, 50.116704 ], [ 19.952501, 50.116703 ], [ 19.952501, 50.116703 ], [ 19.951474, 50.115592 ], [ 19.951472, 50.115589 ], [ 19.951472, 50.115586 ], [ 19.951474, 50.115583 ], [ 19.952453, 50.114459 ], [ 19.952456, 50.114457 ], [ 19.95246, 50.114455 ], [ 19.952465, 50.114454 ], [ 19.954475, 50.114438 ], [ 19.954476, 50.114438 ], [ 19.954477, 50.114437 ], [ 19.955459, 50.11331 ], [ 19.955463, 50.113307 ], [ 19.955467, 50.113306 ], [ 19.955471, 50.113305 ], [ 19.957481, 50.113288 ], [ 19.957482, 50.113288 ], [ 19.957483, 50.113288 ], [ 19.958469, 50.112156 ], [ 19.958469, 50.112156 ], [ 19.958469, 50.112155 ], [ 19.957442, 50.111044 ], [ 19.95744, 50.111041 ], [ 19.95744, 50.111038 ], [ 19.957442, 50.111035 ], [ 19.958421, 50.109911 ], [ 19.958424, 50.109909 ], [ 19.958428, 50.109907 ], [ 19.958433, 50.109907 ], [ 19.960436, 50.10989 ], [ 19.96044, 50.109891 ], [ 19.960445, 50.109892 ], [ 19.960448, 50.109895 ], [ 19.961475, 50.111006 ], [ 19.961476, 50.111006 ], [ 19.961477, 50.111006 ], [ 19.963493, 50.11099 ], [ 19.963494, 50.110989 ], [ 19.963495, 50.110989 ], [ 19.964478, 50.109861 ], [ 19.964481, 50.109859 ], [ 19.964485, 50.109857 ], [ 19.96449, 50.109857 ], [ 19.966492, 50.10984 ], [ 19.966497, 50.109841 ], [ 19.966501, 50.109842 ], [ 19.966505, 50.109844 ], [ 19.967532, 50.110955 ], [ 19.967533, 50.110956 ], [ 19.967534, 50.110956 ], [ 19.96955, 50.110939 ], [ 19.969551, 50.110939 ], [ 19.969552, 50.110938 ], [ 19.970538, 50.109807 ], [ 19.970538, 50.109806 ], [ 19.970538, 50.109806 ], [ 19.96951, 50.108695 ], [ 19.969508, 50.108692 ], [ 19.969508, 50.108689 ], [ 19.96951, 50.108686 ], [ 19.970489, 50.107562 ], [ 19.970492, 50.10756 ], [ 19.970496, 50.107558 ], [ 19.970501, 50.107557 ], [ 19.972504, 50.107541 ], [ 19.972508, 50.107541 ], [ 19.972513, 50.107543 ], [ 19.972516, 50.107545 ], [ 19.973543, 50.108656 ], [ 19.973544, 50.108656 ], [ 19.973545, 50.108656 ], [ 19.975561, 50.10864 ], [ 19.975563, 50.108639 ], [ 19.975563, 50.108639 ], [ 19.976545, 50.107511 ], [ 19.976548, 50.107509 ], [ 19.976553, 50.107507 ], [ 19.976557, 50.107507 ], [ 19.978567, 50.10749 ], [ 19.978568, 50.10749 ], [ 19.978569, 50.107489 ], [ 19.979551, 50.106361 ], [ 19.979554, 50.106359 ], [ 19.979558, 50.106357 ], [ 19.979563, 50.106357 ], [ 19.981565, 50.10634 ], [ 19.98157, 50.10634 ], [ 19.981574, 50.106342 ], [ 19.981577, 50.106344 ], [ 19.982605, 50.107455 ], [ 19.982606, 50.107455 ], [ 19.982607, 50.107456 ], [ 19.984623, 50.107438 ], [ 19.984624, 50.107438 ], [ 19.984625, 50.107438 ], [ 19.985607, 50.10631 ], [ 19.98561, 50.106308 ], [ 19.985614, 50.106306 ], [ 19.985619, 50.106305 ], [ 19.987622, 50.106288 ], [ 19.987626, 50.106289 ], [ 19.987631, 50.10629 ], [ 19.987634, 50.106293 ], [ 19.988661, 50.107403 ], [ 19.988662, 50.107404 ], [ 19.988663, 50.107404 ], [ 19.990673, 50.107387 ], [ 19.990678, 50.107388 ], [ 19.990682, 50.107389 ], [ 19.990685, 50.107391 ], [ 19.991713, 50.108502 ], [ 19.991714, 50.108503 ], [ 19.991715, 50.108503 ], [ 19.993731, 50.108485 ], [ 19.993732, 50.108485 ], [ 19.993733, 50.108485 ], [ 19.994715, 50.107357 ], [ 19.994718, 50.107355 ], [ 19.994722, 50.107353 ], [ 19.994727, 50.107352 ], [ 19.996729, 50.107335 ], [ 19.996734, 50.107336 ], [ 19.996738, 50.107337 ], [ 19.996741, 50.10734 ], [ 19.997769, 50.10845 ], [ 19.99777, 50.108451 ], [ 19.997771, 50.108451 ], [ 19.999788, 50.108433 ], [ 19.999789, 50.108433 ], [ 19.99979, 50.108433 ], [ 20.000771, 50.107305 ], [ 20.000774, 50.107302 ], [ 20.000778, 50.107301 ], [ 20.000783, 50.1073 ], [ 20.002786, 50.107283 ], [ 20.00279, 50.107284 ], [ 20.002795, 50.107285 ], [ 20.002798, 50.107287 ], [ 20.003826, 50.108398 ], [ 20.003827, 50.108399 ], [ 20.003828, 50.108399 ], [ 20.005844, 50.108381 ], [ 20.005845, 50.108381 ], [ 20.005846, 50.10838 ], [ 20.006827, 50.107253 ], [ 20.00683, 50.10725 ], [ 20.006835, 50.107249 ], [ 20.006839, 50.107248 ], [ 20.008842, 50.107231 ], [ 20.008847, 50.107231 ], [ 20.008851, 50.107233 ], [ 20.008854, 50.107235 ], [ 20.009883, 50.108345 ], [ 20.009883, 50.108346 ], [ 20.009884, 50.108346 ], [ 20.011901, 50.108329 ], [ 20.011902, 50.108328 ], [ 20.011903, 50.108328 ], [ 20.012884, 50.1072 ], [ 20.012887, 50.107197 ], [ 20.012891, 50.107196 ], [ 20.012896, 50.107195 ], [ 20.014898, 50.107178 ], [ 20.014903, 50.107178 ], [ 20.014907, 50.10718 ], [ 20.014911, 50.107182 ], [ 20.015939, 50.108293 ], [ 20.01594, 50.108293 ], [ 20.015941, 50.108293 ], [ 20.017957, 50.108276 ], [ 20.017958, 50.108275 ], [ 20.017959, 50.108275 ], [ 20.01894, 50.107147 ], [ 20.018943, 50.107144 ], [ 20.018947, 50.107143 ], [ 20.018952, 50.107142 ], [ 20.020962, 50.107125 ], [ 20.020963, 50.107124 ], [ 20.020963, 50.107124 ], [ 20.021944, 50.105996 ], [ 20.021947, 50.105993 ], [ 20.021952, 50.105992 ], [ 20.021956, 50.105991 ], [ 20.023966, 50.105974 ], [ 20.023967, 50.105973 ], [ 20.023968, 50.105973 ], [ 20.024948, 50.104845 ], [ 20.024951, 50.104842 ], [ 20.024956, 50.104841 ], [ 20.02496, 50.10484 ], [ 20.026963, 50.104822 ], [ 20.026968, 50.104823 ], [ 20.026972, 50.104824 ], [ 20.026975, 50.104827 ], [ 20.028, 50.105933 ], [ 20.028002, 50.105936 ], [ 20.028002, 50.105939 ], [ 20.028, 50.105942 ], [ 20.02702, 50.107071 ], [ 20.027019, 50.107071 ], [ 20.02702, 50.107072 ], [ 20.028052, 50.108186 ], [ 20.028053, 50.108187 ], [ 20.028054, 50.108187 ], [ 20.030063, 50.108169 ], [ 20.030068, 50.108169 ], [ 20.030072, 50.108171 ], [ 20.030075, 50.108173 ], [ 20.031104, 50.109284 ], [ 20.031105, 50.109284 ], [ 20.031106, 50.109284 ], [ 20.033116, 50.109266 ], [ 20.03312, 50.109267 ], [ 20.033125, 50.109268 ], [ 20.033128, 50.109271 ], [ 20.034153, 50.110377 ], [ 20.034155, 50.11038 ], [ 20.034155, 50.110383 ], [ 20.034153, 50.110386 ], [ 20.033173, 50.111514 ], [ 20.033172, 50.111515 ], [ 20.033173, 50.111516 ], [ 20.034205, 50.11263 ], [ 20.034206, 50.11263 ], [ 20.034207, 50.11263 ], [ 20.036217, 50.112612 ], [ 20.036222, 50.112613 ], [ 20.036226, 50.112615 ], [ 20.036229, 50.112617 ], [ 20.037258, 50.113727 ], [ 20.037259, 50.113728 ], [ 20.03726, 50.113728 ], [ 20.03927, 50.11371 ], [ 20.039274, 50.11371 ], [ 20.039279, 50.113712 ], [ 20.039282, 50.113714 ], [ 20.040311, 50.114824 ], [ 20.040312, 50.114825 ], [ 20.040313, 50.114825 ], [ 20.042329, 50.114807 ], [ 20.042331, 50.114807 ], [ 20.042331, 50.114806 ], [ 20.043312, 50.113678 ], [ 20.043315, 50.113676 ], [ 20.043319, 50.113674 ], [ 20.043324, 50.113673 ], [ 20.045334, 50.113655 ], [ 20.045335, 50.113655 ], [ 20.045335, 50.113655 ], [ 20.046319, 50.112523 ], [ 20.04632, 50.112522 ], [ 20.046319, 50.112521 ], [ 20.04529, 50.111411 ], [ 20.045288, 50.111408 ], [ 20.045288, 50.111405 ], [ 20.04529, 50.111402 ], [ 20.046267, 50.110278 ], [ 20.04627, 50.110275 ], [ 20.046274, 50.110274 ], [ 20.046279, 50.110273 ], [ 20.048282, 50.110255 ], [ 20.048286, 50.110255 ], [ 20.048291, 50.110257 ], [ 20.048294, 50.110259 ], [ 20.049323, 50.111369 ], [ 20.049324, 50.11137 ], [ 20.049325, 50.11137 ], [ 20.051335, 50.111352 ], [ 20.051339, 50.111352 ], [ 20.051344, 50.111354 ], [ 20.051347, 50.111356 ], [ 20.052373, 50.112463 ], [ 20.052374, 50.112466 ], [ 20.052374, 50.112469 ], [ 20.052373, 50.112472 ], [ 20.051392, 50.1136 ], [ 20.051392, 50.113601 ], [ 20.051393, 50.113601 ], [ 20.052425, 50.114715 ], [ 20.052426, 50.114716 ], [ 20.052427, 50.114716 ], [ 20.054437, 50.114698 ], [ 20.054442, 50.114698 ], [ 20.054446, 50.1147 ], [ 20.054449, 50.114702 ], [ 20.055479, 50.115812 ], [ 20.055479, 50.115813 ], [ 20.055481, 50.115813 ], [ 20.05749, 50.115794 ], [ 20.057495, 50.115795 ], [ 20.057499, 50.115797 ], [ 20.057503, 50.115799 ], [ 20.058532, 50.116909 ], [ 20.058533, 50.116909 ], [ 20.058534, 50.11691 ], [ 20.060551, 50.116891 ], [ 20.060552, 50.116891 ], [ 20.060553, 50.11689 ], [ 20.061533, 50.115762 ], [ 20.061536, 50.11576 ], [ 20.06154, 50.115758 ], [ 20.061545, 50.115757 ], [ 20.063555, 50.115739 ], [ 20.063556, 50.115739 ], [ 20.063556, 50.115738 ], [ 20.064537, 50.11461 ], [ 20.06454, 50.114608 ], [ 20.064544, 50.114606 ], [ 20.064549, 50.114605 ], [ 20.066551, 50.114587 ], [ 20.066556, 50.114588 ], [ 20.06656, 50.114589 ], [ 20.066564, 50.114591 ], [ 20.067593, 50.115701 ], [ 20.067594, 50.115702 ], [ 20.067595, 50.115702 ], [ 20.069612, 50.115683 ], [ 20.069613, 50.115683 ], [ 20.069614, 50.115683 ], [ 20.070594, 50.114554 ], [ 20.070597, 50.114552 ], [ 20.070601, 50.11455 ], [ 20.070606, 50.11455 ], [ 20.072615, 50.114531 ], [ 20.072617, 50.114531 ], [ 20.072617, 50.11453 ], [ 20.073597, 50.113402 ], [ 20.0736, 50.1134 ], [ 20.073604, 50.113398 ], [ 20.073609, 50.113397 ], [ 20.075612, 50.113379 ], [ 20.075617, 50.113379 ], [ 20.075621, 50.113381 ], [ 20.075624, 50.113383 ], [ 20.076654, 50.114493 ], [ 20.076655, 50.114494 ], [ 20.076656, 50.114494 ], [ 20.078673, 50.114475 ], [ 20.078674, 50.114475 ], [ 20.078674, 50.114474 ], [ 20.079654, 50.113346 ], [ 20.079657, 50.113343 ], [ 20.079661, 50.113342 ], [ 20.079666, 50.113341 ], [ 20.081676, 50.113322 ], [ 20.081677, 50.113322 ], [ 20.081678, 50.113322 ], [ 20.082657, 50.112193 ], [ 20.08266, 50.112191 ], [ 20.082665, 50.112189 ], [ 20.082669, 50.112189 ], [ 20.084672, 50.11217 ], [ 20.084677, 50.11217 ], [ 20.084681, 50.112172 ], [ 20.084684, 50.112174 ], [ 20.085714, 50.113284 ], [ 20.085715, 50.113285 ], [ 20.085716, 50.113285 ], [ 20.087726, 50.113266 ], [ 20.087731, 50.113266 ], [ 20.087735, 50.113268 ], [ 20.087738, 50.11327 ], [ 20.088768, 50.11438 ], [ 20.088769, 50.114381 ], [ 20.08877, 50.114381 ], [ 20.09078, 50.114362 ], [ 20.090785, 50.114362 ], [ 20.090789, 50.114364 ], [ 20.090792, 50.114366 ], [ 20.091819, 50.115472 ], [ 20.091821, 50.115475 ], [ 20.091821, 50.115478 ], [ 20.091819, 50.115481 ], [ 20.09084, 50.11661 ], [ 20.090839, 50.116611 ], [ 20.09084, 50.116611 ], [ 20.091874, 50.117725 ], [ 20.091874, 50.117725 ], [ 20.091876, 50.117725 ], [ 20.093885, 50.117707 ], [ 20.09389, 50.117707 ], [ 20.093894, 50.117709 ], [ 20.093898, 50.117711 ], [ 20.094925, 50.118817 ], [ 20.094926, 50.11882 ], [ 20.094926, 50.118823 ], [ 20.094925, 50.118826 ], [ 20.093945, 50.119954 ], [ 20.093945, 50.119955 ], [ 20.093945, 50.119956 ], [ 20.094979, 50.121069 ], [ 20.09498, 50.12107 ], [ 20.094981, 50.12107 ], [ 20.096998, 50.121051 ], [ 20.096999, 50.121051 ], [ 20.097, 50.12105 ], [ 20.097979, 50.119922 ], [ 20.097982, 50.119919 ], [ 20.097987, 50.119918 ], [ 20.097991, 50.119917 ], [ 20.100001, 50.119898 ], [ 20.100002, 50.119898 ], [ 20.100003, 50.119897 ], [ 20.100982, 50.118769 ], [ 20.100985, 50.118766 ], [ 20.10099, 50.118765 ], [ 20.100994, 50.118764 ], [ 20.102997, 50.118745 ], [ 20.103002, 50.118745 ], [ 20.103007, 50.118747 ], [ 20.10301, 50.118749 ], [ 20.10404, 50.119859 ], [ 20.104041, 50.119859 ], [ 20.104042, 50.11986 ], [ 20.106059, 50.11984 ], [ 20.10606, 50.11984 ], [ 20.106061, 50.11984 ], [ 20.10704, 50.118711 ], [ 20.107043, 50.118709 ], [ 20.107047, 50.118707 ], [ 20.107052, 50.118706 ], [ 20.109062, 50.118687 ], [ 20.109063, 50.118687 ], [ 20.109064, 50.118686 ], [ 20.110043, 50.117558 ], [ 20.110046, 50.117555 ], [ 20.11005, 50.117554 ], [ 20.110055, 50.117553 ], [ 20.112058, 50.117534 ], [ 20.112063, 50.117534 ], [ 20.112067, 50.117536 ], [ 20.11207, 50.117538 ], [ 20.113101, 50.118648 ], [ 20.113102, 50.118648 ], [ 20.113103, 50.118648 ], [ 20.11512, 50.118629 ], [ 20.115121, 50.118629 ], [ 20.115121, 50.118628 ], [ 20.1161, 50.1175 ], [ 20.116103, 50.117497 ], [ 20.116108, 50.117496 ], [ 20.116112, 50.117495 ], [ 20.118115, 50.117476 ], [ 20.11812, 50.117476 ], [ 20.118124, 50.117478 ], [ 20.118128, 50.11748 ], [ 20.119159, 50.11859 ], [ 20.119159, 50.11859 ], [ 20.11916, 50.11859 ], [ 20.121177, 50.118571 ], [ 20.121178, 50.118571 ], [ 20.121179, 50.11857 ], [ 20.122161, 50.117437 ], [ 20.122161, 50.117437 ], [ 20.122161, 50.117436 ], [ 20.12113, 50.116327 ], [ 20.121128, 50.116324 ], [ 20.121128, 50.11632 ], [ 20.12113, 50.116318 ], [ 20.122109, 50.115189 ], [ 20.122109, 50.115188 ], [ 20.122108, 50.115187 ], [ 20.121077, 50.114078 ], [ 20.121076, 50.114075 ], [ 20.121076, 50.114072 ], [ 20.121077, 50.114069 ], [ 20.122056, 50.11294 ], [ 20.122056, 50.112939 ], [ 20.122056, 50.112939 ], [ 20.121025, 50.111829 ], [ 20.121023, 50.111826 ], [ 20.121023, 50.111823 ], [ 20.121025, 50.11182 ], [ 20.122, 50.110695 ], [ 20.122003, 50.110693 ], [ 20.122007, 50.110691 ], [ 20.122012, 50.11069 ], [ 20.124022, 50.110671 ], [ 20.124023, 50.110671 ], [ 20.124023, 50.11067 ], [ 20.125002, 50.109541 ], [ 20.125005, 50.109539 ], [ 20.125009, 50.109537 ], [ 20.125014, 50.109537 ], [ 20.127024, 50.109517 ], [ 20.127025, 50.109517 ], [ 20.127025, 50.109517 ], [ 20.128004, 50.108388 ], [ 20.128007, 50.108385 ], [ 20.128011, 50.108384 ], [ 20.128016, 50.108383 ], [ 20.130025, 50.108364 ], [ 20.130026, 50.108363 ], [ 20.130027, 50.108363 ], [ 20.131005, 50.107234 ], [ 20.131009, 50.107231 ], [ 20.131013, 50.10723 ], [ 20.131017, 50.107229 ], [ 20.13302, 50.10721 ], [ 20.133025, 50.10721 ], [ 20.133029, 50.107212 ], [ 20.133032, 50.107214 ], [ 20.134063, 50.108323 ], [ 20.134064, 50.108324 ], [ 20.134065, 50.108324 ], [ 20.136082, 50.108304 ], [ 20.136083, 50.108304 ], [ 20.136083, 50.108304 ], [ 20.137062, 50.107175 ], [ 20.137065, 50.107172 ], [ 20.137069, 50.107171 ], [ 20.137074, 50.10717 ], [ 20.139076, 50.10715 ], [ 20.139081, 50.107151 ], [ 20.139085, 50.107152 ], [ 20.139088, 50.107155 ], [ 20.14012, 50.108264 ], [ 20.14012, 50.108265 ], [ 20.140121, 50.108265 ], [ 20.142131, 50.108245 ], [ 20.142136, 50.108246 ], [ 20.14214, 50.108247 ], [ 20.142143, 50.108249 ], [ 20.143171, 50.109355 ], [ 20.143173, 50.109358 ], [ 20.143173, 50.109361 ], [ 20.143171, 50.109364 ], [ 20.142193, 50.110493 ], [ 20.142193, 50.110494 ], [ 20.142193, 50.110494 ], [ 20.143225, 50.111604 ], [ 20.143226, 50.111607 ], [ 20.143226, 50.11161 ], [ 20.143225, 50.111613 ], [ 20.142247, 50.112742 ], [ 20.142246, 50.112742 ], [ 20.142247, 50.112743 ], [ 20.143282, 50.113856 ], [ 20.143282, 50.113857 ], [ 20.143283, 50.113857 ], [ 20.145293, 50.113837 ], [ 20.145298, 50.113837 ], [ 20.145302, 50.113839 ], [ 20.145305, 50.113841 ], [ 20.146333, 50.114947 ], [ 20.146335, 50.11495 ], [ 20.146335, 50.114953 ], [ 20.146334, 50.114956 ], [ 20.145355, 50.116085 ], [ 20.145355, 50.116086 ], [ 20.145355, 50.116086 ], [ 20.146391, 50.117199 ], [ 20.146391, 50.1172 ], [ 20.146392, 50.1172 ], [ 20.148402, 50.11718 ], [ 20.148407, 50.117181 ], [ 20.148411, 50.117182 ], [ 20.148414, 50.117184 ], [ 20.149446, 50.118294 ], [ 20.149447, 50.118294 ], [ 20.149448, 50.118294 ], [ 20.151458, 50.118274 ], [ 20.151463, 50.118275 ], [ 20.151467, 50.118276 ], [ 20.15147, 50.118279 ], [ 20.152498, 50.119384 ], [ 20.1525, 50.119387 ], [ 20.1525, 50.11939 ], [ 20.152499, 50.119393 ], [ 20.15152, 50.120522 ], [ 20.15152, 50.120523 ], [ 20.151521, 50.120524 ], [ 20.152556, 50.121637 ], [ 20.152557, 50.121637 ], [ 20.152558, 50.121637 ], [ 20.154575, 50.121617 ], [ 20.154576, 50.121617 ], [ 20.154576, 50.121617 ], [ 20.155554, 50.120487 ], [ 20.155558, 50.120485 ], [ 20.155562, 50.120483 ], [ 20.155566, 50.120483 ], [ 20.15757, 50.120463 ], [ 20.157574, 50.120463 ], [ 20.157579, 50.120465 ], [ 20.157582, 50.120467 ], [ 20.15861, 50.121573 ], [ 20.158612, 50.121576 ], [ 20.158612, 50.121579 ], [ 20.15861, 50.121582 ], [ 20.157632, 50.122711 ], [ 20.157632, 50.122712 ], [ 20.157633, 50.122712 ], [ 20.158668, 50.123825 ], [ 20.158669, 50.123826 ], [ 20.15867, 50.123826 ], [ 20.160687, 50.123806 ], [ 20.160688, 50.123805 ], [ 20.160689, 50.123805 ], [ 20.161667, 50.122676 ], [ 20.16167, 50.122673 ], [ 20.161674, 50.122672 ], [ 20.161679, 50.122671 ], [ 20.163682, 50.122651 ], [ 20.163687, 50.122652 ], [ 20.163691, 50.122653 ], [ 20.163694, 50.122655 ], [ 20.164726, 50.123764 ], [ 20.164727, 50.123765 ], [ 20.164728, 50.123765 ], [ 20.166745, 50.123745 ], [ 20.166746, 50.123745 ], [ 20.166747, 50.123744 ], [ 20.167725, 50.122615 ], [ 20.167728, 50.122613 ], [ 20.167732, 50.122611 ], [ 20.167737, 50.12261 ], [ 20.169747, 50.12259 ], [ 20.169748, 50.12259 ], [ 20.169748, 50.122589 ], [ 20.170726, 50.12146 ], [ 20.170729, 50.121458 ], [ 20.170733, 50.121456 ], [ 20.170738, 50.121455 ], [ 20.172748, 50.121435 ], [ 20.172749, 50.121435 ], [ 20.17275, 50.121435 ], [ 20.173728, 50.120305 ], [ 20.173731, 50.120303 ], [ 20.173735, 50.120301 ], [ 20.17374, 50.120301 ], [ 20.175743, 50.12028 ], [ 20.175747, 50.120281 ], [ 20.175752, 50.120282 ], [ 20.175755, 50.120285 ], [ 20.176787, 50.121394 ], [ 20.176788, 50.121394 ], [ 20.176789, 50.121394 ], [ 20.178806, 50.121374 ], [ 20.178807, 50.121374 ], [ 20.178808, 50.121373 ], [ 20.179789, 50.12024 ], [ 20.179789, 50.120239 ], [ 20.179789, 50.120239 ], [ 20.178756, 50.11913 ], [ 20.178754, 50.119127 ], [ 20.178754, 50.119124 ], [ 20.178756, 50.119121 ], [ 20.17973, 50.117995 ], [ 20.179733, 50.117993 ], [ 20.179737, 50.117991 ], [ 20.179742, 50.117991 ], [ 20.181745, 50.11797 ], [ 20.18175, 50.117971 ], [ 20.181754, 50.117972 ], [ 20.181757, 50.117975 ], [ 20.18279, 50.119083 ], [ 20.18279, 50.119084 ], [ 20.182792, 50.119084 ], [ 20.184801, 50.119064 ], [ 20.184806, 50.119064 ], [ 20.18481, 50.119066 ], [ 20.184814, 50.119068 ], [ 20.185846, 50.120177 ], [ 20.185847, 50.120177 ], [ 20.185848, 50.120178 ], [ 20.187865, 50.120157 ], [ 20.187866, 50.120157 ], [ 20.187867, 50.120156 ], [ 20.188844, 50.119027 ], [ 20.188847, 50.119024 ], [ 20.188851, 50.119023 ], [ 20.188856, 50.119022 ], [ 20.190859, 50.119002 ], [ 20.190864, 50.119002 ], [ 20.190868, 50.119004 ], [ 20.190871, 50.119006 ], [ 20.191904, 50.120115 ], [ 20.191905, 50.120115 ], [ 20.191906, 50.120116 ], [ 20.193916, 50.120095 ], [ 20.19392, 50.120095 ], [ 20.193925, 50.120097 ], [ 20.193928, 50.120099 ], [ 20.194961, 50.121208 ], [ 20.194961, 50.121209 ], [ 20.194962, 50.121209 ], [ 20.196972, 50.121188 ], [ 20.196977, 50.121188 ], [ 20.196981, 50.12119 ], [ 20.196985, 50.121192 ], [ 20.198018, 50.122301 ], [ 20.198018, 50.122302 ], [ 20.198019, 50.122302 ], [ 20.200036, 50.122281 ], [ 20.200037, 50.122281 ], [ 20.200038, 50.12228 ], [ 20.201015, 50.121151 ], [ 20.201018, 50.121148 ], [ 20.201022, 50.121147 ], [ 20.201027, 50.121146 ], [ 20.203037, 50.121125 ], [ 20.203038, 50.121125 ], [ 20.203039, 50.121125 ], [ 20.204019, 50.119991 ], [ 20.204019, 50.119991 ], [ 20.204019, 50.11999 ], [ 20.202986, 50.118881 ], [ 20.202984, 50.118878 ], [ 20.202984, 50.118875 ], [ 20.202986, 50.118872 ], [ 20.203959, 50.117746 ], [ 20.203962, 50.117744 ], [ 20.203967, 50.117742 ], [ 20.203971, 50.117742 ], [ 20.205981, 50.117721 ], [ 20.205982, 50.117721 ], [ 20.205983, 50.11772 ], [ 20.20696, 50.116591 ], [ 20.206963, 50.116588 ], [ 20.206967, 50.116587 ], [ 20.206972, 50.116586 ], [ 20.208981, 50.116565 ], [ 20.208983, 50.116565 ], [ 20.208983, 50.116564 ], [ 20.209963, 50.115431 ], [ 20.209964, 50.11543 ], [ 20.209963, 50.11543 ], [ 20.20893, 50.114321 ], [ 20.208928, 50.114318 ], [ 20.208928, 50.114315 ], [ 20.20893, 50.114312 ], [ 20.209907, 50.113182 ], [ 20.209907, 50.113182 ], [ 20.209907, 50.113181 ], [ 20.20887, 50.112068 ], [ 20.208869, 50.112068 ], [ 20.208868, 50.112068 ], [ 20.206859, 50.112089 ], [ 20.206854, 50.112088 ], [ 20.20685, 50.112087 ], [ 20.206846, 50.112084 ], [ 20.205814, 50.110976 ], [ 20.205813, 50.110975 ], [ 20.205812, 50.110975 ], [ 20.203802, 50.110996 ], [ 20.203797, 50.110995 ], [ 20.203793, 50.110994 ], [ 20.20379, 50.110991 ], [ 20.202757, 50.109883 ], [ 20.202756, 50.109882 ], [ 20.202755, 50.109882 ], [ 20.200746, 50.109903 ], [ 20.200741, 50.109902 ], [ 20.200737, 50.109901 ], [ 20.200734, 50.109899 ], [ 20.199704, 50.108794 ], [ 20.199703, 50.108791 ], [ 20.199703, 50.108787 ], [ 20.199704, 50.108785 ], [ 20.200681, 50.107655 ], [ 20.200681, 50.107654 ], [ 20.200681, 50.107654 ], [ 20.199645, 50.106541 ], [ 20.199644, 50.106541 ], [ 20.199643, 50.10654 ], [ 20.197634, 50.106561 ], [ 20.197629, 50.106561 ], [ 20.197624, 50.106559 ], [ 20.197621, 50.106557 ], [ 20.196592, 50.105452 ], [ 20.196591, 50.105449 ], [ 20.19659, 50.105446 ], [ 20.196592, 50.105443 ], [ 20.197569, 50.104313 ], [ 20.197569, 50.104313 ], [ 20.197569, 50.104312 ], [ 20.196533, 50.103199 ], [ 20.196532, 50.103199 ], [ 20.196531, 50.103199 ], [ 20.194522, 50.103219 ], [ 20.194517, 50.103219 ], [ 20.194513, 50.103217 ], [ 20.194509, 50.103215 ], [ 20.193481, 50.10211 ], [ 20.193479, 50.102107 ], [ 20.193479, 50.102104 ], [ 20.19348, 50.102101 ], [ 20.194457, 50.100972 ], [ 20.194457, 50.100971 ], [ 20.194457, 50.10097 ], [ 20.193425, 50.099861 ], [ 20.193423, 50.099858 ], [ 20.193423, 50.099855 ], [ 20.193424, 50.099852 ], [ 20.194401, 50.098723 ], [ 20.194402, 50.098722 ], [ 20.194401, 50.098721 ], [ 20.193369, 50.097613 ], [ 20.193367, 50.09761 ], [ 20.193367, 50.097607 ], [ 20.193369, 50.097604 ], [ 20.194345, 50.096474 ], [ 20.194346, 50.096473 ], [ 20.194345, 50.096473 ], [ 20.193313, 50.095364 ], [ 20.193311, 50.095361 ], [ 20.193311, 50.095358 ], [ 20.193313, 50.095355 ], [ 20.194289, 50.094226 ], [ 20.19429, 50.094225 ], [ 20.194289, 50.094224 ], [ 20.193257, 50.093115 ], [ 20.193255, 50.093112 ], [ 20.193255, 50.093109 ], [ 20.193257, 50.093106 ], [ 20.194233, 50.091977 ], [ 20.194234, 50.091976 ], [ 20.194233, 50.091975 ], [ 20.193201, 50.090867 ], [ 20.1932, 50.090864 ], [ 20.193199, 50.090861 ], [ 20.193201, 50.090858 ], [ 20.194178, 50.089728 ], [ 20.194178, 50.089728 ], [ 20.194178, 50.089727 ], [ 20.193145, 50.088618 ], [ 20.193144, 50.088615 ], [ 20.193144, 50.088612 ], [ 20.193145, 50.088609 ], [ 20.194122, 50.08748 ], [ 20.194122, 50.087479 ], [ 20.194122, 50.087478 ], [ 20.193086, 50.086366 ], [ 20.193085, 50.086365 ], [ 20.193084, 50.086365 ], [ 20.191076, 50.086386 ], [ 20.191071, 50.086385 ], [ 20.191067, 50.086384 ], [ 20.191064, 50.086381 ], [ 20.190035, 50.085276 ], [ 20.190033, 50.085273 ], [ 20.190033, 50.08527 ], [ 20.190035, 50.085267 ], [ 20.191011, 50.084138 ], [ 20.191012, 50.084137 ], [ 20.191011, 50.084136 ], [ 20.189979, 50.083027 ], [ 20.189978, 50.083024 ], [ 20.189978, 50.083021 ], [ 20.189979, 50.083018 ], [ 20.190952, 50.081893 ], [ 20.190955, 50.08189 ], [ 20.19096, 50.081889 ], [ 20.190964, 50.081888 ], [ 20.192973, 50.081868 ], [ 20.192974, 50.081867 ], [ 20.192974, 50.081867 ], [ 20.193951, 50.080737 ], [ 20.193954, 50.080735 ], [ 20.193958, 50.080733 ], [ 20.193963, 50.080733 ], [ 20.195971, 50.080712 ], [ 20.195972, 50.080712 ], [ 20.195973, 50.080711 ], [ 20.196952, 50.079578 ], [ 20.196953, 50.079577 ], [ 20.196952, 50.079577 ], [ 20.19592, 50.078468 ], [ 20.195919, 50.078465 ], [ 20.195919, 50.078462 ], [ 20.19592, 50.078459 ], [ 20.196893, 50.077333 ], [ 20.196896, 50.077331 ], [ 20.1969, 50.077329 ], [ 20.196905, 50.077329 ], [ 20.198913, 50.077308 ], [ 20.198914, 50.077308 ], [ 20.198915, 50.077307 ], [ 20.199891, 50.076178 ], [ 20.199894, 50.076175 ], [ 20.199898, 50.076174 ], [ 20.199903, 50.076173 ], [ 20.201911, 50.076152 ], [ 20.201912, 50.076152 ], [ 20.201913, 50.076152 ], [ 20.202892, 50.075018 ], [ 20.202893, 50.075017 ], [ 20.202892, 50.075017 ], [ 20.201857, 50.073904 ], [ 20.201856, 50.073904 ], [ 20.201855, 50.073904 ], [ 20.199847, 50.073924 ], [ 20.199842, 50.073924 ], [ 20.199838, 50.073922 ], [ 20.199835, 50.07392 ], [ 20.198803, 50.072811 ], [ 20.198802, 50.072811 ], [ 20.198801, 50.072811 ], [ 20.196793, 50.072831 ], [ 20.196788, 50.072831 ], [ 20.196784, 50.072829 ], [ 20.196781, 50.072827 ], [ 20.195753, 50.071722 ], [ 20.195751, 50.071719 ], [ 20.195751, 50.071716 ], [ 20.195752, 50.071713 ], [ 20.196725, 50.070587 ], [ 20.196728, 50.070585 ], [ 20.196732, 50.070583 ], [ 20.196737, 50.070583 ], [ 20.198745, 50.070562 ], [ 20.198746, 50.070562 ], [ 20.198747, 50.070561 ], [ 20.199723, 50.069432 ], [ 20.199726, 50.069429 ], [ 20.19973, 50.069428 ], [ 20.199735, 50.069427 ], [ 20.201743, 50.069406 ], [ 20.201744, 50.069406 ], [ 20.201744, 50.069406 ], [ 20.202724, 50.068272 ], [ 20.202724, 50.068271 ], [ 20.202724, 50.068271 ], [ 20.201692, 50.067162 ], [ 20.20169, 50.067159 ], [ 20.20169, 50.067156 ], [ 20.201691, 50.067153 ], [ 20.202664, 50.066027 ], [ 20.202667, 50.066025 ], [ 20.202671, 50.066023 ], [ 20.202676, 50.066023 ], [ 20.204677, 50.066002 ], [ 20.204682, 50.066002 ], [ 20.204686, 50.066004 ], [ 20.204689, 50.066006 ], [ 20.205721, 50.067115 ], [ 20.205722, 50.067116 ], [ 20.205723, 50.067116 ], [ 20.207737, 50.067095 ], [ 20.207738, 50.067095 ], [ 20.207739, 50.067094 ], [ 20.208718, 50.065961 ], [ 20.208718, 50.06596 ], [ 20.208718, 50.065959 ], [ 20.207686, 50.064851 ], [ 20.207684, 50.064848 ], [ 20.207684, 50.064845 ], [ 20.207686, 50.064842 ], [ 20.208658, 50.063716 ], [ 20.208661, 50.063713 ], [ 20.208665, 50.063712 ], [ 20.20867, 50.063711 ], [ 20.210678, 50.06369 ], [ 20.210679, 50.06369 ], [ 20.21068, 50.06369 ], [ 20.211658, 50.062556 ], [ 20.211659, 50.062555 ], [ 20.211658, 50.062555 ], [ 20.210627, 50.061446 ], [ 20.210625, 50.061443 ], [ 20.210625, 50.06144 ], [ 20.210626, 50.061437 ], [ 20.211599, 50.060311 ], [ 20.211602, 50.060309 ], [ 20.211606, 50.060307 ], [ 20.211611, 50.060307 ], [ 20.213618, 50.060286 ], [ 20.213619, 50.060286 ], [ 20.21362, 50.060285 ], [ 20.214598, 50.059151 ], [ 20.214599, 50.059151 ], [ 20.214598, 50.05915 ], [ 20.213567, 50.058041 ], [ 20.213565, 50.058039 ], [ 20.213565, 50.058035 ], [ 20.213566, 50.058032 ], [ 20.214538, 50.056907 ], [ 20.214541, 50.056904 ], [ 20.214546, 50.056903 ], [ 20.21455, 50.056902 ], [ 20.216558, 50.056881 ], [ 20.216559, 50.056881 ], [ 20.216559, 50.05688 ], [ 20.217538, 50.055747 ], [ 20.217538, 50.055746 ], [ 20.217538, 50.055745 ], [ 20.216506, 50.054637 ], [ 20.216504, 50.054634 ], [ 20.216504, 50.054631 ], [ 20.216506, 50.054628 ], [ 20.217481, 50.053498 ], [ 20.217482, 50.053497 ], [ 20.217481, 50.053497 ], [ 20.216449, 50.052388 ], [ 20.216448, 50.052385 ], [ 20.216447, 50.052382 ], [ 20.216449, 50.052379 ], [ 20.217424, 50.051249 ], [ 20.217425, 50.051249 ], [ 20.217424, 50.051248 ], [ 20.216389, 50.050136 ], [ 20.216388, 50.050135 ], [ 20.216387, 50.050135 ], [ 20.21438, 50.050156 ], [ 20.214375, 50.050156 ], [ 20.214371, 50.050154 ], [ 20.214368, 50.050152 ], [ 20.21334, 50.049047 ], [ 20.213338, 50.049044 ], [ 20.213338, 50.049041 ], [ 20.213339, 50.049038 ], [ 20.214315, 50.047908 ], [ 20.214315, 50.047907 ], [ 20.214315, 50.047907 ], [ 20.213279, 50.046794 ], [ 20.213279, 50.046794 ], [ 20.213278, 50.046794 ], [ 20.211271, 50.046815 ], [ 20.211266, 50.046814 ], [ 20.211262, 50.046813 ], [ 20.211259, 50.04681 ], [ 20.210231, 50.045705 ], [ 20.210229, 50.045702 ], [ 20.210229, 50.045699 ], [ 20.21023, 50.045696 ], [ 20.211206, 50.044567 ], [ 20.211206, 50.044566 ], [ 20.211206, 50.044565 ], [ 20.21017, 50.043453 ], [ 20.21017, 50.043452 ], [ 20.210169, 50.043452 ], [ 20.208162, 50.043473 ], [ 20.208157, 50.043473 ], [ 20.208153, 50.043471 ], [ 20.20815, 50.043469 ], [ 20.207118, 50.04236 ], [ 20.207118, 50.04236 ], [ 20.207116, 50.042359 ], [ 20.205103, 50.04238 ], [ 20.205102, 50.042381 ], [ 20.205101, 50.042381 ], [ 20.204126, 50.043511 ], [ 20.204123, 50.043513 ], [ 20.204119, 50.043515 ], [ 20.204114, 50.043515 ], [ 20.202114, 50.043536 ], [ 20.202109, 50.043535 ], [ 20.202105, 50.043534 ], [ 20.202102, 50.043532 ], [ 20.201071, 50.042423 ], [ 20.20107, 50.042422 ], [ 20.201069, 50.042422 ], [ 20.199055, 50.042443 ], [ 20.199054, 50.042443 ], [ 20.199053, 50.042444 ], [ 20.198078, 50.043573 ], [ 20.198075, 50.043576 ], [ 20.198071, 50.043577 ], [ 20.198066, 50.043578 ], [ 20.196059, 50.043599 ], [ 20.196058, 50.043599 ], [ 20.196057, 50.043599 ], [ 20.195082, 50.044729 ], [ 20.195079, 50.044731 ], [ 20.195075, 50.044733 ], [ 20.19507, 50.044733 ], [ 20.193063, 50.044754 ], [ 20.193062, 50.044754 ], [ 20.193061, 50.044755 ], [ 20.192086, 50.045884 ], [ 20.192083, 50.045887 ], [ 20.192078, 50.045888 ], [ 20.192074, 50.045889 ], [ 20.190067, 50.045909 ], [ 20.190066, 50.04591 ], [ 20.190065, 50.04591 ], [ 20.189089, 50.04704 ], [ 20.189086, 50.047042 ], [ 20.189082, 50.047044 ], [ 20.189077, 50.047044 ], [ 20.187077, 50.047065 ], [ 20.187072, 50.047064 ], [ 20.187068, 50.047063 ], [ 20.187065, 50.04706 ], [ 20.186034, 50.045951 ], [ 20.186033, 50.045951 ], [ 20.186032, 50.045951 ], [ 20.184019, 50.045971 ], [ 20.184017, 50.045971 ], [ 20.184017, 50.045972 ], [ 20.183041, 50.047101 ], [ 20.183038, 50.047104 ], [ 20.183034, 50.047105 ], [ 20.183029, 50.047106 ], [ 20.181029, 50.047126 ], [ 20.181024, 50.047126 ], [ 20.18102, 50.047124 ], [ 20.181017, 50.047122 ], [ 20.179986, 50.046013 ], [ 20.179985, 50.046012 ], [ 20.179984, 50.046012 ], [ 20.177977, 50.046033 ], [ 20.177972, 50.046032 ], [ 20.177968, 50.046031 ], [ 20.177965, 50.046028 ], [ 20.176934, 50.044919 ], [ 20.176933, 50.044919 ], [ 20.176932, 50.044919 ], [ 20.174925, 50.044939 ], [ 20.174921, 50.044939 ], [ 20.174916, 50.044937 ], [ 20.174913, 50.044935 ], [ 20.173883, 50.043826 ], [ 20.173882, 50.043825 ], [ 20.173881, 50.043825 ], [ 20.171874, 50.043845 ], [ 20.171869, 50.043845 ], [ 20.171865, 50.043843 ], [ 20.171862, 50.043841 ], [ 20.170831, 50.042732 ], [ 20.17083, 50.042731 ], [ 20.170829, 50.042731 ], [ 20.168823, 50.042751 ], [ 20.168818, 50.042751 ], [ 20.168814, 50.042749 ], [ 20.16881, 50.042747 ], [ 20.16778, 50.041638 ], [ 20.167779, 50.041637 ], [ 20.167778, 50.041637 ], [ 20.165765, 50.041658 ], [ 20.165764, 50.041658 ], [ 20.165763, 50.041658 ], [ 20.164787, 50.042788 ], [ 20.164784, 50.04279 ], [ 20.164779, 50.042792 ], [ 20.164775, 50.042792 ], [ 20.162775, 50.042812 ], [ 20.16277, 50.042812 ], [ 20.162766, 50.04281 ], [ 20.162763, 50.042808 ], [ 20.161732, 50.041699 ], [ 20.161731, 50.041698 ], [ 20.16173, 50.041698 ], [ 20.159724, 50.041718 ], [ 20.159719, 50.041718 ], [ 20.159715, 50.041716 ], [ 20.159711, 50.041714 ], [ 20.158681, 50.040605 ], [ 20.15868, 50.040604 ], [ 20.158679, 50.040604 ], [ 20.156666, 50.040624 ], [ 20.156665, 50.040624 ], [ 20.156664, 50.040625 ], [ 20.155688, 50.041754 ], [ 20.155685, 50.041756 ], [ 20.15568, 50.041758 ], [ 20.155676, 50.041758 ], [ 20.153669, 50.041778 ], [ 20.153668, 50.041779 ], [ 20.153667, 50.041779 ], [ 20.152691, 50.042908 ], [ 20.152688, 50.042911 ], [ 20.152683, 50.042912 ], [ 20.152679, 50.042913 ], [ 20.150679, 50.042933 ], [ 20.150674, 50.042932 ], [ 20.15067, 50.042931 ], [ 20.150667, 50.042928 ], [ 20.149637, 50.041819 ], [ 20.149636, 50.041819 ], [ 20.149635, 50.041818 ], [ 20.147621, 50.041838 ], [ 20.14762, 50.041839 ], [ 20.147619, 50.041839 ], [ 20.146643, 50.042968 ], [ 20.14664, 50.042971 ], [ 20.146635, 50.042972 ], [ 20.146631, 50.042973 ], [ 20.144624, 50.042993 ], [ 20.144623, 50.042993 ], [ 20.144622, 50.042993 ], [ 20.143645, 50.044122 ], [ 20.143642, 50.044125 ], [ 20.143638, 50.044126 ], [ 20.143633, 50.044127 ], [ 20.141627, 50.044147 ], [ 20.141626, 50.044147 ], [ 20.141625, 50.044147 ], [ 20.140648, 50.045277 ], [ 20.140645, 50.045279 ], [ 20.140641, 50.045281 ], [ 20.140636, 50.045281 ], [ 20.138636, 50.045301 ], [ 20.138631, 50.0453 ], [ 20.138627, 50.045299 ], [ 20.138624, 50.045296 ], [ 20.137594, 50.044187 ], [ 20.137593, 50.044187 ], [ 20.137592, 50.044186 ], [ 20.135585, 50.044206 ], [ 20.135581, 50.044206 ], [ 20.135576, 50.044204 ], [ 20.135573, 50.044202 ], [ 20.134547, 50.043096 ], [ 20.134545, 50.043093 ], [ 20.134545, 50.04309 ], [ 20.134547, 50.043087 ], [ 20.135524, 50.041958 ], [ 20.135524, 50.041957 ], [ 20.135524, 50.041957 ], [ 20.13449, 50.040844 ], [ 20.13449, 50.040843 ], [ 20.134488, 50.040843 ], [ 20.132482, 50.040863 ], [ 20.132477, 50.040862 ], [ 20.132473, 50.04086 ], [ 20.13247, 50.040858 ], [ 20.13144, 50.039749 ], [ 20.131439, 50.039748 ], [ 20.131438, 50.039748 ], [ 20.129432, 50.039768 ], [ 20.129427, 50.039767 ], [ 20.129423, 50.039766 ], [ 20.129419, 50.039763 ], [ 20.12839, 50.038654 ], [ 20.128389, 50.038653 ], [ 20.128388, 50.038653 ], [ 20.126381, 50.038673 ], [ 20.126377, 50.038672 ], [ 20.126372, 50.038671 ], [ 20.126369, 50.038668 ], [ 20.12534, 50.037559 ], [ 20.125339, 50.037558 ], [ 20.125338, 50.037558 ], [ 20.123325, 50.037578 ], [ 20.123324, 50.037578 ], [ 20.123323, 50.037578 ], [ 20.122346, 50.038707 ], [ 20.122343, 50.03871 ], [ 20.122338, 50.038711 ], [ 20.122334, 50.038712 ], [ 20.120327, 50.038731 ], [ 20.120326, 50.038731 ], [ 20.120325, 50.038732 ], [ 20.119348, 50.039861 ], [ 20.119345, 50.039863 ], [ 20.119341, 50.039865 ], [ 20.119336, 50.039865 ], [ 20.117329, 50.039885 ], [ 20.117328, 50.039885 ], [ 20.117328, 50.039885 ], [ 20.11635, 50.041014 ], [ 20.116347, 50.041017 ], [ 20.116343, 50.041018 ], [ 20.116338, 50.041019 ], [ 20.114332, 50.041038 ], [ 20.114331, 50.041038 ], [ 20.11433, 50.041039 ], [ 20.113352, 50.042168 ], [ 20.113349, 50.04217 ], [ 20.113345, 50.042172 ], [ 20.11334, 50.042172 ], [ 20.111341, 50.042192 ], [ 20.111336, 50.042191 ], [ 20.111331, 50.042189 ], [ 20.111328, 50.042187 ], [ 20.110299, 50.041078 ], [ 20.110298, 50.041077 ], [ 20.110297, 50.041077 ], [ 20.108291, 50.041096 ], [ 20.108286, 50.041096 ], [ 20.108282, 50.041094 ], [ 20.108278, 50.041092 ], [ 20.107249, 50.039982 ], [ 20.107249, 50.039982 ], [ 20.107248, 50.039981 ], [ 20.105241, 50.040001 ], [ 20.105236, 50.04 ], [ 20.105232, 50.039998 ], [ 20.105229, 50.039996 ], [ 20.1042, 50.038886 ], [ 20.104199, 50.038886 ], [ 20.104198, 50.038886 ], [ 20.102191, 50.038905 ], [ 20.102187, 50.038904 ], [ 20.102182, 50.038903 ], [ 20.102179, 50.038901 ], [ 20.101154, 50.037795 ], [ 20.101152, 50.037792 ], [ 20.101152, 50.037789 ], [ 20.101154, 50.037786 ], [ 20.102131, 50.036657 ], [ 20.102132, 50.036656 ], [ 20.102131, 50.036656 ], [ 20.101099, 50.035542 ], [ 20.101098, 50.035542 ], [ 20.101097, 50.035541 ], [ 20.099084, 50.035561 ], [ 20.099083, 50.035561 ], [ 20.099082, 50.035561 ], [ 20.098104, 50.03669 ], [ 20.098101, 50.036692 ], [ 20.098097, 50.036694 ], [ 20.098092, 50.036695 ], [ 20.096092, 50.036713 ], [ 20.096088, 50.036713 ], [ 20.096083, 50.036711 ], [ 20.09608, 50.036709 ], [ 20.095052, 50.035599 ], [ 20.095051, 50.035599 ], [ 20.09505, 50.035599 ], [ 20.093036, 50.035618 ], [ 20.093035, 50.035618 ], [ 20.093035, 50.035618 ], [ 20.092057, 50.036747 ], [ 20.092054, 50.036749 ], [ 20.09205, 50.036751 ], [ 20.092045, 50.036752 ], [ 20.090038, 50.03677 ], [ 20.090037, 50.036771 ], [ 20.090037, 50.036771 ], [ 20.089055, 50.037904 ], [ 20.089055, 50.037904 ], [ 20.089055, 50.037905 ], [ 20.090084, 50.039015 ], [ 20.090086, 50.039018 ], [ 20.090086, 50.039021 ], [ 20.090084, 50.039024 ], [ 20.089106, 50.040152 ], [ 20.089106, 50.040153 ], [ 20.089106, 50.040154 ], [ 20.090135, 50.041264 ], [ 20.090137, 50.041266 ], [ 20.090137, 50.04127 ], [ 20.090135, 50.041273 ], [ 20.08916, 50.042397 ], [ 20.089157, 50.0424 ], [ 20.089153, 50.042401 ], [ 20.089148, 50.042402 ], [ 20.087148, 50.042421 ], [ 20.087144, 50.04242 ], [ 20.087139, 50.042419 ], [ 20.087136, 50.042416 ], [ 20.086108, 50.041306 ], [ 20.086107, 50.041306 ], [ 20.086106, 50.041306 ], [ 20.084099, 50.041325 ], [ 20.084094, 50.041324 ], [ 20.08409, 50.041323 ], [ 20.084087, 50.04132 ], [ 20.083062, 50.040214 ], [ 20.08306, 50.040211 ], [ 20.08306, 50.040208 ], [ 20.083062, 50.040205 ], [ 20.084036, 50.03908 ], [ 20.08404, 50.039078 ], [ 20.084044, 50.039076 ], [ 20.084048, 50.039076 ], [ 20.086055, 50.039057 ], [ 20.086056, 50.039057 ], [ 20.086057, 50.039056 ], [ 20.087038, 50.037924 ], [ 20.087039, 50.037923 ], [ 20.087038, 50.037923 ], [ 20.086006, 50.036809 ], [ 20.086005, 50.036808 ], [ 20.086004, 50.036808 ], [ 20.083998, 50.036827 ], [ 20.083993, 50.036827 ], [ 20.083989, 50.036825 ], [ 20.083986, 50.036823 ], [ 20.082961, 50.035717 ], [ 20.082959, 50.035714 ], [ 20.082959, 50.035711 ], [ 20.082961, 50.035708 ], [ 20.083939, 50.034579 ], [ 20.083939, 50.034578 ], [ 20.083939, 50.034578 ], [ 20.082907, 50.033464 ], [ 20.082906, 50.033463 ], [ 20.082905, 50.033463 ], [ 20.080898, 50.033482 ], [ 20.080894, 50.033482 ], [ 20.080889, 50.03348 ], [ 20.080886, 50.033478 ], [ 20.079858, 50.032368 ], [ 20.079857, 50.032367 ], [ 20.079856, 50.032367 ], [ 20.07785, 50.032386 ], [ 20.077845, 50.032385 ], [ 20.077841, 50.032384 ], [ 20.077838, 50.032381 ], [ 20.076809, 50.031272 ], [ 20.076809, 50.031271 ], [ 20.076808, 50.031271 ], [ 20.074801, 50.031289 ], [ 20.074796, 50.031289 ], [ 20.074792, 50.031287 ], [ 20.074789, 50.031285 ], [ 20.073764, 50.030179 ], [ 20.073763, 50.030176 ], [ 20.073763, 50.030173 ], [ 20.073764, 50.03017 ], [ 20.074742, 50.029041 ], [ 20.074743, 50.029041 ], [ 20.074742, 50.02904 ], [ 20.073711, 50.027926 ], [ 20.07371, 50.027926 ], [ 20.073709, 50.027926 ], [ 20.071703, 50.027944 ], [ 20.071698, 50.027944 ], [ 20.071694, 50.027942 ], [ 20.071691, 50.02794 ], [ 20.070666, 50.026834 ], [ 20.070664, 50.026831 ], [ 20.070664, 50.026828 ], [ 20.070666, 50.026825 ], [ 20.071644, 50.025696 ], [ 20.071645, 50.025696 ], [ 20.071644, 50.025695 ], [ 20.070613, 50.024581 ], [ 20.070612, 50.024581 ], [ 20.070611, 50.02458 ], [ 20.068605, 50.024599 ], [ 20.0686, 50.024598 ], [ 20.068596, 50.024597 ], [ 20.068593, 50.024595 ], [ 20.067568, 50.023488 ], [ 20.067567, 50.023485 ], [ 20.067567, 50.023482 ], [ 20.067568, 50.023479 ], [ 20.068543, 50.022355 ], [ 20.068546, 50.022352 ], [ 20.06855, 50.022351 ], [ 20.068555, 50.02235 ], [ 20.070561, 50.022332 ], [ 20.070562, 50.022332 ], [ 20.070563, 50.022331 ], [ 20.071544, 50.021199 ], [ 20.071544, 50.021198 ], [ 20.071544, 50.021197 ], [ 20.070516, 50.020087 ], [ 20.070515, 50.020084 ], [ 20.070514, 50.020081 ], [ 20.070516, 50.020078 ], [ 20.071494, 50.01895 ], [ 20.071494, 50.018949 ], [ 20.071494, 50.018948 ], [ 20.070466, 50.017839 ], [ 20.070465, 50.017836 ], [ 20.070464, 50.017832 ], [ 20.070466, 50.01783 ], [ 20.071444, 50.016701 ], [ 20.071444, 50.0167 ], [ 20.071444, 50.0167 ], [ 20.070416, 50.01559 ], [ 20.070415, 50.015587 ], [ 20.070415, 50.015584 ], [ 20.070416, 50.015581 ], [ 20.071394, 50.014452 ], [ 20.071394, 50.014452 ], [ 20.071394, 50.014451 ], [ 20.070366, 50.013341 ], [ 20.070365, 50.013338 ], [ 20.070365, 50.013335 ], [ 20.070366, 50.013332 ], [ 20.071344, 50.012203 ], [ 20.071344, 50.012203 ], [ 20.071344, 50.012202 ], [ 20.070316, 50.011092 ], [ 20.070315, 50.011089 ], [ 20.070315, 50.011086 ], [ 20.070316, 50.011083 ], [ 20.071294, 50.009955 ], [ 20.071294, 50.009954 ], [ 20.071294, 50.009953 ], [ 20.070263, 50.00884 ], [ 20.070262, 50.008839 ], [ 20.070261, 50.008839 ], [ 20.068256, 50.008857 ], [ 20.068251, 50.008857 ], [ 20.068247, 50.008855 ], [ 20.068244, 50.008853 ], [ 20.067216, 50.007743 ], [ 20.067215, 50.007742 ], [ 20.067214, 50.007742 ], [ 20.065209, 50.007761 ], [ 20.065204, 50.00776 ], [ 20.0652, 50.007759 ], [ 20.065197, 50.007756 ], [ 20.064173, 50.00665 ], [ 20.064171, 50.006647 ], [ 20.064171, 50.006644 ], [ 20.064173, 50.006641 ], [ 20.065151, 50.005513 ], [ 20.065151, 50.005512 ], [ 20.065151, 50.005511 ], [ 20.06412, 50.004398 ], [ 20.064119, 50.004397 ], [ 20.064118, 50.004397 ], [ 20.062113, 50.004415 ], [ 20.062108, 50.004415 ], [ 20.062104, 50.004413 ], [ 20.062101, 50.004411 ], [ 20.061073, 50.003301 ], [ 20.061073, 50.0033 ], [ 20.061071, 50.0033 ], [ 20.05906, 50.003319 ], [ 20.059058, 50.003319 ], [ 20.059058, 50.003319 ], [ 20.05808, 50.004448 ], [ 20.058077, 50.00445 ], [ 20.058073, 50.004452 ], [ 20.058068, 50.004452 ], [ 20.056069, 50.00447 ], [ 20.056065, 50.00447 ], [ 20.05606, 50.004468 ], [ 20.056057, 50.004466 ], [ 20.05503, 50.003356 ], [ 20.055029, 50.003355 ], [ 20.055028, 50.003355 ], [ 20.053023, 50.003374 ], [ 20.053018, 50.003373 ], [ 20.053014, 50.003371 ], [ 20.053011, 50.003369 ], [ 20.051984, 50.002259 ], [ 20.051983, 50.002258 ], [ 20.051982, 50.002258 ], [ 20.049977, 50.002276 ], [ 20.049972, 50.002276 ], [ 20.049968, 50.002274 ], [ 20.049965, 50.002272 ], [ 20.048941, 50.001166 ], [ 20.04894, 50.001163 ], [ 20.04894, 50.00116 ], [ 20.048941, 50.001157 ], [ 20.049919, 50.000028 ], [ 20.04992, 50.000028 ], [ 20.049919, 50.000027 ], [ 20.048889, 49.998913 ], [ 20.048888, 49.998913 ], [ 20.048887, 49.998912 ], [ 20.046882, 49.998931 ], [ 20.046877, 49.99893 ], [ 20.046873, 49.998929 ], [ 20.04687, 49.998926 ], [ 20.045843, 49.997816 ], [ 20.045843, 49.997815 ], [ 20.045841, 49.997815 ], [ 20.04383, 49.997833 ], [ 20.043829, 49.997834 ], [ 20.043828, 49.997834 ], [ 20.04285, 49.998962 ], [ 20.042847, 49.998965 ], [ 20.042842, 49.998966 ], [ 20.042838, 49.998967 ], [ 20.04084, 49.998985 ], [ 20.040835, 49.998984 ], [ 20.040831, 49.998983 ], [ 20.040827, 49.998981 ], [ 20.039801, 49.99787 ], [ 20.0398, 49.99787 ], [ 20.039799, 49.99787 ], [ 20.037787, 49.997888 ], [ 20.037786, 49.997888 ], [ 20.037785, 49.997888 ], [ 20.036807, 49.999017 ], [ 20.036804, 49.999019 ], [ 20.0368, 49.999021 ], [ 20.036795, 49.999021 ], [ 20.03479, 49.999039 ], [ 20.034789, 49.999039 ], [ 20.034788, 49.99904 ], [ 20.03381, 50.000168 ], [ 20.033807, 50.00017 ], [ 20.033803, 50.000172 ], [ 20.033798, 50.000173 ], [ 20.0318, 50.00019 ], [ 20.031795, 50.00019 ], [ 20.031791, 50.000188 ], [ 20.031787, 50.000186 ], [ 20.030761, 49.999076 ], [ 20.03076, 49.999075 ], [ 20.030759, 49.999075 ], [ 20.028754, 49.999093 ], [ 20.028749, 49.999092 ], [ 20.028745, 49.999091 ], [ 20.028742, 49.999088 ], [ 20.027716, 49.997978 ], [ 20.027715, 49.997977 ], [ 20.027714, 49.997977 ], [ 20.025702, 49.997995 ], [ 20.025701, 49.997995 ], [ 20.0257, 49.997996 ], [ 20.024718, 49.999128 ], [ 20.024718, 49.999128 ], [ 20.024718, 49.999129 ], [ 20.025745, 50.00024 ], [ 20.025746, 50.000242 ], [ 20.025746, 50.000246 ], [ 20.025745, 50.000249 ], [ 20.024769, 50.001373 ], [ 20.024766, 50.001375 ], [ 20.024762, 50.001377 ], [ 20.024757, 50.001377 ], [ 20.022752, 50.001395 ], [ 20.022751, 50.001395 ], [ 20.02275, 50.001396 ], [ 20.021772, 50.002524 ], [ 20.021769, 50.002526 ], [ 20.021764, 50.002528 ], [ 20.02176, 50.002528 ], [ 20.019761, 50.002546 ], [ 20.019757, 50.002546 ], [ 20.019752, 50.002544 ], [ 20.019749, 50.002542 ], [ 20.018723, 50.001431 ], [ 20.018722, 50.001431 ], [ 20.018721, 50.001431 ], [ 20.016709, 50.001448 ], [ 20.016708, 50.001448 ], [ 20.016707, 50.001449 ], [ 20.015728, 50.002577 ], [ 20.015725, 50.002579 ], [ 20.015721, 50.002581 ], [ 20.015716, 50.002581 ], [ 20.013718, 50.002599 ], [ 20.013713, 50.002598 ], [ 20.013709, 50.002597 ], [ 20.013706, 50.002595 ], [ 20.01268, 50.001484 ], [ 20.012679, 50.001484 ], [ 20.012678, 50.001483 ], [ 20.010666, 50.001501 ], [ 20.010665, 50.001501 ], [ 20.010664, 50.001502 ], [ 20.009685, 50.00263 ], [ 20.009682, 50.002632 ], [ 20.009678, 50.002634 ], [ 20.009673, 50.002634 ], [ 20.007675, 50.002652 ], [ 20.00767, 50.002651 ], [ 20.007666, 50.00265 ], [ 20.007663, 50.002647 ], [ 20.00664, 50.00154 ], [ 20.006639, 50.001538 ], [ 20.006639, 50.001534 ], [ 20.00664, 50.001531 ], [ 20.007619, 50.000404 ], [ 20.00762, 50.000403 ], [ 20.007619, 50.000402 ], [ 20.006593, 49.999292 ], [ 20.006592, 49.999289 ], [ 20.006592, 49.999286 ], [ 20.006593, 49.999283 ], [ 20.007569, 49.998159 ], [ 20.007572, 49.998156 ], [ 20.007576, 49.998155 ], [ 20.007581, 49.998154 ], [ 20.009586, 49.998136 ], [ 20.009587, 49.998136 ], [ 20.009588, 49.998136 ], [ 20.010567, 49.997008 ], [ 20.01057, 49.997005 ], [ 20.010574, 49.997004 ], [ 20.010579, 49.997003 ], [ 20.012584, 49.996986 ], [ 20.012585, 49.996986 ], [ 20.012585, 49.996985 ], [ 20.013568, 49.995853 ], [ 20.013568, 49.995853 ], [ 20.013568, 49.995852 ], [ 20.012542, 49.994741 ], [ 20.01254, 49.994738 ], [ 20.01254, 49.994735 ], [ 20.012542, 49.994732 ], [ 20.013517, 49.993608 ], [ 20.01352, 49.993606 ], [ 20.013524, 49.993604 ], [ 20.013529, 49.993604 ], [ 20.015534, 49.993586 ], [ 20.015535, 49.993586 ], [ 20.015536, 49.993585 ], [ 20.016518, 49.992454 ], [ 20.016518, 49.992453 ], [ 20.016518, 49.992452 ], [ 20.015492, 49.991342 ], [ 20.01549, 49.991339 ], [ 20.01549, 49.991336 ], [ 20.015492, 49.991333 ], [ 20.016467, 49.990209 ], [ 20.01647, 49.990206 ], [ 20.016474, 49.990205 ], [ 20.016479, 49.990204 ], [ 20.018484, 49.990186 ], [ 20.018485, 49.990186 ], [ 20.018485, 49.990186 ], [ 20.019467, 49.989054 ], [ 20.019468, 49.989053 ], [ 20.019467, 49.989052 ], [ 20.018441, 49.987942 ], [ 20.01844, 49.987939 ], [ 20.01844, 49.987936 ], [ 20.018441, 49.987933 ], [ 20.019417, 49.986809 ], [ 20.01942, 49.986806 ], [ 20.019424, 49.986805 ], [ 20.019429, 49.986804 ], [ 20.021433, 49.986787 ], [ 20.021434, 49.986786 ], [ 20.021435, 49.986786 ], [ 20.022417, 49.985654 ], [ 20.022417, 49.985653 ], [ 20.022417, 49.985653 ], [ 20.021387, 49.984538 ], [ 20.021386, 49.984538 ], [ 20.021385, 49.984538 ], [ 20.019381, 49.984555 ], [ 20.019376, 49.984555 ], [ 20.019372, 49.984553 ], [ 20.019369, 49.984551 ], [ 20.018343, 49.98344 ], [ 20.018342, 49.98344 ], [ 20.018341, 49.98344 ], [ 20.016337, 49.983457 ], [ 20.016332, 49.983457 ], [ 20.016328, 49.983455 ], [ 20.016325, 49.983453 ], [ 20.015302, 49.982346 ], [ 20.015301, 49.982343 ], [ 20.015301, 49.98234 ], [ 20.015302, 49.982337 ], [ 20.016281, 49.981209 ], [ 20.016281, 49.981209 ], [ 20.016281, 49.981208 ], [ 20.015252, 49.980094 ], [ 20.015251, 49.980093 ], [ 20.01525, 49.980093 ], [ 20.013246, 49.980111 ], [ 20.013241, 49.98011 ], [ 20.013237, 49.980109 ], [ 20.013233, 49.980106 ], [ 20.012211, 49.978999 ], [ 20.01221, 49.978997 ], [ 20.01221, 49.978993 ], [ 20.012211, 49.97899 ], [ 20.01319, 49.977862 ], [ 20.01319, 49.977862 ], [ 20.01319, 49.977861 ], [ 20.012161, 49.976747 ], [ 20.01216, 49.976746 ], [ 20.012159, 49.976746 ], [ 20.010155, 49.976764 ], [ 20.01015, 49.976763 ], [ 20.010146, 49.976762 ], [ 20.010143, 49.976759 ], [ 20.009121, 49.975653 ], [ 20.009119, 49.97565 ], [ 20.009119, 49.975646 ], [ 20.00912, 49.975644 ], [ 20.010099, 49.974516 ], [ 20.010099, 49.974515 ], [ 20.010099, 49.974514 ], [ 20.00907, 49.9734 ], [ 20.009069, 49.973399 ], [ 20.009068, 49.973399 ], [ 20.007058, 49.973417 ], [ 20.007056, 49.973417 ], [ 20.007056, 49.973417 ], [ 20.006077, 49.974545 ], [ 20.006074, 49.974548 ], [ 20.00607, 49.974549 ], [ 20.006065, 49.97455 ], [ 20.004068, 49.974567 ], [ 20.004063, 49.974567 ], [ 20.004059, 49.974565 ], [ 20.004056, 49.974563 ], [ 20.003031, 49.973452 ], [ 20.00303, 49.973452 ], [ 20.003029, 49.973452 ], [ 20.001025, 49.973469 ], [ 20.00102, 49.973468 ], [ 20.001016, 49.973467 ], [ 20.001013, 49.973464 ], [ 19.999987, 49.972354 ], [ 19.999987, 49.972353 ], [ 19.999986, 49.972353 ], [ 19.997975, 49.972371 ], [ 19.997974, 49.972371 ], [ 19.997973, 49.972371 ], [ 19.996994, 49.973499 ], [ 19.996991, 49.973502 ], [ 19.996987, 49.973503 ], [ 19.996982, 49.973504 ], [ 19.994985, 49.973521 ], [ 19.99498, 49.97352 ], [ 19.994976, 49.973519 ], [ 19.994973, 49.973516 ], [ 19.993948, 49.972406 ], [ 19.993947, 49.972405 ], [ 19.993946, 49.972405 ], [ 19.991942, 49.972422 ], [ 19.991937, 49.972422 ], [ 19.991933, 49.97242 ], [ 19.99193, 49.972418 ], [ 19.990905, 49.971307 ], [ 19.990904, 49.971307 ], [ 19.990903, 49.971307 ], [ 19.988893, 49.971324 ], [ 19.988892, 49.971324 ], [ 19.988891, 49.971324 ], [ 19.987912, 49.972452 ], [ 19.987909, 49.972455 ], [ 19.987905, 49.972456 ], [ 19.9879, 49.972457 ], [ 19.985903, 49.972474 ], [ 19.985898, 49.972473 ], [ 19.985894, 49.972472 ], [ 19.985891, 49.972469 ], [ 19.984866, 49.971359 ], [ 19.984865, 49.971358 ], [ 19.984864, 49.971358 ], [ 19.982853, 49.971375 ], [ 19.982852, 49.971375 ], [ 19.982852, 49.971376 ], [ 19.981872, 49.972503 ], [ 19.981869, 49.972506 ], [ 19.981865, 49.972507 ], [ 19.98186, 49.972508 ], [ 19.979856, 49.972525 ], [ 19.979855, 49.972525 ], [ 19.979855, 49.972526 ], [ 19.978872, 49.973657 ], [ 19.978872, 49.973658 ], [ 19.978872, 49.973659 ], [ 19.979897, 49.974769 ], [ 19.979899, 49.974772 ], [ 19.979899, 49.974775 ], [ 19.979897, 49.974778 ], [ 19.978918, 49.975906 ], [ 19.978917, 49.975907 ], [ 19.978918, 49.975907 ], [ 19.979943, 49.977018 ], [ 19.979944, 49.977021 ], [ 19.979944, 49.977024 ], [ 19.979943, 49.977027 ], [ 19.978963, 49.978155 ], [ 19.978963, 49.978156 ], [ 19.978963, 49.978156 ], [ 19.979988, 49.979267 ], [ 19.97999, 49.97927 ], [ 19.97999, 49.979273 ], [ 19.979988, 49.979276 ], [ 19.979012, 49.9804 ], [ 19.979009, 49.980402 ], [ 19.979005, 49.980404 ], [ 19.979, 49.980405 ], [ 19.977003, 49.980421 ], [ 19.976998, 49.980421 ], [ 19.976994, 49.980419 ], [ 19.976991, 49.980417 ], [ 19.975966, 49.979306 ], [ 19.975965, 49.979306 ], [ 19.975964, 49.979306 ], [ 19.97396, 49.979322 ], [ 19.973955, 49.979322 ], [ 19.973951, 49.97932 ], [ 19.973948, 49.979318 ], [ 19.972923, 49.978207 ], [ 19.972922, 49.978207 ], [ 19.972921, 49.978207 ], [ 19.970917, 49.978223 ], [ 19.970912, 49.978223 ], [ 19.970908, 49.978221 ], [ 19.970905, 49.978219 ], [ 19.96988, 49.977108 ], [ 19.96988, 49.977107 ], [ 19.969879, 49.977107 ], [ 19.967875, 49.977124 ], [ 19.96787, 49.977124 ], [ 19.967866, 49.977122 ], [ 19.967862, 49.97712 ], [ 19.966841, 49.976013 ], [ 19.96684, 49.97601 ], [ 19.96684, 49.976007 ], [ 19.966841, 49.976004 ], [ 19.967817, 49.97488 ], [ 19.96782, 49.974877 ], [ 19.967825, 49.974876 ], [ 19.967829, 49.974875 ], [ 19.969833, 49.974858 ], [ 19.969835, 49.974858 ], [ 19.969835, 49.974858 ], [ 19.970818, 49.973726 ], [ 19.970818, 49.973726 ], [ 19.970818, 49.973725 ], [ 19.96979, 49.97261 ], [ 19.969789, 49.97261 ], [ 19.969788, 49.97261 ], [ 19.967784, 49.972626 ], [ 19.96778, 49.972626 ], [ 19.967775, 49.972624 ], [ 19.967772, 49.972622 ], [ 19.966748, 49.971511 ], [ 19.966747, 49.97151 ], [ 19.966746, 49.97151 ], [ 19.964742, 49.971527 ], [ 19.964737, 49.971527 ], [ 19.964733, 49.971525 ], [ 19.96473, 49.971523 ], [ 19.963709, 49.970416 ], [ 19.963707, 49.970413 ], [ 19.963707, 49.970409 ], [ 19.963709, 49.970407 ], [ 19.964688, 49.969279 ], [ 19.964689, 49.969278 ], [ 19.964688, 49.969278 ], [ 19.963661, 49.968163 ], [ 19.96366, 49.968162 ], [ 19.963659, 49.968162 ], [ 19.961655, 49.968179 ], [ 19.96165, 49.968178 ], [ 19.961646, 49.968177 ], [ 19.961643, 49.968174 ], [ 19.960619, 49.967063 ], [ 19.960618, 49.967063 ], [ 19.960617, 49.967063 ], [ 19.958613, 49.967079 ], [ 19.958609, 49.967079 ], [ 19.958604, 49.967077 ], [ 19.958601, 49.967075 ], [ 19.957577, 49.965964 ], [ 19.957576, 49.965963 ], [ 19.957575, 49.965963 ], [ 19.955565, 49.96598 ], [ 19.955564, 49.96598 ], [ 19.955563, 49.965981 ], [ 19.954583, 49.967108 ], [ 19.95458, 49.967111 ], [ 19.954576, 49.967112 ], [ 19.954571, 49.967113 ], [ 19.952568, 49.967129 ], [ 19.952567, 49.967129 ], [ 19.952566, 49.96713 ], [ 19.951586, 49.968257 ], [ 19.951583, 49.96826 ], [ 19.951579, 49.968261 ], [ 19.951574, 49.968262 ], [ 19.94957, 49.968278 ], [ 19.949569, 49.968278 ], [ 19.949569, 49.968279 ], [ 19.948589, 49.969407 ], [ 19.948586, 49.969409 ], [ 19.948581, 49.969411 ], [ 19.948577, 49.969411 ], [ 19.946573, 49.969427 ], [ 19.946572, 49.969428 ], [ 19.946571, 49.969428 ], [ 19.945591, 49.970556 ], [ 19.945588, 49.970558 ], [ 19.945584, 49.97056 ], [ 19.945579, 49.97056 ], [ 19.943575, 49.970577 ], [ 19.943574, 49.970577 ], [ 19.943573, 49.970577 ], [ 19.942593, 49.971705 ], [ 19.94259, 49.971707 ], [ 19.942586, 49.971709 ], [ 19.942581, 49.971709 ], [ 19.940578, 49.971725 ], [ 19.940576, 49.971726 ], [ 19.940576, 49.971726 ], [ 19.939596, 49.972854 ], [ 19.939592, 49.972856 ], [ 19.939588, 49.972858 ], [ 19.939584, 49.972858 ], [ 19.93758, 49.972874 ], [ 19.937579, 49.972875 ], [ 19.937578, 49.972875 ], [ 19.936598, 49.974002 ], [ 19.936595, 49.974005 ], [ 19.93659, 49.974006 ], [ 19.936586, 49.974007 ], [ 19.934582, 49.974023 ], [ 19.934581, 49.974023 ], [ 19.93458, 49.974024 ], [ 19.933599, 49.975151 ], [ 19.933596, 49.975154 ], [ 19.933592, 49.975155 ], [ 19.933587, 49.975156 ], [ 19.931583, 49.975172 ], [ 19.931582, 49.975172 ], [ 19.931582, 49.975173 ], [ 19.930598, 49.976304 ], [ 19.930597, 49.976304 ], [ 19.930598, 49.976305 ], [ 19.931622, 49.977416 ], [ 19.931623, 49.977419 ], [ 19.931623, 49.977422 ], [ 19.931622, 49.977425 ], [ 19.930645, 49.978549 ], [ 19.930642, 49.978551 ], [ 19.930637, 49.978553 ], [ 19.930633, 49.978553 ], [ 19.928635, 49.978569 ], [ 19.92863, 49.978569 ], [ 19.928626, 49.978567 ], [ 19.928623, 49.978565 ], [ 19.927599, 49.977454 ], [ 19.927599, 49.977453 ], [ 19.927598, 49.977453 ], [ 19.925587, 49.977469 ], [ 19.925586, 49.977469 ], [ 19.925585, 49.97747 ], [ 19.924604, 49.978597 ], [ 19.924601, 49.9786 ], [ 19.924597, 49.978601 ], [ 19.924592, 49.978602 ], [ 19.922588, 49.978618 ], [ 19.922587, 49.978618 ], [ 19.922586, 49.978618 ], [ 19.921606, 49.979746 ], [ 19.921602, 49.979748 ], [ 19.921598, 49.97975 ], [ 19.921594, 49.97975 ], [ 19.919596, 49.979766 ], [ 19.919591, 49.979766 ], [ 19.919587, 49.979764 ], [ 19.919584, 49.979762 ], [ 19.918561, 49.97865 ], [ 19.91856, 49.97865 ], [ 19.918559, 49.97865 ], [ 19.916548, 49.978666 ], [ 19.916547, 49.978666 ], [ 19.916546, 49.978666 ], [ 19.915565, 49.979793 ], [ 19.915562, 49.979796 ], [ 19.915558, 49.979797 ], [ 19.915553, 49.979798 ], [ 19.913556, 49.979814 ], [ 19.913551, 49.979813 ], [ 19.913547, 49.979812 ], [ 19.913543, 49.979809 ], [ 19.91252, 49.978698 ], [ 19.912519, 49.978697 ], [ 19.912518, 49.978697 ], [ 19.910507, 49.978713 ], [ 19.910506, 49.978713 ], [ 19.910506, 49.978714 ], [ 19.909525, 49.979841 ], [ 19.909521, 49.979843 ], [ 19.909517, 49.979845 ], [ 19.909513, 49.979846 ], [ 19.907508, 49.979861 ], [ 19.907507, 49.979861 ], [ 19.907506, 49.979862 ], [ 19.906525, 49.980989 ], [ 19.906522, 49.980991 ], [ 19.906518, 49.980993 ], [ 19.906513, 49.980994 ], [ 19.904516, 49.981009 ], [ 19.904511, 49.981009 ], [ 19.904507, 49.981007 ], [ 19.904504, 49.981005 ], [ 19.903481, 49.979893 ], [ 19.90348, 49.979893 ], [ 19.903479, 49.979893 ], [ 19.901475, 49.979908 ], [ 19.90147, 49.979908 ], [ 19.901466, 49.979906 ], [ 19.901462, 49.979904 ], [ 19.900439, 49.978792 ], [ 19.900439, 49.978792 ], [ 19.900438, 49.978792 ], [ 19.898427, 49.978807 ], [ 19.898425, 49.978807 ], [ 19.898425, 49.978808 ], [ 19.897443, 49.979935 ], [ 19.89744, 49.979937 ], [ 19.897436, 49.979939 ], [ 19.897431, 49.97994 ], [ 19.895434, 49.979955 ], [ 19.895429, 49.979955 ], [ 19.895425, 49.979953 ], [ 19.895422, 49.979951 ], [ 19.894399, 49.978839 ], [ 19.894398, 49.978839 ], [ 19.894397, 49.978838 ], [ 19.892386, 49.978854 ], [ 19.892385, 49.978854 ], [ 19.892384, 49.978855 ], [ 19.891403, 49.979982 ], [ 19.8914, 49.979984 ], [ 19.891396, 49.979986 ], [ 19.891391, 49.979986 ], [ 19.889393, 49.980002 ], [ 19.889389, 49.980001 ], [ 19.889384, 49.98 ], [ 19.889381, 49.979997 ], [ 19.888362, 49.978889 ], [ 19.88836, 49.978886 ], [ 19.88836, 49.978883 ], [ 19.888362, 49.97888 ], [ 19.889343, 49.977753 ], [ 19.889344, 49.977753 ], [ 19.889343, 49.977752 ], [ 19.888317, 49.976637 ], [ 19.888316, 49.976636 ], [ 19.888315, 49.976636 ], [ 19.886311, 49.976651 ], [ 19.886306, 49.976651 ], [ 19.886302, 49.976649 ], [ 19.886299, 49.976647 ], [ 19.885276, 49.975535 ], [ 19.885276, 49.975535 ], [ 19.885275, 49.975535 ], [ 19.883271, 49.97555 ], [ 19.883266, 49.975549 ], [ 19.883261, 49.975548 ], [ 19.883258, 49.975545 ], [ 19.882239, 49.974438 ], [ 19.882238, 49.974435 ], [ 19.882238, 49.974432 ], [ 19.882239, 49.974429 ], [ 19.883221, 49.973302 ], [ 19.883221, 49.973301 ], [ 19.883221, 49.9733 ], [ 19.882195, 49.972185 ], [ 19.882194, 49.972184 ], [ 19.882193, 49.972184 ], [ 19.880189, 49.972199 ], [ 19.880184, 49.972199 ], [ 19.88018, 49.972197 ], [ 19.880177, 49.972195 ], [ 19.879154, 49.971083 ], [ 19.879154, 49.971083 ], [ 19.879153, 49.971083 ], [ 19.877149, 49.971098 ], [ 19.877144, 49.971097 ], [ 19.87714, 49.971096 ], [ 19.877137, 49.971093 ], [ 19.876114, 49.969982 ], [ 19.876114, 49.969981 ], [ 19.876112, 49.969981 ], [ 19.874102, 49.969996 ], [ 19.874101, 49.969996 ], [ 19.8741, 49.969997 ], [ 19.873118, 49.971124 ], [ 19.873115, 49.971126 ], [ 19.873111, 49.971128 ], [ 19.873106, 49.971128 ], [ 19.871109, 49.971143 ], [ 19.871104, 49.971143 ], [ 19.8711, 49.971141 ], [ 19.871097, 49.971139 ], [ 19.870075, 49.970027 ], [ 19.870074, 49.970027 ], [ 19.870073, 49.970026 ], [ 19.868062, 49.970042 ], [ 19.868061, 49.970042 ], [ 19.868061, 49.970042 ], [ 19.867075, 49.971173 ], [ 19.867075, 49.971174 ], [ 19.867075, 49.971174 ], [ 19.868098, 49.972286 ], [ 19.868099, 49.972289 ], [ 19.868099, 49.972292 ], [ 19.868098, 49.972295 ], [ 19.867119, 49.973418 ], [ 19.867116, 49.97342 ], [ 19.867112, 49.973422 ], [ 19.867107, 49.973423 ], [ 19.865103, 49.973438 ], [ 19.865102, 49.973438 ], [ 19.865101, 49.973438 ], [ 19.864119, 49.974565 ], [ 19.864116, 49.974567 ], [ 19.864112, 49.974569 ], [ 19.864107, 49.97457 ], [ 19.86211, 49.974584 ], [ 19.862105, 49.974584 ], [ 19.862101, 49.974582 ], [ 19.862098, 49.97458 ], [ 19.861076, 49.973468 ], [ 19.861075, 49.973468 ], [ 19.861074, 49.973467 ], [ 19.859063, 49.973482 ], [ 19.859062, 49.973483 ], [ 19.859062, 49.973483 ], [ 19.858076, 49.974614 ], [ 19.858076, 49.974614 ], [ 19.858076, 49.974615 ], [ 19.859098, 49.975727 ], [ 19.8591, 49.97573 ], [ 19.8591, 49.975733 ], [ 19.859098, 49.975736 ], [ 19.858116, 49.976863 ], [ 19.858116, 49.976863 ], [ 19.858116, 49.976864 ], [ 19.859142, 49.97798 ], [ 19.859142, 49.97798 ], [ 19.859143, 49.97798 ], [ 19.861148, 49.977965 ], [ 19.861152, 49.977966 ], [ 19.861157, 49.977967 ], [ 19.86116, 49.97797 ], [ 19.862178, 49.979078 ], [ 19.86218, 49.979081 ], [ 19.86218, 49.979084 ], [ 19.862179, 49.979087 ], [ 19.861196, 49.980214 ], [ 19.861196, 49.980214 ], [ 19.861196, 49.980215 ], [ 19.862219, 49.981327 ], [ 19.86222, 49.98133 ], [ 19.86222, 49.981333 ], [ 19.862219, 49.981336 ], [ 19.86124, 49.982459 ], [ 19.861237, 49.982461 ], [ 19.861233, 49.982463 ], [ 19.861228, 49.982463 ], [ 19.859224, 49.982478 ], [ 19.859222, 49.982478 ], [ 19.859222, 49.982479 ], [ 19.858239, 49.983606 ], [ 19.858236, 49.983608 ], [ 19.858232, 49.98361 ], [ 19.858227, 49.98361 ], [ 19.856223, 49.983625 ], [ 19.856222, 49.983625 ], [ 19.856221, 49.983626 ], [ 19.855239, 49.984752 ], [ 19.855236, 49.984755 ], [ 19.855232, 49.984756 ], [ 19.855227, 49.984757 ], [ 19.853229, 49.984772 ], [ 19.853224, 49.984771 ], [ 19.85322, 49.98477 ], [ 19.853217, 49.984767 ], [ 19.852195, 49.983655 ], [ 19.852194, 49.983655 ], [ 19.852193, 49.983655 ], [ 19.850182, 49.983669 ], [ 19.850181, 49.98367 ], [ 19.85018, 49.98367 ], [ 19.849198, 49.984797 ], [ 19.849195, 49.984799 ], [ 19.84919, 49.984801 ], [ 19.849186, 49.984801 ], [ 19.847181, 49.984816 ], [ 19.84718, 49.984816 ], [ 19.847179, 49.984817 ], [ 19.846193, 49.985947 ], [ 19.846193, 49.985948 ], [ 19.846193, 49.985948 ], [ 19.847215, 49.98706 ], [ 19.847217, 49.987063 ], [ 19.847217, 49.987067 ], [ 19.847215, 49.987069 ], [ 19.846233, 49.988196 ], [ 19.846232, 49.988197 ], [ 19.846233, 49.988197 ], [ 19.847255, 49.989309 ], [ 19.847257, 49.989312 ], [ 19.847257, 49.989315 ], [ 19.847255, 49.989318 ], [ 19.846272, 49.990445 ], [ 19.846272, 49.990446 ], [ 19.846272, 49.990446 ], [ 19.847294, 49.991558 ], [ 19.847296, 49.991561 ], [ 19.847296, 49.991564 ], [ 19.847294, 49.991567 ], [ 19.846315, 49.99269 ], [ 19.846312, 49.992693 ], [ 19.846308, 49.992694 ], [ 19.846303, 49.992695 ], [ 19.844298, 49.992709 ], [ 19.844297, 49.992709 ], [ 19.844296, 49.99271 ], [ 19.843314, 49.993837 ], [ 19.843311, 49.993839 ], [ 19.843306, 49.993841 ], [ 19.843302, 49.993841 ], [ 19.841304, 49.993856 ], [ 19.841299, 49.993855 ], [ 19.841295, 49.993854 ], [ 19.841291, 49.993851 ], [ 19.84027, 49.992739 ], [ 19.840269, 49.992739 ], [ 19.840268, 49.992739 ], [ 19.838256, 49.992753 ], [ 19.838255, 49.992753 ], [ 19.838254, 49.992754 ], [ 19.837271, 49.99388 ], [ 19.837268, 49.993883 ], [ 19.837264, 49.993884 ], [ 19.837259, 49.993885 ], [ 19.835254, 49.993899 ], [ 19.835253, 49.9939 ], [ 19.835253, 49.9939 ], [ 19.83427, 49.995027 ], [ 19.834266, 49.995029 ], [ 19.834262, 49.995031 ], [ 19.834258, 49.995031 ], [ 19.832259, 49.995046 ], [ 19.832255, 49.995045 ], [ 19.83225, 49.995043 ], [ 19.832247, 49.995041 ], [ 19.831226, 49.993929 ], [ 19.831225, 49.993928 ], [ 19.831224, 49.993928 ], [ 19.829212, 49.993943 ], [ 19.829211, 49.993943 ], [ 19.82921, 49.993943 ], [ 19.828227, 49.99507 ], [ 19.828224, 49.995072 ], [ 19.82822, 49.995074 ], [ 19.828215, 49.995074 ], [ 19.82621, 49.995089 ], [ 19.826209, 49.995089 ], [ 19.826208, 49.995089 ], [ 19.825225, 49.996216 ], [ 19.825222, 49.996218 ], [ 19.825218, 49.99622 ], [ 19.825213, 49.99622 ], [ 19.823215, 49.996235 ], [ 19.82321, 49.996234 ], [ 19.823206, 49.996233 ], [ 19.823203, 49.99623 ], [ 19.822181, 49.995118 ], [ 19.82218, 49.995118 ], [ 19.822179, 49.995117 ], [ 19.820174, 49.995132 ], [ 19.82017, 49.995131 ], [ 19.820165, 49.99513 ], [ 19.820162, 49.995127 ], [ 19.819141, 49.994015 ], [ 19.81914, 49.994014 ], [ 19.819139, 49.994014 ], [ 19.817134, 49.994028 ], [ 19.817129, 49.994028 ], [ 19.817125, 49.994026 ], [ 19.817122, 49.994024 ], [ 19.8161, 49.992912 ], [ 19.8161, 49.992911 ], [ 19.816099, 49.992911 ], [ 19.814094, 49.992925 ], [ 19.814089, 49.992925 ], [ 19.814085, 49.992923 ], [ 19.814082, 49.992921 ], [ 19.81306, 49.991808 ], [ 19.81306, 49.991808 ], [ 19.813058, 49.991808 ], [ 19.811054, 49.991822 ], [ 19.811049, 49.991821 ], [ 19.811045, 49.99182 ], [ 19.811041, 49.991817 ], [ 19.81002, 49.990705 ], [ 19.81002, 49.990705 ], [ 19.810018, 49.990704 ], [ 19.808007, 49.990718 ], [ 19.808006, 49.990719 ], [ 19.808005, 49.990719 ], [ 19.807021, 49.991845 ], [ 19.807018, 49.991848 ], [ 19.807014, 49.991849 ], [ 19.807009, 49.99185 ], [ 19.805011, 49.991864 ], [ 19.805007, 49.991863 ], [ 19.805002, 49.991862 ], [ 19.804999, 49.99186 ], [ 19.803978, 49.990747 ], [ 19.803978, 49.990747 ], [ 19.803976, 49.990746 ], [ 19.801965, 49.99076 ], [ 19.801964, 49.990761 ], [ 19.801963, 49.990761 ], [ 19.800979, 49.991887 ], [ 19.800976, 49.99189 ], [ 19.800972, 49.991891 ], [ 19.800967, 49.991892 ], [ 19.798962, 49.991906 ], [ 19.798961, 49.991906 ], [ 19.798961, 49.991906 ], [ 19.797977, 49.993033 ], [ 19.797974, 49.993035 ], [ 19.797969, 49.993037 ], [ 19.797965, 49.993037 ], [ 19.79596, 49.993051 ], [ 19.795959, 49.993051 ], [ 19.795958, 49.993052 ], [ 19.794974, 49.994178 ], [ 19.794971, 49.99418 ], [ 19.794967, 49.994182 ], [ 19.794962, 49.994182 ], [ 19.792957, 49.994196 ], [ 19.792956, 49.994196 ], [ 19.792955, 49.994197 ], [ 19.791968, 49.995327 ], [ 19.791968, 49.995328 ] ] ] } }
]
}
