{
"type": "FeatureCollection",
"name": "boundary_gdansk_500",
"crs": { "type": "name", "properties": { "name": "urn:ogc:def:crs:OGC:1.3:CRS84" } },
"xy_coordinate_resolution": 1e-06,
"features": [
{ "type": "Feature", "properties": { "fid": 1, "name": "Gdańsk" }, "geometry": { "type": "Polygon", "coordinates": [ [ [ 18.429541, 54.381928 ], [ 18.429541, 54.381928 ], [ 18.431728, 54.384181 ], [ 18.43173, 54.384184 ], [ 18.43173, 54.384187 ], [ 18.431728, 54.38419 ], [ 18.429479, 54.386422 ], [ 18.429478, 54.386422 ], [ 18.429479, 54.386423 ], [ 18.431669, 54.38868 ], [ 18.43167, 54.38868 ], [ 18.431671, 54.38868 ], [ 18.436108, 54.388701 ], [ 18.436113, 54.388702 ], [ 18.436118, 54.388703 ], [ 18.436121, 54.388706 ], [ 18.438309, 54.390958 ], [ 18.438309, 54.390959 ], [ 18.438311, 54.390959 ], [ 18.442747, 54.390979 ], [ 18.442752, 54.39098 ], [ 18.442757, 54.390982 ], [ 18.44276, 54.390984 ], [ 18.444945, 54.393233 ], [ 18.444947, 54.393236 ], [ 18.444946, 54.393239 ], [ 18.444945, 54.393242 ], [ 18.442696, 54.395474 ], [ 18.442695, 54.395474 ], [ 18.442696, 54.395475 ], [ 18.444888, 54.397731 ], [ 18.444889, 54.397732 ], [ 18.44489, 54.397732 ], [ 18.449327, 54.397752 ], [ 18.449332, 54.397753 ], [ 18.449337, 54.397754 ], [ 18.44934, 54.397757 ], [ 18.451529, 54.400009 ], [ 18.45153, 54.40001 ], [ 18.451531, 54.40001 ], [ 18.455969, 54.40003 ], [ 18.455974, 54.40003 ], [ 18.455979, 54.400032 ], [ 18.455982, 54.400034 ], [ 18.458171, 54.402287 ], [ 18.458172, 54.402287 ], [ 18.458173, 54.402287 ], [ 18.462611, 54.402307 ], [ 18.462616, 54.402308 ], [ 18.462621, 54.402309 ], [ 18.462624, 54.402312 ], [ 18.46481, 54.40456 ], [ 18.464812, 54.404563 ], [ 18.464812, 54.404566 ], [ 18.46481, 54.404569 ], [ 18.462566, 54.406797 ], [ 18.462562, 54.4068 ], [ 18.462558, 54.406801 ], [ 18.462552, 54.406802 ], [ 18.458121, 54.406782 ], [ 18.458116, 54.406782 ], [ 18.458112, 54.40678 ], [ 18.458108, 54.406778 ], [ 18.455919, 54.404525 ], [ 18.455918, 54.404525 ], [ 18.455917, 54.404525 ], [ 18.451471, 54.404505 ], [ 18.45147, 54.404505 ], [ 18.451469, 54.404505 ], [ 18.44922, 54.406737 ], [ 18.449217, 54.40674 ], [ 18.449212, 54.406741 ], [ 18.449207, 54.406742 ], [ 18.444776, 54.406722 ], [ 18.444771, 54.406721 ], [ 18.444766, 54.406719 ], [ 18.444763, 54.406717 ], [ 18.442574, 54.404465 ], [ 18.442573, 54.404464 ], [ 18.442572, 54.404464 ], [ 18.438126, 54.404443 ], [ 18.438125, 54.404443 ], [ 18.438124, 54.404444 ], [ 18.435871, 54.40668 ], [ 18.43587, 54.40668 ], [ 18.435871, 54.406681 ], [ 18.438059, 54.408933 ], [ 18.438061, 54.408936 ], [ 18.438061, 54.40894 ], [ 18.438059, 54.408942 ], [ 18.435809, 54.411174 ], [ 18.435809, 54.411175 ], [ 18.435809, 54.411176 ], [ 18.438001, 54.413432 ], [ 18.438002, 54.413433 ], [ 18.438003, 54.413433 ], [ 18.442442, 54.413453 ], [ 18.442448, 54.413454 ], [ 18.442452, 54.413456 ], [ 18.442456, 54.413458 ], [ 18.444641, 54.415707 ], [ 18.444643, 54.415709 ], [ 18.444643, 54.415713 ], [ 18.444641, 54.415716 ], [ 18.442395, 54.417944 ], [ 18.442391, 54.417946 ], [ 18.442387, 54.417948 ], [ 18.442381, 54.417948 ], [ 18.437942, 54.417928 ], [ 18.437941, 54.417928 ], [ 18.43794, 54.417928 ], [ 18.435686, 54.420164 ], [ 18.435685, 54.420165 ], [ 18.435686, 54.420165 ], [ 18.437878, 54.422422 ], [ 18.437879, 54.422422 ], [ 18.43788, 54.422422 ], [ 18.44232, 54.422443 ], [ 18.442326, 54.422443 ], [ 18.44233, 54.422445 ], [ 18.442334, 54.422447 ], [ 18.444523, 54.4247 ], [ 18.444524, 54.4247 ], [ 18.444525, 54.424701 ], [ 18.448966, 54.424721 ], [ 18.448971, 54.424722 ], [ 18.448975, 54.424723 ], [ 18.448979, 54.424726 ], [ 18.451165, 54.426974 ], [ 18.451167, 54.426977 ], [ 18.451167, 54.42698 ], [ 18.451165, 54.426983 ], [ 18.448915, 54.429215 ], [ 18.448914, 54.429216 ], [ 18.448915, 54.429216 ], [ 18.451105, 54.431469 ], [ 18.451107, 54.431472 ], [ 18.451107, 54.431475 ], [ 18.451105, 54.431478 ], [ 18.448858, 54.433706 ], [ 18.448855, 54.433708 ], [ 18.44885, 54.43371 ], [ 18.448845, 54.433711 ], [ 18.444404, 54.43369 ], [ 18.444403, 54.43369 ], [ 18.444402, 54.433691 ], [ 18.442151, 54.435923 ], [ 18.442147, 54.435925 ], [ 18.442143, 54.435927 ], [ 18.442137, 54.435927 ], [ 18.437696, 54.435907 ], [ 18.437695, 54.435907 ], [ 18.437694, 54.435907 ], [ 18.435438, 54.438143 ], [ 18.435438, 54.438144 ], [ 18.435438, 54.438144 ], [ 18.437632, 54.440401 ], [ 18.437633, 54.440401 ], [ 18.437634, 54.440401 ], [ 18.442076, 54.440422 ], [ 18.442081, 54.440423 ], [ 18.442086, 54.440424 ], [ 18.442089, 54.440427 ], [ 18.44428, 54.442679 ], [ 18.444281, 54.44268 ], [ 18.444282, 54.44268 ], [ 18.448724, 54.4427 ], [ 18.44873, 54.442701 ], [ 18.448734, 54.442702 ], [ 18.448738, 54.442705 ], [ 18.450929, 54.444957 ], [ 18.450929, 54.444957 ], [ 18.450931, 54.444958 ], [ 18.455373, 54.444978 ], [ 18.455378, 54.444978 ], [ 18.455383, 54.44498 ], [ 18.455386, 54.444982 ], [ 18.457578, 54.447234 ], [ 18.457579, 54.447235 ], [ 18.45758, 54.447235 ], [ 18.46203, 54.447255 ], [ 18.462031, 54.447255 ], [ 18.462032, 54.447254 ], [ 18.464283, 54.445022 ], [ 18.464286, 54.44502 ], [ 18.464291, 54.445018 ], [ 18.464296, 54.445018 ], [ 18.468739, 54.445037 ], [ 18.46874, 54.445037 ], [ 18.468741, 54.445037 ], [ 18.470995, 54.4428 ], [ 18.470995, 54.4428 ], [ 18.470995, 54.442799 ], [ 18.468803, 54.440547 ], [ 18.468801, 54.440544 ], [ 18.468801, 54.440541 ], [ 18.468803, 54.440538 ], [ 18.471049, 54.438309 ], [ 18.471052, 54.438307 ], [ 18.471057, 54.438305 ], [ 18.471062, 54.438305 ], [ 18.475504, 54.438324 ], [ 18.475505, 54.438324 ], [ 18.475506, 54.438324 ], [ 18.477755, 54.436091 ], [ 18.477759, 54.436089 ], [ 18.477763, 54.436087 ], [ 18.477769, 54.436087 ], [ 18.482203, 54.436106 ], [ 18.482208, 54.436106 ], [ 18.482212, 54.436108 ], [ 18.482216, 54.43611 ], [ 18.484408, 54.438362 ], [ 18.484409, 54.438362 ], [ 18.48441, 54.438363 ], [ 18.48886, 54.438381 ], [ 18.488861, 54.438381 ], [ 18.488862, 54.438381 ], [ 18.491114, 54.436144 ], [ 18.491115, 54.436143 ], [ 18.491114, 54.436143 ], [ 18.488921, 54.433891 ], [ 18.48892, 54.433888 ], [ 18.48892, 54.433885 ], [ 18.488922, 54.433882 ], [ 18.491166, 54.431653 ], [ 18.49117, 54.431651 ], [ 18.491174, 54.431649 ], [ 18.49118, 54.431649 ], [ 18.495621, 54.431667 ], [ 18.495622, 54.431667 ], [ 18.495623, 54.431667 ], [ 18.49787, 54.429434 ], [ 18.497874, 54.429431 ], [ 18.497879, 54.42943 ], [ 18.497884, 54.429429 ], [ 18.502325, 54.429448 ], [ 18.502326, 54.429447 ], [ 18.502327, 54.429447 ], [ 18.504574, 54.427214 ], [ 18.504578, 54.427211 ], [ 18.504582, 54.42721 ], [ 18.504588, 54.427209 ], [ 18.509028, 54.427228 ], [ 18.509029, 54.427227 ], [ 18.50903, 54.427227 ], [ 18.511277, 54.424994 ], [ 18.511281, 54.424991 ], [ 18.511285, 54.42499 ], [ 18.51129, 54.424989 ], [ 18.515731, 54.425007 ], [ 18.515732, 54.425007 ], [ 18.515733, 54.425006 ], [ 18.517979, 54.422773 ], [ 18.517983, 54.422771 ], [ 18.517987, 54.422769 ], [ 18.517993, 54.422769 ], [ 18.522425, 54.422786 ], [ 18.52243, 54.422787 ], [ 18.522435, 54.422788 ], [ 18.522438, 54.422791 ], [ 18.524633, 54.425042 ], [ 18.524633, 54.425042 ], [ 18.524635, 54.425042 ], [ 18.529075, 54.42506 ], [ 18.52908, 54.42506 ], [ 18.529085, 54.425062 ], [ 18.529088, 54.425064 ], [ 18.531283, 54.427315 ], [ 18.531283, 54.427316 ], [ 18.531285, 54.427316 ], [ 18.535733, 54.427333 ], [ 18.535734, 54.427333 ], [ 18.535735, 54.427332 ], [ 18.53798, 54.425099 ], [ 18.537984, 54.425096 ], [ 18.537988, 54.425095 ], [ 18.537994, 54.425094 ], [ 18.542434, 54.425111 ], [ 18.542435, 54.425111 ], [ 18.542436, 54.42511 ], [ 18.544681, 54.422877 ], [ 18.544685, 54.422874 ], [ 18.544689, 54.422873 ], [ 18.544695, 54.422872 ], [ 18.549127, 54.422889 ], [ 18.549132, 54.422889 ], [ 18.549137, 54.422891 ], [ 18.54914, 54.422893 ], [ 18.551336, 54.425144 ], [ 18.551337, 54.425144 ], [ 18.551338, 54.425145 ], [ 18.555778, 54.425161 ], [ 18.555784, 54.425161 ], [ 18.555788, 54.425163 ], [ 18.555792, 54.425165 ], [ 18.557988, 54.427416 ], [ 18.557988, 54.427416 ], [ 18.55799, 54.427417 ], [ 18.562438, 54.427433 ], [ 18.562439, 54.427433 ], [ 18.56244, 54.427432 ], [ 18.564684, 54.425198 ], [ 18.564687, 54.425195 ], [ 18.564692, 54.425194 ], [ 18.564697, 54.425193 ], [ 18.56913, 54.425209 ], [ 18.569135, 54.42521 ], [ 18.56914, 54.425211 ], [ 18.569143, 54.425214 ], [ 18.57134, 54.427464 ], [ 18.571341, 54.427465 ], [ 18.571342, 54.427465 ], [ 18.575783, 54.42748 ], [ 18.575788, 54.427481 ], [ 18.575793, 54.427482 ], [ 18.575796, 54.427485 ], [ 18.577993, 54.429735 ], [ 18.577994, 54.429735 ], [ 18.577995, 54.429736 ], [ 18.582436, 54.429751 ], [ 18.582441, 54.429752 ], [ 18.582446, 54.429753 ], [ 18.582449, 54.429756 ], [ 18.584647, 54.432005 ], [ 18.584648, 54.432006 ], [ 18.584649, 54.432006 ], [ 18.58909, 54.432021 ], [ 18.589096, 54.432022 ], [ 18.5891, 54.432024 ], [ 18.589104, 54.432026 ], [ 18.591302, 54.434276 ], [ 18.591303, 54.434276 ], [ 18.591304, 54.434276 ], [ 18.595753, 54.434291 ], [ 18.595754, 54.434291 ], [ 18.595755, 54.434291 ], [ 18.598001, 54.432052 ], [ 18.598002, 54.432051 ], [ 18.598001, 54.432051 ], [ 18.595803, 54.429801 ], [ 18.595801, 54.429798 ], [ 18.595801, 54.429795 ], [ 18.595803, 54.429792 ], [ 18.598041, 54.427561 ], [ 18.598045, 54.427559 ], [ 18.59805, 54.427557 ], [ 18.598055, 54.427557 ], [ 18.602495, 54.427571 ], [ 18.602497, 54.427571 ], [ 18.602497, 54.427571 ], [ 18.604739, 54.425336 ], [ 18.604743, 54.425333 ], [ 18.604747, 54.425332 ], [ 18.604753, 54.425331 ], [ 18.609193, 54.425346 ], [ 18.609194, 54.425345 ], [ 18.609195, 54.425345 ], [ 18.611437, 54.42311 ], [ 18.61144, 54.423107 ], [ 18.611445, 54.423106 ], [ 18.61145, 54.423105 ], [ 18.61589, 54.42312 ], [ 18.615891, 54.423119 ], [ 18.615892, 54.423119 ], [ 18.618137, 54.42088 ], [ 18.618137, 54.420879 ], [ 18.618137, 54.420878 ], [ 18.615938, 54.418629 ], [ 18.615936, 54.418626 ], [ 18.615936, 54.418623 ], [ 18.615938, 54.41862 ], [ 18.618175, 54.416389 ], [ 18.618178, 54.416386 ], [ 18.618183, 54.416385 ], [ 18.618188, 54.416384 ], [ 18.622628, 54.416398 ], [ 18.622629, 54.416398 ], [ 18.62263, 54.416398 ], [ 18.62487, 54.414162 ], [ 18.624873, 54.41416 ], [ 18.624878, 54.414158 ], [ 18.624883, 54.414158 ], [ 18.629322, 54.414171 ], [ 18.629324, 54.414171 ], [ 18.629324, 54.414171 ], [ 18.631564, 54.411935 ], [ 18.631568, 54.411933 ], [ 18.631572, 54.411931 ], [ 18.631578, 54.411931 ], [ 18.636017, 54.411944 ], [ 18.636018, 54.411944 ], [ 18.636019, 54.411944 ], [ 18.638258, 54.409708 ], [ 18.638261, 54.409706 ], [ 18.638266, 54.409704 ], [ 18.638271, 54.409704 ], [ 18.642702, 54.409717 ], [ 18.642708, 54.409717 ], [ 18.642712, 54.409719 ], [ 18.642716, 54.409721 ], [ 18.644916, 54.41197 ], [ 18.644916, 54.411971 ], [ 18.644918, 54.411971 ], [ 18.649364, 54.411984 ], [ 18.649365, 54.411984 ], [ 18.649366, 54.411983 ], [ 18.651605, 54.409747 ], [ 18.651608, 54.409745 ], [ 18.651613, 54.409743 ], [ 18.651618, 54.409743 ], [ 18.656049, 54.409755 ], [ 18.656054, 54.409756 ], [ 18.656059, 54.409758 ], [ 18.656063, 54.40976 ], [ 18.658259, 54.412005 ], [ 18.658261, 54.412008 ], [ 18.658261, 54.412011 ], [ 18.658259, 54.412014 ], [ 18.656021, 54.41425 ], [ 18.656021, 54.41425 ], [ 18.656021, 54.414251 ], [ 18.658222, 54.4165 ], [ 18.658224, 54.416503 ], [ 18.658224, 54.416506 ], [ 18.658222, 54.416509 ], [ 18.655984, 54.418745 ], [ 18.655983, 54.418745 ], [ 18.655984, 54.418746 ], [ 18.658188, 54.420998 ], [ 18.658189, 54.420999 ], [ 18.65819, 54.420999 ], [ 18.662638, 54.421012 ], [ 18.662639, 54.421011 ], [ 18.66264, 54.421011 ], [ 18.664882, 54.418771 ], [ 18.664883, 54.41877 ], [ 18.664882, 54.41877 ], [ 18.662681, 54.416521 ], [ 18.662679, 54.416518 ], [ 18.662679, 54.416515 ], [ 18.662681, 54.416512 ], [ 18.664915, 54.41428 ], [ 18.664918, 54.414278 ], [ 18.664923, 54.414276 ], [ 18.664928, 54.414275 ], [ 18.669368, 54.414288 ], [ 18.669369, 54.414288 ], [ 18.66937, 54.414287 ], [ 18.671607, 54.412051 ], [ 18.671611, 54.412048 ], [ 18.671615, 54.412047 ], [ 18.67162, 54.412046 ], [ 18.676059, 54.412058 ], [ 18.676061, 54.412058 ], [ 18.676061, 54.412058 ], [ 18.678299, 54.409821 ], [ 18.678302, 54.409819 ], [ 18.678307, 54.409817 ], [ 18.678312, 54.409817 ], [ 18.682751, 54.409829 ], [ 18.682752, 54.409828 ], [ 18.682753, 54.409828 ], [ 18.684989, 54.407591 ], [ 18.684993, 54.407589 ], [ 18.684997, 54.407587 ], [ 18.685003, 54.407587 ], [ 18.689441, 54.407598 ], [ 18.689442, 54.407598 ], [ 18.689443, 54.407598 ], [ 18.691679, 54.405361 ], [ 18.691683, 54.405359 ], [ 18.691687, 54.405357 ], [ 18.691693, 54.405357 ], [ 18.696131, 54.405368 ], [ 18.696132, 54.405368 ], [ 18.696133, 54.405367 ], [ 18.698368, 54.403131 ], [ 18.698372, 54.403128 ], [ 18.698377, 54.403127 ], [ 18.698382, 54.403126 ], [ 18.702812, 54.403137 ], [ 18.702818, 54.403138 ], [ 18.702822, 54.403139 ], [ 18.702826, 54.403142 ], [ 18.705025, 54.405385 ], [ 18.705027, 54.405388 ], [ 18.705027, 54.405392 ], [ 18.705025, 54.405394 ], [ 18.702789, 54.407631 ], [ 18.702789, 54.407632 ], [ 18.702789, 54.407633 ], [ 18.704996, 54.409884 ], [ 18.704997, 54.409885 ], [ 18.704998, 54.409885 ], [ 18.709437, 54.409896 ], [ 18.709442, 54.409896 ], [ 18.709447, 54.409898 ], [ 18.70945, 54.4099 ], [ 18.711654, 54.412148 ], [ 18.711655, 54.412148 ], [ 18.711656, 54.412149 ], [ 18.716103, 54.412159 ], [ 18.716104, 54.412159 ], [ 18.716105, 54.412158 ], [ 18.71834, 54.409921 ], [ 18.718343, 54.409919 ], [ 18.718348, 54.409917 ], [ 18.718353, 54.409917 ], [ 18.722792, 54.409927 ], [ 18.722793, 54.409927 ], [ 18.722794, 54.409926 ], [ 18.725028, 54.407689 ], [ 18.725032, 54.407687 ], [ 18.725036, 54.407685 ], [ 18.725041, 54.407685 ], [ 18.72948, 54.407695 ], [ 18.729481, 54.407695 ], [ 18.729482, 54.407694 ], [ 18.731716, 54.405457 ], [ 18.731719, 54.405454 ], [ 18.731724, 54.405453 ], [ 18.731729, 54.405452 ], [ 18.736168, 54.405462 ], [ 18.736169, 54.405462 ], [ 18.73617, 54.405461 ], [ 18.738407, 54.40322 ], [ 18.738407, 54.403219 ], [ 18.738407, 54.403219 ], [ 18.736198, 54.400968 ], [ 18.736198, 54.400967 ], [ 18.736196, 54.400967 ], [ 18.731759, 54.400957 ], [ 18.731753, 54.400957 ], [ 18.731749, 54.400955 ], [ 18.731745, 54.400953 ], [ 18.729545, 54.398709 ], [ 18.729543, 54.398706 ], [ 18.729543, 54.398703 ], [ 18.729545, 54.3987 ], [ 18.731775, 54.396467 ], [ 18.731778, 54.396464 ], [ 18.731783, 54.396463 ], [ 18.731788, 54.396462 ], [ 18.736225, 54.396472 ], [ 18.736227, 54.396472 ], [ 18.736227, 54.396471 ], [ 18.738464, 54.39423 ], [ 18.738464, 54.394229 ], [ 18.738464, 54.394229 ], [ 18.736256, 54.391978 ], [ 18.736255, 54.391977 ], [ 18.736254, 54.391977 ], [ 18.731817, 54.391967 ], [ 18.731812, 54.391967 ], [ 18.731807, 54.391965 ], [ 18.731804, 54.391963 ], [ 18.729604, 54.389719 ], [ 18.729602, 54.389716 ], [ 18.729602, 54.389713 ], [ 18.729604, 54.38971 ], [ 18.731837, 54.387473 ], [ 18.731837, 54.387472 ], [ 18.731837, 54.387472 ], [ 18.72963, 54.385221 ], [ 18.729629, 54.38522 ], [ 18.729628, 54.38522 ], [ 18.725192, 54.38521 ], [ 18.725186, 54.385209 ], [ 18.725182, 54.385208 ], [ 18.725178, 54.385205 ], [ 18.722979, 54.382962 ], [ 18.722977, 54.382959 ], [ 18.722977, 54.382956 ], [ 18.722979, 54.382953 ], [ 18.725208, 54.380719 ], [ 18.725212, 54.380717 ], [ 18.725216, 54.380715 ], [ 18.725222, 54.380715 ], [ 18.729657, 54.380725 ], [ 18.729659, 54.380725 ], [ 18.729659, 54.380724 ], [ 18.731892, 54.378487 ], [ 18.731895, 54.378485 ], [ 18.7319, 54.378483 ], [ 18.731905, 54.378482 ], [ 18.736341, 54.378492 ], [ 18.736342, 54.378492 ], [ 18.736343, 54.378492 ], [ 18.738575, 54.376254 ], [ 18.738578, 54.376252 ], [ 18.738583, 54.37625 ], [ 18.738588, 54.37625 ], [ 18.743023, 54.376259 ], [ 18.743024, 54.376259 ], [ 18.743025, 54.376258 ], [ 18.745257, 54.374021 ], [ 18.74526, 54.374018 ], [ 18.745265, 54.374017 ], [ 18.74527, 54.374016 ], [ 18.749697, 54.374026 ], [ 18.749703, 54.374026 ], [ 18.749707, 54.374028 ], [ 18.749711, 54.37403 ], [ 18.751915, 54.376277 ], [ 18.751915, 54.376278 ], [ 18.751917, 54.376278 ], [ 18.756359, 54.376287 ], [ 18.75636, 54.376287 ], [ 18.756361, 54.376286 ], [ 18.758592, 54.374048 ], [ 18.758595, 54.374046 ], [ 18.7586, 54.374044 ], [ 18.758605, 54.374044 ], [ 18.76304, 54.374053 ], [ 18.763041, 54.374052 ], [ 18.763042, 54.374052 ], [ 18.765273, 54.371814 ], [ 18.765276, 54.371811 ], [ 18.765281, 54.37181 ], [ 18.765286, 54.371809 ], [ 18.769713, 54.371818 ], [ 18.769718, 54.371818 ], [ 18.769723, 54.37182 ], [ 18.769726, 54.371822 ], [ 18.771931, 54.374069 ], [ 18.771932, 54.37407 ], [ 18.771933, 54.37407 ], [ 18.776368, 54.374078 ], [ 18.776373, 54.374079 ], [ 18.776378, 54.37408 ], [ 18.776381, 54.374082 ], [ 18.778587, 54.376329 ], [ 18.778588, 54.376329 ], [ 18.778589, 54.37633 ], [ 18.783032, 54.376338 ], [ 18.783033, 54.376338 ], [ 18.783034, 54.376337 ], [ 18.785267, 54.374095 ], [ 18.785267, 54.374094 ], [ 18.785267, 54.374093 ], [ 18.783061, 54.371847 ], [ 18.783059, 54.371844 ], [ 18.783059, 54.371841 ], [ 18.783061, 54.371838 ], [ 18.785286, 54.369604 ], [ 18.78529, 54.369601 ], [ 18.785294, 54.3696 ], [ 18.7853, 54.369599 ], [ 18.789734, 54.369607 ], [ 18.789735, 54.369607 ], [ 18.789736, 54.369606 ], [ 18.791965, 54.367368 ], [ 18.791968, 54.367365 ], [ 18.791973, 54.367364 ], [ 18.791978, 54.367363 ], [ 18.796405, 54.367371 ], [ 18.79641, 54.367371 ], [ 18.796415, 54.367373 ], [ 18.796418, 54.367375 ], [ 18.798624, 54.369621 ], [ 18.798625, 54.369622 ], [ 18.798626, 54.369622 ], [ 18.803068, 54.369629 ], [ 18.803069, 54.369629 ], [ 18.80307, 54.369629 ], [ 18.805298, 54.36739 ], [ 18.805302, 54.367388 ], [ 18.805306, 54.367386 ], [ 18.805311, 54.367386 ], [ 18.809746, 54.367393 ], [ 18.809747, 54.367392 ], [ 18.809748, 54.367392 ], [ 18.811975, 54.365153 ], [ 18.811978, 54.365151 ], [ 18.811983, 54.365149 ], [ 18.811988, 54.365149 ], [ 18.816422, 54.365155 ], [ 18.816424, 54.365155 ], [ 18.816424, 54.365155 ], [ 18.818651, 54.362916 ], [ 18.818655, 54.362913 ], [ 18.818659, 54.362912 ], [ 18.818665, 54.362911 ], [ 18.823098, 54.362918 ], [ 18.8231, 54.362918 ], [ 18.8231, 54.362917 ], [ 18.825327, 54.360678 ], [ 18.82533, 54.360676 ], [ 18.825335, 54.360674 ], [ 18.82534, 54.360674 ], [ 18.829774, 54.36068 ], [ 18.829775, 54.36068 ], [ 18.829776, 54.360679 ], [ 18.832001, 54.35844 ], [ 18.832005, 54.358438 ], [ 18.83201, 54.358436 ], [ 18.832015, 54.358436 ], [ 18.836448, 54.358442 ], [ 18.836449, 54.358442 ], [ 18.83645, 54.358441 ], [ 18.838676, 54.356202 ], [ 18.838679, 54.356199 ], [ 18.838684, 54.356198 ], [ 18.838689, 54.356197 ], [ 18.843122, 54.356203 ], [ 18.843123, 54.356203 ], [ 18.843124, 54.356202 ], [ 18.845349, 54.353963 ], [ 18.845352, 54.35396 ], [ 18.845357, 54.353959 ], [ 18.845362, 54.353958 ], [ 18.849787, 54.353964 ], [ 18.849793, 54.353964 ], [ 18.849797, 54.353966 ], [ 18.849801, 54.353968 ], [ 18.852009, 54.356214 ], [ 18.85201, 54.356214 ], [ 18.852011, 54.356214 ], [ 18.856452, 54.35622 ], [ 18.856453, 54.356219 ], [ 18.856454, 54.356219 ], [ 18.858678, 54.353979 ], [ 18.858681, 54.353977 ], [ 18.858686, 54.353975 ], [ 18.858691, 54.353975 ], [ 18.863124, 54.35398 ], [ 18.863125, 54.35398 ], [ 18.863126, 54.353979 ], [ 18.86535, 54.351739 ], [ 18.865353, 54.351737 ], [ 18.865358, 54.351735 ], [ 18.865363, 54.351735 ], [ 18.869796, 54.35174 ], [ 18.869797, 54.35174 ], [ 18.869798, 54.351739 ], [ 18.872021, 54.349499 ], [ 18.872024, 54.349497 ], [ 18.872029, 54.349495 ], [ 18.872034, 54.349495 ], [ 18.876459, 54.349499 ], [ 18.876464, 54.3495 ], [ 18.876469, 54.349501 ], [ 18.876472, 54.349504 ], [ 18.878682, 54.351748 ], [ 18.878683, 54.351749 ], [ 18.878684, 54.351749 ], [ 18.883124, 54.351753 ], [ 18.883125, 54.351753 ], [ 18.883126, 54.351753 ], [ 18.885348, 54.349512 ], [ 18.885352, 54.34951 ], [ 18.885357, 54.349508 ], [ 18.885362, 54.349508 ], [ 18.889794, 54.349512 ], [ 18.889795, 54.349512 ], [ 18.889796, 54.349511 ], [ 18.892018, 54.347271 ], [ 18.892022, 54.347269 ], [ 18.892026, 54.347267 ], [ 18.892031, 54.347267 ], [ 18.896456, 54.34727 ], [ 18.896461, 54.347271 ], [ 18.896466, 54.347273 ], [ 18.896469, 54.347275 ], [ 18.89868, 54.349519 ], [ 18.898681, 54.34952 ], [ 18.898682, 54.34952 ], [ 18.903122, 54.349523 ], [ 18.903123, 54.349523 ], [ 18.903124, 54.349523 ], [ 18.905345, 54.347282 ], [ 18.905348, 54.34728 ], [ 18.905353, 54.347278 ], [ 18.905358, 54.347278 ], [ 18.909783, 54.347281 ], [ 18.909788, 54.347282 ], [ 18.909793, 54.347283 ], [ 18.909796, 54.347286 ], [ 18.912007, 54.34953 ], [ 18.912008, 54.34953 ], [ 18.912009, 54.34953 ], [ 18.916449, 54.349533 ], [ 18.916451, 54.349533 ], [ 18.916451, 54.349533 ], [ 18.918672, 54.347292 ], [ 18.918675, 54.34729 ], [ 18.91868, 54.347288 ], [ 18.918685, 54.347287 ], [ 18.92311, 54.34729 ], [ 18.923115, 54.347291 ], [ 18.92312, 54.347292 ], [ 18.923123, 54.347295 ], [ 18.925335, 54.349539 ], [ 18.925336, 54.349539 ], [ 18.925337, 54.349539 ], [ 18.929769, 54.349542 ], [ 18.929775, 54.349542 ], [ 18.929779, 54.349544 ], [ 18.929783, 54.349546 ], [ 18.931995, 54.35179 ], [ 18.931996, 54.351791 ], [ 18.931997, 54.351791 ], [ 18.93643, 54.351793 ], [ 18.936435, 54.351794 ], [ 18.93644, 54.351795 ], [ 18.936443, 54.351798 ], [ 18.938652, 54.354037 ], [ 18.938654, 54.35404 ], [ 18.938654, 54.354043 ], [ 18.938652, 54.354046 ], [ 18.936436, 54.356284 ], [ 18.936433, 54.356286 ], [ 18.936428, 54.356288 ], [ 18.936423, 54.356288 ], [ 18.93199, 54.356286 ], [ 18.931989, 54.356286 ], [ 18.931988, 54.356286 ], [ 18.929764, 54.358531 ], [ 18.929763, 54.358532 ], [ 18.929764, 54.358533 ], [ 18.93198, 54.36078 ], [ 18.931981, 54.360781 ], [ 18.931982, 54.360781 ], [ 18.936416, 54.360783 ], [ 18.936421, 54.360784 ], [ 18.936426, 54.360785 ], [ 18.936429, 54.360788 ], [ 18.938643, 54.363031 ], [ 18.938643, 54.363032 ], [ 18.938645, 54.363032 ], [ 18.943078, 54.363034 ], [ 18.943084, 54.363035 ], [ 18.943088, 54.363036 ], [ 18.943092, 54.363039 ], [ 18.945306, 54.365282 ], [ 18.945306, 54.365282 ], [ 18.945308, 54.365283 ], [ 18.949749, 54.365285 ], [ 18.94975, 54.365284 ], [ 18.949751, 54.365284 ], [ 18.951975, 54.363039 ], [ 18.951975, 54.363038 ], [ 18.951975, 54.363037 ], [ 18.94976, 54.360794 ], [ 18.949759, 54.360791 ], [ 18.949759, 54.360788 ], [ 18.94976, 54.360785 ], [ 18.95198, 54.358544 ], [ 18.95198, 54.358543 ], [ 18.95198, 54.358542 ], [ 18.949766, 54.356299 ], [ 18.949764, 54.356296 ], [ 18.949764, 54.356293 ], [ 18.949766, 54.35629 ], [ 18.951985, 54.354049 ], [ 18.951985, 54.354048 ], [ 18.951985, 54.354047 ], [ 18.949771, 54.351804 ], [ 18.94977, 54.351801 ], [ 18.94977, 54.351798 ], [ 18.949771, 54.351795 ], [ 18.95199, 54.349553 ], [ 18.951991, 54.349553 ], [ 18.95199, 54.349552 ], [ 18.949777, 54.347309 ], [ 18.949775, 54.347306 ], [ 18.949775, 54.347303 ], [ 18.949777, 54.3473 ], [ 18.951996, 54.345058 ], [ 18.951996, 54.345058 ], [ 18.951996, 54.345057 ], [ 18.949779, 54.34281 ], [ 18.949778, 54.342809 ], [ 18.949777, 54.342809 ], [ 18.945345, 54.342807 ], [ 18.94534, 54.342807 ], [ 18.945335, 54.342805 ], [ 18.945332, 54.342803 ], [ 18.943123, 54.340563 ], [ 18.943121, 54.34056 ], [ 18.943121, 54.340557 ], [ 18.943123, 54.340554 ], [ 18.945341, 54.338313 ], [ 18.945342, 54.338312 ], [ 18.945341, 54.338312 ], [ 18.943129, 54.336068 ], [ 18.943127, 54.336065 ], [ 18.943127, 54.336062 ], [ 18.943129, 54.336059 ], [ 18.945347, 54.333818 ], [ 18.945348, 54.333817 ], [ 18.945347, 54.333817 ], [ 18.943135, 54.331573 ], [ 18.943133, 54.33157 ], [ 18.943133, 54.331567 ], [ 18.943135, 54.331564 ], [ 18.945353, 54.329323 ], [ 18.945354, 54.329322 ], [ 18.945353, 54.329322 ], [ 18.943141, 54.327078 ], [ 18.94314, 54.327075 ], [ 18.94314, 54.327072 ], [ 18.943141, 54.327069 ], [ 18.945359, 54.324828 ], [ 18.94536, 54.324827 ], [ 18.945359, 54.324827 ], [ 18.943144, 54.322579 ], [ 18.943143, 54.322579 ], [ 18.943142, 54.322579 ], [ 18.938712, 54.322576 ], [ 18.938707, 54.322576 ], [ 18.938702, 54.322574 ], [ 18.938699, 54.322572 ], [ 18.936492, 54.320332 ], [ 18.93649, 54.320329 ], [ 18.93649, 54.320326 ], [ 18.936492, 54.320323 ], [ 18.938709, 54.318082 ], [ 18.93871, 54.318081 ], [ 18.938709, 54.318081 ], [ 18.936498, 54.315837 ], [ 18.936497, 54.315834 ], [ 18.936497, 54.315831 ], [ 18.936498, 54.315828 ], [ 18.938716, 54.313587 ], [ 18.938717, 54.313586 ], [ 18.938716, 54.313586 ], [ 18.936505, 54.311342 ], [ 18.936504, 54.311339 ], [ 18.936504, 54.311336 ], [ 18.936505, 54.311333 ], [ 18.938723, 54.309092 ], [ 18.938723, 54.309091 ], [ 18.938723, 54.309091 ], [ 18.936512, 54.306847 ], [ 18.93651, 54.306844 ], [ 18.936511, 54.306841 ], [ 18.936512, 54.306838 ], [ 18.93873, 54.304597 ], [ 18.93873, 54.304596 ], [ 18.93873, 54.304596 ], [ 18.936519, 54.302352 ], [ 18.936517, 54.302349 ], [ 18.936517, 54.302346 ], [ 18.936519, 54.302343 ], [ 18.938736, 54.300102 ], [ 18.938737, 54.300101 ], [ 18.938736, 54.3001 ], [ 18.936526, 54.297857 ], [ 18.936524, 54.297854 ], [ 18.936524, 54.297851 ], [ 18.936526, 54.297848 ], [ 18.938743, 54.295607 ], [ 18.938743, 54.295606 ], [ 18.938743, 54.295605 ], [ 18.936533, 54.293362 ], [ 18.936531, 54.293359 ], [ 18.936531, 54.293356 ], [ 18.936533, 54.293353 ], [ 18.938746, 54.291115 ], [ 18.938749, 54.291113 ], [ 18.938754, 54.291111 ], [ 18.938759, 54.291111 ], [ 18.943185, 54.291113 ], [ 18.943186, 54.291113 ], [ 18.943187, 54.291112 ], [ 18.945407, 54.288867 ], [ 18.945407, 54.288867 ], [ 18.945407, 54.288866 ], [ 18.943197, 54.286623 ], [ 18.943195, 54.28662 ], [ 18.943195, 54.286616 ], [ 18.943197, 54.286614 ], [ 18.945413, 54.284372 ], [ 18.945413, 54.284372 ], [ 18.945413, 54.284371 ], [ 18.943203, 54.282127 ], [ 18.943201, 54.282124 ], [ 18.943201, 54.282121 ], [ 18.943203, 54.282118 ], [ 18.945419, 54.279877 ], [ 18.945419, 54.279876 ], [ 18.945419, 54.279876 ], [ 18.943206, 54.277629 ], [ 18.943205, 54.277628 ], [ 18.943204, 54.277628 ], [ 18.938772, 54.277626 ], [ 18.93877, 54.277626 ], [ 18.93877, 54.277626 ], [ 18.936554, 54.279868 ], [ 18.93655, 54.27987 ], [ 18.936546, 54.279872 ], [ 18.93654, 54.279872 ], [ 18.932116, 54.27987 ], [ 18.932114, 54.27987 ], [ 18.932114, 54.27987 ], [ 18.929897, 54.282111 ], [ 18.929894, 54.282114 ], [ 18.929889, 54.282115 ], [ 18.929884, 54.282116 ], [ 18.925459, 54.282113 ], [ 18.925458, 54.282113 ], [ 18.925457, 54.282114 ], [ 18.92324, 54.284355 ], [ 18.923237, 54.284357 ], [ 18.923232, 54.284359 ], [ 18.923227, 54.284359 ], [ 18.918802, 54.284357 ], [ 18.9188, 54.284357 ], [ 18.9188, 54.284357 ], [ 18.916579, 54.286602 ], [ 18.916578, 54.286603 ], [ 18.916579, 54.286603 ], [ 18.918787, 54.288847 ], [ 18.918789, 54.28885 ], [ 18.918789, 54.288853 ], [ 18.918787, 54.288856 ], [ 18.91657, 54.291097 ], [ 18.916569, 54.291098 ], [ 18.91657, 54.291098 ], [ 18.918778, 54.293342 ], [ 18.91878, 54.293345 ], [ 18.91878, 54.293348 ], [ 18.918778, 54.293351 ], [ 18.916561, 54.295592 ], [ 18.91656, 54.295593 ], [ 18.916561, 54.295593 ], [ 18.918769, 54.297837 ], [ 18.918771, 54.29784 ], [ 18.918771, 54.297843 ], [ 18.918769, 54.297846 ], [ 18.916555, 54.300083 ], [ 18.916552, 54.300086 ], [ 18.916547, 54.300087 ], [ 18.916542, 54.300088 ], [ 18.912115, 54.300085 ], [ 18.912114, 54.300085 ], [ 18.912113, 54.300085 ], [ 18.909891, 54.30233 ], [ 18.90989, 54.302331 ], [ 18.909891, 54.302331 ], [ 18.9121, 54.304575 ], [ 18.912101, 54.304578 ], [ 18.912101, 54.304581 ], [ 18.9121, 54.304584 ], [ 18.909881, 54.306825 ], [ 18.90988, 54.306826 ], [ 18.909881, 54.306826 ], [ 18.91209, 54.30907 ], [ 18.912092, 54.309073 ], [ 18.912092, 54.309076 ], [ 18.91209, 54.309079 ], [ 18.909875, 54.311316 ], [ 18.909871, 54.311319 ], [ 18.909867, 54.31132 ], [ 18.909862, 54.311321 ], [ 18.905433, 54.311317 ], [ 18.905432, 54.311317 ], [ 18.905431, 54.311318 ], [ 18.903212, 54.313559 ], [ 18.903209, 54.313561 ], [ 18.903204, 54.313563 ], [ 18.903199, 54.313563 ], [ 18.898778, 54.313559 ], [ 18.898772, 54.313559 ], [ 18.898768, 54.313557 ], [ 18.898764, 54.313555 ], [ 18.896556, 54.311311 ], [ 18.896555, 54.31131 ], [ 18.896554, 54.31131 ], [ 18.892126, 54.311306 ], [ 18.89212, 54.311306 ], [ 18.892116, 54.311304 ], [ 18.892112, 54.311302 ], [ 18.889904, 54.309057 ], [ 18.889903, 54.309057 ], [ 18.889902, 54.309057 ], [ 18.885474, 54.309052 ], [ 18.885469, 54.309052 ], [ 18.885464, 54.30905 ], [ 18.885461, 54.309048 ], [ 18.883253, 54.306803 ], [ 18.883253, 54.306803 ], [ 18.883251, 54.306803 ], [ 18.878816, 54.306798 ], [ 18.878815, 54.306799 ], [ 18.878814, 54.306799 ], [ 18.876593, 54.309039 ], [ 18.87659, 54.309042 ], [ 18.876585, 54.309043 ], [ 18.87658, 54.309044 ], [ 18.872152, 54.309039 ], [ 18.872151, 54.309039 ], [ 18.87215, 54.30904 ], [ 18.869929, 54.31128 ], [ 18.869926, 54.311282 ], [ 18.869921, 54.311284 ], [ 18.869916, 54.311284 ], [ 18.865488, 54.311279 ], [ 18.865486, 54.311279 ], [ 18.865486, 54.31128 ], [ 18.863264, 54.31352 ], [ 18.863261, 54.313522 ], [ 18.863256, 54.313524 ], [ 18.863251, 54.313524 ], [ 18.858822, 54.313519 ], [ 18.858821, 54.313519 ], [ 18.85882, 54.31352 ], [ 18.856594, 54.315764 ], [ 18.856594, 54.315764 ], [ 18.856594, 54.315765 ], [ 18.858801, 54.31801 ], [ 18.858803, 54.318013 ], [ 18.858803, 54.318016 ], [ 18.858801, 54.318019 ], [ 18.856583, 54.320255 ], [ 18.856579, 54.320257 ], [ 18.856575, 54.320259 ], [ 18.856569, 54.320259 ], [ 18.85214, 54.320254 ], [ 18.852139, 54.320254 ], [ 18.852138, 54.320255 ], [ 18.849915, 54.322494 ], [ 18.849912, 54.322497 ], [ 18.849907, 54.322498 ], [ 18.849902, 54.322499 ], [ 18.845473, 54.322493 ], [ 18.845471, 54.322493 ], [ 18.845471, 54.322494 ], [ 18.843247, 54.324733 ], [ 18.843244, 54.324736 ], [ 18.843239, 54.324737 ], [ 18.843234, 54.324738 ], [ 18.838804, 54.324732 ], [ 18.838803, 54.324732 ], [ 18.838802, 54.324733 ], [ 18.836575, 54.326976 ], [ 18.836575, 54.326976 ], [ 18.836575, 54.326977 ], [ 18.838781, 54.329222 ], [ 18.838783, 54.329225 ], [ 18.838783, 54.329228 ], [ 18.838781, 54.329231 ], [ 18.836561, 54.331467 ], [ 18.836557, 54.331469 ], [ 18.836553, 54.331471 ], [ 18.836548, 54.331471 ], [ 18.832117, 54.331465 ], [ 18.832116, 54.331466 ], [ 18.832115, 54.331466 ], [ 18.829887, 54.333709 ], [ 18.829887, 54.33371 ], [ 18.829887, 54.33371 ], [ 18.832093, 54.335956 ], [ 18.832095, 54.335959 ], [ 18.832095, 54.335962 ], [ 18.832093, 54.335965 ], [ 18.829872, 54.3382 ], [ 18.829869, 54.338203 ], [ 18.829864, 54.338204 ], [ 18.829859, 54.338205 ], [ 18.825428, 54.338198 ], [ 18.825427, 54.338199 ], [ 18.825426, 54.338199 ], [ 18.823201, 54.340438 ], [ 18.823197, 54.340441 ], [ 18.823193, 54.340442 ], [ 18.823187, 54.340443 ], [ 18.818756, 54.340436 ], [ 18.818755, 54.340436 ], [ 18.818754, 54.340437 ], [ 18.816528, 54.342676 ], [ 18.816525, 54.342678 ], [ 18.81652, 54.34268 ], [ 18.816515, 54.34268 ], [ 18.812083, 54.342673 ], [ 18.812082, 54.342674 ], [ 18.812081, 54.342674 ], [ 18.809855, 54.344913 ], [ 18.809852, 54.344915 ], [ 18.809847, 54.344917 ], [ 18.809842, 54.344918 ], [ 18.805418, 54.34491 ], [ 18.805412, 54.34491 ], [ 18.805408, 54.344908 ], [ 18.805404, 54.344906 ], [ 18.803199, 54.34266 ], [ 18.803198, 54.342659 ], [ 18.803197, 54.342659 ], [ 18.798758, 54.342652 ], [ 18.798757, 54.342652 ], [ 18.798756, 54.342653 ], [ 18.796529, 54.344891 ], [ 18.796526, 54.344894 ], [ 18.796521, 54.344895 ], [ 18.796516, 54.344896 ], [ 18.792092, 54.344888 ], [ 18.792086, 54.344888 ], [ 18.792082, 54.344886 ], [ 18.792078, 54.344884 ], [ 18.789878, 54.342641 ], [ 18.789876, 54.342638 ], [ 18.789876, 54.342635 ], [ 18.789878, 54.342632 ], [ 18.792105, 54.340394 ], [ 18.792105, 54.340393 ], [ 18.792105, 54.340393 ], [ 18.789897, 54.338143 ], [ 18.789896, 54.338142 ], [ 18.789895, 54.338142 ], [ 18.785464, 54.338134 ], [ 18.785458, 54.338134 ], [ 18.785454, 54.338132 ], [ 18.78545, 54.33813 ], [ 18.783247, 54.335883 ], [ 18.783246, 54.335883 ], [ 18.783245, 54.335883 ], [ 18.778814, 54.335875 ], [ 18.778809, 54.335874 ], [ 18.778804, 54.335872 ], [ 18.778801, 54.33587 ], [ 18.776597, 54.333624 ], [ 18.776596, 54.333623 ], [ 18.776595, 54.333623 ], [ 18.772165, 54.333615 ], [ 18.772159, 54.333614 ], [ 18.772155, 54.333612 ], [ 18.772151, 54.33361 ], [ 18.769949, 54.331364 ], [ 18.769948, 54.331363 ], [ 18.769947, 54.331363 ], [ 18.765516, 54.331354 ], [ 18.765511, 54.331354 ], [ 18.765506, 54.331352 ], [ 18.765503, 54.33135 ], [ 18.763301, 54.329103 ], [ 18.7633, 54.329103 ], [ 18.763299, 54.329102 ], [ 18.758861, 54.329094 ], [ 18.75886, 54.329094 ], [ 18.758859, 54.329094 ], [ 18.756631, 54.331332 ], [ 18.756627, 54.331335 ], [ 18.756623, 54.331336 ], [ 18.756617, 54.331337 ], [ 18.752187, 54.331328 ], [ 18.752186, 54.331328 ], [ 18.752185, 54.331328 ], [ 18.749956, 54.333566 ], [ 18.749953, 54.333569 ], [ 18.749948, 54.33357 ], [ 18.749943, 54.333571 ], [ 18.745512, 54.333561 ], [ 18.745511, 54.333561 ], [ 18.74551, 54.333562 ], [ 18.743277, 54.335803 ], [ 18.743277, 54.335804 ], [ 18.743277, 54.335805 ], [ 18.745479, 54.338052 ], [ 18.745481, 54.338055 ], [ 18.745481, 54.338058 ], [ 18.745479, 54.338061 ], [ 18.743253, 54.340295 ], [ 18.74325, 54.340297 ], [ 18.743245, 54.340299 ], [ 18.74324, 54.340299 ], [ 18.738816, 54.34029 ], [ 18.738811, 54.340289 ], [ 18.738806, 54.340288 ], [ 18.738803, 54.340285 ], [ 18.736602, 54.338038 ], [ 18.736601, 54.338037 ], [ 18.736599, 54.338037 ], [ 18.732168, 54.338028 ], [ 18.732163, 54.338027 ], [ 18.732159, 54.338025 ], [ 18.732155, 54.338023 ], [ 18.729954, 54.335776 ], [ 18.729954, 54.335775 ], [ 18.729952, 54.335775 ], [ 18.725522, 54.335765 ], [ 18.725516, 54.335765 ], [ 18.725512, 54.335763 ], [ 18.725508, 54.335761 ], [ 18.723312, 54.333517 ], [ 18.72331, 54.333514 ], [ 18.72331, 54.333511 ], [ 18.723312, 54.333508 ], [ 18.725542, 54.331271 ], [ 18.725542, 54.33127 ], [ 18.725542, 54.331269 ], [ 18.723338, 54.329018 ], [ 18.723337, 54.329018 ], [ 18.723336, 54.329017 ], [ 18.718906, 54.329007 ], [ 18.718901, 54.329007 ], [ 18.718896, 54.329005 ], [ 18.718893, 54.329003 ], [ 18.716697, 54.326759 ], [ 18.716695, 54.326756 ], [ 18.716695, 54.326753 ], [ 18.716697, 54.32675 ], [ 18.718927, 54.324513 ], [ 18.718928, 54.324512 ], [ 18.718927, 54.324512 ], [ 18.716728, 54.322264 ], [ 18.716726, 54.322261 ], [ 18.716726, 54.322258 ], [ 18.716728, 54.322255 ], [ 18.718958, 54.320018 ], [ 18.718958, 54.320017 ], [ 18.718958, 54.320017 ], [ 18.716755, 54.317765 ], [ 18.716754, 54.317765 ], [ 18.716753, 54.317764 ], [ 18.712324, 54.317754 ], [ 18.712319, 54.317753 ], [ 18.712314, 54.317752 ], [ 18.712311, 54.317749 ], [ 18.710116, 54.315506 ], [ 18.710114, 54.315503 ], [ 18.710114, 54.3155 ], [ 18.710116, 54.315497 ], [ 18.712346, 54.31326 ], [ 18.712346, 54.313259 ], [ 18.712346, 54.313258 ], [ 18.710144, 54.311007 ], [ 18.710143, 54.311006 ], [ 18.710142, 54.311006 ], [ 18.705714, 54.310995 ], [ 18.705708, 54.310995 ], [ 18.705704, 54.310993 ], [ 18.7057, 54.310991 ], [ 18.703502, 54.308743 ], [ 18.703502, 54.308743 ], [ 18.7035, 54.308742 ], [ 18.699065, 54.308731 ], [ 18.699064, 54.308732 ], [ 18.699063, 54.308732 ], [ 18.696832, 54.310969 ], [ 18.696829, 54.310971 ], [ 18.696824, 54.310973 ], [ 18.696819, 54.310973 ], [ 18.692399, 54.310962 ], [ 18.692393, 54.310962 ], [ 18.692389, 54.31096 ], [ 18.692385, 54.310958 ], [ 18.690192, 54.308714 ], [ 18.69019, 54.308711 ], [ 18.69019, 54.308707 ], [ 18.690192, 54.308705 ], [ 18.692423, 54.306468 ], [ 18.692423, 54.306467 ], [ 18.692423, 54.306467 ], [ 18.690226, 54.304219 ], [ 18.690224, 54.304216 ], [ 18.690224, 54.304212 ], [ 18.690226, 54.30421 ], [ 18.692456, 54.301973 ], [ 18.692456, 54.301972 ], [ 18.692456, 54.301971 ], [ 18.690256, 54.29972 ], [ 18.690255, 54.299719 ], [ 18.690254, 54.299719 ], [ 18.685827, 54.299708 ], [ 18.685821, 54.299707 ], [ 18.685817, 54.299705 ], [ 18.685813, 54.299703 ], [ 18.683617, 54.297455 ], [ 18.683616, 54.297454 ], [ 18.683615, 54.297454 ], [ 18.679188, 54.297443 ], [ 18.679183, 54.297442 ], [ 18.679179, 54.29744 ], [ 18.679175, 54.297438 ], [ 18.676979, 54.29519 ], [ 18.676979, 54.295189 ], [ 18.676977, 54.295189 ], [ 18.672551, 54.295177 ], [ 18.672546, 54.295177 ], [ 18.672541, 54.295175 ], [ 18.672538, 54.295173 ], [ 18.670342, 54.292924 ], [ 18.670342, 54.292924 ], [ 18.67034, 54.292924 ], [ 18.665914, 54.292911 ], [ 18.665909, 54.292911 ], [ 18.665904, 54.292909 ], [ 18.665901, 54.292907 ], [ 18.663706, 54.290658 ], [ 18.663705, 54.290658 ], [ 18.663704, 54.290658 ], [ 18.659271, 54.290645 ], [ 18.65927, 54.290645 ], [ 18.659269, 54.290646 ], [ 18.657037, 54.292882 ], [ 18.657034, 54.292884 ], [ 18.657029, 54.292886 ], [ 18.657024, 54.292886 ], [ 18.652605, 54.292874 ], [ 18.6526, 54.292873 ], [ 18.652595, 54.292872 ], [ 18.652592, 54.292869 ], [ 18.650398, 54.290621 ], [ 18.650397, 54.29062 ], [ 18.650396, 54.29062 ], [ 18.64597, 54.290607 ], [ 18.645965, 54.290606 ], [ 18.64596, 54.290605 ], [ 18.645957, 54.290602 ], [ 18.643767, 54.288357 ], [ 18.643765, 54.288354 ], [ 18.643765, 54.288351 ], [ 18.643767, 54.288348 ], [ 18.645999, 54.286113 ], [ 18.645999, 54.286112 ], [ 18.645999, 54.286111 ], [ 18.643806, 54.283862 ], [ 18.643804, 54.283859 ], [ 18.643804, 54.283856 ], [ 18.643806, 54.283853 ], [ 18.646037, 54.281618 ], [ 18.646038, 54.281617 ], [ 18.646037, 54.281616 ], [ 18.643844, 54.279367 ], [ 18.643843, 54.279364 ], [ 18.643843, 54.279361 ], [ 18.643844, 54.279358 ], [ 18.646076, 54.277123 ], [ 18.646076, 54.277122 ], [ 18.646076, 54.277121 ], [ 18.643879, 54.274869 ], [ 18.643879, 54.274868 ], [ 18.643877, 54.274868 ], [ 18.639453, 54.274855 ], [ 18.639448, 54.274854 ], [ 18.639443, 54.274853 ], [ 18.63944, 54.27485 ], [ 18.637247, 54.272601 ], [ 18.637247, 54.272601 ], [ 18.637245, 54.2726 ], [ 18.632814, 54.272587 ], [ 18.632813, 54.272587 ], [ 18.632812, 54.272588 ], [ 18.63058, 54.274823 ], [ 18.630576, 54.274826 ], [ 18.630572, 54.274827 ], [ 18.630567, 54.274828 ], [ 18.62615, 54.274814 ], [ 18.626145, 54.274814 ], [ 18.62614, 54.274812 ], [ 18.626137, 54.27481 ], [ 18.623945, 54.27256 ], [ 18.623944, 54.27256 ], [ 18.623943, 54.27256 ], [ 18.619511, 54.272546 ], [ 18.61951, 54.272546 ], [ 18.619509, 54.272547 ], [ 18.617277, 54.274782 ], [ 18.617273, 54.274784 ], [ 18.617269, 54.274786 ], [ 18.617263, 54.274786 ], [ 18.612839, 54.274772 ], [ 18.612838, 54.274772 ], [ 18.612837, 54.274773 ], [ 18.610604, 54.277008 ], [ 18.6106, 54.27701 ], [ 18.610596, 54.277012 ], [ 18.610591, 54.277013 ], [ 18.606166, 54.276998 ], [ 18.606165, 54.276998 ], [ 18.606164, 54.276999 ], [ 18.60393, 54.279234 ], [ 18.603927, 54.279236 ], [ 18.603922, 54.279238 ], [ 18.603917, 54.279238 ], [ 18.599492, 54.279224 ], [ 18.599491, 54.279224 ], [ 18.59949, 54.279224 ], [ 18.597252, 54.281463 ], [ 18.597252, 54.281464 ], [ 18.597252, 54.281465 ], [ 18.599443, 54.283714 ], [ 18.599445, 54.283717 ], [ 18.599445, 54.28372 ], [ 18.599443, 54.283723 ], [ 18.597209, 54.285958 ], [ 18.597208, 54.285959 ], [ 18.597209, 54.285959 ], [ 18.599403, 54.288213 ], [ 18.599404, 54.288214 ], [ 18.599405, 54.288214 ], [ 18.603831, 54.288228 ], [ 18.603836, 54.288229 ], [ 18.603841, 54.28823 ], [ 18.603844, 54.288233 ], [ 18.606032, 54.290479 ], [ 18.606034, 54.290482 ], [ 18.606034, 54.290485 ], [ 18.606032, 54.290488 ], [ 18.603801, 54.292719 ], [ 18.603798, 54.292721 ], [ 18.603793, 54.292723 ], [ 18.603788, 54.292723 ], [ 18.599362, 54.292709 ], [ 18.59936, 54.292709 ], [ 18.59936, 54.292709 ], [ 18.597121, 54.294948 ], [ 18.59712, 54.294949 ], [ 18.597121, 54.294949 ], [ 18.599312, 54.297199 ], [ 18.599314, 54.297202 ], [ 18.599314, 54.297205 ], [ 18.599312, 54.297208 ], [ 18.597077, 54.299443 ], [ 18.597076, 54.299444 ], [ 18.597077, 54.299444 ], [ 18.599269, 54.301694 ], [ 18.59927, 54.301697 ], [ 18.59927, 54.3017 ], [ 18.599268, 54.301703 ], [ 18.597037, 54.303934 ], [ 18.597033, 54.303937 ], [ 18.597029, 54.303938 ], [ 18.597023, 54.303939 ], [ 18.592604, 54.303924 ], [ 18.592598, 54.303923 ], [ 18.592594, 54.303922 ], [ 18.59259, 54.303919 ], [ 18.590399, 54.301669 ], [ 18.590398, 54.301669 ], [ 18.590397, 54.301669 ], [ 18.58597, 54.301654 ], [ 18.585965, 54.301653 ], [ 18.58596, 54.301652 ], [ 18.585957, 54.301649 ], [ 18.583766, 54.299399 ], [ 18.583765, 54.299399 ], [ 18.583764, 54.299399 ], [ 18.579329, 54.299383 ], [ 18.579328, 54.299383 ], [ 18.579327, 54.299384 ], [ 18.577091, 54.301618 ], [ 18.577088, 54.301621 ], [ 18.577083, 54.301622 ], [ 18.577078, 54.301623 ], [ 18.572651, 54.301607 ], [ 18.572649, 54.301607 ], [ 18.572649, 54.301608 ], [ 18.570412, 54.303842 ], [ 18.570408, 54.303845 ], [ 18.570404, 54.303846 ], [ 18.570398, 54.303847 ], [ 18.565971, 54.303831 ], [ 18.56597, 54.303831 ], [ 18.565969, 54.303832 ], [ 18.563728, 54.30607 ], [ 18.563728, 54.30607 ], [ 18.563728, 54.306071 ], [ 18.565918, 54.308321 ], [ 18.56592, 54.308324 ], [ 18.56592, 54.308327 ], [ 18.565918, 54.30833 ], [ 18.56368, 54.310565 ], [ 18.56368, 54.310565 ], [ 18.56368, 54.310566 ], [ 18.565871, 54.312816 ], [ 18.565873, 54.312819 ], [ 18.565873, 54.312822 ], [ 18.565871, 54.312825 ], [ 18.563637, 54.315056 ], [ 18.563633, 54.315058 ], [ 18.563629, 54.31506 ], [ 18.563623, 54.31506 ], [ 18.559202, 54.315044 ], [ 18.559197, 54.315044 ], [ 18.559193, 54.315042 ], [ 18.559189, 54.31504 ], [ 18.556999, 54.312789 ], [ 18.556998, 54.312789 ], [ 18.556997, 54.312789 ], [ 18.552569, 54.312772 ], [ 18.552563, 54.312772 ], [ 18.552559, 54.31277 ], [ 18.552555, 54.312768 ], [ 18.550366, 54.310517 ], [ 18.550365, 54.310517 ], [ 18.550364, 54.310516 ], [ 18.545928, 54.3105 ], [ 18.545927, 54.3105 ], [ 18.545926, 54.310501 ], [ 18.543687, 54.312734 ], [ 18.543684, 54.312737 ], [ 18.543679, 54.312738 ], [ 18.543674, 54.312739 ], [ 18.539246, 54.312722 ], [ 18.539245, 54.312722 ], [ 18.539244, 54.312723 ], [ 18.537005, 54.314957 ], [ 18.537001, 54.314959 ], [ 18.536996, 54.31496 ], [ 18.536991, 54.314961 ], [ 18.532563, 54.314944 ], [ 18.532562, 54.314944 ], [ 18.532561, 54.314945 ], [ 18.530317, 54.317182 ], [ 18.530317, 54.317183 ], [ 18.530317, 54.317183 ], [ 18.532506, 54.319434 ], [ 18.532508, 54.319437 ], [ 18.532508, 54.31944 ], [ 18.532506, 54.319443 ], [ 18.530266, 54.321677 ], [ 18.530266, 54.321678 ], [ 18.530266, 54.321678 ], [ 18.532455, 54.323929 ], [ 18.532457, 54.323932 ], [ 18.532457, 54.323935 ], [ 18.532455, 54.323938 ], [ 18.530215, 54.326172 ], [ 18.530214, 54.326173 ], [ 18.530215, 54.326173 ], [ 18.532404, 54.328424 ], [ 18.532406, 54.328427 ], [ 18.532406, 54.32843 ], [ 18.532404, 54.328433 ], [ 18.530167, 54.330663 ], [ 18.530164, 54.330665 ], [ 18.530159, 54.330667 ], [ 18.530154, 54.330667 ], [ 18.525724, 54.33065 ], [ 18.525723, 54.33065 ], [ 18.525722, 54.330651 ], [ 18.523481, 54.332884 ], [ 18.523477, 54.332887 ], [ 18.523473, 54.332888 ], [ 18.523467, 54.332889 ], [ 18.519045, 54.332871 ], [ 18.519039, 54.332871 ], [ 18.519035, 54.332869 ], [ 18.519031, 54.332867 ], [ 18.516842, 54.330616 ], [ 18.516842, 54.330615 ], [ 18.51684, 54.330615 ], [ 18.512403, 54.330597 ], [ 18.512402, 54.330597 ], [ 18.512401, 54.330598 ], [ 18.510159, 54.332831 ], [ 18.510156, 54.332833 ], [ 18.510151, 54.332835 ], [ 18.510146, 54.332835 ], [ 18.505723, 54.332817 ], [ 18.505718, 54.332817 ], [ 18.505713, 54.332815 ], [ 18.50571, 54.332813 ], [ 18.503521, 54.330562 ], [ 18.503521, 54.330561 ], [ 18.503519, 54.330561 ], [ 18.499089, 54.330543 ], [ 18.499084, 54.330542 ], [ 18.499079, 54.33054 ], [ 18.499076, 54.330538 ], [ 18.496892, 54.32829 ], [ 18.49689, 54.328287 ], [ 18.49689, 54.328284 ], [ 18.496892, 54.328281 ], [ 18.499134, 54.326048 ], [ 18.499135, 54.326048 ], [ 18.499134, 54.326047 ], [ 18.496947, 54.323795 ], [ 18.496945, 54.323792 ], [ 18.496945, 54.323789 ], [ 18.496947, 54.323786 ], [ 18.499189, 54.321553 ], [ 18.499189, 54.321553 ], [ 18.499189, 54.321552 ], [ 18.497002, 54.319301 ], [ 18.497, 54.319298 ], [ 18.497, 54.319294 ], [ 18.497002, 54.319292 ], [ 18.499244, 54.317058 ], [ 18.499244, 54.317058 ], [ 18.499244, 54.317057 ], [ 18.497053, 54.314802 ], [ 18.497052, 54.314801 ], [ 18.497051, 54.314801 ], [ 18.492615, 54.314783 ], [ 18.492614, 54.314783 ], [ 18.492613, 54.314783 ], [ 18.490371, 54.317016 ], [ 18.490368, 54.317019 ], [ 18.490363, 54.31702 ], [ 18.490358, 54.317021 ], [ 18.485929, 54.317002 ], [ 18.485928, 54.317002 ], [ 18.485927, 54.317002 ], [ 18.483685, 54.319235 ], [ 18.483681, 54.319238 ], [ 18.483676, 54.319239 ], [ 18.483671, 54.31924 ], [ 18.479242, 54.319221 ], [ 18.479241, 54.319221 ], [ 18.47924, 54.319221 ], [ 18.476997, 54.321454 ], [ 18.476994, 54.321456 ], [ 18.476989, 54.321458 ], [ 18.476984, 54.321458 ], [ 18.472555, 54.321439 ], [ 18.472554, 54.321439 ], [ 18.472553, 54.32144 ], [ 18.47031, 54.323672 ], [ 18.470306, 54.323675 ], [ 18.470301, 54.323676 ], [ 18.470296, 54.323677 ], [ 18.465867, 54.323657 ], [ 18.465866, 54.323657 ], [ 18.465865, 54.323658 ], [ 18.463621, 54.32589 ], [ 18.463617, 54.325893 ], [ 18.463613, 54.325894 ], [ 18.463608, 54.325895 ], [ 18.459178, 54.325875 ], [ 18.459177, 54.325875 ], [ 18.459176, 54.325876 ], [ 18.456932, 54.328108 ], [ 18.456928, 54.32811 ], [ 18.456924, 54.328112 ], [ 18.456918, 54.328113 ], [ 18.452488, 54.328093 ], [ 18.452487, 54.328093 ], [ 18.452486, 54.328093 ], [ 18.450238, 54.330329 ], [ 18.450237, 54.33033 ], [ 18.450238, 54.330331 ], [ 18.452423, 54.332583 ], [ 18.452425, 54.332586 ], [ 18.452425, 54.332589 ], [ 18.452423, 54.332592 ], [ 18.450178, 54.334824 ], [ 18.450177, 54.334825 ], [ 18.450178, 54.334825 ], [ 18.452367, 54.337082 ], [ 18.452368, 54.337082 ], [ 18.452369, 54.337082 ], [ 18.4568, 54.337102 ], [ 18.456805, 54.337103 ], [ 18.45681, 54.337104 ], [ 18.456813, 54.337107 ], [ 18.458995, 54.339355 ], [ 18.458997, 54.339358 ], [ 18.458997, 54.339361 ], [ 18.458995, 54.339364 ], [ 18.45675, 54.341596 ], [ 18.45675, 54.341597 ], [ 18.45675, 54.341598 ], [ 18.45894, 54.343854 ], [ 18.458941, 54.343854 ], [ 18.458942, 54.343855 ], [ 18.463373, 54.343874 ], [ 18.463379, 54.343875 ], [ 18.463383, 54.343876 ], [ 18.463387, 54.343879 ], [ 18.46557, 54.346127 ], [ 18.465571, 54.34613 ], [ 18.465571, 54.346133 ], [ 18.46557, 54.346136 ], [ 18.463328, 54.348365 ], [ 18.463325, 54.348367 ], [ 18.46332, 54.348369 ], [ 18.463315, 54.348369 ], [ 18.458883, 54.348349 ], [ 18.458882, 54.34835 ], [ 18.458881, 54.34835 ], [ 18.456635, 54.350582 ], [ 18.456632, 54.350585 ], [ 18.456627, 54.350586 ], [ 18.456622, 54.350587 ], [ 18.45219, 54.350567 ], [ 18.452189, 54.350567 ], [ 18.452188, 54.350567 ], [ 18.449942, 54.3528 ], [ 18.449938, 54.352802 ], [ 18.449934, 54.352804 ], [ 18.449928, 54.352804 ], [ 18.445496, 54.352784 ], [ 18.445495, 54.352784 ], [ 18.445494, 54.352784 ], [ 18.443247, 54.355016 ], [ 18.443244, 54.355019 ], [ 18.443239, 54.35502 ], [ 18.443234, 54.355021 ], [ 18.438801, 54.355 ], [ 18.4388, 54.355 ], [ 18.438799, 54.355001 ], [ 18.436548, 54.357237 ], [ 18.436548, 54.357237 ], [ 18.436548, 54.357238 ], [ 18.438734, 54.359491 ], [ 18.438736, 54.359494 ], [ 18.438736, 54.359497 ], [ 18.438734, 54.3595 ], [ 18.436487, 54.361732 ], [ 18.436486, 54.361732 ], [ 18.436487, 54.361733 ], [ 18.438673, 54.363985 ], [ 18.438675, 54.363988 ], [ 18.438675, 54.363992 ], [ 18.438673, 54.363994 ], [ 18.436425, 54.366226 ], [ 18.436425, 54.366227 ], [ 18.436425, 54.366228 ], [ 18.438612, 54.36848 ], [ 18.438613, 54.368483 ], [ 18.438613, 54.368486 ], [ 18.438611, 54.368489 ], [ 18.436364, 54.370721 ], [ 18.436363, 54.370722 ], [ 18.436364, 54.370723 ], [ 18.438554, 54.372979 ], [ 18.438555, 54.372979 ], [ 18.438556, 54.37298 ], [ 18.442991, 54.373 ], [ 18.442996, 54.373001 ], [ 18.443001, 54.373002 ], [ 18.443004, 54.373005 ], [ 18.445187, 54.375253 ], [ 18.445189, 54.375256 ], [ 18.445189, 54.375259 ], [ 18.445187, 54.375262 ], [ 18.442943, 54.377491 ], [ 18.44294, 54.377493 ], [ 18.442935, 54.377494 ], [ 18.44293, 54.377495 ], [ 18.438495, 54.377474 ], [ 18.438493, 54.377475 ], [ 18.438493, 54.377475 ], [ 18.436244, 54.379707 ], [ 18.436241, 54.379709 ], [ 18.436236, 54.379711 ], [ 18.436231, 54.379711 ], [ 18.431796, 54.379691 ], [ 18.431794, 54.379691 ], [ 18.431794, 54.379691 ], [ 18.429541, 54.381927 ], [ 18.429541, 54.381928 ] ] ] } }
]
}
