{"type":"FeatureCollection","name":"warszawa_hex_boundary_1000m","crs":{"type":"name","properties":{"name":"urn:ogc:def:crs:OGC:1.3:CRS84"}},"xy_coordinate_resolution":1e-15,"features":[{"type":"Feature","properties":{"fid":1,"id":14,"left":626505.9159000004,"top":489172.4235999994,"right":627660.6164383796,"bottom":488172.4235999994,"row_index":13,"col_index":0,"hex_id":1},"geometry":{"type":"MultiPolygon","coordinates":[[[[20.892925,52.176944],[20.892925,52.176944],[20.888895,52.181506],[20.888894,52.181506],[20.880452,52.181641],[20.880452,52.18164],[20.876042,52.177214],[20.876042,52.177213],[20.867601,52.177347],[20.867601,52.177347],[20.863568,52.181908],[20.863568,52.181909],[20.855126,52.182042],[20.855125,52.182042],[20.851091,52.186602],[20.851091,52.186602],[20.8555,52.19103],[20.8555,52.19103],[20.851464,52.195591],[20.851464,52.195591],[20.855874,52.200019],[20.855874,52.200019],[20.851838,52.20458],[20.851838,52.20458],[20.856249,52.209007],[20.856249,52.209008],[20.864696,52.208874],[20.864696,52.208874],[20.869109,52.213302],[20.869109,52.213302],[20.865073,52.217863],[20.865073,52.217863],[20.869486,52.22229],[20.869486,52.22229],[20.86545,52.226851],[20.86545,52.226851],[20.869864,52.231279],[20.869864,52.231279],[20.878315,52.231145],[20.878315,52.231145],[20.882731,52.235571],[20.882731,52.235571],[20.878695,52.240133],[20.878695,52.240133],[20.870242,52.240267],[20.870242,52.240267],[20.866204,52.244828],[20.866204,52.244828],[20.857749,52.244962],[20.857749,52.244962],[20.85371,52.249523],[20.85371,52.249523],[20.858125,52.25395],[20.858125,52.25395],[20.866581,52.253817],[20.866581,52.253817],[20.870998,52.258244],[20.870998,52.258244],[20.866958,52.262805],[20.866958,52.262805],[20.871376,52.267233],[20.871376,52.267233],[20.867336,52.271794],[20.867336,52.271794],[20.871755,52.276221],[20.871755,52.276221],[20.867714,52.280782],[20.867714,52.280782],[20.872134,52.28521],[20.872134,52.28521],[20.868092,52.289771],[20.868092,52.289771],[20.872513,52.294198],[20.872513,52.294198],[20.868471,52.298759],[20.868471,52.298759],[20.872892,52.303186],[20.872892,52.303186],[20.868849,52.307748],[20.868849,52.307748],[20.873272,52.312175],[20.873272,52.312175],[20.869228,52.316736],[20.869228,52.316736],[20.873652,52.321163],[20.873652,52.321163],[20.88212,52.321028],[20.88212,52.321028],[20.886546,52.325455],[20.886546,52.325455],[20.895015,52.325319],[20.895015,52.325319],[20.899443,52.329745],[20.899443,52.329746],[20.907913,52.329609],[20.907913,52.329609],[20.911954,52.325046],[20.911954,52.325046],[20.920423,52.324909],[20.920423,52.324909],[20.924853,52.329334],[20.924853,52.329334],[20.920813,52.333897],[20.920813,52.333897],[20.925243,52.338322],[20.925243,52.338322],[20.921202,52.342885],[20.921202,52.342885],[20.91273,52.343023],[20.91273,52.343023],[20.908687,52.347585],[20.908687,52.347585],[20.913118,52.352011],[20.913118,52.352011],[20.909074,52.356573],[20.909074,52.356573],[20.913506,52.360999],[20.913506,52.360999],[20.921982,52.360861],[20.921982,52.360861],[20.926416,52.365286],[20.926416,52.365286],[20.934893,52.365148],[20.934893,52.365148],[20.939328,52.369572],[20.939328,52.369572],[20.947805,52.369433],[20.947806,52.369433],[20.951846,52.364869],[20.951846,52.364869],[20.960323,52.364729],[20.960323,52.364729],[20.964761,52.369152],[20.964761,52.369152],[20.973238,52.369011],[20.973238,52.369011],[20.977276,52.364446],[20.977276,52.364446],[20.985752,52.364304],[20.985753,52.364304],[20.990193,52.368726],[20.990193,52.368726],[20.99867,52.368583],[20.99867,52.368583],[21.002705,52.364018],[21.002705,52.364018],[21.011181,52.363874],[21.011182,52.363874],[21.015624,52.368295],[21.015624,52.368295],[21.024101,52.36815],[21.024101,52.36815],[21.028134,52.363584],[21.028134,52.363584],[21.03661,52.363438],[21.03661,52.363438],[21.041055,52.367859],[21.041055,52.367859],[21.049532,52.367712],[21.049532,52.367712],[21.053562,52.363145],[21.053562,52.363145],[21.062037,52.362997],[21.062038,52.362997],[21.066485,52.367417],[21.066485,52.367417],[21.074962,52.367268],[21.074962,52.367268],[21.078989,52.3627],[21.078989,52.3627],[21.087464,52.36255],[21.087465,52.36255],[21.09149,52.357982],[21.09149,52.357982],[21.087041,52.353563],[21.087041,52.353563],[21.091066,52.348995],[21.091066,52.348995],[21.086618,52.344576],[21.086618,52.344576],[21.090642,52.340008],[21.090642,52.340008],[21.086194,52.335589],[21.086194,52.335589],[21.090218,52.331021],[21.090218,52.33102],[21.098687,52.33087],[21.098687,52.33087],[21.102709,52.326301],[21.102709,52.326301],[21.098262,52.321883],[21.098262,52.321883],[21.089794,52.322033],[21.089794,52.322033],[21.085349,52.317615],[21.085349,52.317614],[21.08937,52.313046],[21.08937,52.313046],[21.084926,52.308627],[21.084926,52.308627],[21.088947,52.304059],[21.088947,52.304059],[21.097412,52.303909],[21.097412,52.303909],[21.101431,52.29934],[21.101431,52.29934],[21.096987,52.294922],[21.096987,52.294922],[21.101005,52.290353],[21.101006,52.290353],[21.109467,52.290202],[21.109467,52.290202],[21.113484,52.285633],[21.113484,52.285633],[21.10904,52.281215],[21.10904,52.281215],[21.113056,52.276646],[21.113056,52.276646],[21.121515,52.276494],[21.121515,52.276494],[21.12596,52.280911],[21.12596,52.280911],[21.134419,52.280759],[21.13442,52.280759],[21.138866,52.285176],[21.138866,52.285176],[21.147326,52.285022],[21.147326,52.285022],[21.151774,52.289438],[21.151774,52.289438],[21.160235,52.289284],[21.160236,52.289284],[21.164685,52.2937],[21.164685,52.2937],[21.173147,52.293544],[21.173147,52.293544],[21.177158,52.288973],[21.177158,52.288973],[21.172707,52.284558],[21.172707,52.284558],[21.176717,52.279986],[21.176717,52.279986],[21.185176,52.27983],[21.185176,52.27983],[21.189184,52.275258],[21.189184,52.275258],[21.184734,52.270843],[21.184734,52.270843],[21.188742,52.266272],[21.188742,52.266272],[21.197198,52.266114],[21.197198,52.266114],[21.201204,52.261542],[21.201204,52.261542],[21.209659,52.261384],[21.20966,52.261384],[21.214111,52.265798],[21.214111,52.265798],[21.222567,52.265639],[21.222568,52.265639],[21.227021,52.270053],[21.227021,52.270053],[21.235478,52.269893],[21.235478,52.269893],[21.23948,52.26532],[21.23948,52.26532],[21.247936,52.265159],[21.247936,52.265159],[21.252392,52.269571],[21.252392,52.269572],[21.260849,52.26941],[21.260849,52.26941],[21.264848,52.264836],[21.264848,52.264836],[21.260392,52.260424],[21.260392,52.260424],[21.26439,52.255849],[21.26439,52.255849],[21.259935,52.251437],[21.259935,52.251437],[21.263932,52.246863],[21.263932,52.246863],[21.259478,52.242451],[21.259478,52.242451],[21.263475,52.237877],[21.263475,52.237877],[21.259021,52.233465],[21.259021,52.233465],[21.263018,52.228891],[21.263018,52.228891],[21.258565,52.224478],[21.258565,52.224478],[21.262561,52.219904],[21.262561,52.219904],[21.258109,52.215492],[21.258109,52.215492],[21.262104,52.210918],[21.262104,52.210918],[21.27055,52.210756],[21.27055,52.210756],[21.274543,52.206181],[21.274543,52.206181],[21.270091,52.201769],[21.270091,52.201769],[21.261647,52.201932],[21.261647,52.201932],[21.257198,52.197519],[21.257198,52.197519],[21.261191,52.192945],[21.261191,52.192945],[21.269633,52.192783],[21.269633,52.192783],[21.273625,52.188209],[21.273625,52.188209],[21.269176,52.183797],[21.269176,52.183797],[21.273167,52.179222],[21.273167,52.179222],[21.281606,52.179059],[21.281606,52.179059],[21.285596,52.174485],[21.285596,52.174485],[21.281146,52.170073],[21.281146,52.170073],[21.272708,52.170236],[21.272708,52.170236],[21.268261,52.165824],[21.268261,52.165824],[21.27225,52.16125],[21.27225,52.16125],[21.267804,52.156838],[21.267804,52.156838],[21.271793,52.152263],[21.271793,52.152263],[21.267347,52.147851],[21.267347,52.147851],[21.258913,52.148013],[21.258913,52.148013],[21.254469,52.143601],[21.254469,52.143601],[21.246036,52.143762],[21.246036,52.143762],[21.242045,52.148335],[21.242045,52.148335],[21.233611,52.148495],[21.233611,52.148495],[21.229619,52.153069],[21.229619,52.153069],[21.221184,52.153228],[21.221184,52.153228],[21.216743,52.148814],[21.216743,52.148814],[21.208309,52.148972],[21.208309,52.148972],[21.20387,52.144558],[21.20387,52.144558],[21.195436,52.144715],[21.195436,52.144715],[21.19144,52.149287],[21.19144,52.149287],[21.183006,52.149443],[21.183006,52.149443],[21.178569,52.145028],[21.178569,52.145028],[21.170135,52.145183],[21.170135,52.145183],[21.1657,52.140767],[21.1657,52.140767],[21.157267,52.140922],[21.157267,52.140922],[21.152834,52.136506],[21.152834,52.136506],[21.156833,52.131935],[21.156833,52.131935],[21.152401,52.127519],[21.152401,52.127519],[21.14397,52.127672],[21.14397,52.127672],[21.139539,52.123255],[21.139539,52.123255],[21.143539,52.118685],[21.143539,52.118685],[21.139109,52.114268],[21.139109,52.114268],[21.130681,52.114421],[21.130681,52.114421],[21.126253,52.110003],[21.126253,52.110003],[21.117825,52.110155],[21.117825,52.110155],[21.113399,52.105737],[21.113399,52.105737],[21.104973,52.105888],[21.104972,52.105888],[21.100548,52.101469],[21.100548,52.101469],[21.092122,52.101619],[21.092122,52.101619],[21.087699,52.0972],[21.087699,52.0972],[21.079274,52.097349],[21.079274,52.097349],[21.074853,52.092929],[21.074852,52.092929],[21.066428,52.093077],[21.066428,52.093077],[21.062423,52.097645],[21.062423,52.097645],[21.053998,52.097792],[21.053998,52.097792],[21.049991,52.102359],[21.049991,52.102359],[21.041565,52.102506],[21.041565,52.102506],[21.037147,52.098085],[21.037147,52.098085],[21.028721,52.09823],[21.028721,52.09823],[21.024712,52.102796],[21.024712,52.102796],[21.016285,52.102941],[21.016285,52.102941],[21.011869,52.098519],[21.011869,52.098519],[21.003444,52.098662],[21.003443,52.098662],[20.99903,52.09424],[20.99903,52.09424],[20.990605,52.094382],[20.990604,52.094382],[20.986592,52.098948],[20.986591,52.098948],[20.978166,52.099089],[20.978165,52.099089],[20.974151,52.103654],[20.974151,52.103654],[20.978563,52.108077],[20.978563,52.108077],[20.974548,52.112642],[20.974548,52.112642],[20.978961,52.117066],[20.978961,52.117066],[20.974945,52.12163],[20.974945,52.12163],[20.97936,52.126054],[20.97936,52.126054],[20.975343,52.130618],[20.975343,52.130618],[20.979758,52.135042],[20.979758,52.135042],[20.975741,52.139606],[20.975741,52.139607],[20.967307,52.139748],[20.967307,52.139748],[20.963288,52.144312],[20.963288,52.144312],[20.954853,52.144452],[20.954853,52.144452],[20.950832,52.149016],[20.950832,52.149016],[20.942396,52.149155],[20.942396,52.149155],[20.938374,52.153719],[20.938373,52.153719],[20.929937,52.153857],[20.929937,52.153857],[20.925913,52.15842],[20.925912,52.15842],[20.917475,52.158558],[20.917475,52.158558],[20.913449,52.163121],[20.913449,52.163121],[20.917861,52.167546],[20.917861,52.167546],[20.913835,52.172109],[20.913835,52.172109],[20.905394,52.172246],[20.905394,52.172246],[20.901366,52.176808],[20.901366,52.176808],[20.892925,52.176944]]]]}}]}