{
"type": "FeatureCollection",
"name": "gzm_hex_boundary_1000m",
"crs": { "type": "name", "properties": { "name": "urn:ogc:def:crs:OGC:1.3:CRS84" } },
"xy_coordinate_resolution": 1e-15,
"features": [
{ "type": "Feature", "properties": { "id": 13, "left": 454001.69550257776, "top": 284785.52793201152, "right": 455156.39604095696, "bottom": 283785.52793201152, "row_index": 12, "col_index": 0 }, "geometry": { "type": "MultiPolygon", "coordinates": [ [ [ [ 18.35323841238035, 50.351916874260851 ], [ 18.353238601612151, 50.351917216126814 ], [ 18.357234232830347, 50.356434931884003 ], [ 18.357235048105625, 50.35643640436983 ], [ 18.357235027012571, 50.356437966444922 ], [ 18.357234172095239, 50.356439429699968 ], [ 18.353116374153139, 50.36091215933584 ], [ 18.353116175623146, 50.360912499044673 ], [ 18.353116364889228, 50.360912840910451 ], [ 18.357114428299809, 50.365432474347884 ], [ 18.35711478899055, 50.365432754174712 ], [ 18.357115346500372, 50.365432820235966 ], [ 18.365230308939143, 50.365477392299923 ], [ 18.365232710345261, 50.365477676677273 ], [ 18.365234814869694, 50.365478469257454 ], [ 18.36523636867577, 50.365479674443627 ], [ 18.369232572510004, 50.369995058476583 ], [ 18.369233388385826, 50.369996530877103 ], [ 18.369233367676536, 50.369998092952173 ], [ 18.369232512879908, 50.36999955629247 ], [ 18.365114653611595, 50.374472700135755 ], [ 18.365114455109605, 50.374473039864391 ], [ 18.365114644515128, 50.374473381710366 ], [ 18.369113282020265, 50.37899068317995 ], [ 18.369114098044147, 50.37899215557961 ], [ 18.36911407732433, 50.378993717652207 ], [ 18.369113222359854, 50.378995180988753 ], [ 18.364994565299835, 50.383468310725974 ], [ 18.36499436675885, 50.383468650453736 ], [ 18.364994556198742, 50.38346899229952 ], [ 18.368995628691472, 50.387988211150031 ], [ 18.368995989622317, 50.387988490939811 ], [ 18.368996547413307, 50.387988556944926 ], [ 18.377115377226019, 50.38803231402472 ], [ 18.377117779843154, 50.388032598160031 ], [ 18.377119885562347, 50.388033390526481 ], [ 18.377121440402821, 50.388034595553016 ], [ 18.38112065273468, 50.39254956475569 ], [ 18.381121469360096, 50.392551037069886 ], [ 18.381121449024839, 50.392552599142398 ], [ 18.381120594181557, 50.392554062564244 ], [ 18.37700187686427, 50.397027606857314 ], [ 18.377001678351405, 50.397027946604894 ], [ 18.377001867930968, 50.397028288430832 ], [ 18.381003516731589, 50.401545174770419 ], [ 18.381004333505448, 50.401546647083713 ], [ 18.381004313159846, 50.401548209153752 ], [ 18.38100345814869, 50.401549672571875 ], [ 18.376885691394111, 50.40602130401377 ], [ 18.376884104591536, 50.406022492212124 ], [ 18.376881977597577, 50.406023261908558 ], [ 18.376879566959136, 50.406023520266309 ], [ 18.368757664032152, 50.405979735384214 ], [ 18.368757104357378, 50.405979795326679 ], [ 18.368756735911056, 50.405980071158602 ], [ 18.364633933886523, 50.410455057319027 ], [ 18.364633735228441, 50.410455397044167 ], [ 18.364633924771539, 50.41045573888934 ], [ 18.368635513234665, 50.414973040055948 ], [ 18.36863632985153, 50.414974512452112 ], [ 18.368636309089535, 50.41497607451484 ], [ 18.368635453452811, 50.414977537836371 ], [ 18.364515350917568, 50.41944871244219 ], [ 18.364513763355472, 50.419449900466212 ], [ 18.364511635559879, 50.41945066993172 ], [ 18.36450922417438, 50.419450928029761 ], [ 18.356385044852548, 50.419406270954184 ], [ 18.356384485004355, 50.419406330836324 ], [ 18.35638411638168, 50.419406606627753 ], [ 18.352258975439536, 50.423881135085033 ], [ 18.352258776636074, 50.423881474787706 ], [ 18.3522589661426, 50.423881816652113 ], [ 18.356262191751838, 50.42840145047677 ], [ 18.356262552912238, 50.428401730304998 ], [ 18.356263111159087, 50.428401796372448 ], [ 18.364388829363151, 50.428446467635311 ], [ 18.364391233944058, 50.428446752038887 ], [ 18.36439334123455, 50.428447544636093 ], [ 18.364394897064336, 50.428448749828128 ], [ 18.368397963552063, 50.432966050802555 ], [ 18.36839832481882, 50.432966330593295 ], [ 18.368398883136706, 50.432966396602716 ], [ 18.376525401597998, 50.433010223227576 ], [ 18.376527806484777, 50.433010507381212 ], [ 18.376529914181763, 50.433011299759514 ], [ 18.376531470469637, 50.433012504789978 ], [ 18.380536076642766, 50.4375293902729 ], [ 18.380536438015898, 50.437529670026109 ], [ 18.380536996404803, 50.437529735977499 ], [ 18.388667764615718, 50.437572735811806 ], [ 18.388668324638999, 50.437572675775137 ], [ 18.388668693217024, 50.437572399882121 ], [ 18.392789865755432, 50.433098482338053 ], [ 18.392791453072761, 50.433097293930111 ], [ 18.392793581028094, 50.433096523949807 ], [ 18.392795992958664, 50.433096265268098 ], [ 18.400919121161959, 50.433138370402432 ], [ 18.400921526205554, 50.433138654052442 ], [ 18.40092363431917, 50.433139445990307 ], [ 18.400925191233235, 50.43314065069665 ], [ 18.404932136625295, 50.437656704639622 ], [ 18.404932498143829, 50.437656984317563 ], [ 18.404933056569124, 50.437657050152005 ], [ 18.413060433043984, 50.437698328087066 ], [ 18.413062838393071, 50.437698611486951 ], [ 18.413064946912993, 50.437699403205613 ], [ 18.413066504285176, 50.437700607750145 ], [ 18.417074989812793, 50.442216245319663 ], [ 18.417075351437706, 50.442216524960031 ], [ 18.417075909933931, 50.442216590736379 ], [ 18.425207534993554, 50.442257040237088 ], [ 18.425208095027376, 50.442256980024659 ], [ 18.425208463430533, 50.442256704015541 ], [ 18.429326612650598, 50.437781485942523 ], [ 18.429328199214769, 50.437780297034628 ], [ 18.429330326793412, 50.437779526385519 ], [ 18.42933273876918, 50.437779266946826 ], [ 18.437456721117428, 50.437818824159699 ], [ 18.437459126622333, 50.437819107055766 ], [ 18.437461235558089, 50.437819898333714 ], [ 18.437462793555966, 50.437821102553755 ], [ 18.441473617222023, 50.442335907212751 ], [ 18.441473978992221, 50.442336186777759 ], [ 18.441474537524602, 50.442336252437137 ], [ 18.449602766977584, 50.442374980807884 ], [ 18.449605172787599, 50.442375263453634 ], [ 18.449607282129477, 50.442376054512138 ], [ 18.449608840585491, 50.44237725857009 ], [ 18.453621204833926, 50.446891645973672 ], [ 18.453621566710513, 50.446891925501042 ], [ 18.453622125313743, 50.446891991102284 ], [ 18.461751151593202, 50.446929873436041 ], [ 18.461753557708256, 50.44693015583136 ], [ 18.461755667456259, 50.446930946670314 ], [ 18.461757226370498, 50.446932150566077 ], [ 18.465771131610822, 50.451446120376687 ], [ 18.46577149359382, 50.451446399866377 ], [ 18.465772052267869, 50.451446465409475 ], [ 18.473905325925518, 50.451483517030482 ], [ 18.473905886008275, 50.451483456583922 ], [ 18.473906254201339, 50.451483180420432 ], [ 18.478020630752429, 50.447006234746247 ], [ 18.478022216411691, 50.447005045173611 ], [ 18.478024343620842, 50.447004273634299 ], [ 18.478026755807107, 50.447004013187346 ], [ 18.486155833204315, 50.447040190881964 ], [ 18.486156393219407, 50.447040130376195 ], [ 18.486156761306773, 50.447039854173426 ], [ 18.490269596832004, 50.442562467374465 ], [ 18.490271182036111, 50.442561277632642 ], [ 18.490273308848007, 50.442560505867661 ], [ 18.490275720742833, 50.44256024516573 ], [ 18.498404052390079, 50.442595565040961 ], [ 18.498404612337485, 50.442595504476003 ], [ 18.498404980319172, 50.442595228233955 ], [ 18.502516275194097, 50.438117400649197 ], [ 18.502517859943122, 50.438116210738315 ], [ 18.502519986357758, 50.438115438747758 ], [ 18.502522397961059, 50.438115177790934 ], [ 18.510649983450246, 50.438149640112414 ], [ 18.510650543329945, 50.438149579488282 ], [ 18.510650911205978, 50.438149303207013 ], [ 18.514762410137646, 50.433669134221518 ], [ 18.514762607821634, 50.433668794238798 ], [ 18.514762417104677, 50.433668452636461 ], [ 18.510745332327698, 50.42915615001548 ], [ 18.510744511057204, 50.429154678607809 ], [ 18.510744527154287, 50.429153116510967 ], [ 18.510745378677317, 50.429151652136866 ], [ 18.514852595636086, 50.424675272545798 ], [ 18.514854179626084, 50.424674082462005 ], [ 18.514856305238165, 50.424673310241943 ], [ 18.514858716092181, 50.424673049026715 ], [ 18.522980566503072, 50.424706629247119 ], [ 18.522982971865485, 50.424706910375377 ], [ 18.522985081655978, 50.424707700107305 ], [ 18.522986641402728, 50.424708903189625 ], [ 18.527004519105351, 50.429220788830271 ], [ 18.527004881281599, 50.429221068131064 ], [ 18.527005439780798, 50.429221133379968 ], [ 18.53513153172528, 50.429253881632079 ], [ 18.535133937391496, 50.429254162509757 ], [ 18.535136047587116, 50.429254952021836 ], [ 18.535137607791437, 50.429256154941577 ], [ 18.539157025016046, 50.4337676216186 ], [ 18.539157387298555, 50.433767900881648 ], [ 18.53915794586829, 50.433767966072338 ], [ 18.547288279648903, 50.433799881121473 ], [ 18.547288839431591, 50.433799820320765 ], [ 18.54728920706124, 50.433799543922824 ], [ 18.55139513447067, 50.429319968621691 ], [ 18.551396717703618, 50.429318778039409 ], [ 18.551398842934049, 50.429318005151401 ], [ 18.551401253827844, 50.429317743179347 ], [ 18.55952738977394, 50.429348787803775 ], [ 18.559527949488814, 50.429348726943957 ], [ 18.559528317012816, 50.429348450506851 ], [ 18.563634446924432, 50.424866534279722 ], [ 18.563634644221924, 50.424866194212512 ], [ 18.563634453187817, 50.424865852688946 ], [ 18.559611746553816, 50.420353305914006 ], [ 18.559611384252445, 50.420353026713947 ], [ 18.559610825811685, 50.420352961621631 ], [ 18.551486229025276, 50.420321926857135 ], [ 18.551483823712299, 50.420321646318051 ], [ 18.551481713638971, 50.420320857101537 ], [ 18.55148015331131, 50.420319654398803 ], [ 18.547462398436309, 50.41581051774503 ], [ 18.547461576254634, 50.415809046590773 ], [ 18.547461591136656, 50.415807484482109 ], [ 18.547462441287308, 50.415806019832324 ], [ 18.551566786023834, 50.411326420390907 ], [ 18.551566983350732, 50.411326080343422 ], [ 18.55156679245734, 50.411325738799633 ], [ 18.547548078660409, 50.406814685291813 ], [ 18.547547256629922, 50.406813214136299 ], [ 18.547547271504381, 50.406811652025169 ], [ 18.547548121489626, 50.406810187372074 ], [ 18.5516516756629, 50.402330575894638 ], [ 18.551651872951417, 50.402330235846399 ], [ 18.55165168209313, 50.402329894302312 ], [ 18.547633715328118, 50.397818838745977 ], [ 18.547632893448746, 50.397817367589177 ], [ 18.547632908315641, 50.397815805475609 ], [ 18.547633758135557, 50.397814340819174 ], [ 18.551734780786269, 50.393336618836202 ], [ 18.55173636280621, 50.393335428238736 ], [ 18.551738486418316, 50.39333465533548 ], [ 18.551740895483661, 50.39333439334991 ], [ 18.55985743273488, 50.393365385516091 ], [ 18.559859836735235, 50.393365665879976 ], [ 18.559861945754839, 50.393366454945458 ], [ 18.559863505414846, 50.393367657539635 ], [ 18.56388226194732, 50.397878296164471 ], [ 18.563882624103361, 50.397878575351939 ], [ 18.563883182286201, 50.397878640423357 ], [ 18.572003955657706, 50.397908800039616 ], [ 18.572006359960859, 50.397909080153028 ], [ 18.572008469384571, 50.397909868998696 ], [ 18.572010029501246, 50.397911071430244 ], [ 18.576030322861332, 50.402421290735738 ], [ 18.576030685123417, 50.402421569885419 ], [ 18.576031243376566, 50.402421634898687 ], [ 18.584152805748126, 50.402450948409232 ], [ 18.584155210354009, 50.402451228272071 ], [ 18.584157320181834, 50.402452016897826 ], [ 18.584158880755261, 50.402453219166617 ], [ 18.588180711347263, 50.406963018815688 ], [ 18.588181073715415, 50.406963297927568 ], [ 18.588181632038854, 50.406963362882642 ], [ 18.59630398303311, 50.406991830013048 ], [ 18.596306387941642, 50.406992109625264 ], [ 18.596308498173578, 50.406992898030978 ], [ 18.596310059203848, 50.406994100136906 ], [ 18.600331719442895, 50.411501565694323 ], [ 18.600332543190177, 50.411503036479637 ], [ 18.600332530048828, 50.41150459860021 ], [ 18.600331681603809, 50.411506063641276 ], [ 18.596231910133476, 50.415987393835024 ], [ 18.596231713106317, 50.415987733958666 ], [ 18.596231904339795, 50.415988075429695 ], [ 18.600257730333706, 50.420499366665595 ], [ 18.600258092875844, 50.420499645739632 ], [ 18.600258651375139, 50.420499710636996 ], [ 18.608383329045044, 50.420527339887705 ], [ 18.608385734710957, 50.420527619251303 ], [ 18.608387845744691, 50.420528407437942 ], [ 18.608389407524459, 50.420529609380715 ], [ 18.612413355396313, 50.42503665207888 ], [ 18.612414179750633, 50.425038122776591 ], [ 18.612414167000406, 50.425039684895772 ], [ 18.612413318683419, 50.425041150021826 ], [ 18.608313509116261, 50.429522895395969 ], [ 18.608313312118806, 50.429523235539357 ], [ 18.608313503493239, 50.429523576990036 ], [ 18.612339910945224, 50.434032530960557 ], [ 18.612340735451916, 50.434034001656883 ], [ 18.612340722695201, 50.434035563773627 ], [ 18.612339874213653, 50.434037028896483 ], [ 18.608239275972362, 50.438518762920509 ], [ 18.608239078936677, 50.438519103063136 ], [ 18.608239270346481, 50.43851944451351 ], [ 18.612266429121004, 50.443028395780146 ], [ 18.612267253780146, 50.443029866475044 ], [ 18.612267241016937, 50.443031428589357 ], [ 18.612266392370739, 50.443032893709031 ], [ 18.608165005051081, 50.447514616381689 ], [ 18.608164807977143, 50.447514956523591 ], [ 18.608164999422332, 50.447515297973624 ], [ 18.612192909898802, 50.452024246538421 ], [ 18.61219373471047, 50.452025717231912 ], [ 18.612193721940766, 50.452027279343774 ], [ 18.612192873129832, 50.452028744460286 ], [ 18.608090696327281, 50.456510455780361 ], [ 18.608090499215077, 50.456510795921517 ], [ 18.608090690695672, 50.45651113737123 ], [ 18.612121063490626, 50.461021997150034 ], [ 18.612121426411097, 50.461022276186014 ], [ 18.612121985403697, 50.461022341027103 ], [ 18.620253614515889, 50.461049157136216 ], [ 18.620256022306609, 50.461049436257177 ], [ 18.620258135338226, 50.461050224227414 ], [ 18.620259698747965, 50.461051426006108 ], [ 18.624289903992167, 50.465559950483367 ], [ 18.624290267019035, 50.465560229481412 ], [ 18.624290826082049, 50.465560294264165 ], [ 18.632423244701698, 50.465586261824846 ], [ 18.632425652795618, 50.465586540694488 ], [ 18.632427766232393, 50.465587328444016 ], [ 18.632429330100393, 50.465588530059279 ], [ 18.636461078110933, 50.470096632870678 ], [ 18.636461441244219, 50.470096911830773 ], [ 18.636462000377627, 50.470096976555155 ], [ 18.644595208124056, 50.470122095292751 ], [ 18.644597616521093, 50.470122373910954 ], [ 18.64459973036303, 50.470123161439695 ], [ 18.64460129468937, 50.470124362891418 ], [ 18.648634585870681, 50.474632043698797 ], [ 18.648634949110399, 50.474632322620913 ], [ 18.648635508314189, 50.474632387286917 ], [ 18.656769504806174, 50.47465665692684 ], [ 18.656771913506258, 50.474656935293517 ], [ 18.656774027753361, 50.474657722601357 ], [ 18.656775592538125, 50.474658923889429 ], [ 18.660808714437337, 50.479164269157117 ], [ 18.660809541226762, 50.479165739503003 ], [ 18.6608095300471, 50.479167301615959 ], [ 18.660808682246707, 50.479168767082129 ], [ 18.656708731686383, 50.483652175275438 ], [ 18.656708534808789, 50.483652515497802 ], [ 18.656708726748636, 50.48365285686684 ], [ 18.660746029961665, 50.488162025361476 ], [ 18.660746393376179, 50.488162304245471 ], [ 18.660746952756366, 50.488162368853502 ], [ 18.668886735670927, 50.488185806388771 ], [ 18.668887295942909, 50.488185745004635 ], [ 18.668887663288761, 50.488185468224671 ], [ 18.672986857851839, 50.483701633133819 ], [ 18.672988439862014, 50.483700440906418 ], [ 18.672990565562568, 50.483699665806085 ], [ 18.672992978562664, 50.483699401321331 ], [ 18.681128551404459, 50.483721971701037 ], [ 18.68112911160804, 50.483721910257806 ], [ 18.68112947884784, 50.48372163343879 ], [ 18.685227129028384, 50.479237360983845 ], [ 18.68522871058185, 50.479236168588344 ], [ 18.685230835882642, 50.479235393263146 ], [ 18.685233248588158, 50.479235128523904 ], [ 18.693364611591541, 50.479256832984888 ], [ 18.693367020743462, 50.479257110594851 ], [ 18.693369135806162, 50.479257897238782 ], [ 18.693370701671906, 50.479259098035826 ], [ 18.697409411995096, 50.483765091070495 ], [ 18.697409775592277, 50.483765369840569 ], [ 18.69741033497132, 50.483765434272449 ], [ 18.705549391205576, 50.483786306881107 ], [ 18.705549951378742, 50.483786245320289 ], [ 18.7055503184767, 50.483785968424002 ], [ 18.709647405284056, 50.479298928644617 ], [ 18.709647601763741, 50.479298588331815 ], [ 18.70964740945972, 50.479298247049222 ], [ 18.705607912717198, 50.474792673816594 ], [ 18.705607084612499, 50.4747912037856 ], [ 18.70560709431415, 50.474789641664707 ], [ 18.705607940651905, 50.474788175868717 ], [ 18.709700765004168, 50.470304933513042 ], [ 18.709702345644441, 50.470303740781638 ], [ 18.709704470145706, 50.470302965007043 ], [ 18.709706882261802, 50.470302699759124 ], [ 18.717836731111746, 50.470322692106443 ], [ 18.717839139955188, 50.470322969209811 ], [ 18.717841255027771, 50.470323755410284 ], [ 18.717842821220557, 50.470324955880493 ], [ 18.721883103596461, 50.474830109240145 ], [ 18.72188346726956, 50.474830387934318 ], [ 18.721884026576934, 50.474830452248575 ], [ 18.730018113064734, 50.474849603272702 ], [ 18.730020522210289, 50.474849880124239 ], [ 18.730022637687441, 50.474850666103364 ], [ 18.730024204338459, 50.474851866409452 ], [ 18.734064314524257, 50.479354683671289 ], [ 18.734065143591508, 50.47935615350012 ], [ 18.73406513482626, 50.479357715623586 ], [ 18.734064289285648, 50.479359181626549 ], [ 18.729971243491864, 50.483845180186691 ], [ 18.729971047139014, 50.483845520533734 ], [ 18.729971239607853, 50.483845861782747 ], [ 18.734015540611541, 50.488352499322154 ], [ 18.734015904459618, 50.488352777978044 ], [ 18.734016463943224, 50.488352842234129 ], [ 18.742152879716922, 50.488371148867401 ], [ 18.742155289621479, 50.488371425468259 ], [ 18.742157405903551, 50.488372211226228 ], [ 18.742158973308328, 50.488373411367334 ], [ 18.746203103313352, 50.492877712278471 ], [ 18.746203467267911, 50.492877990896218 ], [ 18.746204026821687, 50.492878055093762 ], [ 18.754344681524827, 50.492895518264483 ], [ 18.754345241743135, 50.492895456469029 ], [ 18.754345608627204, 50.492895179419001 ], [ 18.758437134505339, 50.488408328722819 ], [ 18.75843871452669, 50.488407135332501 ], [ 18.758440839045807, 50.488406358670844 ], [ 18.758443251814374, 50.488406092414671 ], [ 18.766576237987103, 50.488422684828265 ], [ 18.766578648038521, 50.488422960923714 ], [ 18.766580764729397, 50.488423746238198 ], [ 18.766582332755611, 50.488424946051254 ], [ 18.77062879207935, 50.492928401483681 ], [ 18.770629156178206, 50.492928680025237 ], [ 18.770629715766056, 50.492928744105434 ], [ 18.778766939369657, 50.492944492657244 ], [ 18.778769349722879, 50.492944768500486 ], [ 18.778771466818338, 50.492945553593216 ], [ 18.778773035303114, 50.492946753241711 ], [ 18.782819321418618, 50.497447871943557 ], [ 18.782820152314418, 50.497449341422779 ], [ 18.782820145151533, 50.497450903546969 ], [ 18.782819300793836, 50.497452369900927 ], [ 18.778731034255177, 50.501938167578217 ], [ 18.778729454291742, 50.501939361241249 ], [ 18.77872732949638, 50.50194013827101 ], [ 18.778724916150797, 50.501940404946204 ], [ 18.770586146914059, 50.501924651388443 ], [ 18.77058558660984, 50.501924713261857 ], [ 18.77058521975048, 50.50192499036266 ], [ 18.766491934304714, 50.506414162232609 ], [ 18.766491738119971, 50.506414502640148 ], [ 18.766491930943314, 50.506414843827912 ], [ 18.770541631828376, 50.510920202044275 ], [ 18.770541996064726, 50.510920480585447 ], [ 18.770542555865017, 50.510920544666135 ], [ 18.778682871522324, 50.510936303231745 ], [ 18.77868528279064, 50.510936579077047 ], [ 18.778687400688241, 50.510937364169898 ], [ 18.778688969765454, 50.510938563816588 ], [ 18.782736780257391, 50.515439673399214 ], [ 18.782737611464668, 50.515441142874856 ], [ 18.782737604294486, 50.515442704994186 ], [ 18.782736759611584, 50.515444171342565 ], [ 18.778645188964212, 50.519931855048128 ], [ 18.778644992810463, 50.519932195475391 ], [ 18.778645185776227, 50.519932536642408 ], [ 18.782697197548487, 50.524437464521249 ], [ 18.782697561960283, 50.524437743023945 ], [ 18.782698121937059, 50.524437807046276 ], [ 18.790844225688524, 50.524452724716518 ], [ 18.79084478623335, 50.52445266274615 ], [ 18.790845153149323, 50.524452385582656 ], [ 18.794935960310269, 50.519964275763087 ], [ 18.794937540468702, 50.519963081884065 ], [ 18.794939665808791, 50.519962304561538 ], [ 18.794942079983194, 50.519962037552034 ], [ 18.803083963488877, 50.519976091916085 ], [ 18.803084523964799, 50.519976029886664 ], [ 18.803084890774411, 50.519975752684253 ], [ 18.807174150318833, 50.515487207656264 ], [ 18.807175730019239, 50.515486013609724 ], [ 18.807177854957708, 50.515485236062759 ], [ 18.807180268835339, 50.515484968798937 ], [ 18.815317932340427, 50.515498161095394 ], [ 18.815320344056463, 50.515498436182234 ], [ 18.815322462767266, 50.515499220608888 ], [ 18.815324032925083, 50.515500419762013 ], [ 18.819377440291706, 50.520002166884723 ], [ 18.819377804885573, 50.520002445273029 ], [ 18.81937836485994, 50.520002509118981 ], [ 18.827520266634462, 50.520014854745391 ], [ 18.827522678652137, 50.520015129579548 ], [ 18.827524797767737, 50.520015913783958 ], [ 18.827526368384685, 50.520017112772038 ], [ 18.831579601981378, 50.524516522400489 ], [ 18.831580434864822, 50.524517991526707 ], [ 18.831580429304768, 50.524519553648048 ], [ 18.831579585971767, 50.524521020349731 ], [ 18.827491856567303, 50.529010417004166 ], [ 18.827491660726999, 50.529010757513475 ], [ 18.827491854082009, 50.529011098599362 ], [ 18.831549296332621, 50.533514324542899 ], [ 18.831549661102144, 50.533514602892602 ], [ 18.831550221252972, 50.533514666680055 ], [ 18.839697910655151, 50.53352616805315 ], [ 18.839698471244027, 50.533526105847727 ], [ 18.839698837944614, 50.533525828530529 ], [ 18.843785801095876, 50.52903600616164 ], [ 18.843787380326617, 50.529034811620775 ], [ 18.843789505273893, 50.52903403340747 ], [ 18.843791919637741, 50.529033765385698 ], [ 18.851935385353961, 50.529044405164178 ], [ 18.851935945873752, 50.529044342899738 ], [ 18.851936312467892, 50.529044065543708 ], [ 18.856023461190883, 50.524551902871934 ], [ 18.856023656807427, 50.524551562314201 ], [ 18.856023463264798, 50.52455122127526 ], [ 18.851966178860174, 50.520050750257617 ], [ 18.851965345421881, 50.520049281275654 ], [ 18.851965350308188, 50.520047719151535 ], [ 18.851966192929655, 50.520046252300482 ], [ 18.856049092668705, 50.515557893041368 ], [ 18.856050671139801, 50.515556698330769 ], [ 18.856052795280274, 50.515555919891199 ], [ 18.856055208887472, 50.515555651613887 ], [ 18.864196359912516, 50.515565431959502 ], [ 18.864196920256621, 50.515565369635766 ], [ 18.864197286674415, 50.51556509224033 ], [ 18.868280373161273, 50.511074393213747 ], [ 18.868281951174275, 50.511073198336049 ], [ 18.868284074912712, 50.511072419672409 ], [ 18.86828648822242, 50.511072151141128 ], [ 18.8764268721912, 50.51108107570564 ], [ 18.876427432466212, 50.511081013322936 ], [ 18.876427798777648, 50.51108073588874 ], [ 18.880511070759624, 50.506587697003511 ], [ 18.880511266125609, 50.506587356403401 ], [ 18.88051107247971, 50.506587015404044 ], [ 18.876452995133622, 50.502087383216569 ], [ 18.876452161250452, 50.502085914405015 ], [ 18.876452165325905, 50.50208435227448 ], [ 18.876453006868338, 50.502082885240917 ], [ 18.880533767154528, 50.497591744368066 ], [ 18.880533962483135, 50.497591403767373 ], [ 18.88053376887374, 50.497591062767562 ], [ 18.876476458592183, 50.4930914249409 ], [ 18.876475624866153, 50.493089956127356 ], [ 18.876475628939531, 50.493088393994384 ], [ 18.876476470320924, 50.493086926958263 ], [ 18.880554720298829, 50.488597684167374 ], [ 18.880556297252742, 50.488596489117953 ], [ 18.880558419781451, 50.488595710226555 ], [ 18.880560831876711, 50.488595441438946 ], [ 18.888697357026018, 50.488603505365241 ], [ 18.888697917019066, 50.488603442923058 ], [ 18.888698283084658, 50.488603165449014 ], [ 18.892776720189701, 50.484111583467126 ], [ 18.892778296686149, 50.484110388250919 ], [ 18.892780418813228, 50.484109609135828 ], [ 18.892782830611132, 50.484109340094577 ], [ 18.9009151352457, 50.484116546384399 ], [ 18.900917545863624, 50.484116819698947 ], [ 18.900919664591111, 50.48411760257207 ], [ 18.9009212358784, 50.484118800577761 ], [ 18.904980101814516, 50.488617594201266 ], [ 18.904980466670565, 50.488617872323111 ], [ 18.904981026389819, 50.488617935757567 ], [ 18.913121015278993, 50.488624295399006 ], [ 18.913121575240236, 50.488624232839321 ], [ 18.913121941163045, 50.488623955288411 ], [ 18.917198065900696, 50.484131516588199 ], [ 18.917199641782197, 50.484130321040986 ], [ 18.917201763509134, 50.484129541480506 ], [ 18.917204175169964, 50.484129271933213 ], [ 18.92533648858651, 50.484134772112483 ], [ 18.92533889934672, 50.484135044921366 ], [ 18.925341018478928, 50.484135827350165 ], [ 18.92534259038456, 50.484137025026442 ], [ 18.929403777479632, 50.488634967990684 ], [ 18.92940414247926, 50.488635246036026 ], [ 18.929404702231533, 50.488635309353072 ], [ 18.937544698732516, 50.488639961161546 ], [ 18.937545258661789, 50.488639898484365 ], [ 18.937545624441704, 50.488639620856638 ], [ 18.941619435623917, 50.484146326249771 ], [ 18.941621010890017, 50.484145130371758 ], [ 18.941623132216201, 50.484144350366023 ], [ 18.941625543739249, 50.484144080312738 ], [ 18.949757863579457, 50.48414787437769 ], [ 18.949760274481257, 50.484148146680852 ], [ 18.949762394017569, 50.484148928665164 ], [ 18.949763966541088, 50.484150126011819 ], [ 18.953827473622258, 50.488647217501331 ], [ 18.95382783876536, 50.488647495470126 ], [ 18.953828398550485, 50.48864755866974 ], [ 18.961968400302158, 50.488650502642059 ], [ 18.961968960199304, 50.488650439847397 ], [ 18.961969325836218, 50.488650162142896 ], [ 18.966040822277296, 50.484156012441623 ], [ 18.966042396927541, 50.484154816233023 ], [ 18.96604451785235, 50.484154035782176 ], [ 18.966046929236924, 50.484153765222956 ], [ 18.974182706592966, 50.484155853936933 ], [ 18.97418326642083, 50.484155791083467 ], [ 18.97418363195148, 50.484155513340362 ], [ 18.978253583873915, 50.479660932771544 ], [ 18.978255158066553, 50.479659736396776 ], [ 18.978257278589108, 50.479658955722762 ], [ 18.978259689675305, 50.479658684910284 ], [ 18.986394696018664, 50.479659920006668 ], [ 18.986395255777229, 50.479659857094418 ], [ 18.986395621201634, 50.479659579312745 ], [ 18.990464028997817, 50.47516456821532 ], [ 18.990465602732929, 50.475163371674448 ], [ 18.990467722853236, 50.475162590777366 ], [ 18.990470133640972, 50.475162319711757 ], [ 18.998600915782355, 50.475162701420068 ], [ 18.998603326507599, 50.475162972712027 ], [ 18.998605446447868, 50.475163753808182 ], [ 18.998607019907109, 50.47516495049679 ], [ 19.00267266457065, 50.479658435425947 ], [ 19.002673501971739, 50.479659903338373 ], [ 19.002673502059857, 50.4796614654786 ], [ 19.002672664824299, 50.479662933429474 ], [ 18.99860502882748, 50.484158367737543 ], [ 18.998604834403157, 50.484158708537009 ], [ 18.998605028807415, 50.484159049341123 ], [ 19.002674899002226, 50.488656343656089 ], [ 19.00267526443195, 50.488656621471634 ], [ 19.002675824282289, 50.48865668443635 ], [ 19.010812375673122, 50.48865621305228 ], [ 19.01081478715475, 50.488656484090669 ], [ 19.010816907899986, 50.488657264962526 ], [ 19.010818482115699, 50.488658461483233 ], [ 19.014888170554123, 50.49315341715792 ], [ 19.014888536090151, 50.493153694934911 ], [ 19.01488909600986, 50.493153757840822 ], [ 19.023029873440858, 50.493152432005786 ], [ 19.023030433310115, 50.493152368917499 ], [ 19.023030798623729, 50.493152091021493 ], [ 19.027096888662619, 50.488655810495388 ], [ 19.027098461920453, 50.48865461346216 ], [ 19.027100582040315, 50.48865383189969 ], [ 19.027102993304499, 50.488653560075925 ], [ 19.035236089085252, 50.488651382381846 ], [ 19.035238500706054, 50.48865165291425 ], [ 19.035240621853351, 50.488652433341052 ], [ 19.035242196685509, 50.488653629531328 ], [ 19.039314201576087, 50.493147730746053 ], [ 19.039314567255254, 50.493148008446298 ], [ 19.039315127207253, 50.493148071234728 ], [ 19.047452447519003, 50.493145038698195 ], [ 19.047454859438162, 50.493145308977226 ], [ 19.0474569809878, 50.493146089180712 ], [ 19.047458556277761, 50.493147285204657 ], [ 19.05153210647239, 50.497640955116559 ], [ 19.051532472257868, 50.497641232778186 ], [ 19.051533032279142, 50.497641295507762 ], [ 19.059671122948703, 50.497637408661959 ], [ 19.05967353516613, 50.497637678687511 ], [ 19.059675657118113, 50.497638458667581 ], [ 19.059677232865958, 50.497639654525095 ], [ 19.063750598808038, 50.502130985549826 ], [ 19.063751438499221, 50.502132453016166 ], [ 19.063751440602186, 50.502134015149345 ], [ 19.063750604863198, 50.502135483533124 ], [ 19.059686839663183, 50.506633032875932 ], [ 19.059686645586336, 50.506633373775941 ], [ 19.059686840522399, 50.5066337144765 ], [ 19.063764442490083, 50.511128852378931 ], [ 19.063764808451531, 50.511129130001414 ], [ 19.063765368648507, 50.511129192671937 ], [ 19.07190577576193, 50.511124449738816 ], [ 19.071908188736092, 50.511124719509908 ], [ 19.071910311494065, 50.5111254992648 ], [ 19.071911887999949, 50.511126694953624 ], [ 19.075989306893501, 50.515619493434677 ], [ 19.075989672961345, 50.515619771018471 ], [ 19.075990233227596, 50.515619833630097 ], [ 19.084134866040873, 50.51561423307723 ], [ 19.084135426093898, 50.51561416969524 ], [ 19.084135791221779, 50.51561389160868 ], [ 19.088198002591525, 50.511115496730021 ], [ 19.088199575049234, 50.511114298876208 ], [ 19.088201695164255, 50.511113516204048 ], [ 19.088204107219461, 50.511113243115346 ], [ 19.096341051175042, 50.511106794334886 ], [ 19.0963434642868, 50.511107063599468 ], [ 19.096345587445803, 50.511107842908622 ], [ 19.096347164567771, 50.511109038266198 ], [ 19.10042689989557, 50.515600979574749 ], [ 19.100427266106472, 50.515601257081627 ], [ 19.100427826404644, 50.515601319575637 ], [ 19.108568994546143, 50.515594012785371 ], [ 19.10857140795585, 50.515594281796133 ], [ 19.108573531517187, 50.515595060881424 ], [ 19.108575109097359, 50.515596256072129 ], [ 19.112656391686361, 50.520087764381458 ], [ 19.112656758003666, 50.520088041849569 ], [ 19.112657318371017, 50.520088104284646 ], [ 19.120799254888052, 50.520079941831781 ], [ 19.120801668595622, 50.520080210588603 ], [ 19.1208037925593, 50.520080989449959 ], [ 19.120805370597754, 50.520082184473694 ], [ 19.124888200838598, 50.524573259444239 ], [ 19.124888567262325, 50.524573536873575 ], [ 19.124889127698836, 50.524573599249678 ], [ 19.133031832193371, 50.52456458086376 ], [ 19.133034246198726, 50.524564849366563 ], [ 19.133036370564739, 50.524565628003849 ], [ 19.133037949061556, 50.524566822860514 ], [ 19.13712232734461, 50.529057464152679 ], [ 19.137122693874769, 50.529057741543213 ], [ 19.137123254380423, 50.529057803860333 ], [ 19.145266726453912, 50.52904792927098 ], [ 19.145269140756966, 50.529048197519657 ], [ 19.145271265525309, 50.529048975932788 ], [ 19.145272844480569, 50.529050170622256 ], [ 19.149358771195931, 50.533540377896372 ], [ 19.149359137832555, 50.533540655248082 ], [ 19.149359698407327, 50.533540717506199 ], [ 19.157503937660689, 50.533529986443092 ], [ 19.157506352261358, 50.533530254437565 ], [ 19.157508477432035, 50.533531032626399 ], [ 19.157510056845819, 50.533532227148605 ], [ 19.161597532383325, 50.538022000064892 ], [ 19.161597899126424, 50.538022277377749 ], [ 19.161598459770296, 50.538022339576834 ], [ 19.169746923170461, 50.538010746730038 ], [ 19.16974748337276, 50.538010682936331 ], [ 19.169747848169251, 50.538010404582749 ], [ 19.173803829912686, 50.533509047421418 ], [ 19.173805400942957, 50.533507848417756 ], [ 19.173807520640253, 50.533507064190353 ], [ 19.173809933337832, 50.533506789328605 ], [ 19.181950699508878, 50.533494353623034 ], [ 19.181953114244862, 50.533494621110435 ], [ 19.181955239814911, 50.533495398852672 ], [ 19.181956819843951, 50.533496593042621 ], [ 19.18604661057844, 50.537985505261567 ], [ 19.186046977464397, 50.537985782497287 ], [ 19.186047538139665, 50.537985844578621 ], [ 19.19419598429694, 50.53797254093579 ], [ 19.194196544465473, 50.53797247702451 ], [ 19.194196909117554, 50.537972198594503 ], [ 19.198250558439923, 50.53346999260387 ], [ 19.198252128848274, 50.533468793271112 ], [ 19.198254248137221, 50.533468008599186 ], [ 19.198256660689271, 50.53346773323107 ], [ 19.206400865480546, 50.533453582329798 ], [ 19.20640142557891, 50.533453518359842 ], [ 19.206401790124275, 50.533453239891529 ], [ 19.210453890647461, 50.528950607454952 ], [ 19.210455460596261, 50.528949407957263 ], [ 19.21045757947989, 50.52894862306313 ], [ 19.210459991729742, 50.528948347442331 ], [ 19.218603412128562, 50.528933344032595 ], [ 19.218603972156743, 50.528933280003983 ], [ 19.218604336595408, 50.5289330014974 ], [ 19.222654888720722, 50.524429942954171 ], [ 19.22265645821005, 50.524428743291644 ], [ 19.222658576688357, 50.524427958175401 ], [ 19.222660988635937, 50.524427682302026 ], [ 19.230800167894774, 50.524411833508836 ], [ 19.230802582439715, 50.524412099983891 ], [ 19.230804708401159, 50.524412876835079 ], [ 19.230806289356824, 50.524414070362738 ], [ 19.234899921307935, 50.528901268341166 ], [ 19.234900288409033, 50.528901545423068 ], [ 19.234900849039878, 50.528901607269319 ], [ 19.243044247483574, 50.528884894594263 ], [ 19.243046662324943, 50.528885160814788 ], [ 19.243048788687886, 50.52888593744126 ], [ 19.243050370101695, 50.528887130801081 ], [ 19.247145550436048, 50.533373892592138 ], [ 19.247145917643532, 50.533374169635074 ], [ 19.247146478343208, 50.533374231422229 ], [ 19.255290639206496, 50.533356661205445 ], [ 19.255293054344211, 50.53335692717134 ], [ 19.255295181108654, 50.533357703572968 ], [ 19.255296762980681, 50.533358896764867 ], [ 19.259393492084936, 50.537845222028672 ], [ 19.259393859398827, 50.537845499032606 ], [ 19.259394420167308, 50.53784556076063 ], [ 19.267542800378031, 50.537827124789622 ], [ 19.267543360444282, 50.537827060525686 ], [ 19.267543724662509, 50.537826781866713 ], [ 19.271590369740466, 50.533322034311126 ], [ 19.271591938280345, 50.533320833992406 ], [ 19.271594056340557, 50.533320047987743 ], [ 19.271596468451822, 50.533319771100885 ], [ 19.279737146798073, 50.533300499186133 ], [ 19.27973956206829, 50.533300764644771 ], [ 19.279741689229617, 50.53330154059924 ], [ 19.279743271715049, 50.533302733458036 ], [ 19.283842311194345, 50.537788194784412 ], [ 19.283842678650664, 50.537788471710975 ], [ 19.283843239449887, 50.537788533321233 ], [ 19.291991592939265, 50.537768386598067 ], [ 19.291992152971101, 50.537768322216593 ], [ 19.291992517044502, 50.537768043481393 ], [ 19.296036825055204, 50.533262450380413 ], [ 19.296038392971358, 50.533261249733471 ], [ 19.29604051062077, 50.533260463284854 ], [ 19.296042922583702, 50.533260185891848 ], [ 19.304187030041017, 50.533239195924544 ], [ 19.304187590002396, 50.533239131484486 ], [ 19.30418795396902, 50.53323885271115 ], [ 19.308230713245411, 50.528732835344044 ], [ 19.308232280701745, 50.528731634532818 ], [ 19.308234397945032, 50.528730847862576 ], [ 19.308236809604523, 50.528730570217299 ], [ 19.316380127967854, 50.528708728853303 ], [ 19.316380687858757, 50.528708664354703 ], [ 19.316381051718622, 50.52870838554324 ], [ 19.320423977903047, 50.524200031338296 ], [ 19.32042417017102, 50.524199690008743 ], [ 19.320423973287568, 50.524199349750099 ], [ 19.31632091413714, 50.519713266558838 ], [ 19.316320546632046, 50.519712989733996 ], [ 19.316319986005585, 50.519712928279638 ], [ 19.308178215577655, 50.519734762702001 ], [ 19.308175800843305, 50.519734497831649 ], [ 19.308173673828875, 50.519733722394541 ], [ 19.308172091083737, 50.519732529919843 ], [ 19.304072320554823, 50.515247912453532 ], [ 19.304071953155987, 50.515247635589631 ], [ 19.30407139259809, 50.515247574076135 ], [ 19.295930381031468, 50.515268550703446 ], [ 19.295927966592547, 50.515268285578379 ], [ 19.29592583997885, 50.515267509916242 ], [ 19.295924257691421, 50.515266317273337 ], [ 19.291827773755791, 50.510783166306496 ], [ 19.291826926849353, 50.510781700501909 ], [ 19.291826917219971, 50.510780138390373 ], [ 19.291827746029007, 50.510778668385555 ], [ 19.295869774763538, 50.506273064005221 ], [ 19.295869967136479, 50.506272722714989 ], [ 19.295869770504453, 50.50627238241335 ], [ 19.291770595197576, 50.501785413565102 ], [ 19.291770227975295, 50.501785136661425 ], [ 19.291769667592582, 50.501785075088264 ], [ 19.28363096166942, 50.501805187795583 ], [ 19.283628547985138, 50.501804922413584 ], [ 19.283626422177587, 50.501804146523639 ], [ 19.283624840650567, 50.501802953709571 ], [ 19.279530689206755, 50.497319355803455 ], [ 19.279529842923047, 50.497317889905005 ], [ 19.279529833703837, 50.497316327788155 ], [ 19.27953066266101, 50.497314857867231 ], [ 19.283572719215741, 50.492809669938978 ], [ 19.283572911623086, 50.492809328668208 ], [ 19.28357271513562, 50.492808988344756 ], [ 19.279477611223232, 50.488323476344632 ], [ 19.279476765102981, 50.488322010443262 ], [ 19.27947675588846, 50.488320448323982 ], [ 19.279477584691001, 50.488318978401395 ], [ 19.283518882346534, 50.48381378659392 ], [ 19.283519074718004, 50.483813445322781 ], [ 19.283518878268492, 50.483813104998646 ], [ 19.279424560261113, 50.479327582866034 ], [ 19.279423714304233, 50.479326116961737 ], [ 19.279423705094406, 50.479324554840005 ], [ 19.27942453374239, 50.479323084915798 ], [ 19.283465072882915, 50.474817889227488 ], [ 19.283465265218528, 50.474817547955958 ], [ 19.283465068806947, 50.474817207631155 ], [ 19.279371536302424, 50.470331675366815 ], [ 19.279370690508831, 50.470330209459583 ], [ 19.279370681303689, 50.470328647335428 ], [ 19.279371509797194, 50.470327177409551 ], [ 19.28340957617516, 50.465823890222616 ], [ 19.283411142187962, 50.4658226897349 ], [ 19.283413257039207, 50.46582190351144 ], [ 19.283415665646665, 50.465821626382322 ], [ 19.291548193924996, 50.465801539224913 ], [ 19.291548753107424, 50.465801474846238 ], [ 19.291549116632357, 50.465801196109908 ], [ 19.295589069104583, 50.461293660495294 ], [ 19.29558926129841, 50.461293319203172 ], [ 19.29558906485633, 50.461292978898094 ], [ 19.291495560097864, 50.456807862540934 ], [ 19.291494714172806, 50.456806396718626 ], [ 19.291494704572795, 50.456804834592461 ], [ 19.291495532455659, 50.456803364577915 ], [ 19.295533013663654, 50.452297737715234 ], [ 19.295533205821712, 50.452297396422757 ], [ 19.295533009417561, 50.452297056116969 ], [ 19.291440289741615, 50.447811929492765 ], [ 19.291439443979822, 50.447810463667487 ], [ 19.291439434384699, 50.447808901538899 ], [ 19.291440262113472, 50.447807431522719 ], [ 19.295475273407664, 50.443303713473902 ], [ 19.295476838373578, 50.443302512821028 ], [ 19.295478952021721, 50.443301726377342 ], [ 19.295481359414975, 50.443301448999584 ], [ 19.303610018903946, 50.443280525631501 ], [ 19.303610577804466, 50.443280461195123 ], [ 19.30361094108639, 50.443280182420466 ], [ 19.307647837851984, 50.438772216181889 ], [ 19.307648029868488, 50.438771874868863 ], [ 19.307647833433951, 50.438771534582798 ], [ 19.303553405545344, 50.434284919832805 ], [ 19.303553038778578, 50.434284642962268 ], [ 19.303552479178425, 50.434284581443713 ], [ 19.295425360165712, 50.434305498165706 ], [ 19.295422949851872, 50.434305233019302 ], [ 19.295420826881212, 50.434304457330811 ], [ 19.29541924731538, 50.434303264659682 ], [ 19.291329833363541, 50.429820021314001 ], [ 19.29132898792804, 50.429818555482818 ], [ 19.291328978342673, 50.429816993349363 ], [ 19.291329805763496, 50.429815523329928 ], [ 19.295363305688198, 50.425311797773638 ], [ 19.29536487006586, 50.425310597119569 ], [ 19.295366982916189, 50.425309810676879 ], [ 19.295369389398289, 50.425309533302148 ], [ 19.303494968718212, 50.425288623223757 ], [ 19.303495527407204, 50.425288558788104 ], [ 19.303495890552611, 50.425288280013199 ], [ 19.307531276232694, 50.420780306526055 ], [ 19.30753146817786, 50.42077996521229 ], [ 19.307531271819155, 50.42077962492484 ], [ 19.303438413518482, 50.416292989362439 ], [ 19.303438046891785, 50.416292712490446 ], [ 19.303437487503867, 50.41629265097076 ], [ 19.295313447093779, 50.416313554408063 ], [ 19.295311037694059, 50.416313289256941 ], [ 19.2953089155307, 50.41631251356258 ], [ 19.295307336567966, 50.4163113208852 ], [ 19.291219489306886, 50.411828057019754 ], [ 19.291218644197333, 50.411826591182667 ], [ 19.29121863462171, 50.411825029044337 ], [ 19.291219461734901, 50.411823559021663 ], [ 19.295251451818086, 50.407319825951312 ], [ 19.29525301560809, 50.407318625296035 ], [ 19.295255127661409, 50.407317838854325 ], [ 19.295257533233286, 50.407317561482628 ], [ 19.303380035515964, 50.407296664683905 ], [ 19.303380593993644, 50.407296600248998 ], [ 19.303380957002666, 50.407296321473829 ], [ 19.307413121725354, 50.402790253483673 ], [ 19.307414685058799, 50.402789052664822 ], [ 19.307416796708885, 50.402788266002439 ], [ 19.307419201979481, 50.402787988379622 ], [ 19.31554092080362, 50.402766243960308 ], [ 19.315541479211333, 50.402766179467079 ], [ 19.315541842114353, 50.402765900653947 ], [ 19.319572469501232, 50.398259410594108 ], [ 19.319574032378206, 50.398258209611789 ], [ 19.319576143625063, 50.398257422728854 ], [ 19.319578548594301, 50.398257144854995 ], [ 19.32769603643116, 50.398234562798379 ], [ 19.327698445091322, 50.398234827281101 ], [ 19.327700566971924, 50.398235602387629 ], [ 19.327702146142883, 50.398236794628701 ], [ 19.331793991134045, 50.402720685865297 ], [ 19.331794357820449, 50.40272096264848 ], [ 19.331794917084565, 50.402721024032203 ], [ 19.339920052245713, 50.402697567914316 ], [ 19.33992061061895, 50.40269750330414 ], [ 19.339920973378039, 50.402697224415242 ], [ 19.34394927921964, 50.398189894458099 ], [ 19.343950841476758, 50.398188693149564 ], [ 19.343952952314741, 50.398187905825083 ], [ 19.343955357135407, 50.398187627447584 ], [ 19.352076259823566, 50.398163334092608 ], [ 19.352076818126744, 50.398163269424188 ], [ 19.352077180779833, 50.398162990497404 ], [ 19.356103949707965, 50.393655239350167 ], [ 19.35610551150863, 50.393654037878434 ], [ 19.356107621943185, 50.393653250333657 ], [ 19.356110026462108, 50.393652971705301 ], [ 19.364230143769575, 50.39362783155488 ], [ 19.364230702002672, 50.393627766828253 ], [ 19.364231064549788, 50.393627487863576 ], [ 19.368256296966361, 50.389119315863418 ], [ 19.36825785831066, 50.389118114228594 ], [ 19.368259968341793, 50.389117326463619 ], [ 19.368262372558895, 50.389117047584527 ], [ 19.376381704106617, 50.389091060912364 ], [ 19.376382262269622, 50.389090996127521 ], [ 19.376382624710779, 50.389090717125001 ], [ 19.380408028822803, 50.384580210785259 ], [ 19.380408220099216, 50.384579869350688 ], [ 19.380408023370396, 50.384579529184983 ], [ 19.376313173809702, 50.380097340770675 ], [ 19.376312326649188, 50.380095875548527 ], [ 19.376312314289539, 50.380094313415157 ], [ 19.376313138221434, 50.380092842786866 ], [ 19.380334377137881, 50.375586161201156 ], [ 19.380335937733769, 50.375584959403092 ], [ 19.380338046964518, 50.375584171418993 ], [ 19.380340450425805, 50.375583892291338 ], [ 19.388457460518545, 50.375557067891066 ], [ 19.388458018506057, 50.375557003048534 ], [ 19.388458380773478, 50.375556724008128 ], [ 19.392479792573027, 50.371047708610021 ], [ 19.392481352712949, 50.371046506649137 ], [ 19.39248346154049, 50.371045718445131 ], [ 19.39248586469996, 50.37104543906699 ], [ 19.400598643531268, 50.371017780826413 ], [ 19.400601051208739, 50.371018043803247 ], [ 19.400603173052854, 50.371018817583668 ], [ 19.400604753137944, 50.371020008838364 ], [ 19.4047011002998, 50.375501345461977 ], [ 19.40470146719839, 50.37550162201611 ], [ 19.404702026234219, 50.375501683050175 ], [ 19.412822443704261, 50.375473146468011 ], [ 19.412823001656871, 50.375473081508673 ], [ 19.412823363780273, 50.375472802392736 ], [ 19.416844160024702, 50.370961035992508 ], [ 19.416844350985045, 50.370960694498031 ], [ 19.416844154052949, 50.370960354393652 ], [ 19.412747059260472, 50.366479443759786 ], [ 19.412746211224452, 50.366477978801733 ], [ 19.412746197674732, 50.366476416671546 ], [ 19.412747020245526, 50.366474945785107 ], [ 19.416763657543637, 50.361967005602388 ], [ 19.416765216771882, 50.36196580331616 ], [ 19.416767324793017, 50.361965014672634 ], [ 19.416769727348619, 50.361964734793823 ], [ 19.424880933489209, 50.361935386680798 ], [ 19.42488334083793, 50.361935649156216 ], [ 19.424885462668279, 50.3619364224949 ], [ 19.424887043056238, 50.361937613420807 ], [ 19.428984884699727, 50.366418098002249 ], [ 19.428985251668621, 50.366418374480027 ], [ 19.428985810628074, 50.366418435397662 ], [ 19.437104652511806, 50.366388207519485 ], [ 19.437105210324063, 50.366388142443938 ], [ 19.43710557223573, 50.366387863252527 ], [ 19.441121594037014, 50.361877173210473 ], [ 19.441123152644892, 50.361875970599321 ], [ 19.441125260255578, 50.361875181515366 ], [ 19.441127662660154, 50.361874901133774 ], [ 19.449238827256597, 50.361843854387352 ], [ 19.449241234731705, 50.361844116358277 ], [ 19.449243356950834, 50.361844889251536 ], [ 19.449244937943078, 50.361846079844852 ], [ 19.453345059349477, 50.366325700091551 ], [ 19.453345426458682, 50.366325976492092 ], [ 19.453345985447459, 50.366326037292581 ], [ 19.461464784568285, 50.366294109078957 ], [ 19.461465342345342, 50.366294043886683 ], [ 19.461465704112854, 50.366293764619847 ], [ 19.46547940343482, 50.36178223983805 ], [ 19.465480961421886, 50.361781036902173 ], [ 19.465483068621523, 50.361780247377965 ], [ 19.465485470874388, 50.361779966493643 ], [ 19.473596591590102, 50.361747221135175 ], [ 19.473598999190902, 50.361747482601515 ], [ 19.473601121798204, 50.361748255049243 ], [ 19.473602703394267, 50.361749445309755 ], [ 19.477705103351493, 50.36622820042313 ], [ 19.477705470600906, 50.3662284767464 ], [ 19.477706029618844, 50.36622853742972 ], [ 19.485824783637469, 50.366194908902571 ], [ 19.485825341379154, 50.366194843593583 ], [ 19.485825703002419, 50.366194564251387 ], [ 19.489838781296015, 50.36168029012822 ], [ 19.48983897169488, 50.361679948515018 ], [ 19.489838774280862, 50.361679608535141 ], [ 19.48573563061861, 50.357201280059634 ], [ 19.485734780507158, 50.357199815637621 ], [ 19.485734764566654, 50.357198253520536 ], [ 19.485735584719677, 50.357196782122728 ], [ 19.489744514539993, 50.352686337134948 ], [ 19.489746071615468, 50.3526851338748 ], [ 19.489748178007936, 50.352684343912067 ], [ 19.489750579655411, 50.352684062527878 ], [ 19.497863565335265, 50.352649614772133 ], [ 19.497864122901451, 50.352649549405761 ], [ 19.49786448435146, 50.352649270026014 ], [ 19.501875285510891, 50.348134576794635 ], [ 19.501875475769779, 50.348134235161361 ], [ 19.501875278326818, 50.348133895201208 ], [ 19.497770440532992, 50.343654080029893 ], [ 19.497770073342636, 50.343653803768746 ], [ 19.497769514565068, 50.343653743180916 ], [ 19.489658061348468, 50.343688180001429 ], [ 19.489655654575664, 50.343687918864298 ], [ 19.489653532517128, 50.343687146705605 ], [ 19.489651951124486, 50.343685956659087 ], [ 19.485552128094294, 50.339209504201527 ], [ 19.485551278313526, 50.339208039772707 ], [ 19.485551262389208, 50.33920647765072 ], [ 19.48555208224197, 50.339205006250509 ], [ 19.489561228812988, 50.334692642532204 ], [ 19.489561419107332, 50.334692300918164 ], [ 19.489561221808515, 50.334691960935913 ], [ 19.485460446711922, 50.330213595100666 ], [ 19.485459597096366, 50.330212130668421 ], [ 19.48545958118013, 50.330210568543997 ], [ 19.485460400882875, 50.330209097142586 ], [ 19.489468805259332, 50.32569673176679 ], [ 19.48946899551887, 50.325696390152501 ], [ 19.489468798258414, 50.325696050169441 ], [ 19.48536707168903, 50.321215770883782 ], [ 19.485366704744127, 50.321215494581701 ], [ 19.485366146245227, 50.321215433933226 ], [ 19.47725849744274, 50.321248994994001 ], [ 19.477256091870291, 50.321248733595837 ], [ 19.477253971012914, 50.321247961204499 ], [ 19.477252390677339, 50.321246770981794 ], [ 19.473153934767605, 50.316767954231445 ], [ 19.473153567927657, 50.316767677890311 ], [ 19.473153009496041, 50.31676761718294 ], [ 19.465046102918631, 50.316800324606639 ], [ 19.465043697636137, 50.316800062954812 ], [ 19.465041577173576, 50.316799290339034 ], [ 19.465039997290077, 50.31679809994818 ], [ 19.460943071152922, 50.312318845133582 ], [ 19.460942704417903, 50.312318568753426 ], [ 19.460942146053604, 50.312318507987186 ], [ 19.452832541221238, 50.312350375439749 ], [ 19.452831984062968, 50.312350440589583 ], [ 19.452831622652077, 50.312350719831166 ], [ 19.448820855633002, 50.316861838686407 ], [ 19.448819298685045, 50.316863041405618 ], [ 19.448817193188678, 50.316863830629465 ], [ 19.448814793097878, 50.316864111165934 ], [ 19.440707842760176, 50.316895121711461 ], [ 19.440707285531886, 50.316895186803322 ], [ 19.440706924015451, 50.316895466007288 ], [ 19.436694627194818, 50.321406167021749 ], [ 19.436693069792135, 50.3214073695788 ], [ 19.436690963893334, 50.321408158583488 ], [ 19.436688563500923, 50.321408438870186 ], [ 19.428584268705546, 50.321438593190969 ], [ 19.428581863384384, 50.321438330785163 ], [ 19.428579743301992, 50.321437557504105 ], [ 19.428578164171629, 50.321436366616886 ], [ 19.42448425504832, 50.316955823150451 ], [ 19.42448388848814, 50.31695554665508 ], [ 19.424483330114906, 50.316955485713827 ], [ 19.416376338358795, 50.31698479983978 ], [ 19.41637393332822, 50.31698453718051 ], [ 19.416371813641067, 50.316983763675282 ], [ 19.416370234962933, 50.316982572620233 ], [ 19.412279592625939, 50.312503494266352 ], [ 19.412278745574639, 50.312502029288886 ], [ 19.412278732066149, 50.312500467144019 ], [ 19.412279553729707, 50.312498996249438 ], [ 19.416293421013684, 50.307989127020278 ], [ 19.416293611728392, 50.307988785523591 ], [ 19.416293415063119, 50.307988445413947 ], [ 19.412201819896904, 50.303507453396406 ], [ 19.41220097300943, 50.303505988415701 ], [ 19.412200959507793, 50.303504426268383 ], [ 19.412201781020414, 50.303502955372444 ], [ 19.416214903693799, 50.298993083688018 ], [ 19.416215094373491, 50.298992742191018 ], [ 19.416214897746258, 50.298992402080614 ], [ 19.412122350342589, 50.294509496327478 ], [ 19.41212198402712, 50.294509219791479 ], [ 19.412121425932266, 50.294509158789921 ], [ 19.404018236517519, 50.294537601999117 ], [ 19.404015832686053, 50.294537339080343 ], [ 19.404013714197685, 50.294536565343954 ], [ 19.404012136573417, 50.294535374113984 ], [ 19.399924589333697, 50.290055836332229 ], [ 19.399923743063901, 50.290054371257249 ], [ 19.399923729970642, 50.290052809103912 ], [ 19.399924551633084, 50.290051338290979 ], [ 19.403937713336326, 50.285541879883525 ], [ 19.403937904050821, 50.285541538405788 ], [ 19.403937707566968, 50.285541198273506 ], [ 19.399847471924556, 50.281057844468556 ], [ 19.399847105783699, 50.281057567892809 ], [ 19.3998465478616, 50.281057506831772 ], [ 19.391745630223081, 50.281085089237543 ], [ 19.391743227135802, 50.28108482606266 ], [ 19.391741109443547, 50.281084052098969 ], [ 19.391739532571297, 50.281082860697957 ], [ 19.387654293981811, 50.276602875718602 ], [ 19.387653448329004, 50.276601410549489 ], [ 19.387653435643514, 50.276599848390219 ], [ 19.387654257455321, 50.276598377660257 ], [ 19.391667456987779, 50.272089332333344 ], [ 19.391667647736966, 50.27208899087487 ], [ 19.391667451396341, 50.272088650720711 ], [ 19.387579525190009, 50.267604849477195 ], [ 19.387579159223606, 50.267604572861771 ], [ 19.387578601474154, 50.267604511741325 ], [ 19.379479954487508, 50.267631234152958 ], [ 19.379477552143975, 50.267630970722209 ], [ 19.37947543524723, 50.267630196531478 ], [ 19.379473859126314, 50.267629004959609 ], [ 19.375389193180851, 50.263146670715706 ], [ 19.375388827319146, 50.263146394061458 ], [ 19.375388269637078, 50.263146332882314 ], [ 19.367290367336114, 50.263172204316696 ], [ 19.367287965282912, 50.263171940633178 ], [ 19.367285848780632, 50.263171166218982 ], [ 19.367284273110723, 50.263169974479922 ], [ 19.363201132393659, 50.258687205140575 ], [ 19.363200766636641, 50.258686928447517 ], [ 19.363200209021972, 50.258686867209704 ], [ 19.355099614745843, 50.2587118984328 ], [ 19.355099058077414, 50.258711963113825 ], [ 19.355098696497652, 50.258712242054493 ], [ 19.351083155336941, 50.263220039934296 ], [ 19.351081597662024, 50.26322124135703 ], [ 19.351079492902063, 50.263222028816521 ], [ 19.351077094922218, 50.263222307333521 ], [ 19.342982595708708, 50.263246474896704 ], [ 19.342980193783511, 50.263246210710591 ], [ 19.342978077669905, 50.26324543585298 ], [ 19.342976502602465, 50.263244243783198 ], [ 19.338895632607588, 50.258760616055881 ], [ 19.33889526699042, 50.25876033928607 ], [ 19.338894709405491, 50.258760277931586 ], [ 19.330797519062141, 50.258783605425442 ], [ 19.330795117427673, 50.258783340986732 ], [ 19.330793001708738, 50.258782565905918 ], [ 19.330791427092308, 50.258781373669208 ], [ 19.326712081972534, 50.254297311717949 ], [ 19.326711716460046, 50.254297034909392 ], [ 19.326711158942611, 50.254296973496274 ], [ 19.318614715252124, 50.254319450803465 ], [ 19.318612313908471, 50.254319186112255 ], [ 19.318610198584214, 50.254318410808338 ], [ 19.318608624418715, 50.254317218404807 ], [ 19.314530803797787, 50.249832722565657 ], [ 19.314530438389969, 50.249832445718383 ], [ 19.314529880940043, 50.249832384246659 ], [ 19.306430747860109, 50.249854020693206 ], [ 19.306430191227939, 50.249854085141159 ], [ 19.306429829430172, 50.249854363931213 ], [ 19.302410429480325, 50.254360493897735 ], [ 19.302408870866401, 50.25436169467163 ], [ 19.302406765690055, 50.254362481251619 ], [ 19.302404367866664, 50.254362758764572 ], [ 19.294311331304257, 50.254383534146463 ], [ 19.294308930089922, 50.254383268952886 ], [ 19.294306815155359, 50.254382493205974 ], [ 19.294305241592941, 50.254381300472247 ], [ 19.290229692926726, 50.249895948113824 ], [ 19.290229327658903, 50.249895671189904 ], [ 19.290228770239018, 50.249895609601566 ], [ 19.282129608679728, 50.24991555260771 ], [ 19.282129052013598, 50.249915616939347 ], [ 19.282128690073286, 50.249915895653977 ], [ 19.278106989682634, 50.254421188880912 ], [ 19.278105430454612, 50.254422389329854 ], [ 19.278103324873722, 50.254423175470293 ], [ 19.278100926904131, 50.254423452482072 ], [ 19.270007863036369, 50.254442535585191 ], [ 19.270005461952042, 50.254442269889296 ], [ 19.270003347407791, 50.254441493699524 ], [ 19.270001774448904, 50.2544403006358 ], [ 19.265928498924605, 50.249954092556855 ], [ 19.265928133796887, 50.249953815556339 ], [ 19.265927576407204, 50.249953753851415 ], [ 19.257828388688264, 50.249972003403506 ], [ 19.25782783198833, 50.249972067618778 ], [ 19.257827469905564, 50.249972346257955 ], [ 19.253803470207149, 50.254476801932903 ], [ 19.253801910365471, 50.2544780020567 ], [ 19.253799804380634, 50.254478787757435 ], [ 19.253797406265527, 50.254479064267976 ], [ 19.245704317410937, 50.254496455079263 ], [ 19.245701916457307, 50.254496188881106 ], [ 19.245699802303971, 50.254495412248602 ], [ 19.24569822994907, 50.254494218855122 ], [ 19.241627228751629, 50.250007155854966 ], [ 19.241626863764115, 50.250006878777917 ], [ 19.241626306404793, 50.250006816956386 ], [ 19.233527094845947, 50.250023373041934 ], [ 19.233526538112372, 50.250023437140854 ], [ 19.23352617588726, 50.250023715704522 ], [ 19.229499878016437, 50.254527333015659 ], [ 19.22949831756155, 50.254528532814092 ], [ 19.22949621117337, 50.254529318074979 ], [ 19.229493812913436, 50.254529594084246 ], [ 19.221400701390575, 50.254545292591786 ], [ 19.221398300568332, 50.254545025891403 ], [ 19.221396186806523, 50.254544248816323 ], [ 19.22139461505606, 50.254543055093272 ], [ 19.217327616286248, 50.250057043020561 ], [ 19.217326776327457, 50.250055576599394 ], [ 19.217326769222353, 50.250054014408406 ], [ 19.217327595827836, 50.250052544870876 ], [ 19.221354666544958, 50.245549344753243 ], [ 19.22135485840689, 50.245549003571504 ], [ 19.221354663387856, 50.245548663126634 ], [ 19.217286709835051, 50.241060736634118 ], [ 19.217285870036488, 50.241059270210158 ], [ 19.217285862934986, 50.24105770801674 ], [ 19.217286689387016, 50.241056238477434 ], [ 19.221313008761882, 50.236553033773482 ], [ 19.221313200588217, 50.236552692591331 ], [ 19.22131300560638, 50.236552352145821 ], [ 19.217244097857666, 50.232062511163626 ], [ 19.217243733148578, 50.232062234008808 ], [ 19.217243176029712, 50.232062172069831 ], [ 19.209150426263378, 50.232077019066601 ], [ 19.209148026637468, 50.232076752110643 ], [ 19.209145914068703, 50.232075974808261 ], [ 19.209144343364091, 50.232074780913599 ], [ 19.205078684846089, 50.227586413787947 ], [ 19.205078320241615, 50.227586136594581 ], [ 19.205077763190502, 50.227586074597177 ], [ 19.196985764779814, 50.227600073526446 ], [ 19.196983365445831, 50.227599806318757 ], [ 19.19698125327217, 50.22759902879416 ], [ 19.196979683018185, 50.227597834733636 ], [ 19.192915546764358, 50.223109036805674 ], [ 19.192915182264478, 50.223108759573812 ], [ 19.192914625281137, 50.223108697517965 ], [ 19.184819944068931, 50.223121854108818 ], [ 19.184819387582564, 50.223121917974446 ], [ 19.184819025276635, 50.223122196387649 ], [ 19.180790393176064, 50.227624149495583 ], [ 19.180788832373278, 50.227625348645923 ], [ 19.180786726366833, 50.227626133027208 ], [ 19.180784329172234, 50.22762640803149 ], [ 19.172695747632051, 50.227638710185005 ], [ 19.172693348430638, 50.227638442475651 ], [ 19.172691236649122, 50.22763766450916 ], [ 19.172689666999567, 50.227636470119819 ], [ 19.16862952916053, 50.223148726268278 ], [ 19.168628691169257, 50.223147259486453 ], [ 19.168628685661496, 50.223145697283712 ], [ 19.168629513301489, 50.223144228084763 ], [ 19.172657204539693, 50.218644603142302 ], [ 19.172658765254141, 50.218643404099431 ], [ 19.172660870999124, 50.218642619864497 ], [ 19.17266326779075, 50.218642345027781 ], [ 19.180753762314147, 50.218630041434402 ], [ 19.180754318753753, 50.218629977588243 ], [ 19.180754681049422, 50.218629699187503 ], [ 19.184782561331936, 50.214127741151763 ], [ 19.184784121595001, 50.214126541945603 ], [ 19.184786226942016, 50.214125757490748 ], [ 19.184788623437093, 50.21412548240405 ], [ 19.192878348600981, 50.214112335447318 ], [ 19.192878904971714, 50.214112271543137 ], [ 19.192879267162581, 50.214111993104495 ], [ 19.196907335267703, 50.209607701891578 ], [ 19.196907527160739, 50.209607360748052 ], [ 19.196907332462857, 50.209607020259689 ], [ 19.192844735754658, 50.205118204071994 ], [ 19.19284389733885, 50.205116737460727 ], [ 19.192843891044198, 50.205115175255202 ], [ 19.192844717629853, 50.205113705880436 ], [ 19.196868616871029, 50.20061323212601 ], [ 19.196870176391194, 50.200612032755615 ], [ 19.196872280945637, 50.200611248080897 ], [ 19.196874676694073, 50.200610972745146 ], [ 19.204962111782255, 50.200596987132201 ], [ 19.204962667979625, 50.200596923170224 ], [ 19.204963029998037, 50.200596644693476 ], [ 19.208987118226183, 50.196093838287112 ], [ 19.208988677295359, 50.196092638753697 ], [ 19.208990781452044, 50.19609185385935 ], [ 19.208993176903924, 50.196091578273865 ], [ 19.217079842265708, 50.19607675010483 ], [ 19.217080398394209, 50.196076686084886 ], [ 19.217080760307908, 50.19607640757031 ], [ 19.221105036303371, 50.191571268428646 ], [ 19.221105227951949, 50.19157092724442 ], [ 19.221105033155855, 50.191570586795663 ], [ 19.217041706114788, 50.187082603712945 ], [ 19.21704086727587, 50.187081137272287 ], [ 19.217040860195929, 50.187079575064239 ], [ 19.217041685728837, 50.187078105514153 ], [ 19.221061797996043, 50.182576784813293 ], [ 19.22106335632331, 50.18257558511602 ], [ 19.22106545968823, 50.1825748000022 ], [ 19.221067854393997, 50.18257452416811 ], [ 19.229152230867623, 50.182558858682548 ], [ 19.22915278682288, 50.182558794604894 ], [ 19.22915314856435, 50.182558516052289 ], [ 19.23317344976277, 50.178054863140744 ], [ 19.233175007639439, 50.178053663280714 ], [ 19.233177110606807, 50.178052877947557 ], [ 19.233179505016015, 50.178052601863989 ], [ 19.241263111399121, 50.17803609462937 ], [ 19.241263667285505, 50.178036030493821 ], [ 19.241264028922362, 50.17803575190343 ], [ 19.245284517834374, 50.173529766698408 ], [ 19.245284709238874, 50.173529425473596 ], [ 19.245284514344885, 50.173529085064459 ], [ 19.241220461168847, 50.169041934804753 ], [ 19.241219621908233, 50.169040468534746 ], [ 19.241219614044606, 50.169038906324467 ], [ 19.241220438526359, 50.169037436599524 ], [ 19.245236768838225, 50.164535270815342 ], [ 19.245238325973979, 50.164534070791809 ], [ 19.245240428150392, 50.1645332852396 ], [ 19.24524282181401, 50.16453300890786 ], [ 19.253324140498709, 50.16451566569534 ], [ 19.253324696211976, 50.164515601502181 ], [ 19.253325057676832, 50.164515322873854 ], [ 19.257343281625662, 50.160008913234606 ], [ 19.2573434728906, 50.160008571989344 ], [ 19.257343277966378, 50.160008231599704 ], [ 19.253279248471088, 50.155521492728262 ], [ 19.25327840908016, 50.155520026542163 ], [ 19.25327840082738, 50.155518464329639 ], [ 19.253279224708077, 50.155516994516589 ], [ 19.257294997565992, 50.151012492701057 ], [ 19.257295188795627, 50.151012151455397 ], [ 19.257294993908562, 50.151011811065089 ], [ 19.253231734473342, 50.146525062359807 ], [ 19.253230895242346, 50.14652359617083 ], [ 19.253230886993741, 50.146522033955883 ], [ 19.253231710722357, 50.146520564141099 ], [ 19.257245033818098, 50.142017970211356 ], [ 19.257246589923753, 50.14201677002378 ], [ 19.25724869091702, 50.142015984253021 ], [ 19.257251083387143, 50.142015707674581 ], [ 19.265328600245365, 50.141997535048652 ], [ 19.265329155681531, 50.141997470798259 ], [ 19.265329516907283, 50.141997192131889 ], [ 19.269344733013362, 50.137490354580457 ], [ 19.269344924103667, 50.137490013314405 ], [ 19.269344729186482, 50.137489672943559 ], [ 19.265279769955168, 50.133001430908493 ], [ 19.265279405724527, 50.133001153898924 ], [ 19.265278849695996, 50.133001092187477 ], [ 19.25720284737459, 50.13301925905219 ], [ 19.257200452444369, 50.133018993076696 ], [ 19.257198343469899, 50.13301821662909 ], [ 19.257196774824667, 50.133017023360395 ], [ 19.253136778603352, 50.128532159488202 ], [ 19.253135939691973, 50.128530693293506 ], [ 19.253135931451716, 50.128529131073677 ], [ 19.253136754876397, 50.128527661255468 ], [ 19.257150291954815, 50.124023146825536 ], [ 19.25715048307865, 50.124022805578676 ], [ 19.257150288302931, 50.124022465186364 ], [ 19.253087613080293, 50.119533782418195 ], [ 19.253087249022354, 50.119533505369482 ], [ 19.253086693165358, 50.119533443599245 ], [ 19.245012949123915, 50.119550759337081 ], [ 19.245010554932612, 50.119550493108505 ], [ 19.245008446747089, 50.119549716436559 ], [ 19.245006878845675, 50.119548522999331 ], [ 19.240949163554376, 50.115063219237506 ], [ 19.240948325251747, 50.11506175295046 ], [ 19.240948317411966, 50.115060190725551 ], [ 19.240949140980558, 50.115058720990142 ], [ 19.244962701661954, 50.110554617277046 ], [ 19.244962892819217, 50.11055427604942 ], [ 19.244962698184807, 50.110553935635657 ], [ 19.240904027323971, 50.10606671749229 ], [ 19.24090318918072, 50.106065251202416 ], [ 19.240903181344905, 50.106063688975063 ], [ 19.240904004761564, 50.106062219237899 ], [ 19.244916820917915, 50.101558111182975 ], [ 19.244917012039931, 50.101557769954944 ], [ 19.24491681744253, 50.101557429540534 ], [ 19.240857191596064, 50.097068296945807 ], [ 19.240856827779261, 50.097068019857325 ], [ 19.240856272197856, 50.0970679580279 ], [ 19.23278629680145, 50.097084418223019 ], [ 19.232783903797255, 50.097084151739644 ], [ 19.23278179679593, 50.097083374841034 ], [ 19.232780229932974, 50.097082181232651 ], [ 19.228725559526207, 50.09259642863023 ], [ 19.228724721990712, 50.092594962248214 ], [ 19.22872471455457, 50.092593400015851 ], [ 19.228725538114613, 50.092591930361436 ], [ 19.232738376688648, 50.088088232691817 ], [ 19.232738567843967, 50.088087891482992 ], [ 19.232738373387651, 50.08808755104716 ], [ 19.228681025801681, 50.08359797906644 ], [ 19.228680662157181, 50.083597701938913 ], [ 19.228680106747017, 50.083597640050847 ], [ 19.220612386241392, 50.083613250994148 ], [ 19.220609993974865, 50.083612984258259 ], [ 19.220607887760899, 50.083612207135886 ], [ 19.22060632164003, 50.083611013359423 ], [ 19.216553926422204, 50.079124822212414 ], [ 19.216553089493786, 50.079123355738368 ], [ 19.216553082456716, 50.079121793501088 ], [ 19.216553906159689, 50.079120323929402 ], [ 19.22056506277654, 50.074618948019491 ], [ 19.220566617623277, 50.074617748311105 ], [ 19.220568716275668, 50.07461696319789 ], [ 19.220571105605302, 50.074616687376029 ], [ 19.228637316523489, 50.074601081380045 ], [ 19.228637871230667, 50.07460101730539 ], [ 19.228638232164371, 50.074600738750291 ], [ 19.232649583101423, 50.070097032184748 ], [ 19.232651137500291, 50.070095832314223 ], [ 19.232653235757542, 50.07009504698248 ], [ 19.232655624792415, 50.0700947709121 ], [ 19.240721070302381, 50.070078326361781 ], [ 19.240721624941106, 50.070078262229437 ], [ 19.240721985770826, 50.0700779836367 ], [ 19.244733529817097, 50.065571946332788 ], [ 19.244733720798294, 50.065571605103131 ], [ 19.244733526348735, 50.065571264686071 ], [ 19.24067696726749, 50.061082093299802 ], [ 19.240676603724683, 50.061081816208635 ], [ 19.24067604855939, 50.061081754377362 ], [ 19.232612111485288, 50.061098193716624 ], [ 19.232609720273317, 50.061097927225489 ], [ 19.232607614853364, 50.06109715031667 ], [ 19.232606049170183, 50.061095956696839 ], [ 19.228552719489677, 50.05660826092123 ], [ 19.228552356050464, 50.056607983791743 ], [ 19.228551800952204, 50.056607921902348 ], [ 19.220488606920213, 50.056623518009246 ], [ 19.220486215997077, 50.056623251267766 ], [ 19.220484110968247, 50.056622474137932 ], [ 19.220482545731308, 50.056621280353063 ], [ 19.216430723731428, 50.052133155810928 ], [ 19.21643036039579, 50.052132878643135 ], [ 19.216429805364584, 50.052132816695632 ], [ 19.208363932436491, 50.052147575977841 ], [ 19.208363377960801, 50.052147639955578 ], [ 19.208363017077549, 50.052147918448654 ], [ 19.20435088136049, 50.056650800685219 ], [ 19.204349326688032, 50.056652000179916 ], [ 19.20434722855288, 50.056652785001717 ], [ 19.20434484002114, 50.056653060489531 ], [ 19.196285048571472, 50.056666969308118 ], [ 19.196282657778973, 50.056666702067957 ], [ 19.196280553137953, 50.056665924498745 ], [ 19.19627898849922, 50.056664730386821 ], [ 19.192229418004381, 50.052175758464678 ], [ 19.192229054807612, 50.052175481220964 ], [ 19.192228499806749, 50.052175419157706 ], [ 19.184162607954899, 50.052188496724909 ], [ 19.184162053446261, 50.052188560587076 ], [ 19.184161692422443, 50.052188839005048 ], [ 19.18014728627217, 50.056690887087569 ], [ 19.18014573099418, 50.056692086258721 ], [ 19.180143632461355, 50.056692870643445 ], [ 19.180141243787766, 50.056693145633361 ], [ 19.17208143456681, 50.056705373893195 ], [ 19.172079043905619, 50.056705106154382 ], [ 19.172076939653007, 50.056704328145941 ], [ 19.172075375612927, 50.056703133707174 ], [ 19.168029775617097, 50.052215221055093 ], [ 19.168028940637342, 50.052213754222507 ], [ 19.168028935182299, 50.052212191973489 ], [ 19.168029759909846, 50.052210722738316 ], [ 19.172044928037558, 50.047709089463162 ], [ 19.172045119463949, 50.047708748351631 ], [ 19.172044925600872, 50.047708407811193 ], [ 19.167996651538115, 50.043216674620972 ], [ 19.167996288548483, 50.043216397300796 ], [ 19.167995733681924, 50.043216335121421 ], [ 19.159934754482801, 50.043227722639067 ], [ 19.159932364558209, 50.043227454648772 ], [ 19.15993026109118, 50.043226676417547 ], [ 19.159928697790932, 50.043225481811611 ], [ 19.155883648126871, 50.03873522718321 ], [ 19.155883285240783, 50.038734949824835 ], [ 19.155882730441405, 50.038734887587452 ], [ 19.147822496980492, 50.03874543319224 ], [ 19.14782010734536, 50.038745164952061 ], [ 19.14781800426967, 50.03874438650039 ], [ 19.147816441415422, 50.038743191729992 ], [ 19.14377289794389, 50.034252510198726 ], [ 19.143772535161322, 50.034252232802189 ], [ 19.143771980429136, 50.034252170506818 ], [ 19.135712493091692, 50.034261874463475 ], [ 19.135710103746103, 50.034261605973512 ], [ 19.135708001061747, 50.034260827301487 ], [ 19.135706438653429, 50.034259632366734 ], [ 19.131664400998453, 50.029768524265435 ], [ 19.131664038319393, 50.029768246830749 ], [ 19.131663483654425, 50.02976818447739 ], [ 19.123601322074268, 50.029777050693873 ], [ 19.123600767742857, 50.029777114266835 ], [ 19.123600406536305, 50.029777392497643 ], [ 19.119582198113456, 50.03427736586125 ], [ 19.119580642048476, 50.034278564226014 ], [ 19.119578543503359, 50.034279347518755 ], [ 19.119576155593663, 50.03427962126284 ], [ 19.111520077283991, 50.034287641735148 ], [ 19.111517688071245, 50.034287372747045 ], [ 19.111515585776299, 50.03428659363648 ], [ 19.111514023966997, 50.034285398375673 ], [ 19.107475953661019, 50.029795353108256 ], [ 19.10747512091546, 50.029793885833072 ], [ 19.107475117429054, 50.029792323574007 ], [ 19.107475943622237, 50.029790854762567 ], [ 19.11149491021644, 50.025291296546648 ], [ 19.111495101983074, 50.025290955533464 ], [ 19.111494908638583, 50.025290614890253 ], [ 19.107454166853664, 50.020796747943976 ], [ 19.10745380438156, 50.020796470433076 ], [ 19.107453249851083, 50.020796407963822 ], [ 19.099396003190559, 50.020803588565215 ], [ 19.099393614714074, 50.020803319326475 ], [ 19.099391513203738, 50.020802539993994 ], [ 19.09938995213275, 50.020801344566799 ], [ 19.095352429669138, 50.016308958751587 ], [ 19.095352067300485, 50.016308681202617 ], [ 19.095351512837279, 50.016308618675446 ], [ 19.087291594037158, 50.016314961260782 ], [ 19.087291039812502, 50.0163150246604 ], [ 19.087290678496931, 50.016315302778892 ], [ 19.083270197841205, 50.020814030496695 ], [ 19.083268641306741, 50.0208152283776 ], [ 19.08326654275664, 50.02081601101559 ], [ 19.083264155307056, 50.020816284012952 ], [ 19.075210320154305, 50.020821782991355 ], [ 19.07520793181158, 50.020821513254788 ], [ 19.075205830691257, 50.020820733484172 ], [ 19.075204270219491, 50.020819537731384 ], [ 19.071169000488307, 50.016326309583768 ], [ 19.071168638258754, 50.016326031959217 ], [ 19.071168083826624, 50.016325969316505 ], [ 19.063111577357013, 50.016330630424321 ], [ 19.063109189304452, 50.016330360438431 ], [ 19.063107088575666, 50.016329580448016 ], [ 19.063105528549595, 50.016328384531441 ], [ 19.059071763133492, 50.01183473167584 ], [ 19.05907140100739, 50.011834454013268 ], [ 19.059070846642619, 50.011834391312696 ], [ 19.05101166987312, 50.011838213864536 ], [ 19.051011115652102, 50.011838277090938 ], [ 19.051010754160618, 50.011838555096737 ], [ 19.046987258546199, 50.016336030092681 ], [ 19.046985701253945, 50.016337227488052 ], [ 19.046983602309069, 50.016338009470637 ], [ 19.046981214875341, 50.016338281721744 ], [ 19.038924703216171, 50.016341263683898 ], [ 19.038924148927471, 50.01634132685254 ], [ 19.038923787332461, 50.016341604820489 ], [ 19.034897078720157, 50.020840566394867 ], [ 19.034896886428943, 50.020840907281801 ], [ 19.034897079213938, 50.020841248052946 ], [ 19.038929344741803, 50.025335734498988 ], [ 19.038930175322196, 50.02533720226748 ], [ 19.038930176584863, 50.025338764530126 ], [ 19.038929348377419, 50.025340232855051 ], [ 19.03490359742133, 50.02983727890178 ], [ 19.034903405094273, 50.029837619788225 ], [ 19.03490359791536, 50.029837960558815 ], [ 19.038936617818862, 50.03433243959104 ], [ 19.038937448554812, 50.034333907357144 ], [ 19.038937449818114, 50.034335469617353 ], [ 19.038936621456319, 50.034336937940076 ], [ 19.034911828733865, 50.038832068526055 ], [ 19.034910270414048, 50.038833265754917 ], [ 19.034908170292585, 50.038834047516289 ], [ 19.034905781675164, 50.038834319518187 ], [ 19.026848926503522, 50.038836462931847 ], [ 19.026846537537836, 50.038836192200961 ], [ 19.026844436414166, 50.038835411557244 ], [ 19.026842876559073, 50.038834215157877 ], [ 19.022810608119279, 50.034339319295995 ], [ 19.022810246032918, 50.034339041521363 ], [ 19.022809691456253, 50.034338978647838 ], [ 19.014746745643951, 50.034340283198034 ], [ 19.014746191116366, 50.034340346251021 ], [ 19.014745829246692, 50.034340624142779 ], [ 19.010717067308516, 50.038836824414489 ], [ 19.010715508386856, 50.03883802131854 ], [ 19.010713407872277, 50.038838802642132 ], [ 19.010711019117885, 50.038839074146082 ], [ 19.002650740771895, 50.038839538109798 ], [ 19.002650186176645, 50.038839601104947 ], [ 19.002649824203338, 50.038839878958782 ], [ 18.998619556043138, 50.043335655813713 ], [ 18.998617996675009, 50.043336852554333 ], [ 18.998615895767792, 50.043337633658375 ], [ 18.998613506721938, 50.043337904913137 ], [ 18.990552475139904, 50.043337528696377 ], [ 18.990551920477014, 50.043337591633666 ], [ 18.990551558400053, 50.043337869449545 ], [ 18.986519783637192, 50.047833222554985 ], [ 18.986518223822515, 50.04783441913208 ], [ 18.986516122522652, 50.047835200016451 ], [ 18.986513733185422, 50.047835471021934 ], [ 18.978451948748191, 50.047834254358477 ], [ 18.978451394017675, 50.047834317237879 ], [ 18.97845103183705, 50.047834595015779 ], [ 18.974417750091128, 50.052329524038953 ], [ 18.974416189829832, 50.052330720452403 ], [ 18.974414088137326, 50.052331501117017 ], [ 18.974411698508792, 50.052331771873121 ], [ 18.966352583958951, 50.052329715488931 ], [ 18.966350194664631, 50.052329443513436 ], [ 18.966348093933917, 50.052328661776535 ], [ 18.966346535145973, 50.052327464567263 ], [ 18.962318787536621, 50.047830478938721 ], [ 18.962318425698012, 50.047830200976108 ], [ 18.962317871045137, 50.047830137813669 ], [ 18.95425608940371, 50.047827240614495 ], [ 18.954253700401441, 50.04782696838987 ], [ 18.954251600063852, 50.047826186433554 ], [ 18.954250041722702, 50.04782498906102 ], [ 18.950223801094563, 50.043327580654086 ], [ 18.950223439359664, 50.04332730265358 ], [ 18.950222884774583, 50.043327239433303 ], [ 18.942158437062997, 50.043323500735134 ], [ 18.942157882337227, 50.04332356344112 ], [ 18.942157519981219, 50.043323841105924 ], [ 18.938121228211575, 50.047817511216948 ], [ 18.938119667194812, 50.047818707143115 ], [ 18.938117565111298, 50.047819487150974 ], [ 18.93811517550337, 50.047819757160042 ], [ 18.930053398943713, 50.047815178951758 ], [ 18.930052844150456, 50.047815241599814 ], [ 18.930052481690819, 50.047815519226567 ], [ 18.926014682943297, 50.052308764190506 ], [ 18.92601312148005, 50.052309959952716 ], [ 18.926011019004289, 50.052310739740527 ], [ 18.92600862910567, 50.052311009500023 ], [ 18.917946102360361, 50.052305590048462 ], [ 18.917945547499638, 50.052305652638559 ], [ 18.91794518493635, 50.052305930227227 ], [ 18.913905878832313, 50.05679874971117 ], [ 18.913904316922505, 50.056799945309329 ], [ 18.913902214054506, 50.056800724876993 ], [ 18.913899823865265, 50.056800994386812 ], [ 18.905839969992442, 50.056794736202825 ], [ 18.905837580820425, 50.056794462982026 ], [ 18.905835480879706, 50.056793680151095 ], [ 18.905833923454171, 50.056792482131016 ], [ 18.901811460937715, 50.052293403790038 ], [ 18.901811099415379, 50.052293125639217 ], [ 18.901810544790958, 50.052293062187708 ], [ 18.89374460420272, 50.05228595880839 ], [ 18.893744049310936, 50.052286021282782 ], [ 18.89374368660831, 50.052286298795771 ], [ 18.889702123731912, 50.056778274521577 ], [ 18.889700561221865, 50.056779469793625 ], [ 18.88969845796333, 50.05678024892255 ], [ 18.889696067640372, 50.056780517933888 ], [ 18.881632800749983, 50.056772575676639 ], [ 18.881632245790822, 50.05677263809303 ], [ 18.881631882984543, 50.056772915567876 ], [ 18.877588812379603, 50.06126446494843 ], [ 18.877587249422984, 50.061265660056158 ], [ 18.877585145772411, 50.061266438964694 ], [ 18.877582755159221, 50.061266707726155 ], [ 18.869518739997094, 50.061257923430588 ], [ 18.869518184970577, 50.061257985788977 ], [ 18.869517822060622, 50.061258263225668 ], [ 18.865473243349772, 50.065749385927845 ], [ 18.865471679946509, 50.065750580871146 ], [ 18.865469575903894, 50.065751359559208 ], [ 18.865467185000554, 50.065751628070707 ], [ 18.857405845257244, 50.065742005676718 ], [ 18.857403455918245, 50.065741731459333 ], [ 18.857401356377373, 50.065740947753802 ], [ 18.85739979987029, 50.065739749086575 ], [ 18.853381124207402, 50.061239002955745 ], [ 18.85338076289829, 50.061238724654729 ], [ 18.853380208235166, 50.061238660971867 ], [ 18.845312783179654, 50.061228190798033 ], [ 18.845312228122371, 50.06122825304066 ], [ 18.845311865073221, 50.061228530401529 ], [ 18.841263312810892, 50.065720713473141 ], [ 18.841263118969078, 50.065721054034775 ], [ 18.84126331056126, 50.065721395123447 ], [ 18.845281224865321, 50.070222556544266 ], [ 18.845282050307247, 50.07022402568095 ], [ 18.845282045281142, 50.07022558792611 ], [ 18.845281210393139, 50.070227054849944 ], [ 18.841233614018215, 50.074717323134102 ], [ 18.841233420139776, 50.074717663695111 ], [ 18.841233611767446, 50.074718004783342 ], [ 18.845252273186468, 50.079219160918456 ], [ 18.845253098781349, 50.0792206300532 ], [ 18.845253093752699, 50.07922219229593 ], [ 18.845252258706964, 50.079223659217135 ], [ 18.841203900205432, 50.083713918763721 ], [ 18.841203706290354, 50.083714259324111 ], [ 18.841203897953527, 50.083714600411895 ], [ 18.845223306864238, 50.088215751262354 ], [ 18.845224132612149, 50.088217220395165 ], [ 18.845224127580956, 50.088218782635458 ], [ 18.845223292377412, 50.08822024955402 ], [ 18.841174171362656, 50.092710500362784 ], [ 18.841173977410914, 50.092710840922564 ], [ 18.841174169109614, 50.0927111820099 ], [ 18.845194325888993, 50.097212327576756 ], [ 18.845195151790012, 50.097213796707642 ], [ 18.845195146756271, 50.09721535894549 ], [ 18.845194311394835, 50.097216825861416 ], [ 18.8411461467233, 50.101705161958549 ], [ 18.841144581544008, 50.10170635656506 ], [ 18.841142475532479, 50.101707134805437 ], [ 18.841140082704829, 50.101707402812366 ], [ 18.833069293894201, 50.101696080048541 ], [ 18.833068738353617, 50.101696142231674 ], [ 18.833068374927585, 50.101696419551935 ], [ 18.82901697980633, 50.106186233602742 ], [ 18.82901541417948, 50.106187428044358 ], [ 18.82901330777532, 50.106188206063727 ], [ 18.829010914657317, 50.106188473820197 ], [ 18.820939377988218, 50.106176307155096 ], [ 18.820938822380253, 50.106176369280078 ], [ 18.820938458850318, 50.106176646562048 ], [ 18.816883831297076, 50.110667937807357 ], [ 18.816883637100368, 50.110668278325235 ], [ 18.816883828697808, 50.110668619451488 ], [ 18.820903205619064, 50.115170591174028 ], [ 18.820904031083984, 50.115172060472638 ], [ 18.820904025256674, 50.115173622703693 ], [ 18.820903188839917, 50.115175089439127 ], [ 18.816849516674409, 50.119664466004963 ], [ 18.816849322440895, 50.119664806522202 ], [ 18.816849514073819, 50.119665147648028 ], [ 18.820869638842673, 50.124167114355103 ], [ 18.820870464460555, 50.124168583651837 ], [ 18.820870458630296, 50.124170145880456 ], [ 18.820869622055035, 50.124171612613189 ], [ 18.816815184683964, 50.128660980171048 ], [ 18.816814990413629, 50.128661320687662 ], [ 18.81681518208206, 50.128661661813048 ], [ 18.820836055075716, 50.13316362350583 ], [ 18.820836880846638, 50.133165092800667 ], [ 18.820836875013431, 50.133166655026855 ], [ 18.820836038279584, 50.133168121756903 ], [ 18.816782556815831, 50.137655574707985 ], [ 18.816780989856138, 50.137656768976655 ], [ 18.816778881871524, 50.137657546768075 ], [ 18.816776487116076, 50.137657814269133 ], [ 18.808699662685047, 50.137644791056317 ], [ 18.808699106696928, 50.137644853121955 ], [ 18.808698742857491, 50.13764513036373 ], [ 18.804640303490615, 50.142135965237422 ], [ 18.804640109079088, 50.142136305732713 ], [ 18.80464030071446, 50.142136646877361 ], [ 18.808661155943952, 50.146639019572298 ], [ 18.808661981572559, 50.146640488950112 ], [ 18.808661975339984, 50.146642051171582 ], [ 18.808661137997895, 50.146643517809778 ], [ 18.804605376173022, 50.151130532649155 ], [ 18.804603808469345, 50.151131726749874 ], [ 18.80460169969496, 50.15113250431753 ], [ 18.804599304199229, 50.15113277156599 ], [ 18.796520216214713, 50.15111889871924 ], [ 18.796519660054745, 50.151118960726222 ], [ 18.796519296042561, 50.151119237928974 ], [ 18.792460296346444, 50.155607728619252 ], [ 18.792458728194074, 50.155608922554542 ], [ 18.792456619026275, 50.155609699900616 ], [ 18.792454223239844, 50.15560996689802 ], [ 18.784374387054754, 50.155595248281976 ], [ 18.78437383082732, 50.155595310230652 ], [ 18.784373466710971, 50.155595587394991 ], [ 18.780312950913601, 50.160083648127262 ], [ 18.780311382312462, 50.160084841897046 ], [ 18.780309272751243, 50.160085619021388 ], [ 18.780306876674203, 50.160085885767643 ], [ 18.772226292678962, 50.160070321116891 ], [ 18.772225736384087, 50.160070383007259 ], [ 18.772225372163554, 50.160070660133165 ], [ 18.768161615486921, 50.164560195437595 ], [ 18.768161420725061, 50.164560535869988 ], [ 18.768161612189772, 50.164560877073249 ], [ 18.772180911136367, 50.169064492920612 ], [ 18.772181736029903, 50.169065962550981 ], [ 18.772181728603147, 50.169067524762745 ], [ 18.772180889751787, 50.169068991130139 ], [ 18.768118087709635, 50.173556611957558 ], [ 18.768117892910681, 50.173556952389305 ], [ 18.768118084410812, 50.173557293592168 ], [ 18.772138131153575, 50.178060904961264 ], [ 18.772138956199786, 50.178062374589871 ], [ 18.772138948769264, 50.178063936799205 ], [ 18.772138109758163, 50.178065403163764 ], [ 18.76807453788134, 50.182553014440657 ], [ 18.768074343045274, 50.18255335487175 ], [ 18.768074534580844, 50.182553696074201 ], [ 18.772095329496935, 50.187057302966402 ], [ 18.772096154695895, 50.187058772593225 ], [ 18.772096147261607, 50.187060334800115 ], [ 18.772095308090684, 50.187061801161889 ], [ 18.768032691369012, 50.191547498035121 ], [ 18.768031121429285, 50.191548691630693 ], [ 18.768029010282024, 50.191549468525579 ], [ 18.768026612562782, 50.191549735014767 ], [ 18.759940727124071, 50.19153330844194 ], [ 18.759940170447944, 50.19153337027258 ], [ 18.759939805916574, 50.191533647358007 ], [ 18.755873944975431, 50.196020818111961 ], [ 18.755872374586097, 50.196022011541658 ], [ 18.755870263044827, 50.1960227882144 ], [ 18.755867865034695, 50.19602305445202 ], [ 18.747781231437518, 50.196005780507527 ], [ 18.747780674693878, 50.19600584227976 ], [ 18.747780310058129, 50.196006119326661 ], [ 18.743712929578034, 50.200492858711399 ], [ 18.743711358739024, 50.200494051975085 ], [ 18.743709246803746, 50.200494828425605 ], [ 18.743706848502807, 50.200495094411565 ], [ 18.735622900045463, 50.200476980641511 ], [ 18.735620504697682, 50.200476703914461 ], [ 18.735618401260794, 50.200475918018718 ], [ 18.735616843440365, 50.200474717744925 ], [ 18.731598362665828, 50.195969862647175 ], [ 18.731598001052145, 50.195969583973216 ], [ 18.73159744499452, 50.195969519707717 ], [ 18.723510836163122, 50.195950556478536 ], [ 18.723508441112745, 50.19595027950205 ], [ 18.723506338074159, 50.195949493387076 ], [ 18.723504780704911, 50.195948292950689 ], [ 18.719489524400483, 50.191444930394916 ], [ 18.719488700742573, 50.191443460398219 ], [ 18.719488709894335, 50.191441898198882 ], [ 18.719489550751859, 50.191440432221178 ], [ 18.723558425223999, 50.186954536392271 ], [ 18.723558620394204, 50.186954196036673 ], [ 18.723558429158601, 50.186953854761597 ], [ 18.719542213812741, 50.182448575904097 ], [ 18.719541390306791, 50.18244710590573 ], [ 18.71954139945392, 50.18244554370397 ], [ 18.719542240150769, 50.182444077723325 ], [ 18.723610342104948, 50.177958171801414 ], [ 18.723610537237871, 50.177957831445141 ], [ 18.723610346037557, 50.177957490169689 ], [ 18.719593172227977, 50.173450294945646 ], [ 18.719592810853747, 50.173450016233637 ], [ 18.719592255073731, 50.173449951910911 ], [ 18.711506024912968, 50.173430151103943 ], [ 18.711505468385781, 50.173430212702954 ], [ 18.71150510371309, 50.173430489637006 ], [ 18.707436256292837, 50.177915973820539 ], [ 18.707434685294885, 50.177917166598078 ], [ 18.707432573771349, 50.177917942392902 ], [ 18.707430176403179, 50.177918207632679 ], [ 18.699350063401635, 50.177897576631452 ], [ 18.699347669395415, 50.177897299157912 ], [ 18.699345567546668, 50.177896512605294 ], [ 18.699344011369423, 50.177895311843464 ], [ 18.695330832669494, 50.173389194444802 ], [ 18.695330471437199, 50.173388915657576 ], [ 18.695329915690987, 50.17338885121881 ], [ 18.687247144677521, 50.173367370767977 ], [ 18.68724475096878, 50.173367093045364 ], [ 18.687242649518133, 50.173366306273898 ], [ 18.687241093791577, 50.173365105349845 ], [ 18.683229432663868, 50.168858569211828 ], [ 18.683229071536182, 50.16885829038695 ], [ 18.683228515859032, 50.168858225890375 ], [ 18.675143087869017, 50.168835895308241 ], [ 18.675142531349316, 50.168835956733098 ], [ 18.675142166502113, 50.168836233552867 ], [ 18.671070313277426, 50.17332044150595 ], [ 18.671068741527751, 50.173321633791119 ], [ 18.671066629621485, 50.173322408924747 ], [ 18.67106423228573, 50.173322673414297 ], [ 18.662981491769326, 50.17329950457475 ], [ 18.662980935182453, 50.173299565941157 ], [ 18.662980570231063, 50.173299842722294 ], [ 18.65890719945428, 50.177783617777507 ], [ 18.658905627255756, 50.177784809896252 ], [ 18.658903514956698, 50.177785584807346 ], [ 18.658901117331592, 50.177785849045065 ], [ 18.650817634059408, 50.177761832328244 ], [ 18.650817077405378, 50.177761893636173 ], [ 18.650816712349787, 50.177762170378671 ], [ 18.646741823647211, 50.182245512201028 ], [ 18.646740250999759, 50.182246704153251 ], [ 18.646738138307914, 50.182247478841703 ], [ 18.646735740393535, 50.182247742827528 ], [ 18.638654946326184, 50.182222888642976 ], [ 18.638652552462318, 50.18222260991913 ], [ 18.638650451426763, 50.182221822270741 ], [ 18.638648896635452, 50.182220620699866 ], [ 18.63464107819604, 50.177712422026012 ], [ 18.634640717285475, 50.177712143051004 ], [ 18.634640161572374, 50.177712078322024 ], [ 18.626556712257766, 50.177686373450406 ], [ 18.626554318692214, 50.177686094477707 ], [ 18.626552218055345, 50.177685306610798 ], [ 18.626550663715005, 50.177684104878054 ], [ 18.622544363178974, 50.173175488742785 ], [ 18.622544002373086, 50.173175209730211 ], [ 18.622543446729235, 50.17317514494345 ], [ 18.614460774110366, 50.173148600091245 ], [ 18.6144583808432, 50.173148320869785 ], [ 18.614456280605008, 50.173147532784448 ], [ 18.614454726715554, 50.173146330889963 ], [ 18.61044994368682, 50.16863729762732 ], [ 18.610449582985588, 50.168637018577186 ], [ 18.610449027411008, 50.168636953732694 ], [ 18.602367131860159, 50.168609569171295 ], [ 18.602364738891456, 50.168609289701159 ], [ 18.60236263905194, 50.168608501397514 ], [ 18.602361085613293, 50.168607299341389 ], [ 18.598357819695515, 50.164097849285326 ], [ 18.598357459098921, 50.164097570197676 ], [ 18.598356903593626, 50.16409750529548 ], [ 18.590272355236593, 50.164069269196567 ], [ 18.590271798666034, 50.164069330214708 ], [ 18.59027143336673, 50.164069606766965 ], [ 18.586192064655574, 50.168550823755638 ], [ 18.586190490958376, 50.168552014888249 ], [ 18.586188377899489, 50.168552788476347 ], [ 18.586185980345032, 50.168553051213784 ], [ 18.57810412334911, 50.16852397859175 ], [ 18.578103566711647, 50.168524039551386 ], [ 18.578103201308249, 50.168524316064889 ], [ 18.574022315511563, 50.173005098357983 ], [ 18.574020741365899, 50.173006289323631 ], [ 18.574018627915041, 50.173007062688747 ], [ 18.574016230072392, 50.173007325174062 ], [ 18.565933634583335, 50.172977403904227 ], [ 18.565933077878988, 50.172977464805314 ], [ 18.565932712371477, 50.17297774128005 ], [ 18.561850309118388, 50.177458088542558 ], [ 18.561848734524176, 50.177459279341178 ], [ 18.561846620681354, 50.177460052483198 ], [ 18.561844222550597, 50.177460314716292 ], [ 18.553760888966114, 50.177429544535208 ], [ 18.553760332194901, 50.177429605377725 ], [ 18.553759966583261, 50.177429881813659 ], [ 18.549676045503155, 50.181909793710538 ], [ 18.549674470460328, 50.181910984341997 ], [ 18.549672356225543, 50.181911757260828 ], [ 18.54966995780676, 50.181912019241601 ], [ 18.541589318024293, 50.181880413426953 ], [ 18.541586924756313, 50.181880132704556 ], [ 18.541584825344138, 50.181879343305226 ], [ 18.541583273007905, 50.181878140442194 ], [ 18.537584641194549, 50.177366619339118 ], [ 18.537584280853892, 50.177366340064196 ], [ 18.537583725279202, 50.177366274871289 ], [ 18.529500434875782, 50.177333816612524 ], [ 18.529498041907317, 50.177333535641715 ], [ 18.529495942894602, 50.177332746024426 ], [ 18.529494391009589, 50.177331543000186 ], [ 18.525497276994756, 50.172819606586891 ], [ 18.525496916758826, 50.172819327274546 ], [ 18.525496361253669, 50.172819262023992 ], [ 18.51741385210433, 50.172785964895645 ], [ 18.517411459435461, 50.172785683676494 ], [ 18.517409360822203, 50.17278489384136 ], [ 18.517407809388324, 50.172783690656004 ], [ 18.51341221277292, 50.168271339266404 ], [ 18.513411852641706, 50.168271059916677 ], [ 18.513411297206101, 50.168270994608477 ], [ 18.505326139175938, 50.168236844273686 ], [ 18.505325582451828, 50.168236904884289 ], [ 18.505325216632393, 50.168237181167569 ], [ 18.501237568918718, 50.172715385888736 ], [ 18.501235992980856, 50.172716575862559 ], [ 18.501233878377935, 50.172717347899862 ], [ 18.501231480162318, 50.172717608881563 ], [ 18.493149017650346, 50.172682623499426 ], [ 18.493148460859569, 50.172682684051416 ], [ 18.493148094936075, 50.17268296029583 ], [ 18.489057193934489, 50.177162629066217 ], [ 18.489056997141677, 50.177162969022937 ], [ 18.489057186664812, 50.177163310678843 ], [ 18.493051218496589, 50.181676488114064 ], [ 18.49305203502562, 50.181677959694916 ], [ 18.493052018492161, 50.181679521854399 ], [ 18.493051170890318, 50.181680986173099 ], [ 18.488962958573907, 50.186156840847339 ], [ 18.488961381887599, 50.18615803064958 ], [ 18.48895926649346, 50.186158802459204 ], [ 18.488956867539279, 50.186159063184625 ], [ 18.480872152313317, 50.186123216754815 ], [ 18.480871595351093, 50.186123277247276 ], [ 18.480871229253822, 50.186123553451843 ], [ 18.476778025608898, 50.190602772247189 ], [ 18.476777828673125, 50.190603112181876 ], [ 18.476778018160971, 50.190603453856916 ], [ 18.480772001008216, 50.195117042889123 ], [ 18.480772817385319, 50.195118514552412 ], [ 18.480772800443333, 50.195120076705273 ], [ 18.480771952225638, 50.195121540929058 ], [ 18.476681438050544, 50.199596945870439 ], [ 18.476679860615114, 50.199598135500899 ], [ 18.476677744429161, 50.199598907082631 ], [ 18.476675344735984, 50.199599167551483 ], [ 18.46858837569085, 50.199562459267206 ], [ 18.468587818557076, 50.199562519700088 ], [ 18.468587452285867, 50.19956279586475 ], [ 18.464493681563457, 50.204039663776101 ], [ 18.464492103679117, 50.204040853238716 ], [ 18.464489987101434, 50.204041624596591 ], [ 18.464487587120967, 50.20404188481259 ], [ 18.45639988354872, 50.2040043257824 ], [ 18.456399326348269, 50.204004386156576 ], [ 18.456398959972844, 50.204004662282252 ], [ 18.452301930718647, 50.208482992392661 ], [ 18.452301733534796, 50.20848333228399 ], [ 18.452301922917382, 50.208483673997556 ], [ 18.456295069689958, 50.212998087853137 ], [ 18.456295885613716, 50.212999559682387 ], [ 18.456295867861851, 50.213001121824227 ], [ 18.456295018575414, 50.21300258586129 ], [ 18.452198941242841, 50.217479002697829 ], [ 18.452198744020667, 50.217479342588341 ], [ 18.452198933437614, 50.217479684301658 ], [ 18.456192814703424, 50.221994097109118 ], [ 18.456193630775296, 50.221995568937288 ], [ 18.456193613014431, 50.221997131076677 ], [ 18.456192763562967, 50.2219985951102 ], [ 18.452095899555761, 50.226474998844417 ], [ 18.452095702295249, 50.226475338734076 ], [ 18.45209589174658, 50.226475680447159 ], [ 18.456090507873935, 50.230990092209126 ], [ 18.456091324093993, 50.230991564036238 ], [ 18.456091306324122, 50.230993126173161 ], [ 18.45609045670755, 50.230994590203146 ], [ 18.451994545144775, 50.235469080740216 ], [ 18.451992965907621, 50.235470270022212 ], [ 18.451990847734976, 50.235471041142993 ], [ 18.451988446109766, 50.235471301093995 ], [ 18.44389544380363, 50.235432854482923 ], [ 18.44389488622134, 50.235432914795524 ], [ 18.443894519531774, 50.235433190879242 ], [ 18.439793605912229, 50.239911042818186 ], [ 18.439793408508208, 50.239911382685719 ], [ 18.439793597923909, 50.239911724417937 ], [ 18.443788161414918, 50.244426548492697 ], [ 18.443788977481592, 50.24442802040231 ], [ 18.443788959301152, 50.244429582532362 ], [ 18.443788109066343, 50.244431046466964 ], [ 18.439689887538641, 50.248905085289543 ], [ 18.439688307549936, 50.248906274399069 ], [ 18.439686188583295, 50.248907045291126 ], [ 18.439683786217412, 50.248907304984741 ], [ 18.431591961884749, 50.248868010626666 ], [ 18.431589565931723, 50.248867727632287 ], [ 18.431587465419536, 50.248866936250657 ], [ 18.431585913700999, 50.248865731934067 ], [ 18.427592138848691, 50.244350494576885 ], [ 18.427591778651568, 50.24435021496457 ], [ 18.427591222453806, 50.244350149244241 ], [ 18.419493314977206, 50.244309981281447 ], [ 18.419492757261462, 50.24431004147641 ], [ 18.419492390363068, 50.244310317481968 ], [ 18.415388428958781, 50.248787290716578 ], [ 18.415388231344352, 50.248787630541379 ], [ 18.415388420619841, 50.248787972312364 ], [ 18.419381406060957, 50.253303622878605 ], [ 18.419382221523652, 50.253305094955252 ], [ 18.419382202539499, 50.253306657076301 ], [ 18.41938135139819, 50.253308120826937 ], [ 18.415278341330797, 50.25778318094148 ], [ 18.415278143677828, 50.257783520765443 ], [ 18.415278332987629, 50.257783862536201 ], [ 18.419272052815309, 50.262299512458434 ], [ 18.419272868425875, 50.262300984534093 ], [ 18.419272849432094, 50.262302546652691 ], [ 18.41927199812481, 50.262304010399696 ], [ 18.415169939987383, 50.266777157467686 ], [ 18.415168358796095, 50.266778346235974 ], [ 18.415166238642172, 50.266779116674428 ], [ 18.415163835247508, 50.2667793758568 ], [ 18.407065580531913, 50.266738346179714 ], [ 18.40706502253888, 50.266738406313813 ], [ 18.407064655395608, 50.266738682278209 ], [ 18.402959330109315, 50.271213288984626 ], [ 18.40295774846761, 50.271214477584294 ], [ 18.402955627920999, 50.271215247798025 ], [ 18.40295322423875, 50.271215506726669 ], [ 18.394854235173817, 50.271173623636543 ], [ 18.394853677114043, 50.27117368371173 ], [ 18.394853309866203, 50.271173959636961 ], [ 18.390744715440263, 50.275650025207469 ], [ 18.390744517537978, 50.275650364987747 ], [ 18.390744706741536, 50.275650706797038 ], [ 18.394737578561092, 50.280167182803602 ], [ 18.394738393714093, 50.280168655045244 ], [ 18.394738373905351, 50.280170217152083 ], [ 18.394737521524011, 50.280171680710993 ], [ 18.390629878042397, 50.284645833264115 ], [ 18.39062968010143, 50.284646173043534 ], [ 18.390629869339257, 50.284646514852604 ], [ 18.394623475470187, 50.289162990484954 ], [ 18.394624290770899, 50.289164462725651 ], [ 18.3946242709521, 50.289166024830031 ], [ 18.394623418404155, 50.289167488385246 ], [ 18.390514982360461, 50.293641627131642 ], [ 18.390514784380787, 50.293641966910208 ], [ 18.390514973652905, 50.293642308719065 ], [ 18.39450931446336, 50.298158783980064 ], [ 18.394510129911854, 50.29816025621983 ], [ 18.394510110082997, 50.298161818321745 ], [ 18.394509257368362, 50.298163281873272 ], [ 18.390401772793115, 50.30263550767981 ], [ 18.390400189791354, 50.302636696097274 ], [ 18.390398067642778, 50.302637466071921 ], [ 18.390395662309864, 50.302637724733486 ], [ 18.382291357576435, 50.302594947258513 ], [ 18.382290799133447, 50.302595007271641 ], [ 18.382290431569789, 50.302595283154545 ], [ 18.378177929395154, 50.307070866060855 ], [ 18.378177731271169, 50.307071205817103 ], [ 18.378177920507117, 50.307071547645116 ], [ 18.382172202601872, 50.311588436186014 ], [ 18.382173017894665, 50.311589908508367 ], [ 18.382172997652166, 50.311591470603048 ], [ 18.382172144315842, 50.311592934058417 ], [ 18.378060592747197, 50.316066604006132 ], [ 18.378060394584413, 50.316066943761513 ], [ 18.378060583854644, 50.316067285589327 ], [ 18.382057296911505, 50.320586091182719 ], [ 18.382057657412325, 50.320586370933633 ], [ 18.382058214433599, 50.320586436874038 ], [ 18.390165577527707, 50.320629241513849 ], [ 18.390167976829151, 50.320629525370911 ], [ 18.390170079798079, 50.320630317500317 ], [ 18.390171632785435, 50.320631522359633 ], [ 18.394166483563659, 50.325146079355228 ], [ 18.394167299455948, 50.325147551592174 ], [ 18.394167279596868, 50.325149113686706 ], [ 18.394166426381645, 50.325150577227149 ], [ 18.390054816019635, 50.329624660725024 ], [ 18.390054617884946, 50.329625000500151 ], [ 18.390054807294376, 50.329625342308141 ], [ 18.394052090509273, 50.334141816112599 ], [ 18.394052906549639, 50.334143288348635 ], [ 18.394052886680477, 50.334144850440701 ], [ 18.394052033298216, 50.334146313977435 ], [ 18.38994137412347, 50.338618484550317 ], [ 18.389939789906784, 50.338619672949761 ], [ 18.389937666142938, 50.338620442905416 ], [ 18.389935258989244, 50.338620701549274 ], [ 18.381824834427825, 50.33857786972424 ], [ 18.381824275562092, 50.338577929733191 ], [ 18.381823907716281, 50.338578205611888 ], [ 18.37770997157385, 50.343051833759169 ], [ 18.377708386904995, 50.343053021989412 ], [ 18.377706262747086, 50.34305379171964 ], [ 18.377703855304958, 50.343054050109025 ], [ 18.369592694628054, 50.343010362443465 ], [ 18.369592135695385, 50.343010422393363 ], [ 18.369591767744598, 50.343010698232746 ], [ 18.365476299722051, 50.347483884445012 ], [ 18.365474714600957, 50.34748507250594 ], [ 18.365472590048995, 50.347485842010627 ], [ 18.365470182318521, 50.34748610014546 ], [ 18.357358285934996, 50.347441556376076 ], [ 18.357357726935408, 50.347441616266863 ], [ 18.357357358879636, 50.347441892066918 ], [ 18.353238610871358, 50.35191653455113 ], [ 18.35323841238035, 50.351916874260851 ] ] ] ] } }
]
}
