{"type":"FeatureCollection","name":"szczecin_hex_boundary","crs":{"type":"name","properties":{"name":"urn:ogc:def:crs:OGC:1.3:CRS84"}},"features":[{"type":"Feature","properties":{"name":"szczecin"},"geometry":{"type":"Polygon","coordinates":[[[14.44622,53.440756],[14.44622,53.440756],[14.448147,53.443079],[14.448147,53.443079],[14.448147,53.443079],[14.448147,53.443079],[14.448147,53.443079],[14.448147,53.443079],[14.448147,53.443079],[14.448147,53.443079],[14.448147,53.443079],[14.448147,53.443079],[14.448147,53.443079],[14.448147,53.443079],[14.44574,53.445237],[14.44574,53.445237],[14.44574,53.445237],[14.447667,53.447561],[14.447667,53.447561],[14.447667,53.447561],[14.447667,53.447561],[14.447667,53.447561],[14.447667,53.447561],[14.447667,53.447561],[14.447667,53.447561],[14.447667,53.447561],[14.447667,53.447561],[14.447667,53.447561],[14.447667,53.447561],[14.44526,53.449719],[14.44526,53.449719],[14.44526,53.449719],[14.447187,53.452042],[14.447187,53.452042],[14.447187,53.452042],[14.451521,53.452208],[14.451521,53.452208],[14.451521,53.452208],[14.453929,53.45005],[14.453929,53.45005],[14.453929,53.45005],[14.453929,53.45005],[14.453929,53.45005],[14.453929,53.45005],[14.453929,53.45005],[14.453929,53.45005],[14.453929,53.45005],[14.453929,53.45005],[14.453929,53.45005],[14.453929,53.45005],[14.458263,53.450215],[14.458263,53.450215],[14.458263,53.450215],[14.458263,53.450215],[14.458263,53.450215],[14.458263,53.450215],[14.458263,53.450215],[14.458263,53.450215],[14.458263,53.450215],[14.458263,53.450215],[14.458263,53.450215],[14.458263,53.450215],[14.460191,53.452538],[14.460191,53.452538],[14.460191,53.452538],[14.460191,53.452538],[14.460191,53.452538],[14.460191,53.452538],[14.460191,53.452538],[14.460191,53.452538],[14.460191,53.452538],[14.460191,53.452538],[14.460191,53.452538],[14.460191,53.452538],[14.457784,53.454696],[14.457784,53.454696],[14.457784,53.454696],[14.459712,53.45702],[14.459712,53.45702],[14.459712,53.45702],[14.459712,53.45702],[14.459712,53.45702],[14.459712,53.45702],[14.459712,53.45702],[14.459712,53.45702],[14.459712,53.45702],[14.459712,53.45702],[14.459712,53.45702],[14.459712,53.45702],[14.457305,53.459178],[14.457305,53.459178],[14.457305,53.459178],[14.459233,53.461501],[14.459233,53.461501],[14.459233,53.461501],[14.463568,53.461666],[14.463568,53.461666],[14.463568,53.461666],[14.463568,53.461666],[14.463568,53.461666],[14.463568,53.461666],[14.463568,53.461666],[14.463568,53.461666],[14.463568,53.461666],[14.463568,53.461666],[14.463568,53.461666],[14.463568,53.461666],[14.465497,53.46399],[14.465497,53.46399],[14.465497,53.46399],[14.465497,53.46399],[14.465497,53.46399],[14.465497,53.46399],[14.465497,53.46399],[14.465497,53.46399],[14.465497,53.46399],[14.465497,53.46399],[14.465497,53.46399],[14.465497,53.46399],[14.46309,53.466148],[14.46309,53.466148],[14.46309,53.466148],[14.46309,53.466148],[14.46309,53.466148],[14.46309,53.466148],[14.46309,53.466148],[14.46309,53.466148],[14.46309,53.466148],[14.46309,53.466148],[14.46309,53.466148],[14.46309,53.466148],[14.458754,53.465983],[14.458753,53.465983],[14.458753,53.465983],[14.456346,53.468141],[14.456346,53.468141],[14.456346,53.468141],[14.458274,53.470465],[14.458274,53.470465],[14.458274,53.470465],[14.458274,53.470465],[14.458274,53.470465],[14.458274,53.470465],[14.458274,53.470465],[14.458274,53.470465],[14.458274,53.470465],[14.458274,53.470465],[14.458274,53.470465],[14.458274,53.470465],[14.455866,53.472623],[14.455866,53.472623],[14.455866,53.472623],[14.457795,53.474946],[14.457795,53.474946],[14.457795,53.474946],[14.457795,53.474946],[14.457795,53.474946],[14.457795,53.474946],[14.457795,53.474946],[14.457795,53.474946],[14.457795,53.474946],[14.457795,53.474946],[14.457795,53.474946],[14.457795,53.474946],[14.455386,53.477104],[14.455386,53.477104],[14.455386,53.477104],[14.455386,53.477104],[14.455386,53.477104],[14.455386,53.477104],[14.455386,53.477104],[14.455386,53.477104],[14.455386,53.477104],[14.455386,53.477104],[14.455386,53.477104],[14.455386,53.477104],[14.451049,53.476939],[14.451049,53.476939],[14.451049,53.476939],[14.44864,53.479097],[14.44864,53.479097],[14.44864,53.479097],[14.44864,53.479097],[14.44864,53.479097],[14.44864,53.479097],[14.44864,53.479097],[14.44864,53.479097],[14.44864,53.479097],[14.44864,53.479097],[14.44864,53.479097],[14.44864,53.479097],[14.444303,53.478931],[14.444303,53.478931],[14.444303,53.478931],[14.441893,53.481089],[14.441893,53.481089],[14.441893,53.481089],[14.443822,53.483413],[14.443822,53.483413],[14.443822,53.483413],[14.443822,53.483413],[14.443822,53.483413],[14.443822,53.483413],[14.443822,53.483413],[14.443822,53.483413],[14.443822,53.483413],[14.443822,53.483413],[14.443822,53.483413],[14.443822,53.483413],[14.441412,53.485571],[14.441412,53.485571],[14.441412,53.485571],[14.44334,53.487894],[14.44334,53.487894],[14.44334,53.487894],[14.44334,53.487894],[14.44334,53.487894],[14.44334,53.487894],[14.44334,53.487894],[14.44334,53.487894],[14.44334,53.487894],[14.44334,53.487894],[14.44334,53.487894],[14.44334,53.487894],[14.440931,53.490052],[14.440931,53.490052],[14.440931,53.490052],[14.442859,53.492376],[14.442859,53.492376],[14.442859,53.492376],[14.442859,53.492376],[14.442859,53.492376],[14.442859,53.492376],[14.442859,53.492376],[14.442859,53.492376],[14.442859,53.492376],[14.442859,53.492376],[14.442859,53.492376],[14.442859,53.492376],[14.440449,53.494534],[14.440449,53.494534],[14.440449,53.494534],[14.442378,53.496857],[14.442378,53.496857],[14.442378,53.496857],[14.446717,53.497023],[14.446717,53.497023],[14.446717,53.497023],[14.446717,53.497023],[14.446717,53.497023],[14.446717,53.497023],[14.446717,53.497023],[14.446717,53.497023],[14.446717,53.497023],[14.446717,53.497023],[14.446717,53.497023],[14.446717,53.497023],[14.448646,53.499347],[14.448646,53.499347],[14.448646,53.499347],[14.452985,53.499512],[14.452985,53.499512],[14.452985,53.499512],[14.455395,53.497354],[14.455395,53.497354],[14.455395,53.497354],[14.455395,53.497354],[14.455395,53.497354],[14.455395,53.497354],[14.455395,53.497354],[14.455395,53.497354],[14.455395,53.497354],[14.455395,53.497354],[14.455395,53.497354],[14.455395,53.497354],[14.459734,53.497519],[14.459734,53.497519],[14.459734,53.497519],[14.459734,53.497519],[14.459734,53.497519],[14.459734,53.497519],[14.459734,53.497519],[14.459735,53.497519],[14.459735,53.497519],[14.459735,53.497519],[14.459735,53.497519],[14.459735,53.497519],[14.461664,53.499842],[14.461664,53.499842],[14.461664,53.499842],[14.466004,53.500008],[14.466004,53.500008],[14.466004,53.500008],[14.468413,53.497849],[14.468413,53.497849],[14.468413,53.497849],[14.468413,53.497849],[14.468413,53.497849],[14.468413,53.497849],[14.468413,53.497849],[14.468413,53.497849],[14.468413,53.497849],[14.468413,53.497849],[14.468413,53.497849],[14.468413,53.497849],[14.472753,53.498014],[14.472753,53.498014],[14.472753,53.498014],[14.475161,53.495855],[14.475161,53.495855],[14.475161,53.495855],[14.475161,53.495855],[14.475161,53.495855],[14.475161,53.495855],[14.475161,53.495855],[14.475161,53.495855],[14.475161,53.495855],[14.475162,53.495855],[14.475162,53.495855],[14.475162,53.495855],[14.479501,53.49602],[14.479501,53.49602],[14.479501,53.49602],[14.479501,53.49602],[14.479501,53.49602],[14.479501,53.49602],[14.479501,53.49602],[14.479501,53.49602],[14.479501,53.49602],[14.479501,53.49602],[14.479501,53.49602],[14.479501,53.49602],[14.481432,53.498343],[14.481432,53.498343],[14.481432,53.498343],[14.485771,53.498507],[14.485771,53.498507],[14.485771,53.498507],[14.488179,53.496349],[14.488179,53.496349],[14.488179,53.496349],[14.488179,53.496349],[14.488179,53.496349],[14.488179,53.496349],[14.488179,53.496349],[14.488179,53.496349],[14.488179,53.496349],[14.488179,53.496349],[14.488179,53.496348],[14.488179,53.496348],[14.492519,53.496513],[14.492519,53.496513],[14.492519,53.496513],[14.494926,53.494354],[14.494926,53.494354],[14.494926,53.494354],[14.494926,53.494354],[14.494926,53.494354],[14.494926,53.494354],[14.494927,53.494354],[14.494927,53.494354],[14.494927,53.494354],[14.494927,53.494354],[14.494927,53.494354],[14.494927,53.494354],[14.499266,53.494517],[14.499266,53.494517],[14.499266,53.494517],[14.501673,53.492358],[14.501673,53.492358],[14.501673,53.492358],[14.501673,53.492358],[14.501673,53.492358],[14.501673,53.492358],[14.501673,53.492358],[14.501673,53.492358],[14.501673,53.492358],[14.501673,53.492358],[14.501673,53.492358],[14.501673,53.492358],[14.506012,53.492522],[14.506012,53.492522],[14.506012,53.492522],[14.506012,53.492522],[14.506012,53.492522],[14.506012,53.492522],[14.506012,53.492522],[14.506012,53.492522],[14.506012,53.492522],[14.506012,53.492522],[14.506012,53.492522],[14.506012,53.492522],[14.507944,53.494844],[14.507944,53.494844],[14.507944,53.494845],[14.507944,53.494845],[14.507944,53.494845],[14.507944,53.494845],[14.507944,53.494845],[14.507944,53.494845],[14.507944,53.494845],[14.507944,53.494845],[14.507944,53.494845],[14.507944,53.494845],[14.505537,53.497004],[14.505537,53.497004],[14.505537,53.497004],[14.50747,53.499326],[14.50747,53.499326],[14.50747,53.499326],[14.511809,53.49949],[14.511809,53.49949],[14.511809,53.49949],[14.514216,53.49733],[14.514216,53.49733],[14.514216,53.49733],[14.514216,53.49733],[14.514216,53.49733],[14.514216,53.49733],[14.514216,53.49733],[14.514216,53.49733],[14.514216,53.49733],[14.514216,53.49733],[14.514216,53.49733],[14.514216,53.49733],[14.518556,53.497494],[14.518556,53.497494],[14.518556,53.497494],[14.518556,53.497494],[14.518556,53.497494],[14.518556,53.497494],[14.518556,53.497494],[14.518556,53.497494],[14.518556,53.497494],[14.518556,53.497494],[14.518556,53.497494],[14.518556,53.497494],[14.520489,53.499816],[14.520489,53.499816],[14.520489,53.499816],[14.524829,53.499979],[14.524829,53.499979],[14.524829,53.499979],[14.527235,53.497819],[14.527235,53.497819],[14.527235,53.497819],[14.527235,53.497819],[14.527235,53.497819],[14.527235,53.497819],[14.527235,53.497819],[14.527235,53.497819],[14.527235,53.497819],[14.527236,53.497819],[14.527236,53.497819],[14.527236,53.497819],[14.531575,53.497982],[14.531575,53.497982],[14.531575,53.497982],[14.531575,53.497982],[14.531575,53.497982],[14.531575,53.497982],[14.531575,53.497982],[14.531575,53.497982],[14.531575,53.497982],[14.531575,53.497982],[14.531575,53.497982],[14.531575,53.497982],[14.533509,53.500304],[14.533509,53.500304],[14.533509,53.500304],[14.537849,53.500467],[14.537849,53.500467],[14.537849,53.500467],[14.537849,53.500467],[14.537849,53.500467],[14.537849,53.500467],[14.537849,53.500467],[14.537849,53.500467],[14.537849,53.500467],[14.537849,53.500467],[14.537849,53.500467],[14.537849,53.500467],[14.539784,53.502789],[14.539784,53.502789],[14.539784,53.502789],[14.544124,53.502951],[14.544124,53.502951],[14.544124,53.502951],[14.546529,53.500791],[14.546529,53.500791],[14.546529,53.500791],[14.544595,53.498469],[14.544595,53.498469],[14.544595,53.498469],[14.544595,53.498469],[14.544595,53.498469],[14.544595,53.498469],[14.544595,53.498469],[14.544595,53.498469],[14.544595,53.498469],[14.544595,53.498469],[14.544595,53.498469],[14.544595,53.498469],[14.547,53.496309],[14.547,53.496309],[14.547,53.496309],[14.547,53.496309],[14.547,53.496309],[14.547,53.496309],[14.547,53.496309],[14.547,53.496309],[14.547,53.496309],[14.547,53.496309],[14.547,53.496309],[14.547,53.496309],[14.55134,53.496471],[14.55134,53.496471],[14.55134,53.496471],[14.55134,53.496471],[14.55134,53.496471],[14.55134,53.496471],[14.55134,53.496471],[14.55134,53.496471],[14.55134,53.496471],[14.55134,53.496471],[14.55134,53.496471],[14.55134,53.496471],[14.553275,53.498793],[14.553275,53.498793],[14.553275,53.498793],[14.557615,53.498954],[14.557615,53.498954],[14.557615,53.498954],[14.557615,53.498954],[14.557615,53.498954],[14.557615,53.498954],[14.557615,53.498954],[14.557615,53.498954],[14.557615,53.498954],[14.557615,53.498954],[14.557615,53.498954],[14.557615,53.498954],[14.55955,53.501276],[14.55955,53.501276],[14.55955,53.501276],[14.56389,53.501438],[14.56389,53.501438],[14.56389,53.501438],[14.56389,53.501438],[14.56389,53.501438],[14.56389,53.501438],[14.56389,53.501438],[14.563891,53.501438],[14.563891,53.501438],[14.563891,53.501438],[14.563891,53.501438],[14.563891,53.501438],[14.565826,53.503759],[14.565826,53.50376],[14.565826,53.50376],[14.570167,53.503921],[14.570167,53.503921],[14.570167,53.503921],[14.572571,53.50176],[14.572571,53.50176],[14.572571,53.50176],[14.572571,53.50176],[14.572571,53.50176],[14.572571,53.50176],[14.572571,53.50176],[14.572571,53.50176],[14.572571,53.50176],[14.572571,53.50176],[14.572571,53.50176],[14.572571,53.50176],[14.576912,53.501921],[14.576912,53.501921],[14.576912,53.501921],[14.576912,53.501921],[14.576912,53.501921],[14.576912,53.501921],[14.576912,53.501921],[14.576912,53.501921],[14.576912,53.501921],[14.576912,53.501921],[14.576912,53.501921],[14.576912,53.501921],[14.578848,53.504243],[14.578848,53.504243],[14.578848,53.504243],[14.578848,53.504243],[14.578848,53.504243],[14.578848,53.504243],[14.578848,53.504243],[14.578848,53.504243],[14.578848,53.504243],[14.578848,53.504243],[14.578848,53.504243],[14.578848,53.504243],[14.576444,53.506403],[14.576444,53.506403],[14.576444,53.506403],[14.578381,53.508725],[14.578381,53.508725],[14.578381,53.508725],[14.578381,53.508725],[14.578381,53.508725],[14.578381,53.508725],[14.578381,53.508725],[14.578381,53.508725],[14.578381,53.508725],[14.578381,53.508725],[14.578381,53.508725],[14.578381,53.508725],[14.575977,53.510886],[14.575977,53.510886],[14.575977,53.510886],[14.577913,53.513207],[14.577913,53.513207],[14.577913,53.513207],[14.577913,53.513207],[14.577913,53.513207],[14.577913,53.513207],[14.577913,53.513207],[14.577913,53.513207],[14.577913,53.513207],[14.577913,53.513207],[14.577913,53.513207],[14.577913,53.513207],[14.575509,53.515368],[14.575509,53.515368],[14.575509,53.515368],[14.575509,53.515368],[14.575509,53.515368],[14.575509,53.515368],[14.575509,53.515368],[14.575509,53.515368],[14.575509,53.515368],[14.575509,53.515368],[14.575509,53.515368],[14.575509,53.515368],[14.571167,53.515207],[14.571167,53.515207],[14.571167,53.515207],[14.568762,53.517367],[14.568762,53.517367],[14.568762,53.517367],[14.568762,53.517367],[14.568762,53.517367],[14.568762,53.517367],[14.568762,53.517367],[14.568762,53.517367],[14.568762,53.517367],[14.568762,53.517367],[14.568762,53.517367],[14.568762,53.517367],[14.56442,53.517206],[14.56442,53.517206],[14.56442,53.517206],[14.562014,53.519366],[14.562014,53.519366],[14.562014,53.519366],[14.562014,53.519366],[14.562014,53.519366],[14.562014,53.519366],[14.562014,53.519366],[14.562014,53.519366],[14.562014,53.519366],[14.562014,53.519366],[14.562014,53.519366],[14.562014,53.519366],[14.557672,53.519205],[14.557672,53.519205],[14.557672,53.519205],[14.555266,53.521365],[14.555266,53.521365],[14.555266,53.521365],[14.555266,53.521365],[14.555266,53.521365],[14.555266,53.521365],[14.555266,53.521365],[14.555266,53.521365],[14.555266,53.521365],[14.555266,53.521365],[14.555266,53.521365],[14.555266,53.521365],[14.550924,53.521203],[14.550924,53.521203],[14.550924,53.521203],[14.548517,53.523363],[14.548517,53.523363],[14.548517,53.523363],[14.550453,53.525685],[14.550453,53.525685],[14.550453,53.525685],[14.550453,53.525685],[14.550453,53.525685],[14.550453,53.525685],[14.550453,53.525685],[14.550453,53.525685],[14.550453,53.525685],[14.550453,53.525685],[14.550453,53.525685],[14.550453,53.525685],[14.548046,53.527845],[14.548046,53.527845],[14.548046,53.527845],[14.549982,53.530167],[14.549982,53.530167],[14.549982,53.530167],[14.549982,53.530168],[14.549982,53.530168],[14.549982,53.530168],[14.549982,53.530168],[14.549982,53.530168],[14.549982,53.530168],[14.549982,53.530168],[14.549982,53.530168],[14.549982,53.530168],[14.547575,53.532328],[14.547575,53.532328],[14.547575,53.532328],[14.549511,53.53465],[14.549511,53.53465],[14.549511,53.53465],[14.553855,53.534812],[14.553855,53.534812],[14.553855,53.534812],[14.553855,53.534812],[14.553855,53.534812],[14.553855,53.534812],[14.553855,53.534812],[14.553855,53.534812],[14.553855,53.534812],[14.553855,53.534812],[14.553855,53.534812],[14.553855,53.534812],[14.555792,53.537133],[14.555792,53.537133],[14.555792,53.537133],[14.560136,53.537295],[14.560136,53.537295],[14.560136,53.537295],[14.562543,53.535135],[14.562543,53.535135],[14.562543,53.535135],[14.562543,53.535135],[14.562543,53.535135],[14.562543,53.535135],[14.562543,53.535135],[14.562543,53.535135],[14.562543,53.535135],[14.562543,53.535135],[14.562543,53.535135],[14.562543,53.535135],[14.566886,53.535296],[14.566886,53.535296],[14.566886,53.535296],[14.566886,53.535296],[14.566886,53.535296],[14.566886,53.535296],[14.566886,53.535296],[14.566886,53.535296],[14.566886,53.535296],[14.566886,53.535296],[14.566886,53.535296],[14.566886,53.535296],[14.568824,53.537618],[14.568824,53.537618],[14.568824,53.537618],[14.573168,53.537779],[14.573168,53.537779],[14.573168,53.537779],[14.575574,53.535619],[14.575574,53.535619],[14.575574,53.535619],[14.575574,53.535619],[14.575574,53.535619],[14.575574,53.535619],[14.575574,53.535619],[14.575574,53.535619],[14.575574,53.535619],[14.575574,53.535619],[14.575574,53.535619],[14.575574,53.535619],[14.579918,53.53578],[14.579918,53.53578],[14.579918,53.53578],[14.579918,53.53578],[14.579918,53.53578],[14.579918,53.53578],[14.579918,53.53578],[14.579918,53.53578],[14.579918,53.53578],[14.579918,53.53578],[14.579918,53.53578],[14.579918,53.53578],[14.581856,53.538101],[14.581856,53.538101],[14.581856,53.538101],[14.5862,53.538262],[14.5862,53.538262],[14.5862,53.538262],[14.588606,53.536101],[14.588606,53.536101],[14.588606,53.536101],[14.588606,53.536101],[14.588606,53.536101],[14.588606,53.536101],[14.588606,53.536101],[14.588606,53.536101],[14.588606,53.536101],[14.588606,53.536101],[14.588606,53.536101],[14.588606,53.536101],[14.59295,53.536262],[14.59295,53.536262],[14.59295,53.536262],[14.595355,53.534101],[14.595355,53.534101],[14.595355,53.534101],[14.595355,53.534101],[14.595355,53.534101],[14.595355,53.534101],[14.595355,53.534101],[14.595355,53.534101],[14.595355,53.534101],[14.595355,53.534101],[14.595355,53.534101],[14.595355,53.534101],[14.599699,53.534261],[14.599699,53.534261],[14.599699,53.534261],[14.599699,53.534261],[14.599699,53.534261],[14.599699,53.534261],[14.599699,53.534261],[14.599699,53.534261],[14.599699,53.534261],[14.599699,53.534261],[14.599699,53.534261],[14.599699,53.534261],[14.601638,53.536582],[14.601638,53.536582],[14.601638,53.536582],[14.605982,53.536742],[14.605982,53.536742],[14.605982,53.536742],[14.605982,53.536742],[14.605982,53.536742],[14.605982,53.536742],[14.605982,53.536742],[14.605982,53.536742],[14.605982,53.536742],[14.605982,53.536742],[14.605982,53.536742],[14.605982,53.536742],[14.607922,53.539063],[14.607922,53.539063],[14.607922,53.539063],[14.612267,53.539223],[14.612267,53.539223],[14.612267,53.539223],[14.614671,53.537062],[14.614671,53.537062],[14.614671,53.537062],[14.614671,53.537062],[14.614671,53.537062],[14.614671,53.537062],[14.614671,53.537062],[14.614671,53.537062],[14.614671,53.537062],[14.614671,53.537062],[14.614671,53.537062],[14.614671,53.537062],[14.619015,53.537221],[14.619015,53.537221],[14.619015,53.537221],[14.621419,53.53506],[14.621419,53.53506],[14.621419,53.53506],[14.621419,53.53506],[14.621419,53.53506],[14.621419,53.53506],[14.621419,53.53506],[14.621419,53.53506],[14.621419,53.53506],[14.621419,53.53506],[14.621419,53.53506],[14.621419,53.53506],[14.625763,53.535219],[14.625763,53.535219],[14.625763,53.535219],[14.625763,53.535219],[14.625763,53.535219],[14.625763,53.535219],[14.625763,53.535219],[14.625763,53.535219],[14.625763,53.535219],[14.625763,53.535219],[14.625763,53.535219],[14.625763,53.535219],[14.627704,53.53754],[14.627704,53.53754],[14.627704,53.53754],[14.632048,53.537699],[14.632048,53.537699],[14.632048,53.537699],[14.634452,53.535537],[14.634452,53.535537],[14.634452,53.535537],[14.634452,53.535537],[14.634452,53.535537],[14.634452,53.535537],[14.634452,53.535537],[14.634452,53.535537],[14.634452,53.535537],[14.634452,53.535537],[14.634452,53.535537],[14.634452,53.535537],[14.638796,53.535696],[14.638796,53.535696],[14.638796,53.535696],[14.641199,53.533534],[14.641199,53.533534],[14.641199,53.533534],[14.639257,53.531213],[14.639257,53.531213],[14.639257,53.531213],[14.639257,53.531213],[14.639257,53.531213],[14.639257,53.531213],[14.639257,53.531213],[14.639257,53.531213],[14.639257,53.531213],[14.639257,53.531213],[14.639257,53.531213],[14.639257,53.531213],[14.64166,53.529051],[14.64166,53.529051],[14.64166,53.529051],[14.64166,53.529051],[14.64166,53.529051],[14.64166,53.529051],[14.64166,53.529051],[14.64166,53.529051],[14.64166,53.529051],[14.64166,53.529051],[14.64166,53.529051],[14.64166,53.529051],[14.646003,53.52921],[14.646003,53.52921],[14.646003,53.52921],[14.646003,53.52921],[14.646003,53.52921],[14.646003,53.52921],[14.646003,53.52921],[14.646003,53.52921],[14.646003,53.52921],[14.646003,53.52921],[14.646003,53.52921],[14.646003,53.52921],[14.647945,53.53153],[14.647945,53.53153],[14.647945,53.53153],[14.652289,53.531689],[14.652289,53.531689],[14.652289,53.531689],[14.652289,53.531689],[14.652289,53.531689],[14.652289,53.531689],[14.652289,53.531689],[14.652289,53.531689],[14.652289,53.531689],[14.652289,53.531689],[14.652289,53.531689],[14.652289,53.531689],[14.654231,53.534009],[14.654231,53.534009],[14.654231,53.534009],[14.654231,53.534009],[14.654231,53.534009],[14.654231,53.534009],[14.654231,53.534009],[14.654231,53.534009],[14.654231,53.534009],[14.654231,53.534009],[14.654231,53.534009],[14.654231,53.534009],[14.651829,53.536171],[14.651829,53.536171],[14.651829,53.536171],[14.653771,53.538492],[14.653771,53.538492],[14.653771,53.538492],[14.658116,53.53865],[14.658116,53.53865],[14.658116,53.53865],[14.660518,53.536488],[14.660518,53.536488],[14.660518,53.536488],[14.660518,53.536488],[14.660518,53.536487],[14.660518,53.536487],[14.660518,53.536487],[14.660518,53.536487],[14.660518,53.536487],[14.660518,53.536487],[14.660518,53.536487],[14.660518,53.536487],[14.664862,53.536645],[14.664862,53.536645],[14.664862,53.536645],[14.664862,53.536645],[14.664862,53.536645],[14.664862,53.536645],[14.664862,53.536645],[14.664862,53.536645],[14.664862,53.536645],[14.664862,53.536645],[14.664862,53.536645],[14.664862,53.536645],[14.666805,53.538966],[14.666805,53.538966],[14.666805,53.538966],[14.67115,53.539123],[14.67115,53.539123],[14.67115,53.539123],[14.673551,53.536961],[14.673551,53.536961],[14.673551,53.536961],[14.673551,53.536961],[14.673551,53.536961],[14.673551,53.536961],[14.673551,53.536961],[14.673551,53.536961],[14.673551,53.536961],[14.673551,53.536961],[14.673552,53.536961],[14.673552,53.536961],[14.677896,53.537118],[14.677896,53.537118],[14.677896,53.537118],[14.680297,53.534955],[14.680297,53.534955],[14.680297,53.534955],[14.680297,53.534955],[14.680297,53.534955],[14.680297,53.534955],[14.680297,53.534955],[14.680297,53.534955],[14.680297,53.534955],[14.680297,53.534955],[14.680297,53.534955],[14.680297,53.534955],[14.684641,53.535112],[14.684641,53.535112],[14.684641,53.535112],[14.687042,53.532949],[14.687042,53.532949],[14.687042,53.532949],[14.685098,53.53063],[14.685098,53.530629],[14.685098,53.530629],[14.685098,53.530629],[14.685098,53.530629],[14.685098,53.530629],[14.685098,53.530629],[14.685098,53.530629],[14.685098,53.530629],[14.685098,53.530629],[14.685098,53.530629],[14.685098,53.530629],[14.687498,53.528467],[14.687498,53.528467],[14.687498,53.528466],[14.685555,53.526147],[14.685555,53.526147],[14.685555,53.526147],[14.685555,53.526147],[14.685555,53.526147],[14.685555,53.526147],[14.685555,53.526147],[14.685555,53.526147],[14.685555,53.526147],[14.685555,53.526147],[14.685555,53.526147],[14.685555,53.526147],[14.687954,53.523984],[14.687954,53.523984],[14.687954,53.523984],[14.686011,53.521664],[14.686011,53.521664],[14.686011,53.521664],[14.681668,53.521507],[14.681668,53.521507],[14.681668,53.521507],[14.681668,53.521507],[14.681668,53.521507],[14.681668,53.521507],[14.681668,53.521507],[14.681668,53.521507],[14.681668,53.521507],[14.681668,53.521507],[14.681668,53.521507],[14.681668,53.521507],[14.679725,53.519187],[14.679725,53.519187],[14.679725,53.519187],[14.679725,53.519187],[14.679725,53.519187],[14.679725,53.519187],[14.679725,53.519187],[14.679725,53.519187],[14.679725,53.519187],[14.679725,53.519186],[14.679725,53.519186],[14.679725,53.519186],[14.682124,53.517024],[14.682124,53.517024],[14.682124,53.517024],[14.680182,53.514704],[14.680182,53.514704],[14.680182,53.514704],[14.680182,53.514704],[14.680182,53.514704],[14.680182,53.514704],[14.680182,53.514704],[14.680182,53.514704],[14.680182,53.514704],[14.680182,53.514704],[14.680182,53.514704],[14.680182,53.514704],[14.682581,53.512541],[14.682581,53.512541],[14.682581,53.512541],[14.682581,53.512541],[14.682581,53.512541],[14.682581,53.512541],[14.682581,53.512541],[14.682581,53.512541],[14.682581,53.512541],[14.682581,53.512541],[14.682581,53.512541],[14.682581,53.512541],[14.686923,53.512698],[14.686923,53.512698],[14.686923,53.512698],[14.686923,53.512698],[14.686923,53.512698],[14.686923,53.512698],[14.686923,53.512698],[14.686923,53.512698],[14.686923,53.512698],[14.686923,53.512698],[14.686923,53.512698],[14.686923,53.512698],[14.688866,53.515018],[14.688866,53.515018],[14.688866,53.515018],[14.693209,53.515174],[14.693209,53.515174],[14.693209,53.515174],[14.695608,53.513011],[14.695608,53.513011],[14.695608,53.513011],[14.695608,53.513011],[14.695608,53.513011],[14.695608,53.513011],[14.695608,53.513011],[14.695608,53.513011],[14.695608,53.513011],[14.695608,53.513011],[14.695608,53.513011],[14.695608,53.513011],[14.69995,53.513168],[14.69995,53.513168],[14.69995,53.513168],[14.702348,53.511005],[14.702348,53.511005],[14.702348,53.511005],[14.700405,53.508685],[14.700405,53.508685],[14.700405,53.508685],[14.700405,53.508685],[14.700405,53.508685],[14.700405,53.508685],[14.700405,53.508685],[14.700405,53.508685],[14.700405,53.508685],[14.700405,53.508685],[14.700405,53.508685],[14.700405,53.508685],[14.702803,53.506522],[14.702803,53.506522],[14.702803,53.506522],[14.702803,53.506522],[14.702803,53.506522],[14.702803,53.506522],[14.702803,53.506522],[14.702803,53.506522],[14.702803,53.506522],[14.702803,53.506522],[14.702803,53.506522],[14.702803,53.506522],[14.707144,53.506678],[14.707144,53.506678],[14.707144,53.506678],[14.709542,53.504514],[14.709542,53.504514],[14.709542,53.504514],[14.707598,53.502195],[14.707598,53.502195],[14.707598,53.502195],[14.703257,53.502039],[14.703257,53.502039],[14.703257,53.502039],[14.703257,53.502039],[14.703257,53.502039],[14.703257,53.502039],[14.703257,53.502039],[14.703257,53.502039],[14.703257,53.502039],[14.703257,53.502039],[14.703257,53.502038],[14.703257,53.502038],[14.701314,53.499719],[14.701314,53.499719],[14.701314,53.499719],[14.701314,53.499719],[14.701314,53.499719],[14.701314,53.499719],[14.701314,53.499719],[14.701314,53.499719],[14.701314,53.499719],[14.701314,53.499719],[14.701314,53.499719],[14.701314,53.499719],[14.703711,53.497555],[14.703711,53.497555],[14.703711,53.497555],[14.701768,53.495236],[14.701768,53.495236],[14.701768,53.495236],[14.701768,53.495236],[14.701768,53.495236],[14.701768,53.495236],[14.701768,53.495236],[14.701768,53.495236],[14.701768,53.495236],[14.701768,53.495236],[14.701768,53.495236],[14.701768,53.495236],[14.704165,53.493072],[14.704165,53.493072],[14.704165,53.493072],[14.702222,53.490753],[14.702222,53.490753],[14.702222,53.490753],[14.697882,53.490596],[14.697882,53.490596],[14.697882,53.490596],[14.697882,53.490596],[14.697882,53.490596],[14.697882,53.490596],[14.697882,53.490596],[14.697882,53.490596],[14.697882,53.490596],[14.697882,53.490596],[14.697882,53.490596],[14.697882,53.490596],[14.695939,53.488277],[14.695939,53.488277],[14.695939,53.488277],[14.695939,53.488277],[14.695939,53.488277],[14.695939,53.488277],[14.695939,53.488277],[14.695939,53.488277],[14.695939,53.488277],[14.695939,53.488277],[14.695939,53.488277],[14.695939,53.488277],[14.698336,53.486113],[14.698336,53.486113],[14.698336,53.486113],[14.698336,53.486113],[14.698336,53.486113],[14.698336,53.486113],[14.698336,53.486113],[14.698336,53.486113],[14.698336,53.486113],[14.698336,53.486113],[14.698336,53.486113],[14.698336,53.486113],[14.702676,53.48627],[14.702676,53.48627],[14.702676,53.48627],[14.705073,53.484106],[14.705073,53.484106],[14.705073,53.484106],[14.70313,53.481787],[14.70313,53.481787],[14.70313,53.481787],[14.70313,53.481787],[14.70313,53.481787],[14.70313,53.481787],[14.70313,53.481787],[14.70313,53.481787],[14.70313,53.481787],[14.70313,53.481787],[14.70313,53.481787],[14.70313,53.481787],[14.705526,53.479623],[14.705526,53.479623],[14.705526,53.479623],[14.703584,53.477304],[14.703584,53.477304],[14.703584,53.477304],[14.699245,53.477147],[14.699245,53.477147],[14.699245,53.477147],[14.699245,53.477147],[14.699245,53.477147],[14.699245,53.477147],[14.699245,53.477147],[14.699245,53.477147],[14.699245,53.477147],[14.699245,53.477147],[14.699245,53.477147],[14.699245,53.477147],[14.697303,53.474828],[14.697303,53.474828],[14.697303,53.474828],[14.697303,53.474828],[14.697303,53.474828],[14.697303,53.474828],[14.697303,53.474828],[14.697303,53.474828],[14.697303,53.474828],[14.697303,53.474828],[14.697303,53.474828],[14.697303,53.474827],[14.699699,53.472664],[14.699699,53.472664],[14.699699,53.472664],[14.699699,53.472664],[14.699699,53.472664],[14.699699,53.472664],[14.699699,53.472664],[14.699699,53.472664],[14.699699,53.472664],[14.699699,53.472664],[14.699699,53.472664],[14.699699,53.472664],[14.704037,53.472821],[14.704037,53.472821],[14.704037,53.472821],[14.706433,53.470657],[14.706433,53.470657],[14.706433,53.470657],[14.706433,53.470657],[14.706433,53.470657],[14.706433,53.470657],[14.706433,53.470657],[14.706433,53.470657],[14.706433,53.470657],[14.706433,53.470657],[14.706433,53.470657],[14.706433,53.470657],[14.710771,53.470813],[14.710771,53.470813],[14.710771,53.470813],[14.713166,53.46865],[14.713166,53.46865],[14.713166,53.46865],[14.711224,53.46633],[14.711224,53.46633],[14.711224,53.46633],[14.711224,53.46633],[14.711224,53.46633],[14.711224,53.46633],[14.711224,53.46633],[14.711224,53.46633],[14.711224,53.46633],[14.711224,53.46633],[14.711224,53.46633],[14.711224,53.46633],[14.713619,53.464166],[14.713619,53.464166],[14.713619,53.464166],[14.711676,53.461847],[14.711676,53.461847],[14.711676,53.461847],[14.711676,53.461847],[14.711676,53.461847],[14.711676,53.461847],[14.711676,53.461847],[14.711676,53.461847],[14.711676,53.461847],[14.711676,53.461847],[14.711676,53.461847],[14.711676,53.461847],[14.714071,53.459683],[14.714071,53.459683],[14.714071,53.459683],[14.712129,53.457364],[14.712129,53.457364],[14.712129,53.457364],[14.712129,53.457364],[14.712129,53.457364],[14.712129,53.457364],[14.712129,53.457364],[14.712129,53.457364],[14.712129,53.457364],[14.712129,53.457364],[14.712129,53.457364],[14.712129,53.457364],[14.714523,53.4552],[14.714523,53.4552],[14.714523,53.4552],[14.712581,53.452881],[14.712581,53.452881],[14.712581,53.452881],[14.712581,53.452881],[14.712581,53.452881],[14.712581,53.452881],[14.712581,53.452881],[14.712581,53.452881],[14.712581,53.452881],[14.712581,53.452881],[14.712581,53.452881],[14.712581,53.452881],[14.714976,53.450717],[14.714976,53.450717],[14.714976,53.450717],[14.713034,53.448398],[14.713034,53.448398],[14.713034,53.448398],[14.713034,53.448398],[14.713034,53.448398],[14.713034,53.448398],[14.713034,53.448398],[14.713034,53.448398],[14.713034,53.448398],[14.713034,53.448398],[14.713034,53.448398],[14.713034,53.448398],[14.715428,53.446234],[14.715428,53.446234],[14.715428,53.446234],[14.713486,53.443914],[14.713486,53.443914],[14.713486,53.443914],[14.709151,53.443759],[14.709151,53.443759],[14.709151,53.443759],[14.709151,53.443759],[14.709151,53.443759],[14.709151,53.443759],[14.709151,53.443759],[14.709151,53.443759],[14.709151,53.443759],[14.70915,53.443759],[14.70915,53.443759],[14.70915,53.443758],[14.707209,53.441439],[14.707209,53.441439],[14.707209,53.441439],[14.707209,53.441439],[14.707209,53.441439],[14.707209,53.441439],[14.707209,53.441439],[14.707209,53.441439],[14.707209,53.441439],[14.707209,53.441439],[14.707209,53.441439],[14.707209,53.441439],[14.709603,53.439275],[14.709603,53.439275],[14.709603,53.439275],[14.707662,53.436956],[14.707662,53.436956],[14.707662,53.436956],[14.703327,53.4368],[14.703327,53.4368],[14.703327,53.4368],[14.703327,53.4368],[14.703327,53.4368],[14.703327,53.4368],[14.703327,53.4368],[14.703327,53.4368],[14.703327,53.4368],[14.703327,53.4368],[14.703327,53.4368],[14.703327,53.4368],[14.701387,53.43448],[14.701387,53.43448],[14.701387,53.43448],[14.701387,53.43448],[14.701387,53.43448],[14.701387,53.43448],[14.701387,53.43448],[14.701387,53.43448],[14.701387,53.43448],[14.701387,53.43448],[14.701387,53.43448],[14.701387,53.43448],[14.70378,53.432317],[14.70378,53.432317],[14.70378,53.432317],[14.70378,53.432317],[14.70378,53.432317],[14.70378,53.432317],[14.70378,53.432317],[14.70378,53.432317],[14.70378,53.432317],[14.70378,53.432317],[14.70378,53.432317],[14.70378,53.432317],[14.708114,53.432473],[14.708114,53.432473],[14.708114,53.432473],[14.710508,53.430309],[14.710508,53.430309],[14.710508,53.430309],[14.710508,53.430309],[14.710508,53.430309],[14.710508,53.430309],[14.710508,53.430309],[14.710508,53.430309],[14.710508,53.430309],[14.710508,53.430309],[14.710508,53.430309],[14.710508,53.430309],[14.714842,53.430465],[14.714842,53.430465],[14.714842,53.430465],[14.717234,53.428301],[14.717234,53.428301],[14.717234,53.428301],[14.717234,53.428301],[14.717234,53.428301],[14.717234,53.428301],[14.717234,53.428301],[14.717234,53.428301],[14.717234,53.428301],[14.717234,53.428301],[14.717234,53.428301],[14.717234,53.428301],[14.721568,53.428457],[14.721568,53.428457],[14.721568,53.428457],[14.721568,53.428457],[14.721568,53.428457],[14.721568,53.428457],[14.721568,53.428457],[14.721568,53.428457],[14.721568,53.428457],[14.721568,53.428457],[14.721568,53.428457],[14.721568,53.428457],[14.72351,53.430776],[14.72351,53.430776],[14.72351,53.430776],[14.72351,53.430776],[14.72351,53.430776],[14.72351,53.430776],[14.72351,53.430776],[14.72351,53.430776],[14.72351,53.430776],[14.72351,53.430776],[14.72351,53.430776],[14.72351,53.430776],[14.721117,53.43294],[14.721117,53.43294],[14.721117,53.43294],[14.723059,53.435259],[14.723059,53.435259],[14.723059,53.435259],[14.727393,53.435415],[14.727393,53.435415],[14.727393,53.435415],[14.727393,53.435415],[14.727393,53.435415],[14.727393,53.435415],[14.727393,53.435415],[14.727393,53.435415],[14.727393,53.435415],[14.727393,53.435415],[14.727393,53.435415],[14.727393,53.435415],[14.729335,53.437734],[14.729335,53.437734],[14.729335,53.437734],[14.73367,53.437889],[14.73367,53.437889],[14.73367,53.437889],[14.73367,53.437889],[14.73367,53.437889],[14.73367,53.437889],[14.73367,53.437889],[14.73367,53.437889],[14.73367,53.437889],[14.73367,53.437889],[14.73367,53.437889],[14.73367,53.437889],[14.735613,53.440208],[14.735613,53.440208],[14.735613,53.440208],[14.739948,53.440363],[14.739948,53.440363],[14.739948,53.440363],[14.739948,53.440363],[14.739948,53.440363],[14.739948,53.440363],[14.739948,53.440363],[14.739948,53.440363],[14.739948,53.440363],[14.739948,53.440363],[14.739948,53.440363],[14.739948,53.440363],[14.741891,53.442682],[14.741891,53.442682],[14.741891,53.442682],[14.741891,53.442682],[14.741891,53.442682],[14.741891,53.442682],[14.741891,53.442682],[14.741891,53.442682],[14.741891,53.442682],[14.741891,53.442682],[14.741891,53.442682],[14.741891,53.442682],[14.739499,53.444847],[14.739499,53.444847],[14.739499,53.444847],[14.741442,53.447166],[14.741442,53.447166],[14.741442,53.447166],[14.745778,53.447321],[14.745778,53.447321],[14.745778,53.447321],[14.74817,53.445156],[14.74817,53.445156],[14.74817,53.445156],[14.74817,53.445156],[14.74817,53.445156],[14.74817,53.445156],[14.74817,53.445156],[14.74817,53.445156],[14.74817,53.445156],[14.74817,53.445156],[14.74817,53.445156],[14.74817,53.445156],[14.752506,53.445311],[14.752506,53.445311],[14.752506,53.445311],[14.754897,53.443146],[14.754897,53.443146],[14.754897,53.443146],[14.754897,53.443146],[14.754897,53.443146],[14.754897,53.443146],[14.754897,53.443146],[14.754897,53.443146],[14.754897,53.443146],[14.754897,53.443146],[14.754897,53.443146],[14.754897,53.443146],[14.759233,53.4433],[14.759233,53.4433],[14.759233,53.4433],[14.759233,53.4433],[14.759233,53.4433],[14.759233,53.4433],[14.759233,53.4433],[14.759233,53.4433],[14.759233,53.4433],[14.759233,53.4433],[14.759233,53.4433],[14.759233,53.4433],[14.761177,53.445619],[14.761177,53.445619],[14.761177,53.445619],[14.765513,53.445773],[14.765513,53.445773],[14.765513,53.445773],[14.767904,53.443608],[14.767904,53.443608],[14.767904,53.443608],[14.765959,53.44129],[14.765959,53.44129],[14.765959,53.44129],[14.765959,53.44129],[14.765959,53.44129],[14.765959,53.44129],[14.765959,53.44129],[14.765959,53.44129],[14.765959,53.44129],[14.765959,53.44129],[14.765959,53.44129],[14.765959,53.44129],[14.76835,53.439125],[14.76835,53.439125],[14.76835,53.439125],[14.766406,53.436806],[14.766406,53.436806],[14.766406,53.436806],[14.762071,53.436652],[14.762071,53.436652],[14.762071,53.436652],[14.762071,53.436652],[14.762071,53.436652],[14.762071,53.436652],[14.762071,53.436652],[14.762071,53.436652],[14.762071,53.436652],[14.762071,53.436652],[14.762071,53.436652],[14.762071,53.436652],[14.760127,53.434334],[14.760127,53.434334],[14.760127,53.434334],[14.755793,53.434179],[14.755793,53.434179],[14.755793,53.434179],[14.755793,53.434179],[14.755793,53.434179],[14.755793,53.434179],[14.755793,53.434179],[14.755792,53.434179],[14.755792,53.434179],[14.755792,53.434179],[14.755792,53.434179],[14.755792,53.434179],[14.753849,53.431861],[14.753849,53.431861],[14.753849,53.431861],[14.753849,53.431861],[14.753849,53.431861],[14.753849,53.431861],[14.753849,53.431861],[14.753849,53.431861],[14.753849,53.431861],[14.753849,53.431861],[14.753849,53.43186],[14.753849,53.43186],[14.75624,53.429696],[14.75624,53.429696],[14.75624,53.429696],[14.754297,53.427377],[14.754297,53.427377],[14.754297,53.427377],[14.754297,53.427377],[14.754297,53.427377],[14.754297,53.427377],[14.754297,53.427377],[14.754297,53.427377],[14.754297,53.427377],[14.754297,53.427377],[14.754297,53.427377],[14.754297,53.427377],[14.756687,53.425213],[14.756687,53.425213],[14.756687,53.425213],[14.754744,53.422894],[14.754744,53.422894],[14.754744,53.422894],[14.750411,53.422739],[14.750411,53.422739],[14.750411,53.422739],[14.750411,53.422739],[14.750411,53.422739],[14.750411,53.422739],[14.750411,53.422739],[14.750411,53.422739],[14.750411,53.422739],[14.750411,53.422739],[14.750411,53.422739],[14.750411,53.422739],[14.748468,53.42042],[14.748468,53.42042],[14.748468,53.42042],[14.744135,53.420266],[14.744135,53.420266],[14.744135,53.420266],[14.744135,53.420266],[14.744135,53.420266],[14.744135,53.420266],[14.744135,53.420266],[14.744135,53.420266],[14.744135,53.420266],[14.744135,53.420266],[14.744135,53.420266],[14.744135,53.420266],[14.742193,53.417947],[14.742193,53.417947],[14.742193,53.417947],[14.73786,53.417792],[14.73786,53.417792],[14.73786,53.417792],[14.73786,53.417792],[14.73786,53.417792],[14.73786,53.417792],[14.73786,53.417792],[14.73786,53.417792],[14.73786,53.417792],[14.73786,53.417792],[14.73786,53.417792],[14.73786,53.417792],[14.735918,53.415473],[14.735918,53.415473],[14.735918,53.415473],[14.731586,53.415318],[14.731586,53.415318],[14.731586,53.415318],[14.731586,53.415318],[14.731586,53.415318],[14.731586,53.415318],[14.731586,53.415318],[14.731586,53.415318],[14.731586,53.415318],[14.731586,53.415318],[14.731586,53.415318],[14.731586,53.415318],[14.729644,53.412999],[14.729644,53.412999],[14.729644,53.412999],[14.725312,53.412843],[14.725312,53.412843],[14.725312,53.412843],[14.725312,53.412843],[14.725312,53.412843],[14.725312,53.412843],[14.725312,53.412843],[14.725312,53.412843],[14.725312,53.412843],[14.725312,53.412843],[14.725312,53.412843],[14.725312,53.412843],[14.723371,53.410524],[14.723371,53.410524],[14.723371,53.410524],[14.723371,53.410524],[14.723371,53.410524],[14.723371,53.410524],[14.723371,53.410524],[14.723371,53.410524],[14.723371,53.410524],[14.723371,53.410524],[14.723371,53.410524],[14.723371,53.410524],[14.725762,53.40836],[14.725762,53.40836],[14.725762,53.40836],[14.725762,53.40836],[14.725762,53.40836],[14.725762,53.40836],[14.725762,53.40836],[14.725762,53.40836],[14.725762,53.40836],[14.725762,53.40836],[14.725762,53.40836],[14.725762,53.40836],[14.730094,53.408515],[14.730094,53.408515],[14.730094,53.408515],[14.732485,53.406351],[14.732485,53.406351],[14.732485,53.406351],[14.732485,53.406351],[14.732485,53.406351],[14.732485,53.406351],[14.732485,53.406351],[14.732485,53.406351],[14.732485,53.406351],[14.732485,53.406351],[14.732485,53.406351],[14.732485,53.406351],[14.736816,53.406506],[14.736816,53.406506],[14.736816,53.406506],[14.736816,53.406506],[14.736816,53.406506],[14.736816,53.406506],[14.736816,53.406506],[14.736816,53.406506],[14.736816,53.406506],[14.736816,53.406506],[14.736817,53.406506],[14.736817,53.406506],[14.738758,53.408825],[14.738758,53.408825],[14.738758,53.408825],[14.74309,53.40898],[14.74309,53.40898],[14.74309,53.40898],[14.74548,53.406816],[14.74548,53.406816],[14.74548,53.406816],[14.74548,53.406816],[14.74548,53.406816],[14.74548,53.406816],[14.74548,53.406816],[14.74548,53.406816],[14.74548,53.406816],[14.74548,53.406816],[14.74548,53.406816],[14.74548,53.406816],[14.749812,53.40697],[14.749812,53.40697],[14.749812,53.40697],[14.749812,53.40697],[14.749812,53.40697],[14.749812,53.40697],[14.749812,53.40697],[14.749812,53.40697],[14.749812,53.40697],[14.749812,53.40697],[14.749812,53.40697],[14.749812,53.40697],[14.751754,53.409289],[14.751754,53.409289],[14.751754,53.409289],[14.756086,53.409444],[14.756086,53.409444],[14.756086,53.409444],[14.758475,53.407279],[14.758475,53.407279],[14.758475,53.407279],[14.758475,53.407279],[14.758475,53.407279],[14.758475,53.407279],[14.758475,53.407279],[14.758475,53.407279],[14.758475,53.407279],[14.758475,53.407279],[14.758475,53.407279],[14.758475,53.407279],[14.762807,53.407433],[14.762807,53.407433],[14.762807,53.407433],[14.762807,53.407433],[14.762807,53.407433],[14.762807,53.407433],[14.762807,53.407433],[14.762807,53.407433],[14.762807,53.407433],[14.762807,53.407433],[14.762807,53.407433],[14.762807,53.407433],[14.76475,53.409752],[14.76475,53.409752],[14.76475,53.409752],[14.769082,53.409906],[14.769082,53.409906],[14.769082,53.409905],[14.771471,53.407741],[14.771471,53.407741],[14.771471,53.407741],[14.771471,53.407741],[14.771471,53.407741],[14.771471,53.407741],[14.771471,53.407741],[14.771471,53.407741],[14.771471,53.407741],[14.771471,53.407741],[14.771471,53.407741],[14.771471,53.407741],[14.775803,53.407894],[14.775803,53.407894],[14.775803,53.407894],[14.778191,53.405729],[14.778191,53.405729],[14.778191,53.405729],[14.778191,53.405729],[14.778191,53.405729],[14.778191,53.405729],[14.778191,53.405729],[14.778192,53.405729],[14.778192,53.405729],[14.778192,53.405729],[14.778192,53.405729],[14.778192,53.405729],[14.782523,53.405882],[14.782523,53.405882],[14.782523,53.405882],[14.784911,53.403717],[14.784911,53.403717],[14.784911,53.403717],[14.784911,53.403717],[14.784911,53.403717],[14.784911,53.403717],[14.784911,53.403717],[14.784911,53.403717],[14.784911,53.403717],[14.784911,53.403717],[14.784911,53.403717],[14.784911,53.403717],[14.789243,53.40387],[14.789243,53.40387],[14.789243,53.40387],[14.79163,53.401705],[14.79163,53.401705],[14.79163,53.401705],[14.789686,53.399387],[14.789686,53.399387],[14.789686,53.399387],[14.789686,53.399387],[14.789686,53.399387],[14.789686,53.399387],[14.789686,53.399387],[14.789686,53.399387],[14.789686,53.399387],[14.789686,53.399387],[14.789686,53.399387],[14.789686,53.399387],[14.792073,53.397221],[14.792073,53.397221],[14.792073,53.397221],[14.792074,53.397221],[14.792074,53.397221],[14.792074,53.397221],[14.792074,53.397221],[14.792074,53.397221],[14.792074,53.397221],[14.792074,53.397221],[14.792074,53.397221],[14.792074,53.397221],[14.796405,53.397374],[14.796405,53.397374],[14.796405,53.397374],[14.798791,53.395209],[14.798791,53.395209],[14.798791,53.395209],[14.796847,53.392891],[14.796847,53.392891],[14.796847,53.392891],[14.792517,53.392738],[14.792517,53.392738],[14.792517,53.392738],[14.792517,53.392738],[14.792517,53.392738],[14.792517,53.392738],[14.792517,53.392738],[14.792517,53.392738],[14.792517,53.392738],[14.792517,53.392738],[14.792517,53.392738],[14.792517,53.392738],[14.790573,53.39042],[14.790573,53.39042],[14.790573,53.39042],[14.786243,53.390267],[14.786243,53.390267],[14.786243,53.390267],[14.786243,53.390267],[14.786243,53.390267],[14.786243,53.390267],[14.786243,53.390267],[14.786243,53.390267],[14.786243,53.390266],[14.786242,53.390266],[14.786242,53.390266],[14.786242,53.390266],[14.784299,53.387948],[14.784299,53.387948],[14.784299,53.387948],[14.779969,53.387795],[14.779969,53.387795],[14.779969,53.387795],[14.779969,53.387795],[14.779969,53.387795],[14.779969,53.387795],[14.779969,53.387795],[14.779969,53.387795],[14.779969,53.387795],[14.779969,53.387795],[14.779969,53.387795],[14.779969,53.387795],[14.778026,53.385477],[14.778026,53.385477],[14.778026,53.385476],[14.778026,53.385476],[14.778026,53.385476],[14.778026,53.385476],[14.778026,53.385476],[14.778026,53.385476],[14.778026,53.385476],[14.778026,53.385476],[14.778026,53.385476],[14.778026,53.385476],[14.780413,53.383311],[14.780413,53.383311],[14.780413,53.383311],[14.778471,53.380993],[14.778471,53.380993],[14.778471,53.380993],[14.778471,53.380993],[14.778471,53.380993],[14.778471,53.380993],[14.778471,53.380993],[14.778471,53.380993],[14.778471,53.380993],[14.778471,53.380993],[14.778471,53.380993],[14.778471,53.380993],[14.780857,53.378828],[14.780857,53.378828],[14.780857,53.378828],[14.778915,53.376509],[14.778915,53.376509],[14.778915,53.376509],[14.774586,53.376356],[14.774586,53.376356],[14.774586,53.376356],[14.774586,53.376356],[14.774586,53.376356],[14.774586,53.376356],[14.774586,53.376356],[14.774586,53.376356],[14.774586,53.376356],[14.774586,53.376356],[14.774586,53.376356],[14.774586,53.376356],[14.772644,53.374037],[14.772644,53.374037],[14.772644,53.374037],[14.768316,53.373884],[14.768316,53.373884],[14.768316,53.373884],[14.765929,53.376049],[14.765929,53.376049],[14.765929,53.376049],[14.765929,53.376049],[14.765929,53.376049],[14.765929,53.376049],[14.765929,53.376049],[14.765929,53.376049],[14.765928,53.376049],[14.765928,53.376049],[14.765928,53.376049],[14.765928,53.376049],[14.7616,53.375895],[14.7616,53.375895],[14.7616,53.375895],[14.759212,53.378059],[14.759212,53.378059],[14.759212,53.378059],[14.759212,53.378059],[14.759212,53.378059],[14.759212,53.378059],[14.759212,53.378059],[14.759212,53.378059],[14.759212,53.378059],[14.759212,53.378059],[14.759212,53.378059],[14.759212,53.378059],[14.754884,53.377905],[14.754884,53.377905],[14.754884,53.377905],[14.754884,53.377905],[14.754884,53.377905],[14.754884,53.377905],[14.754883,53.377905],[14.754883,53.377905],[14.754883,53.377905],[14.754883,53.377905],[14.754883,53.377905],[14.754883,53.377905],[14.752942,53.375587],[14.752942,53.375587],[14.752942,53.375587],[14.748614,53.375432],[14.748614,53.375432],[14.748614,53.375432],[14.748614,53.375432],[14.748614,53.375432],[14.748614,53.375432],[14.748614,53.375432],[14.748614,53.375432],[14.748614,53.375432],[14.748614,53.375432],[14.748614,53.375432],[14.748614,53.375432],[14.746673,53.373113],[14.746673,53.373113],[14.746673,53.373113],[14.742345,53.372959],[14.742345,53.372959],[14.742345,53.372959],[14.742345,53.372959],[14.742345,53.372959],[14.742345,53.372959],[14.742345,53.372959],[14.742345,53.372959],[14.742345,53.372959],[14.742345,53.372959],[14.742345,53.372959],[14.742345,53.372959],[14.740405,53.37064],[14.740405,53.37064],[14.740405,53.37064],[14.740405,53.37064],[14.740405,53.37064],[14.740405,53.37064],[14.740405,53.37064],[14.740405,53.37064],[14.740405,53.37064],[14.740405,53.37064],[14.740405,53.37064],[14.740405,53.37064],[14.742793,53.368475],[14.742793,53.368475],[14.742793,53.368475],[14.742793,53.368475],[14.742793,53.368475],[14.742793,53.368475],[14.742793,53.368475],[14.742793,53.368475],[14.742793,53.368475],[14.742793,53.368475],[14.742793,53.368475],[14.742793,53.368475],[14.747121,53.36863],[14.747121,53.36863],[14.747121,53.36863],[14.749508,53.366465],[14.749508,53.366465],[14.749508,53.366465],[14.749508,53.366465],[14.749508,53.366465],[14.749508,53.366465],[14.749508,53.366465],[14.749508,53.366465],[14.749508,53.366465],[14.749508,53.366465],[14.749508,53.366465],[14.749508,53.366465],[14.753836,53.36662],[14.753836,53.36662],[14.753836,53.36662],[14.756223,53.364455],[14.756223,53.364455],[14.756223,53.364455],[14.756223,53.364455],[14.756223,53.364455],[14.756223,53.364455],[14.756223,53.364455],[14.756223,53.364455],[14.756223,53.364455],[14.756223,53.364455],[14.756223,53.364455],[14.756223,53.364455],[14.76055,53.364609],[14.760551,53.364609],[14.760551,53.364609],[14.762937,53.362444],[14.762937,53.362444],[14.762937,53.362444],[14.760996,53.360126],[14.760996,53.360126],[14.760996,53.360126],[14.760996,53.360126],[14.760996,53.360126],[14.760996,53.360126],[14.760996,53.360126],[14.760996,53.360126],[14.760996,53.360126],[14.760996,53.360126],[14.760996,53.360126],[14.760996,53.360126],[14.763383,53.357961],[14.763383,53.357961],[14.763383,53.357961],[14.761442,53.355642],[14.761442,53.355642],[14.761442,53.355642],[14.761442,53.355642],[14.761442,53.355642],[14.761442,53.355642],[14.761442,53.355642],[14.761442,53.355642],[14.761442,53.355642],[14.761442,53.355642],[14.761442,53.355642],[14.761442,53.355642],[14.763828,53.353477],[14.763828,53.353477],[14.763828,53.353477],[14.763828,53.353477],[14.763828,53.353477],[14.763828,53.353477],[14.763828,53.353477],[14.763828,53.353477],[14.763828,53.353477],[14.763828,53.353477],[14.763828,53.353477],[14.763828,53.353477],[14.768154,53.353631],[14.768154,53.353631],[14.768154,53.353631],[14.77054,53.351466],[14.77054,53.351466],[14.77054,53.351466],[14.77054,53.351466],[14.77054,53.351466],[14.77054,53.351466],[14.77054,53.351466],[14.77054,53.351466],[14.77054,53.351466],[14.77054,53.351466],[14.77054,53.351466],[14.77054,53.351466],[14.774866,53.35162],[14.774866,53.35162],[14.774866,53.35162],[14.774866,53.35162],[14.774866,53.35162],[14.774866,53.35162],[14.774866,53.35162],[14.774866,53.35162],[14.774866,53.35162],[14.774866,53.35162],[14.774866,53.35162],[14.774866,53.35162],[14.776808,53.353938],[14.776808,53.353938],[14.776808,53.353938],[14.781134,53.354091],[14.781134,53.354091],[14.781134,53.354091],[14.783519,53.351926],[14.783519,53.351926],[14.783519,53.351926],[14.783519,53.351926],[14.783519,53.351926],[14.783519,53.351926],[14.783519,53.351926],[14.783519,53.351926],[14.783519,53.351926],[14.783519,53.351926],[14.783519,53.351926],[14.783519,53.351926],[14.787845,53.352079],[14.787845,53.352079],[14.787845,53.352079],[14.79023,53.349914],[14.79023,53.349914],[14.79023,53.349914],[14.79023,53.349914],[14.79023,53.349914],[14.79023,53.349914],[14.79023,53.349914],[14.79023,53.349914],[14.79023,53.349914],[14.79023,53.349914],[14.79023,53.349914],[14.79023,53.349914],[14.794556,53.350067],[14.794556,53.350067],[14.794556,53.350067],[14.79694,53.347901],[14.79694,53.347901],[14.79694,53.347901],[14.794998,53.345583],[14.794998,53.345583],[14.794998,53.345583],[14.794998,53.345583],[14.794998,53.345583],[14.794998,53.345583],[14.794998,53.345583],[14.794998,53.345583],[14.794998,53.345583],[14.794998,53.345583],[14.794998,53.345583],[14.794998,53.345583],[14.797382,53.343417],[14.797382,53.343417],[14.797382,53.343417],[14.79544,53.341099],[14.79544,53.341099],[14.79544,53.341099],[14.79544,53.341099],[14.79544,53.341099],[14.79544,53.341099],[14.79544,53.341099],[14.79544,53.341099],[14.79544,53.341099],[14.79544,53.341099],[14.79544,53.341099],[14.79544,53.341099],[14.797823,53.338934],[14.797824,53.338934],[14.797824,53.338934],[14.797824,53.338934],[14.797824,53.338934],[14.797824,53.338934],[14.797824,53.338934],[14.797824,53.338934],[14.797824,53.338934],[14.797824,53.338934],[14.797824,53.338934],[14.797824,53.338934],[14.802149,53.339086],[14.802149,53.339086],[14.802149,53.339086],[14.804532,53.336921],[14.804532,53.336921],[14.804532,53.336921],[14.804532,53.336921],[14.804532,53.336921],[14.804532,53.336921],[14.804532,53.336921],[14.804532,53.336921],[14.804532,53.336921],[14.804532,53.336921],[14.804532,53.336921],[14.804532,53.336921],[14.808857,53.337073],[14.808857,53.337073],[14.808857,53.337073],[14.811239,53.334907],[14.811239,53.334907],[14.811239,53.334907],[14.809297,53.332589],[14.809297,53.332589],[14.809297,53.332589],[14.809297,53.332589],[14.809297,53.332589],[14.809297,53.332589],[14.809297,53.332589],[14.809297,53.332589],[14.809297,53.332589],[14.809297,53.332589],[14.809297,53.332589],[14.809297,53.332589],[14.811679,53.330423],[14.811679,53.330423],[14.811679,53.330423],[14.809737,53.328105],[14.809737,53.328105],[14.809737,53.328105],[14.805413,53.327953],[14.805413,53.327953],[14.805413,53.327953],[14.805413,53.327953],[14.805413,53.327953],[14.805413,53.327953],[14.805413,53.327953],[14.805413,53.327953],[14.805413,53.327953],[14.805413,53.327953],[14.805413,53.327953],[14.805413,53.327953],[14.803471,53.325635],[14.803471,53.325635],[14.803471,53.325635],[14.799148,53.325483],[14.799148,53.325483],[14.799148,53.325483],[14.796765,53.327648],[14.796765,53.327648],[14.796765,53.327648],[14.796765,53.327648],[14.796765,53.327648],[14.796765,53.327648],[14.796765,53.327648],[14.796765,53.327648],[14.796765,53.327648],[14.796765,53.327648],[14.796765,53.327648],[14.796765,53.327648],[14.792441,53.327495],[14.792441,53.327495],[14.792441,53.327495],[14.790058,53.329661],[14.790058,53.329661],[14.790058,53.329661],[14.791999,53.331979],[14.791999,53.331979],[14.791999,53.331979],[14.791999,53.331979],[14.791999,53.331979],[14.791999,53.331979],[14.791999,53.331979],[14.791999,53.331979],[14.791999,53.331979],[14.791999,53.331979],[14.791999,53.331979],[14.791999,53.331979],[14.789616,53.334145],[14.789616,53.334145],[14.789616,53.334145],[14.789616,53.334145],[14.789616,53.334145],[14.789616,53.334145],[14.789616,53.334145],[14.789616,53.334145],[14.789616,53.334145],[14.789616,53.334145],[14.789616,53.334145],[14.789616,53.334145],[14.785291,53.333992],[14.785291,53.333992],[14.785291,53.333992],[14.782907,53.336157],[14.782907,53.336157],[14.782907,53.336157],[14.782907,53.336157],[14.782907,53.336157],[14.782907,53.336157],[14.782907,53.336157],[14.782907,53.336157],[14.782907,53.336157],[14.782907,53.336157],[14.782907,53.336157],[14.782907,53.336157],[14.778583,53.336004],[14.778583,53.336004],[14.778583,53.336004],[14.778583,53.336004],[14.778583,53.336004],[14.778583,53.336004],[14.778583,53.336004],[14.778582,53.336004],[14.778582,53.336004],[14.778582,53.336004],[14.778582,53.336004],[14.778582,53.336004],[14.776642,53.333685],[14.776642,53.333685],[14.776642,53.333685],[14.772318,53.333532],[14.772318,53.333532],[14.772318,53.333532],[14.772318,53.333532],[14.772318,53.333532],[14.772318,53.333532],[14.772317,53.333532],[14.772317,53.333532],[14.772317,53.333532],[14.772317,53.333532],[14.772317,53.333532],[14.772317,53.333532],[14.770377,53.331213],[14.770377,53.331213],[14.770377,53.331213],[14.770377,53.331213],[14.770377,53.331213],[14.770377,53.331213],[14.770377,53.331213],[14.770377,53.331213],[14.770377,53.331213],[14.770377,53.331213],[14.770377,53.331213],[14.770377,53.331213],[14.772762,53.329048],[14.772762,53.329048],[14.772762,53.329048],[14.770822,53.32673],[14.770822,53.32673],[14.770822,53.32673],[14.766498,53.326576],[14.766498,53.326576],[14.766498,53.326576],[14.766498,53.326576],[14.766498,53.326576],[14.766498,53.326576],[14.766498,53.326576],[14.766498,53.326576],[14.766498,53.326576],[14.766498,53.326576],[14.766498,53.326576],[14.766498,53.326576],[14.764558,53.324258],[14.764558,53.324258],[14.764558,53.324258],[14.760235,53.324104],[14.760235,53.324104],[14.760235,53.324104],[14.757851,53.326268],[14.757851,53.326268],[14.757851,53.326268],[14.757851,53.326268],[14.757851,53.326268],[14.757851,53.326268],[14.75785,53.326268],[14.75785,53.326268],[14.75785,53.326268],[14.75785,53.326268],[14.75785,53.326268],[14.75785,53.326268],[14.753527,53.326114],[14.753527,53.326114],[14.753527,53.326114],[14.751142,53.328279],[14.751142,53.328279],[14.751142,53.328279],[14.751142,53.328279],[14.751142,53.328279],[14.751142,53.328279],[14.751142,53.328279],[14.751142,53.328279],[14.751142,53.328279],[14.751142,53.328279],[14.751142,53.328279],[14.751142,53.328279],[14.746818,53.328125],[14.746818,53.328125],[14.746818,53.328125],[14.744433,53.330289],[14.744433,53.330289],[14.744433,53.330289],[14.744433,53.330289],[14.744433,53.330289],[14.744433,53.330289],[14.744433,53.330289],[14.744433,53.330289],[14.744433,53.330289],[14.744433,53.330289],[14.744433,53.330289],[14.744433,53.330289],[14.740109,53.330135],[14.740109,53.330135],[14.740109,53.330135],[14.737723,53.332299],[14.737723,53.332299],[14.737723,53.332299],[14.737723,53.332299],[14.737723,53.332299],[14.737723,53.332299],[14.737723,53.332299],[14.737723,53.332299],[14.737723,53.332299],[14.737723,53.332299],[14.737723,53.332299],[14.737723,53.332299],[14.733399,53.332144],[14.733399,53.332144],[14.733399,53.332144],[14.731013,53.334308],[14.731013,53.334308],[14.731013,53.334308],[14.731013,53.334308],[14.731013,53.334308],[14.731013,53.334308],[14.731013,53.334308],[14.731013,53.334308],[14.731013,53.334308],[14.731013,53.334308],[14.731013,53.334308],[14.731013,53.334308],[14.726688,53.334153],[14.726688,53.334153],[14.726688,53.334153],[14.724302,53.336317],[14.724302,53.336317],[14.724302,53.336317],[14.724302,53.336317],[14.724302,53.336317],[14.724302,53.336317],[14.724302,53.336317],[14.724302,53.336317],[14.724302,53.336317],[14.724302,53.336317],[14.724301,53.336317],[14.724301,53.336317],[14.719977,53.336162],[14.719977,53.336162],[14.719977,53.336162],[14.71759,53.338326],[14.71759,53.338326],[14.71759,53.338326],[14.719527,53.340645],[14.719527,53.340645],[14.719527,53.340645],[14.719527,53.340645],[14.719527,53.340645],[14.719527,53.340645],[14.719527,53.340645],[14.719527,53.340645],[14.719527,53.340645],[14.719527,53.340645],[14.719527,53.340645],[14.719527,53.340645],[14.71714,53.342809],[14.71714,53.342809],[14.71714,53.342809],[14.71714,53.342809],[14.71714,53.342809],[14.71714,53.342809],[14.71714,53.342809],[14.71714,53.342809],[14.71714,53.342809],[14.71714,53.342809],[14.71714,53.342809],[14.71714,53.342809],[14.712815,53.342654],[14.712815,53.342654],[14.712815,53.342654],[14.710427,53.344817],[14.710427,53.344817],[14.710427,53.344817],[14.712364,53.347137],[14.712364,53.347137],[14.712364,53.347137],[14.712364,53.347137],[14.712364,53.347137],[14.712364,53.347137],[14.712364,53.347137],[14.712364,53.347137],[14.712364,53.347137],[14.712364,53.347137],[14.712364,53.347137],[14.712364,53.347137],[14.709976,53.3493],[14.709976,53.3493],[14.709976,53.3493],[14.709976,53.349301],[14.709976,53.349301],[14.709976,53.349301],[14.709976,53.349301],[14.709976,53.349301],[14.709976,53.349301],[14.709976,53.349301],[14.709976,53.349301],[14.709976,53.349301],[14.70565,53.349145],[14.70565,53.349145],[14.70565,53.349145],[14.703262,53.351308],[14.703262,53.351308],[14.703262,53.351308],[14.705199,53.353628],[14.705199,53.353628],[14.705199,53.353628],[14.709525,53.353784],[14.709525,53.353784],[14.709525,53.353784],[14.709525,53.353784],[14.709525,53.353784],[14.709525,53.353784],[14.709525,53.353784],[14.709525,53.353784],[14.709525,53.353784],[14.709525,53.353784],[14.709525,53.353784],[14.709525,53.353784],[14.711463,53.356103],[14.711463,53.356103],[14.711463,53.356103],[14.715789,53.356259],[14.715789,53.356259],[14.715789,53.356259],[14.715789,53.356259],[14.715789,53.356259],[14.715789,53.356259],[14.715789,53.356259],[14.715789,53.356259],[14.715789,53.356259],[14.715789,53.356259],[14.715789,53.356259],[14.715789,53.356259],[14.717727,53.358578],[14.717727,53.358578],[14.717727,53.358578],[14.717727,53.358578],[14.717727,53.358578],[14.717727,53.358578],[14.717727,53.358578],[14.717727,53.358578],[14.717727,53.358578],[14.717727,53.358578],[14.717727,53.358578],[14.717727,53.358578],[14.715339,53.360742],[14.715339,53.360742],[14.715339,53.360742],[14.715339,53.360742],[14.715339,53.360742],[14.715339,53.360742],[14.715339,53.360742],[14.715339,53.360742],[14.715339,53.360742],[14.715339,53.360742],[14.715339,53.360742],[14.715339,53.360742],[14.711012,53.360586],[14.711012,53.360586],[14.711012,53.360586],[14.711012,53.360586],[14.711012,53.360586],[14.711012,53.360586],[14.711012,53.360586],[14.711012,53.360586],[14.711012,53.360586],[14.711012,53.360586],[14.711012,53.360586],[14.711012,53.360586],[14.709074,53.358267],[14.709074,53.358267],[14.709074,53.358267],[14.704747,53.358111],[14.704747,53.358111],[14.704747,53.358111],[14.704747,53.358111],[14.704747,53.358111],[14.704747,53.358111],[14.704747,53.358111],[14.704747,53.358111],[14.704747,53.358111],[14.704747,53.358111],[14.704747,53.358111],[14.704747,53.358111],[14.70281,53.355791],[14.70281,53.355791],[14.70281,53.355791],[14.698484,53.355635],[14.698484,53.355635],[14.698484,53.355635],[14.698484,53.355635],[14.698484,53.355635],[14.698484,53.355635],[14.698484,53.355635],[14.698484,53.355635],[14.698484,53.355635],[14.698484,53.355635],[14.698484,53.355635],[14.698484,53.355635],[14.696547,53.353316],[14.696547,53.353316],[14.696547,53.353316],[14.692221,53.353159],[14.692221,53.353159],[14.692221,53.353159],[14.689831,53.355323],[14.689831,53.355323],[14.689831,53.355323],[14.689831,53.355323],[14.689831,53.355323],[14.689831,53.355323],[14.689831,53.355323],[14.689831,53.355323],[14.689831,53.355323],[14.689831,53.355323],[14.689831,53.355323],[14.689831,53.355323],[14.685505,53.355166],[14.685505,53.355166],[14.685505,53.355166],[14.685505,53.355166],[14.685505,53.355166],[14.685505,53.355166],[14.685505,53.355166],[14.685505,53.355166],[14.685505,53.355166],[14.685505,53.355166],[14.685505,53.355166],[14.685505,53.355166],[14.683569,53.352846],[14.683569,53.352846],[14.683569,53.352846],[14.679243,53.352689],[14.679243,53.352689],[14.679243,53.352689],[14.679243,53.352689],[14.679243,53.352689],[14.679243,53.352689],[14.679243,53.352689],[14.679243,53.352689],[14.679243,53.352689],[14.679243,53.352689],[14.679243,53.352689],[14.679243,53.352689],[14.677307,53.350369],[14.677307,53.350369],[14.677307,53.350369],[14.672982,53.350212],[14.672982,53.350212],[14.672982,53.350212],[14.670591,53.352375],[14.670591,53.352375],[14.670591,53.352375],[14.670591,53.352375],[14.670591,53.352375],[14.670591,53.352375],[14.670591,53.352375],[14.670591,53.352375],[14.670591,53.352375],[14.670591,53.352375],[14.670591,53.352375],[14.670591,53.352375],[14.666265,53.352218],[14.666265,53.352218],[14.666265,53.352218],[14.663875,53.354381],[14.663875,53.354381],[14.663875,53.354381],[14.663875,53.354381],[14.663875,53.354381],[14.663875,53.354381],[14.663875,53.354381],[14.663875,53.354381],[14.663875,53.354381],[14.663875,53.354381],[14.663875,53.354381],[14.663875,53.354381],[14.659549,53.354223],[14.659549,53.354223],[14.659549,53.354223],[14.657157,53.356386],[14.657157,53.356386],[14.657157,53.356386],[14.659092,53.358706],[14.659092,53.358706],[14.659092,53.358706],[14.659092,53.358706],[14.659092,53.358706],[14.659092,53.358706],[14.659092,53.358706],[14.659092,53.358706],[14.659092,53.358706],[14.659092,53.358706],[14.659092,53.358706],[14.659092,53.358706],[14.656701,53.360869],[14.656701,53.360869],[14.656701,53.360869],[14.656701,53.360869],[14.656701,53.360869],[14.656701,53.360869],[14.656701,53.360869],[14.656701,53.360869],[14.656701,53.360869],[14.656701,53.360869],[14.656701,53.360869],[14.656701,53.360869],[14.652374,53.360711],[14.652374,53.360711],[14.652374,53.360711],[14.649982,53.362873],[14.649982,53.362873],[14.649982,53.362873],[14.649982,53.362873],[14.649982,53.362873],[14.649982,53.362873],[14.649982,53.362873],[14.649982,53.362873],[14.649982,53.362873],[14.649982,53.362873],[14.649982,53.362873],[14.649982,53.362873],[14.645656,53.362715],[14.645656,53.362715],[14.645656,53.362715],[14.645656,53.362715],[14.645656,53.362715],[14.645656,53.362715],[14.645656,53.362715],[14.645656,53.362715],[14.645656,53.362715],[14.645656,53.362715],[14.645656,53.362715],[14.645656,53.362715],[14.643721,53.360395],[14.643721,53.360395],[14.643721,53.360395],[14.639395,53.360236],[14.639395,53.360236],[14.639395,53.360236],[14.637002,53.362398],[14.637002,53.362398],[14.637002,53.362399],[14.637002,53.362399],[14.637002,53.362399],[14.637002,53.362399],[14.637002,53.362399],[14.637002,53.362399],[14.637002,53.362399],[14.637002,53.362399],[14.637002,53.362399],[14.637002,53.362399],[14.632676,53.36224],[14.632676,53.36224],[14.632676,53.36224],[14.630283,53.364402],[14.630283,53.364402],[14.630283,53.364402],[14.630283,53.364402],[14.630283,53.364402],[14.630283,53.364402],[14.630283,53.364402],[14.630283,53.364402],[14.630283,53.364402],[14.630283,53.364402],[14.630283,53.364402],[14.630283,53.364402],[14.625956,53.364243],[14.625956,53.364243],[14.625956,53.364243],[14.625956,53.364243],[14.625956,53.364243],[14.625956,53.364243],[14.625956,53.364243],[14.625956,53.364243],[14.625956,53.364243],[14.625956,53.364243],[14.625956,53.364243],[14.625956,53.364243],[14.624023,53.361923],[14.624023,53.361923],[14.624023,53.361923],[14.624023,53.361923],[14.624023,53.361922],[14.624023,53.361922],[14.624023,53.361922],[14.624023,53.361922],[14.624023,53.361922],[14.624023,53.361922],[14.624023,53.361922],[14.624023,53.361922],[14.626416,53.359761],[14.626416,53.359761],[14.626416,53.359761],[14.624483,53.35744],[14.624483,53.35744],[14.624483,53.35744],[14.624483,53.35744],[14.624483,53.35744],[14.624483,53.35744],[14.624483,53.35744],[14.624483,53.35744],[14.624483,53.35744],[14.624483,53.35744],[14.624483,53.35744],[14.624483,53.35744],[14.626876,53.355278],[14.626876,53.355278],[14.626876,53.355278],[14.624943,53.352957],[14.624943,53.352957],[14.624943,53.352957],[14.620617,53.352798],[14.620617,53.352798],[14.620617,53.352798],[14.620617,53.352798],[14.620617,53.352798],[14.620617,53.352798],[14.620617,53.352798],[14.620617,53.352798],[14.620617,53.352798],[14.620617,53.352798],[14.620617,53.352798],[14.620617,53.352798],[14.618685,53.350477],[14.618685,53.350477],[14.618685,53.350477],[14.614359,53.350318],[14.614359,53.350318],[14.614359,53.350318],[14.611966,53.35248],[14.611966,53.35248],[14.611966,53.35248],[14.611966,53.35248],[14.611966,53.35248],[14.611966,53.35248],[14.611966,53.35248],[14.611966,53.35248],[14.611966,53.35248],[14.611966,53.35248],[14.611966,53.35248],[14.611966,53.35248],[14.607641,53.35232],[14.607641,53.35232],[14.607641,53.35232],[14.607641,53.35232],[14.607641,53.35232],[14.607641,53.35232],[14.607641,53.35232],[14.607641,53.35232],[14.607641,53.35232],[14.607641,53.35232],[14.607641,53.35232],[14.607641,53.35232],[14.605709,53.349999],[14.605709,53.349999],[14.605709,53.349999],[14.605709,53.349999],[14.605709,53.349999],[14.605709,53.349999],[14.605709,53.349999],[14.605709,53.349999],[14.605709,53.349999],[14.605709,53.349999],[14.605709,53.349999],[14.605709,53.349999],[14.608102,53.347838],[14.608102,53.347838],[14.608102,53.347838],[14.606171,53.345517],[14.606171,53.345517],[14.606171,53.345517],[14.601846,53.345357],[14.601846,53.345357],[14.601846,53.345357],[14.601846,53.345357],[14.601846,53.345357],[14.601846,53.345357],[14.601846,53.345357],[14.601846,53.345357],[14.601846,53.345357],[14.601846,53.345357],[14.601846,53.345357],[14.601846,53.345357],[14.599915,53.343036],[14.599915,53.343036],[14.599915,53.343036],[14.59559,53.342876],[14.59559,53.342876],[14.59559,53.342876],[14.59559,53.342876],[14.59559,53.342876],[14.59559,53.342876],[14.59559,53.342876],[14.59559,53.342876],[14.59559,53.342876],[14.59559,53.342876],[14.59559,53.342876],[14.59559,53.342876],[14.59366,53.340555],[14.59366,53.340555],[14.59366,53.340555],[14.59366,53.340555],[14.59366,53.340555],[14.59366,53.340555],[14.59366,53.340555],[14.59366,53.340555],[14.59366,53.340555],[14.59366,53.340555],[14.59366,53.340555],[14.59366,53.340555],[14.596053,53.338394],[14.596053,53.338394],[14.596053,53.338394],[14.594123,53.336072],[14.594123,53.336072],[14.594123,53.336072],[14.589799,53.335912],[14.589799,53.335912],[14.589799,53.335912],[14.589799,53.335912],[14.589799,53.335912],[14.589799,53.335912],[14.589799,53.335912],[14.589799,53.335912],[14.589799,53.335912],[14.589799,53.335912],[14.589799,53.335912],[14.589799,53.335912],[14.587869,53.333591],[14.587869,53.333591],[14.587869,53.333591],[14.583545,53.333431],[14.583545,53.333431],[14.583545,53.333431],[14.583545,53.333431],[14.583545,53.333431],[14.583545,53.333431],[14.583545,53.333431],[14.583545,53.333431],[14.583545,53.333431],[14.583545,53.333431],[14.583545,53.333431],[14.583545,53.333431],[14.581616,53.33111],[14.581616,53.331109],[14.581616,53.331109],[14.581616,53.331109],[14.581616,53.331109],[14.581616,53.331109],[14.581616,53.331109],[14.581616,53.331109],[14.581616,53.331109],[14.581616,53.331109],[14.581616,53.331109],[14.581616,53.331109],[14.584009,53.328948],[14.584009,53.328948],[14.584009,53.328948],[14.584009,53.328948],[14.584009,53.328948],[14.584009,53.328948],[14.584009,53.328948],[14.584009,53.328948],[14.584009,53.328948],[14.584009,53.328948],[14.584009,53.328948],[14.584009,53.328948],[14.588332,53.329109],[14.588332,53.329109],[14.588332,53.329109],[14.590725,53.326947],[14.590725,53.326947],[14.590725,53.326947],[14.588795,53.324626],[14.588795,53.324626],[14.588795,53.324626],[14.588795,53.324626],[14.588795,53.324626],[14.588795,53.324626],[14.588795,53.324626],[14.588795,53.324626],[14.588795,53.324626],[14.588795,53.324626],[14.588795,53.324626],[14.588795,53.324626],[14.591188,53.322465],[14.591188,53.322465],[14.591188,53.322465],[14.589259,53.320144],[14.589259,53.320144],[14.589259,53.320144],[14.584937,53.319983],[14.584937,53.319983],[14.584937,53.319983],[14.582544,53.322145],[14.582544,53.322145],[14.582544,53.322145],[14.582544,53.322145],[14.582544,53.322145],[14.582544,53.322145],[14.582544,53.322145],[14.582544,53.322145],[14.582544,53.322145],[14.582544,53.322145],[14.582544,53.322145],[14.582544,53.322145],[14.578222,53.321984],[14.578221,53.321984],[14.578221,53.321984],[14.578221,53.321984],[14.578221,53.321984],[14.578221,53.321984],[14.578221,53.321984],[14.578221,53.321984],[14.578221,53.321984],[14.578221,53.321984],[14.578221,53.321984],[14.578221,53.321984],[14.576293,53.319663],[14.576293,53.319663],[14.576293,53.319663],[14.571971,53.319502],[14.571971,53.319502],[14.571971,53.319502],[14.569577,53.321663],[14.569577,53.321663],[14.569577,53.321663],[14.569577,53.321663],[14.569577,53.321663],[14.569577,53.321663],[14.569577,53.321663],[14.569577,53.321663],[14.569577,53.321663],[14.569577,53.321663],[14.569577,53.321663],[14.569577,53.321663],[14.565255,53.321502],[14.565255,53.321502],[14.565255,53.321502],[14.562861,53.323663],[14.562861,53.323663],[14.562861,53.323663],[14.564789,53.325984],[14.564789,53.325984],[14.564789,53.325984],[14.564789,53.325984],[14.564789,53.325984],[14.564789,53.325984],[14.564789,53.325984],[14.564789,53.325984],[14.564789,53.325984],[14.564789,53.325984],[14.564789,53.325984],[14.564789,53.325984],[14.562395,53.328145],[14.562395,53.328145],[14.562395,53.328145],[14.562395,53.328145],[14.562395,53.328145],[14.562395,53.328145],[14.562395,53.328145],[14.562395,53.328145],[14.562395,53.328145],[14.562395,53.328145],[14.562395,53.328145],[14.562395,53.328145],[14.558072,53.327984],[14.558072,53.327984],[14.558072,53.327984],[14.555678,53.330144],[14.555678,53.330144],[14.555678,53.330144],[14.555678,53.330144],[14.555678,53.330144],[14.555678,53.330144],[14.555678,53.330144],[14.555678,53.330144],[14.555678,53.330144],[14.555678,53.330144],[14.555678,53.330144],[14.555678,53.330144],[14.551355,53.329983],[14.551355,53.329983],[14.551355,53.329983],[14.551355,53.329983],[14.551355,53.329983],[14.551355,53.329983],[14.551355,53.329983],[14.551355,53.329983],[14.551355,53.329983],[14.551355,53.329983],[14.551355,53.329983],[14.551355,53.329983],[14.549427,53.327661],[14.549427,53.327661],[14.549427,53.327661],[14.545105,53.327499],[14.545105,53.327499],[14.545105,53.327499],[14.542709,53.32966],[14.542709,53.32966],[14.542709,53.32966],[14.542709,53.32966],[14.542709,53.32966],[14.542709,53.32966],[14.542709,53.32966],[14.542709,53.32966],[14.542709,53.32966],[14.542709,53.32966],[14.542709,53.32966],[14.542709,53.32966],[14.538386,53.329498],[14.538386,53.329498],[14.538386,53.329498],[14.535991,53.331658],[14.535991,53.331658],[14.535991,53.331658],[14.535991,53.331658],[14.535991,53.331658],[14.535991,53.331658],[14.535991,53.331658],[14.535991,53.331658],[14.535991,53.331658],[14.535991,53.331658],[14.535991,53.331658],[14.535991,53.331658],[14.531668,53.331496],[14.531668,53.331496],[14.531668,53.331496],[14.529272,53.333656],[14.529272,53.333656],[14.529272,53.333656],[14.531198,53.335978],[14.531198,53.335978],[14.531198,53.335978],[14.531198,53.335978],[14.531198,53.335978],[14.531198,53.335978],[14.531198,53.335978],[14.531198,53.335978],[14.531198,53.335978],[14.531198,53.335978],[14.531198,53.335978],[14.531198,53.335978],[14.528802,53.338138],[14.528802,53.338138],[14.528802,53.338138],[14.530729,53.34046],[14.530729,53.34046],[14.530729,53.34046],[14.535053,53.340622],[14.535053,53.340622],[14.535053,53.340622],[14.535053,53.340622],[14.535053,53.340622],[14.535053,53.340622],[14.535053,53.340622],[14.535053,53.340622],[14.535053,53.340622],[14.535053,53.340622],[14.535053,53.340622],[14.535053,53.340622],[14.53698,53.342944],[14.53698,53.342944],[14.53698,53.342944],[14.53698,53.342944],[14.53698,53.342944],[14.53698,53.342944],[14.53698,53.342944],[14.53698,53.342944],[14.53698,53.342944],[14.53698,53.342944],[14.53698,53.342944],[14.53698,53.342944],[14.534583,53.345104],[14.534583,53.345104],[14.534583,53.345104],[14.536511,53.347426],[14.536511,53.347426],[14.536511,53.347426],[14.540836,53.347588],[14.540836,53.347588],[14.540836,53.347588],[14.540836,53.347588],[14.540836,53.347588],[14.540836,53.347588],[14.540836,53.347588],[14.540836,53.347588],[14.540836,53.347588],[14.540836,53.347588],[14.540836,53.347588],[14.540836,53.347588],[14.542764,53.34991],[14.542764,53.34991],[14.542764,53.34991],[14.547088,53.350072],[14.547088,53.350072],[14.547088,53.350072],[14.547088,53.350072],[14.547089,53.350072],[14.547089,53.350072],[14.547089,53.350072],[14.547089,53.350072],[14.547089,53.350072],[14.547089,53.350072],[14.547089,53.350072],[14.547089,53.350072],[14.549017,53.352394],[14.549017,53.352394],[14.549017,53.352394],[14.549017,53.352394],[14.549017,53.352394],[14.549017,53.352394],[14.549017,53.352394],[14.549017,53.352394],[14.549017,53.352394],[14.549017,53.352394],[14.549017,53.352394],[14.549017,53.352394],[14.54662,53.354554],[14.54662,53.354554],[14.54662,53.354554],[14.548549,53.356876],[14.548549,53.356876],[14.548549,53.356876],[14.552875,53.357038],[14.552875,53.357038],[14.552875,53.357038],[14.552875,53.357038],[14.552875,53.357038],[14.552875,53.357038],[14.552875,53.357038],[14.552875,53.357038],[14.552875,53.357038],[14.552875,53.357038],[14.552875,53.357038],[14.552875,53.357038],[14.554804,53.35936],[14.554804,53.35936],[14.554804,53.35936],[14.55913,53.359521],[14.55913,53.359521],[14.55913,53.359521],[14.55913,53.359521],[14.55913,53.359521],[14.55913,53.359521],[14.55913,53.359521],[14.55913,53.359521],[14.55913,53.359521],[14.55913,53.359521],[14.55913,53.359521],[14.55913,53.359521],[14.561059,53.361843],[14.561059,53.361843],[14.561059,53.361843],[14.565385,53.362004],[14.565385,53.362004],[14.565385,53.362004],[14.565385,53.362004],[14.565385,53.362004],[14.565385,53.362004],[14.565385,53.362004],[14.565385,53.362004],[14.565385,53.362004],[14.565385,53.362004],[14.565385,53.362004],[14.565385,53.362004],[14.567315,53.364326],[14.567315,53.364326],[14.567315,53.364326],[14.571642,53.364487],[14.571642,53.364487],[14.571642,53.364487],[14.574038,53.362326],[14.574038,53.362326],[14.574038,53.362326],[14.574038,53.362326],[14.574038,53.362326],[14.574038,53.362326],[14.574038,53.362326],[14.574038,53.362326],[14.574038,53.362326],[14.574038,53.362326],[14.574038,53.362326],[14.574038,53.362326],[14.578364,53.362486],[14.578364,53.362486],[14.578364,53.362486],[14.578364,53.362486],[14.578364,53.362486],[14.578364,53.362486],[14.578364,53.362486],[14.578364,53.362486],[14.578364,53.362486],[14.578364,53.362486],[14.578364,53.362486],[14.578364,53.362486],[14.580295,53.364808],[14.580295,53.364808],[14.580295,53.364808],[14.580295,53.364808],[14.580295,53.364808],[14.580295,53.364808],[14.580295,53.364808],[14.580295,53.364808],[14.580295,53.364808],[14.580295,53.364808],[14.580295,53.364808],[14.580295,53.364808],[14.577899,53.366969],[14.577899,53.366969],[14.577899,53.366969],[14.577899,53.366969],[14.577899,53.366969],[14.577899,53.366969],[14.577899,53.366969],[14.577899,53.366969],[14.577899,53.366969],[14.577899,53.366969],[14.577899,53.366969],[14.577899,53.366969],[14.573572,53.366808],[14.573572,53.366808],[14.573572,53.366808],[14.571176,53.368969],[14.571176,53.368969],[14.571176,53.368969],[14.571176,53.368969],[14.571176,53.368969],[14.571176,53.368969],[14.571176,53.368969],[14.571176,53.368969],[14.571176,53.368969],[14.571176,53.368969],[14.571176,53.368969],[14.571176,53.368969],[14.566849,53.368808],[14.566849,53.368808],[14.566849,53.368808],[14.564453,53.370969],[14.564453,53.370969],[14.564453,53.370969],[14.564453,53.370969],[14.564453,53.370969],[14.564453,53.370969],[14.564453,53.370969],[14.564453,53.370969],[14.564453,53.370969],[14.564453,53.370969],[14.564452,53.370969],[14.564452,53.370969],[14.560126,53.370807],[14.560126,53.370807],[14.560126,53.370807],[14.560126,53.370807],[14.560126,53.370807],[14.560126,53.370807],[14.560126,53.370807],[14.560126,53.370807],[14.560126,53.370807],[14.560125,53.370807],[14.560125,53.370807],[14.560125,53.370807],[14.558196,53.368486],[14.558196,53.368486],[14.558196,53.368486],[14.553869,53.368324],[14.553869,53.368324],[14.553869,53.368324],[14.551472,53.370485],[14.551472,53.370485],[14.551472,53.370485],[14.551472,53.370485],[14.551472,53.370485],[14.551472,53.370485],[14.551472,53.370485],[14.551472,53.370485],[14.551471,53.370485],[14.551471,53.370485],[14.551471,53.370485],[14.551471,53.370485],[14.547145,53.370323],[14.547145,53.370323],[14.547145,53.370323],[14.544747,53.372483],[14.544747,53.372483],[14.544747,53.372483],[14.544747,53.372483],[14.544747,53.372483],[14.544747,53.372483],[14.544747,53.372483],[14.544747,53.372483],[14.544747,53.372483],[14.544747,53.372483],[14.544747,53.372483],[14.544747,53.372483],[14.54042,53.372321],[14.54042,53.372321],[14.54042,53.372321],[14.54042,53.372321],[14.54042,53.372321],[14.54042,53.372321],[14.54042,53.372321],[14.54042,53.372321],[14.54042,53.372321],[14.54042,53.372321],[14.54042,53.372321],[14.54042,53.372321],[14.538491,53.369999],[14.538491,53.369999],[14.538491,53.369999],[14.534164,53.369837],[14.534164,53.369837],[14.534164,53.369837],[14.531766,53.371997],[14.531766,53.371997],[14.531766,53.371997],[14.531766,53.371997],[14.531766,53.371997],[14.531766,53.371997],[14.531766,53.371997],[14.531766,53.371997],[14.531766,53.371997],[14.531766,53.371997],[14.531766,53.371997],[14.531766,53.371997],[14.527439,53.371835],[14.527439,53.371835],[14.527439,53.371835],[14.52504,53.373994],[14.52504,53.373994],[14.52504,53.373994],[14.526968,53.376317],[14.526968,53.376317],[14.526968,53.376317],[14.531296,53.376479],[14.531296,53.376479],[14.531296,53.376479],[14.531296,53.376479],[14.531296,53.376479],[14.531296,53.376479],[14.531296,53.376479],[14.531296,53.376479],[14.531296,53.376479],[14.531296,53.376479],[14.531296,53.376479],[14.531296,53.376479],[14.533224,53.378801],[14.533224,53.378801],[14.533224,53.378801],[14.533224,53.378801],[14.533224,53.378801],[14.533224,53.378801],[14.533224,53.378801],[14.533224,53.378801],[14.533224,53.378801],[14.533224,53.378801],[14.533224,53.378801],[14.533224,53.378801],[14.530826,53.380961],[14.530825,53.380961],[14.530825,53.380961],[14.530825,53.380961],[14.530825,53.380961],[14.530825,53.380961],[14.530825,53.380961],[14.530825,53.380961],[14.530825,53.380961],[14.530825,53.380961],[14.530825,53.380961],[14.530825,53.380961],[14.526498,53.380799],[14.526498,53.380799],[14.526498,53.380799],[14.524098,53.382959],[14.524098,53.382959],[14.524098,53.382959],[14.524098,53.382959],[14.524098,53.382959],[14.524098,53.382959],[14.524098,53.382959],[14.524098,53.382959],[14.524098,53.382959],[14.524098,53.382959],[14.524098,53.382959],[14.524098,53.382959],[14.51977,53.382796],[14.51977,53.382796],[14.51977,53.382796],[14.51737,53.384955],[14.51737,53.384955],[14.51737,53.384955],[14.51737,53.384955],[14.51737,53.384955],[14.51737,53.384955],[14.51737,53.384955],[14.51737,53.384955],[14.51737,53.384955],[14.51737,53.384955],[14.51737,53.384955],[14.51737,53.384955],[14.513042,53.384793],[14.513042,53.384793],[14.513042,53.384793],[14.510642,53.386952],[14.510642,53.386952],[14.510642,53.386952],[14.510642,53.386952],[14.510642,53.386952],[14.510642,53.386952],[14.510642,53.386952],[14.510642,53.386952],[14.510642,53.386952],[14.510642,53.386952],[14.510642,53.386952],[14.510642,53.386952],[14.506313,53.386789],[14.506313,53.386789],[14.506313,53.386789],[14.503913,53.388948],[14.503913,53.388948],[14.503913,53.388948],[14.503913,53.388948],[14.503913,53.388948],[14.503913,53.388948],[14.503913,53.388948],[14.503913,53.388948],[14.503913,53.388948],[14.503913,53.388948],[14.503913,53.388948],[14.503913,53.388948],[14.499584,53.388785],[14.499584,53.388785],[14.499584,53.388785],[14.497183,53.390944],[14.497183,53.390944],[14.497183,53.390944],[14.497183,53.390944],[14.497183,53.390944],[14.497183,53.390944],[14.497183,53.390944],[14.497183,53.390944],[14.497183,53.390944],[14.497183,53.390944],[14.497183,53.390944],[14.497183,53.390944],[14.492854,53.39078],[14.492854,53.39078],[14.492854,53.39078],[14.492854,53.39078],[14.492854,53.39078],[14.492854,53.39078],[14.492854,53.39078],[14.492854,53.39078],[14.492854,53.39078],[14.492854,53.39078],[14.492854,53.39078],[14.492854,53.39078],[14.490927,53.388458],[14.490927,53.388458],[14.490927,53.388458],[14.486599,53.388294],[14.486599,53.388294],[14.486599,53.388294],[14.484197,53.390453],[14.484197,53.390453],[14.484197,53.390453],[14.484197,53.390453],[14.484197,53.390453],[14.484197,53.390453],[14.484197,53.390453],[14.484197,53.390453],[14.484197,53.390453],[14.484197,53.390453],[14.484197,53.390453],[14.484197,53.390453],[14.479869,53.390288],[14.479869,53.390288],[14.479869,53.390288],[14.477466,53.392447],[14.477466,53.392447],[14.477466,53.392447],[14.479393,53.39477],[14.479393,53.39477],[14.479393,53.39477],[14.479393,53.39477],[14.479393,53.39477],[14.479393,53.39477],[14.479393,53.39477],[14.479393,53.39477],[14.479393,53.39477],[14.479393,53.39477],[14.479393,53.39477],[14.479393,53.39477],[14.47699,53.396929],[14.47699,53.396929],[14.47699,53.396929],[14.47699,53.396929],[14.47699,53.396929],[14.47699,53.396929],[14.47699,53.396929],[14.47699,53.396929],[14.47699,53.396929],[14.47699,53.396929],[14.47699,53.396929],[14.47699,53.396929],[14.472661,53.396765],[14.472661,53.396765],[14.472661,53.396765],[14.470258,53.398923],[14.470258,53.398923],[14.470258,53.398923],[14.470258,53.398923],[14.470258,53.398923],[14.470258,53.398923],[14.470258,53.398923],[14.470258,53.398923],[14.470258,53.398923],[14.470258,53.398923],[14.470258,53.398923],[14.470258,53.398923],[14.465929,53.398758],[14.465929,53.398758],[14.465929,53.398758],[14.463525,53.400917],[14.463525,53.400917],[14.463525,53.400917],[14.465451,53.40324],[14.465451,53.40324],[14.465451,53.40324],[14.469781,53.403405],[14.469781,53.403405],[14.469781,53.403405],[14.469781,53.403405],[14.469781,53.403405],[14.469781,53.403405],[14.469781,53.403405],[14.469781,53.403405],[14.469781,53.403405],[14.469781,53.403405],[14.469781,53.403405],[14.469781,53.403405],[14.471707,53.405728],[14.471707,53.405728],[14.471707,53.405728],[14.471707,53.405728],[14.471707,53.405728],[14.471707,53.405728],[14.471707,53.405728],[14.471707,53.405728],[14.471707,53.405728],[14.471707,53.405728],[14.471707,53.405728],[14.471707,53.405728],[14.469304,53.407887],[14.469304,53.407887],[14.469304,53.407887],[14.47123,53.41021],[14.47123,53.41021],[14.47123,53.41021],[14.475561,53.410374],[14.475561,53.410374],[14.475561,53.410374],[14.477964,53.408216],[14.477964,53.408215],[14.477964,53.408215],[14.477964,53.408215],[14.477964,53.408215],[14.477964,53.408215],[14.477964,53.408215],[14.477964,53.408215],[14.477964,53.408215],[14.477964,53.408215],[14.477965,53.408215],[14.477965,53.408215],[14.482295,53.40838],[14.482295,53.40838],[14.482295,53.40838],[14.482295,53.40838],[14.482295,53.40838],[14.482295,53.40838],[14.482295,53.40838],[14.482295,53.40838],[14.482295,53.40838],[14.482295,53.40838],[14.482295,53.40838],[14.482295,53.40838],[14.484222,53.410703],[14.484222,53.410703],[14.484222,53.410703],[14.484222,53.410703],[14.484222,53.410703],[14.484222,53.410703],[14.484222,53.410703],[14.484222,53.410703],[14.484222,53.410703],[14.484222,53.410703],[14.484222,53.410703],[14.484222,53.410703],[14.481819,53.412861],[14.481819,53.412861],[14.481819,53.412861],[14.481819,53.412861],[14.481819,53.412861],[14.481819,53.412861],[14.481819,53.412861],[14.481819,53.412861],[14.481819,53.412861],[14.481819,53.412861],[14.481819,53.412861],[14.481819,53.412861],[14.477488,53.412697],[14.477488,53.412697],[14.477488,53.412697],[14.475084,53.414856],[14.475084,53.414856],[14.475084,53.414856],[14.475084,53.414856],[14.475084,53.414856],[14.475084,53.414856],[14.475084,53.414856],[14.475084,53.414856],[14.475084,53.414856],[14.475084,53.414856],[14.475084,53.414856],[14.475084,53.414856],[14.470753,53.414691],[14.470753,53.414691],[14.470753,53.414691],[14.468349,53.41685],[14.468349,53.41685],[14.468349,53.41685],[14.470276,53.419173],[14.470276,53.419173],[14.470276,53.419173],[14.470276,53.419173],[14.470276,53.419173],[14.470276,53.419173],[14.470276,53.419173],[14.470276,53.419173],[14.470276,53.419173],[14.470276,53.419173],[14.470276,53.419173],[14.470276,53.419173],[14.467872,53.421332],[14.467872,53.421332],[14.467872,53.421332],[14.469799,53.423655],[14.469799,53.423655],[14.469799,53.423655],[14.469799,53.423655],[14.469799,53.423655],[14.469799,53.423655],[14.469799,53.423655],[14.469799,53.423655],[14.469799,53.423655],[14.469799,53.423655],[14.469799,53.423655],[14.469799,53.423655],[14.467394,53.425813],[14.467394,53.425813],[14.467394,53.425813],[14.469321,53.428136],[14.469321,53.428136],[14.469321,53.428136],[14.473654,53.428301],[14.473654,53.428301],[14.473654,53.428301],[14.473654,53.428301],[14.473654,53.428301],[14.473654,53.428301],[14.473654,53.428301],[14.473654,53.428301],[14.473654,53.428301],[14.473654,53.428301],[14.473654,53.428301],[14.473654,53.428301],[14.475581,53.430624],[14.475581,53.430624],[14.475581,53.430624],[14.475581,53.430624],[14.475581,53.430624],[14.475581,53.430624],[14.475581,53.430624],[14.475581,53.430624],[14.475581,53.430624],[14.475581,53.430624],[14.475581,53.430624],[14.475581,53.430624],[14.473177,53.432783],[14.473177,53.432783],[14.473177,53.432783],[14.475104,53.435106],[14.475104,53.435106],[14.475104,53.435106],[14.475104,53.435106],[14.475104,53.435106],[14.475104,53.435106],[14.475104,53.435106],[14.475104,53.435106],[14.475104,53.435106],[14.475104,53.435106],[14.475104,53.435106],[14.475104,53.435106],[14.472699,53.437264],[14.472699,53.437264],[14.472699,53.437264],[14.472699,53.437264],[14.472699,53.437264],[14.472699,53.437264],[14.472699,53.437264],[14.472699,53.437264],[14.472699,53.437264],[14.472699,53.437264],[14.472699,53.437264],[14.472699,53.437264],[14.468366,53.4371],[14.468366,53.4371],[14.468366,53.4371],[14.46596,53.439258],[14.46596,53.439258],[14.46596,53.439258],[14.46596,53.439258],[14.46596,53.439258],[14.46596,53.439258],[14.46596,53.439258],[14.46596,53.439258],[14.46596,53.439258],[14.46596,53.439258],[14.46596,53.439258],[14.46596,53.439258],[14.461627,53.439093],[14.461627,53.439093],[14.461627,53.439093],[14.459221,53.441252],[14.459221,53.441252],[14.459221,53.441252],[14.459221,53.441252],[14.459221,53.441252],[14.459221,53.441252],[14.459221,53.441252],[14.459221,53.441252],[14.459221,53.441252],[14.459221,53.441252],[14.459221,53.441252],[14.459221,53.441252],[14.454887,53.441087],[14.454887,53.441087],[14.454887,53.441087],[14.454887,53.441087],[14.454887,53.441087],[14.454887,53.441086],[14.454887,53.441086],[14.454887,53.441086],[14.454887,53.441086],[14.454887,53.441086],[14.454887,53.441086],[14.454887,53.441086],[14.45296,53.438763],[14.45296,53.438763],[14.45296,53.438763],[14.448627,53.438598],[14.448627,53.438598],[14.448627,53.438598],[14.44622,53.440756],[14.44622,53.440756]]]}}]}