{"type":"FeatureCollection","name":"gdansk_hex_boundary","crs":{"type":"name","properties":{"name":"urn:ogc:def:crs:OGC:1.3:CRS84"}},"features":[{"type":"Feature","properties":{"name":"gdansk"},"geometry":{"type":"Polygon","coordinates":[[[18.42954,54.381928],[18.42954,54.381928],[18.431732,54.384185],[18.431732,54.384185],[18.431732,54.384185],[18.431732,54.384185],[18.431732,54.384185],[18.431732,54.384185],[18.431732,54.384185],[18.431732,54.384185],[18.431732,54.384185],[18.431732,54.384185],[18.431732,54.384185],[18.431732,54.384185],[18.429478,54.386422],[18.429478,54.386422],[18.429478,54.386422],[18.43167,54.38868],[18.43167,54.38868],[18.43167,54.38868],[18.436117,54.388701],[18.436117,54.388701],[18.436117,54.388701],[18.436117,54.388701],[18.436117,54.388701],[18.436117,54.388701],[18.436117,54.388701],[18.436117,54.388701],[18.436117,54.388701],[18.436117,54.388701],[18.436117,54.388701],[18.436117,54.388701],[18.438309,54.390959],[18.438309,54.390959],[18.438309,54.390959],[18.442756,54.390979],[18.442756,54.390979],[18.442756,54.390979],[18.442756,54.390979],[18.442756,54.390979],[18.442756,54.390979],[18.442756,54.390979],[18.442756,54.390979],[18.442756,54.390979],[18.442756,54.390979],[18.442756,54.390979],[18.442756,54.390979],[18.444949,54.393237],[18.444949,54.393237],[18.444949,54.393237],[18.444949,54.393237],[18.444949,54.393237],[18.444949,54.393237],[18.444949,54.393237],[18.444949,54.393237],[18.444949,54.393237],[18.444949,54.393237],[18.444949,54.393237],[18.444949,54.393237],[18.442695,54.395474],[18.442695,54.395474],[18.442695,54.395474],[18.444888,54.397732],[18.444888,54.397732],[18.444888,54.397732],[18.449336,54.397752],[18.449336,54.397752],[18.449336,54.397752],[18.449336,54.397752],[18.449336,54.397752],[18.449336,54.397752],[18.449336,54.397752],[18.449336,54.397752],[18.449336,54.397752],[18.449336,54.397752],[18.449336,54.397752],[18.449336,54.397752],[18.45153,54.40001],[18.45153,54.40001],[18.45153,54.40001],[18.455977,54.40003],[18.455977,54.40003],[18.455978,54.40003],[18.455978,54.40003],[18.455978,54.40003],[18.455978,54.40003],[18.455978,54.40003],[18.455978,54.40003],[18.455978,54.40003],[18.455978,54.40003],[18.455978,54.40003],[18.455978,54.40003],[18.458172,54.402287],[18.458172,54.402287],[18.458172,54.402287],[18.46262,54.402307],[18.46262,54.402307],[18.46262,54.402307],[18.46262,54.402307],[18.46262,54.402307],[18.46262,54.402307],[18.46262,54.402307],[18.46262,54.402307],[18.46262,54.402307],[18.46262,54.402307],[18.46262,54.402307],[18.46262,54.402307],[18.464815,54.404564],[18.464815,54.404564],[18.464815,54.404564],[18.464815,54.404564],[18.464815,54.404564],[18.464815,54.404564],[18.464815,54.404564],[18.464815,54.404564],[18.464815,54.404564],[18.464815,54.404564],[18.464815,54.404564],[18.464815,54.404564],[18.462561,54.406802],[18.462561,54.406802],[18.462561,54.406802],[18.462561,54.406802],[18.462561,54.406802],[18.462561,54.406802],[18.462561,54.406802],[18.462561,54.406802],[18.462561,54.406802],[18.462561,54.406802],[18.462561,54.406802],[18.462561,54.406802],[18.458113,54.406782],[18.458113,54.406782],[18.458113,54.406782],[18.458113,54.406782],[18.458113,54.406782],[18.458113,54.406782],[18.458113,54.406782],[18.458113,54.406782],[18.458113,54.406782],[18.458113,54.406782],[18.458113,54.406782],[18.458113,54.406782],[18.455918,54.404525],[18.455918,54.404525],[18.455918,54.404525],[18.45147,54.404505],[18.45147,54.404505],[18.45147,54.404505],[18.449216,54.406742],[18.449216,54.406742],[18.449216,54.406742],[18.449216,54.406742],[18.449216,54.406742],[18.449216,54.406742],[18.449216,54.406742],[18.449216,54.406742],[18.449216,54.406742],[18.449215,54.406742],[18.449215,54.406742],[18.449215,54.406742],[18.444767,54.406721],[18.444767,54.406721],[18.444767,54.406721],[18.444767,54.406721],[18.444767,54.406721],[18.444767,54.406721],[18.444767,54.406721],[18.444767,54.406721],[18.444767,54.406721],[18.444767,54.406721],[18.444767,54.406721],[18.444767,54.406721],[18.442573,54.404464],[18.442573,54.404464],[18.442573,54.404464],[18.438125,54.404443],[18.438125,54.404443],[18.438125,54.404443],[18.43587,54.40668],[18.43587,54.40668],[18.43587,54.40668],[18.438064,54.408938],[18.438064,54.408938],[18.438064,54.408938],[18.438064,54.408938],[18.438064,54.408938],[18.438064,54.408938],[18.438064,54.408938],[18.438064,54.408938],[18.438064,54.408938],[18.438064,54.408938],[18.438064,54.408938],[18.438063,54.408938],[18.435808,54.411175],[18.435808,54.411175],[18.435808,54.411175],[18.438002,54.413433],[18.438002,54.413433],[18.438002,54.413433],[18.442451,54.413453],[18.442451,54.413453],[18.442451,54.413453],[18.442451,54.413453],[18.442451,54.413453],[18.442451,54.413453],[18.442451,54.413453],[18.442451,54.413453],[18.442451,54.413453],[18.442451,54.413453],[18.442451,54.413453],[18.442451,54.413453],[18.444646,54.415711],[18.444646,54.415711],[18.444646,54.415711],[18.444646,54.415711],[18.444646,54.415711],[18.444646,54.415711],[18.444646,54.415711],[18.444646,54.415711],[18.444646,54.415711],[18.444646,54.415711],[18.444646,54.415711],[18.444646,54.415711],[18.44239,54.417948],[18.44239,54.417948],[18.44239,54.417948],[18.44239,54.417948],[18.44239,54.417948],[18.44239,54.417948],[18.44239,54.417948],[18.44239,54.417948],[18.44239,54.417948],[18.44239,54.417948],[18.44239,54.417948],[18.44239,54.417948],[18.437941,54.417928],[18.437941,54.417928],[18.437941,54.417928],[18.435685,54.420165],[18.435685,54.420165],[18.435685,54.420165],[18.437879,54.422422],[18.437879,54.422422],[18.437879,54.422422],[18.442329,54.422443],[18.442329,54.422443],[18.442329,54.422443],[18.442329,54.422443],[18.442329,54.422443],[18.442329,54.422443],[18.442329,54.422443],[18.442329,54.422443],[18.442329,54.422443],[18.442329,54.422443],[18.442329,54.422443],[18.442329,54.422443],[18.444524,54.424701],[18.444524,54.424701],[18.444524,54.424701],[18.448974,54.424721],[18.448974,54.424721],[18.448974,54.424721],[18.448974,54.424721],[18.448974,54.424721],[18.448974,54.424721],[18.448974,54.424721],[18.448974,54.424721],[18.448975,54.424721],[18.448975,54.424721],[18.448975,54.424721],[18.448975,54.424721],[18.45117,54.426978],[18.45117,54.426978],[18.45117,54.426978],[18.45117,54.426978],[18.45117,54.426979],[18.45117,54.426979],[18.45117,54.426979],[18.45117,54.426979],[18.45117,54.426979],[18.45117,54.426979],[18.45117,54.426979],[18.45117,54.426979],[18.448914,54.429216],[18.448914,54.429216],[18.448914,54.429216],[18.45111,54.431473],[18.45111,54.431473],[18.45111,54.431473],[18.45111,54.431473],[18.45111,54.431473],[18.45111,54.431473],[18.45111,54.431473],[18.45111,54.431473],[18.45111,54.431473],[18.45111,54.431473],[18.45111,54.431473],[18.45111,54.431473],[18.448854,54.433711],[18.448854,54.433711],[18.448854,54.433711],[18.448854,54.433711],[18.448854,54.433711],[18.448854,54.433711],[18.448854,54.433711],[18.448854,54.433711],[18.448854,54.433711],[18.448854,54.433711],[18.448854,54.433711],[18.448854,54.433711],[18.444402,54.43369],[18.444402,54.43369],[18.444402,54.43369],[18.442146,54.435927],[18.442146,54.435927],[18.442146,54.435927],[18.442146,54.435927],[18.442146,54.435927],[18.442146,54.435927],[18.442146,54.435927],[18.442146,54.435927],[18.442146,54.435927],[18.442146,54.435927],[18.442146,54.435927],[18.442146,54.435927],[18.437695,54.435907],[18.437694,54.435907],[18.437694,54.435907],[18.435438,54.438144],[18.435438,54.438144],[18.435438,54.438144],[18.437633,54.440401],[18.437633,54.440401],[18.437633,54.440401],[18.442085,54.440422],[18.442085,54.440422],[18.442085,54.440422],[18.442085,54.440422],[18.442085,54.440422],[18.442085,54.440422],[18.442085,54.440422],[18.442085,54.440422],[18.442085,54.440422],[18.442085,54.440422],[18.442085,54.440422],[18.442085,54.440422],[18.444281,54.44268],[18.444281,54.44268],[18.444281,54.44268],[18.448733,54.4427],[18.448733,54.4427],[18.448733,54.4427],[18.448733,54.4427],[18.448733,54.4427],[18.448733,54.4427],[18.448733,54.4427],[18.448733,54.4427],[18.448733,54.4427],[18.448733,54.4427],[18.448733,54.4427],[18.448733,54.4427],[18.450929,54.444958],[18.450929,54.444958],[18.450929,54.444958],[18.455382,54.444978],[18.455382,54.444978],[18.455382,54.444978],[18.455382,54.444978],[18.455382,54.444978],[18.455382,54.444978],[18.455382,54.444978],[18.455382,54.444978],[18.455382,54.444978],[18.455382,54.444978],[18.455382,54.444978],[18.455382,54.444978],[18.457579,54.447235],[18.457579,54.447235],[18.457579,54.447235],[18.462032,54.447255],[18.462032,54.447255],[18.462032,54.447255],[18.464287,54.445018],[18.464287,54.445018],[18.464287,54.445018],[18.464287,54.445018],[18.464287,54.445018],[18.464287,54.445018],[18.464287,54.445018],[18.464287,54.445018],[18.464287,54.445018],[18.464287,54.445018],[18.464287,54.445018],[18.464287,54.445018],[18.46874,54.445037],[18.46874,54.445037],[18.46874,54.445037],[18.470995,54.4428],[18.470995,54.4428],[18.470995,54.4428],[18.468798,54.440542],[18.468798,54.440542],[18.468798,54.440542],[18.468798,54.440542],[18.468798,54.440542],[18.468798,54.440542],[18.468798,54.440542],[18.468798,54.440542],[18.468798,54.440542],[18.468798,54.440542],[18.468798,54.440542],[18.468798,54.440542],[18.471053,54.438305],[18.471053,54.438305],[18.471053,54.438305],[18.471053,54.438305],[18.471053,54.438305],[18.471053,54.438305],[18.471053,54.438305],[18.471053,54.438305],[18.471053,54.438305],[18.471053,54.438305],[18.471053,54.438305],[18.471053,54.438305],[18.475505,54.438324],[18.475505,54.438324],[18.475505,54.438324],[18.47776,54.436087],[18.47776,54.436087],[18.47776,54.436087],[18.47776,54.436086],[18.47776,54.436086],[18.47776,54.436086],[18.47776,54.436086],[18.47776,54.436086],[18.47776,54.436086],[18.47776,54.436086],[18.47776,54.436086],[18.47776,54.436086],[18.482211,54.436106],[18.482211,54.436106],[18.482211,54.436106],[18.482211,54.436106],[18.482211,54.436106],[18.482211,54.436106],[18.482211,54.436106],[18.482211,54.436106],[18.482211,54.436106],[18.482212,54.436106],[18.482212,54.436106],[18.482212,54.436106],[18.484409,54.438363],[18.484409,54.438363],[18.484409,54.438363],[18.488861,54.438381],[18.488861,54.438381],[18.488861,54.438381],[18.491115,54.436143],[18.491115,54.436143],[18.491115,54.436143],[18.488917,54.433887],[18.488917,54.433887],[18.488917,54.433887],[18.488917,54.433887],[18.488917,54.433887],[18.488917,54.433887],[18.488917,54.433887],[18.488917,54.433887],[18.488917,54.433887],[18.488917,54.433887],[18.488917,54.433887],[18.488917,54.433887],[18.491171,54.431649],[18.491171,54.431649],[18.491171,54.431649],[18.491171,54.431649],[18.491171,54.431649],[18.491171,54.431649],[18.491171,54.431649],[18.491171,54.431649],[18.491171,54.431649],[18.491171,54.431649],[18.491171,54.431649],[18.491171,54.431649],[18.495622,54.431667],[18.495622,54.431667],[18.495622,54.431667],[18.497875,54.429429],[18.497875,54.429429],[18.497875,54.429429],[18.497875,54.429429],[18.497875,54.429429],[18.497875,54.429429],[18.497875,54.429429],[18.497875,54.429429],[18.497875,54.429429],[18.497875,54.429429],[18.497875,54.429429],[18.497875,54.429429],[18.502326,54.429448],[18.502326,54.429448],[18.502326,54.429448],[18.504579,54.427209],[18.504579,54.427209],[18.504579,54.427209],[18.504579,54.427209],[18.504579,54.427209],[18.504579,54.427209],[18.504579,54.427209],[18.504579,54.427209],[18.504579,54.427209],[18.504579,54.427209],[18.504579,54.427209],[18.504579,54.427209],[18.509029,54.427228],[18.509029,54.427228],[18.509029,54.427228],[18.511281,54.424989],[18.511281,54.424989],[18.511282,54.424989],[18.511282,54.424989],[18.511282,54.424989],[18.511282,54.424989],[18.511282,54.424989],[18.511282,54.424989],[18.511282,54.424989],[18.511282,54.424989],[18.511282,54.424989],[18.511282,54.424989],[18.515732,54.425007],[18.515732,54.425007],[18.515732,54.425007],[18.517984,54.422769],[18.517984,54.422769],[18.517984,54.422769],[18.517984,54.422769],[18.517984,54.422769],[18.517984,54.422769],[18.517984,54.422769],[18.517984,54.422769],[18.517984,54.422769],[18.517984,54.422769],[18.517984,54.422769],[18.517984,54.422769],[18.522434,54.422786],[18.522434,54.422786],[18.522434,54.422786],[18.522434,54.422786],[18.522434,54.422786],[18.522434,54.422786],[18.522434,54.422786],[18.522434,54.422786],[18.522434,54.422786],[18.522434,54.422786],[18.522434,54.422786],[18.522434,54.422786],[18.524633,54.425042],[18.524633,54.425042],[18.524633,54.425042],[18.529084,54.42506],[18.529084,54.42506],[18.529084,54.42506],[18.529084,54.42506],[18.529084,54.42506],[18.529084,54.42506],[18.529084,54.42506],[18.529084,54.42506],[18.529084,54.42506],[18.529084,54.42506],[18.529084,54.42506],[18.529084,54.42506],[18.531283,54.427316],[18.531283,54.427316],[18.531283,54.427316],[18.535734,54.427333],[18.535734,54.427333],[18.535734,54.427333],[18.537985,54.425094],[18.537985,54.425094],[18.537985,54.425094],[18.537985,54.425094],[18.537985,54.425094],[18.537985,54.425094],[18.537985,54.425094],[18.537985,54.425094],[18.537985,54.425094],[18.537985,54.425094],[18.537985,54.425094],[18.537985,54.425094],[18.542435,54.425111],[18.542435,54.425111],[18.542435,54.425111],[18.544686,54.422872],[18.544686,54.422872],[18.544686,54.422872],[18.544686,54.422872],[18.544686,54.422872],[18.544686,54.422872],[18.544686,54.422872],[18.544686,54.422872],[18.544686,54.422872],[18.544686,54.422872],[18.544686,54.422872],[18.544686,54.422872],[18.549136,54.422889],[18.549136,54.422889],[18.549136,54.422889],[18.549136,54.422889],[18.549136,54.422889],[18.549136,54.422889],[18.549136,54.422889],[18.549136,54.422889],[18.549136,54.422889],[18.549136,54.422889],[18.549136,54.422889],[18.549136,54.422889],[18.551337,54.425145],[18.551337,54.425145],[18.551337,54.425145],[18.555787,54.425161],[18.555787,54.425161],[18.555787,54.425161],[18.555787,54.425161],[18.555787,54.425161],[18.555787,54.425161],[18.555787,54.425161],[18.555787,54.425161],[18.555787,54.425161],[18.555787,54.425161],[18.555787,54.425161],[18.555787,54.425161],[18.557988,54.427417],[18.557988,54.427417],[18.557988,54.427417],[18.562439,54.427433],[18.562439,54.427433],[18.562439,54.427433],[18.564688,54.425193],[18.564688,54.425193],[18.564688,54.425193],[18.564688,54.425193],[18.564688,54.425193],[18.564688,54.425193],[18.564688,54.425193],[18.564688,54.425193],[18.564688,54.425193],[18.564688,54.425193],[18.564688,54.425193],[18.564688,54.425193],[18.569139,54.425209],[18.569139,54.425209],[18.569139,54.425209],[18.569139,54.425209],[18.569139,54.425209],[18.569139,54.425209],[18.569139,54.425209],[18.569139,54.425209],[18.569139,54.425209],[18.569139,54.425209],[18.569139,54.425209],[18.569139,54.425209],[18.571341,54.427465],[18.571341,54.427465],[18.571341,54.427465],[18.575792,54.42748],[18.575792,54.42748],[18.575792,54.42748],[18.575792,54.42748],[18.575792,54.42748],[18.575792,54.42748],[18.575792,54.42748],[18.575792,54.42748],[18.575792,54.42748],[18.575792,54.42748],[18.575792,54.42748],[18.575792,54.42748],[18.577994,54.429736],[18.577994,54.429736],[18.577994,54.429736],[18.582445,54.429751],[18.582445,54.429751],[18.582445,54.429751],[18.582445,54.429751],[18.582445,54.429751],[18.582445,54.429751],[18.582445,54.429751],[18.582445,54.429751],[18.582445,54.429751],[18.582445,54.429751],[18.582445,54.429751],[18.582445,54.429751],[18.584648,54.432006],[18.584648,54.432006],[18.584648,54.432006],[18.589099,54.432021],[18.589099,54.432021],[18.589099,54.432021],[18.589099,54.432021],[18.589099,54.432021],[18.589099,54.432021],[18.589099,54.432021],[18.589099,54.432021],[18.589099,54.432021],[18.589099,54.432021],[18.589099,54.432021],[18.589099,54.432021],[18.591303,54.434276],[18.591303,54.434276],[18.591303,54.434276],[18.595754,54.434291],[18.595754,54.434291],[18.595754,54.434291],[18.598002,54.432051],[18.598002,54.432051],[18.598002,54.432051],[18.595798,54.429797],[18.595798,54.429797],[18.595798,54.429797],[18.595798,54.429797],[18.595798,54.429797],[18.595798,54.429796],[18.595798,54.429796],[18.595798,54.429796],[18.595798,54.429796],[18.595798,54.429796],[18.595798,54.429796],[18.595798,54.429796],[18.598046,54.427557],[18.598046,54.427557],[18.598046,54.427557],[18.598046,54.427557],[18.598046,54.427556],[18.598046,54.427556],[18.598046,54.427556],[18.598046,54.427556],[18.598046,54.427556],[18.598046,54.427556],[18.598046,54.427556],[18.598046,54.427556],[18.602497,54.427571],[18.602497,54.427571],[18.602497,54.427571],[18.604744,54.425331],[18.604744,54.425331],[18.604744,54.425331],[18.604744,54.425331],[18.604744,54.425331],[18.604744,54.425331],[18.604744,54.425331],[18.604744,54.425331],[18.604744,54.425331],[18.604744,54.425331],[18.604744,54.425331],[18.604744,54.425331],[18.609195,54.425346],[18.609195,54.425346],[18.609195,54.425346],[18.611441,54.423105],[18.611441,54.423105],[18.611441,54.423105],[18.611441,54.423105],[18.611441,54.423105],[18.611441,54.423105],[18.611441,54.423105],[18.611441,54.423105],[18.611441,54.423105],[18.611441,54.423105],[18.611441,54.423105],[18.611441,54.423105],[18.615891,54.42312],[18.615891,54.42312],[18.615891,54.42312],[18.618138,54.420879],[18.618138,54.420879],[18.618138,54.420879],[18.615934,54.418625],[18.615934,54.418625],[18.615934,54.418625],[18.615934,54.418625],[18.615934,54.418625],[18.615934,54.418625],[18.615934,54.418625],[18.615934,54.418625],[18.615934,54.418625],[18.615934,54.418625],[18.615934,54.418625],[18.615934,54.418625],[18.618179,54.416384],[18.618179,54.416384],[18.618179,54.416384],[18.618179,54.416384],[18.618179,54.416384],[18.618179,54.416384],[18.618179,54.416384],[18.618179,54.416384],[18.618179,54.416384],[18.618179,54.416384],[18.618179,54.416384],[18.618179,54.416384],[18.622629,54.416398],[18.622629,54.416398],[18.622629,54.416398],[18.624874,54.414158],[18.624874,54.414158],[18.624874,54.414158],[18.624874,54.414158],[18.624874,54.414158],[18.624874,54.414158],[18.624874,54.414158],[18.624874,54.414158],[18.624874,54.414158],[18.624874,54.414158],[18.624874,54.414158],[18.624874,54.414158],[18.629324,54.414171],[18.629324,54.414171],[18.629324,54.414171],[18.631569,54.411931],[18.631569,54.411931],[18.631569,54.411931],[18.631569,54.411931],[18.631569,54.411931],[18.631569,54.411931],[18.631569,54.411931],[18.631569,54.411931],[18.631569,54.411931],[18.631569,54.411931],[18.631569,54.411931],[18.631569,54.411931],[18.636018,54.411944],[18.636018,54.411944],[18.636018,54.411944],[18.638262,54.409704],[18.638262,54.409704],[18.638262,54.409704],[18.638262,54.409704],[18.638262,54.409704],[18.638262,54.409704],[18.638262,54.409704],[18.638262,54.409704],[18.638262,54.409704],[18.638262,54.409703],[18.638262,54.409703],[18.638262,54.409703],[18.642711,54.409717],[18.642711,54.409717],[18.642711,54.409717],[18.642711,54.409717],[18.642711,54.409717],[18.642711,54.409717],[18.642711,54.409717],[18.642711,54.409717],[18.642711,54.409717],[18.642711,54.409717],[18.642711,54.409717],[18.642711,54.409717],[18.644916,54.411971],[18.644916,54.411971],[18.644916,54.411971],[18.649365,54.411984],[18.649365,54.411984],[18.649365,54.411984],[18.651609,54.409743],[18.651609,54.409743],[18.651609,54.409743],[18.651609,54.409743],[18.651609,54.409743],[18.651609,54.409743],[18.651609,54.409743],[18.651609,54.409743],[18.651609,54.409743],[18.651609,54.409743],[18.651609,54.409743],[18.651609,54.409743],[18.656058,54.409755],[18.656058,54.409755],[18.656058,54.409755],[18.656058,54.409755],[18.656058,54.409755],[18.656058,54.409755],[18.656058,54.409755],[18.656058,54.409756],[18.656058,54.409756],[18.656058,54.409756],[18.656058,54.409756],[18.656058,54.409756],[18.658264,54.412009],[18.658264,54.412009],[18.658264,54.412009],[18.658264,54.412009],[18.658264,54.412009],[18.658264,54.412009],[18.658264,54.412009],[18.658264,54.412009],[18.658264,54.412009],[18.658264,54.412009],[18.658264,54.412009],[18.658264,54.412009],[18.65602,54.41425],[18.65602,54.41425],[18.65602,54.41425],[18.658226,54.416504],[18.658226,54.416504],[18.658226,54.416504],[18.658226,54.416504],[18.658227,54.416504],[18.658227,54.416504],[18.658227,54.416504],[18.658227,54.416504],[18.658226,54.416504],[18.658226,54.416504],[18.658226,54.416504],[18.658226,54.416504],[18.655983,54.418745],[18.655983,54.418745],[18.655983,54.418745],[18.658189,54.420999],[18.658189,54.420999],[18.658189,54.420999],[18.662639,54.421012],[18.662639,54.421012],[18.662639,54.421012],[18.664883,54.41877],[18.664883,54.41877],[18.664883,54.41877],[18.662676,54.416517],[18.662676,54.416517],[18.662676,54.416517],[18.662676,54.416517],[18.662676,54.416517],[18.662676,54.416517],[18.662676,54.416517],[18.662676,54.416517],[18.662676,54.416517],[18.662676,54.416517],[18.662676,54.416517],[18.662676,54.416517],[18.664919,54.414275],[18.664919,54.414275],[18.664919,54.414275],[18.664919,54.414275],[18.664919,54.414275],[18.664919,54.414275],[18.664919,54.414275],[18.664919,54.414275],[18.664919,54.414275],[18.664919,54.414275],[18.664919,54.414275],[18.66492,54.414275],[18.669369,54.414288],[18.669369,54.414288],[18.669369,54.414288],[18.671612,54.412046],[18.671612,54.412046],[18.671612,54.412046],[18.671612,54.412046],[18.671612,54.412046],[18.671612,54.412046],[18.671612,54.412046],[18.671612,54.412046],[18.671612,54.412046],[18.671612,54.412046],[18.671612,54.412046],[18.671612,54.412046],[18.676061,54.412058],[18.676061,54.412058],[18.676061,54.412058],[18.678303,54.409817],[18.678303,54.409817],[18.678303,54.409817],[18.678303,54.409817],[18.678303,54.409817],[18.678303,54.409817],[18.678303,54.409817],[18.678303,54.409817],[18.678303,54.409817],[18.678303,54.409817],[18.678303,54.409817],[18.678303,54.409817],[18.682752,54.409829],[18.682752,54.409829],[18.682752,54.409829],[18.684994,54.407587],[18.684994,54.407587],[18.684994,54.407587],[18.684994,54.407587],[18.684994,54.407587],[18.684994,54.407587],[18.684994,54.407587],[18.684994,54.407587],[18.684994,54.407587],[18.684994,54.407587],[18.684994,54.407587],[18.684994,54.407587],[18.689442,54.407598],[18.689442,54.407598],[18.689442,54.407598],[18.691684,54.405357],[18.691684,54.405357],[18.691684,54.405357],[18.691684,54.405357],[18.691684,54.405357],[18.691684,54.405357],[18.691684,54.405357],[18.691684,54.405357],[18.691684,54.405357],[18.691684,54.405357],[18.691684,54.405357],[18.691684,54.405357],[18.696132,54.405368],[18.696132,54.405368],[18.696132,54.405368],[18.698373,54.403126],[18.698373,54.403126],[18.698373,54.403126],[18.698373,54.403126],[18.698373,54.403126],[18.698373,54.403126],[18.698373,54.403126],[18.698373,54.403126],[18.698373,54.403126],[18.698373,54.403126],[18.698373,54.403126],[18.698373,54.403126],[18.702821,54.403137],[18.702821,54.403137],[18.702821,54.403137],[18.702821,54.403137],[18.702821,54.403137],[18.702821,54.403137],[18.702821,54.403137],[18.702821,54.403137],[18.702821,54.403137],[18.702821,54.403137],[18.702821,54.403137],[18.702821,54.403137],[18.705029,54.40539],[18.705029,54.40539],[18.705029,54.40539],[18.705029,54.40539],[18.705029,54.40539],[18.705029,54.40539],[18.705029,54.40539],[18.705029,54.40539],[18.705029,54.40539],[18.705029,54.40539],[18.705029,54.40539],[18.705029,54.40539],[18.702789,54.407632],[18.702789,54.407632],[18.702789,54.407632],[18.704997,54.409885],[18.704997,54.409885],[18.704997,54.409885],[18.709446,54.409896],[18.709446,54.409896],[18.709446,54.409896],[18.709446,54.409896],[18.709446,54.409896],[18.709446,54.409896],[18.709446,54.409896],[18.709446,54.409896],[18.709446,54.409896],[18.709446,54.409896],[18.709446,54.409896],[18.709446,54.409896],[18.711655,54.412149],[18.711655,54.412149],[18.711655,54.412149],[18.716104,54.412159],[18.716104,54.412159],[18.716104,54.412159],[18.718344,54.409917],[18.718344,54.409917],[18.718344,54.409917],[18.718344,54.409917],[18.718344,54.409917],[18.718344,54.409917],[18.718344,54.409917],[18.718344,54.409917],[18.718344,54.409917],[18.718344,54.409917],[18.718344,54.409917],[18.718344,54.409917],[18.722793,54.409927],[18.722793,54.409927],[18.722793,54.409927],[18.725033,54.407685],[18.725033,54.407685],[18.725033,54.407685],[18.725033,54.407685],[18.725033,54.407685],[18.725033,54.407685],[18.725033,54.407685],[18.725033,54.407685],[18.725033,54.407685],[18.725033,54.407685],[18.725033,54.407685],[18.725033,54.407685],[18.729481,54.407695],[18.729481,54.407695],[18.729481,54.407695],[18.73172,54.405452],[18.73172,54.405452],[18.73172,54.405452],[18.73172,54.405452],[18.73172,54.405452],[18.73172,54.405452],[18.73172,54.405452],[18.73172,54.405452],[18.73172,54.405452],[18.73172,54.405452],[18.73172,54.405452],[18.731721,54.405452],[18.736169,54.405462],[18.736169,54.405462],[18.736169,54.405462],[18.738408,54.403219],[18.738408,54.403219],[18.738408,54.403219],[18.736198,54.400967],[18.736198,54.400967],[18.736198,54.400967],[18.73175,54.400957],[18.73175,54.400957],[18.73175,54.400957],[18.73175,54.400957],[18.73175,54.400957],[18.73175,54.400957],[18.73175,54.400957],[18.73175,54.400957],[18.73175,54.400957],[18.73175,54.400957],[18.73175,54.400957],[18.73175,54.400957],[18.729541,54.398705],[18.729541,54.398705],[18.729541,54.398705],[18.729541,54.398705],[18.729541,54.398705],[18.729541,54.398705],[18.729541,54.398705],[18.729541,54.398705],[18.729541,54.398705],[18.729541,54.398705],[18.729541,54.398705],[18.729541,54.398705],[18.731779,54.396462],[18.731779,54.396462],[18.731779,54.396462],[18.731779,54.396462],[18.731779,54.396462],[18.731779,54.396462],[18.731779,54.396462],[18.731779,54.396462],[18.731779,54.396462],[18.731779,54.396462],[18.731779,54.396462],[18.731779,54.396462],[18.736227,54.396472],[18.736227,54.396472],[18.736227,54.396472],[18.738465,54.394229],[18.738465,54.394229],[18.738465,54.394229],[18.736255,54.391977],[18.736255,54.391977],[18.736255,54.391977],[18.731808,54.391967],[18.731808,54.391967],[18.731808,54.391967],[18.731808,54.391967],[18.731808,54.391967],[18.731808,54.391967],[18.731808,54.391967],[18.731808,54.391967],[18.731808,54.391967],[18.731808,54.391967],[18.731808,54.391967],[18.731808,54.391967],[18.7296,54.389715],[18.7296,54.389715],[18.7296,54.389715],[18.7296,54.389715],[18.7296,54.389715],[18.7296,54.389715],[18.7296,54.389715],[18.7296,54.389715],[18.7296,54.389715],[18.7296,54.389715],[18.7296,54.389715],[18.7296,54.389715],[18.731838,54.387472],[18.731838,54.387472],[18.731838,54.387472],[18.729629,54.38522],[18.729629,54.38522],[18.729629,54.38522],[18.725183,54.38521],[18.725183,54.38521],[18.725183,54.38521],[18.725183,54.38521],[18.725183,54.38521],[18.725183,54.38521],[18.725183,54.38521],[18.725183,54.38521],[18.725183,54.38521],[18.725183,54.38521],[18.725183,54.38521],[18.725183,54.38521],[18.722975,54.382957],[18.722975,54.382957],[18.722975,54.382957],[18.722975,54.382957],[18.722975,54.382957],[18.722975,54.382957],[18.722975,54.382957],[18.722975,54.382957],[18.722975,54.382957],[18.722975,54.382957],[18.722975,54.382957],[18.722975,54.382957],[18.725213,54.380715],[18.725213,54.380715],[18.725213,54.380715],[18.725213,54.380715],[18.725213,54.380715],[18.725213,54.380715],[18.725213,54.380715],[18.725213,54.380715],[18.725213,54.380715],[18.725213,54.380715],[18.725213,54.380715],[18.725213,54.380715],[18.729659,54.380725],[18.729659,54.380725],[18.729659,54.380725],[18.731896,54.378482],[18.731896,54.378482],[18.731896,54.378482],[18.731896,54.378482],[18.731896,54.378482],[18.731896,54.378482],[18.731896,54.378482],[18.731896,54.378482],[18.731896,54.378482],[18.731896,54.378482],[18.731896,54.378482],[18.731896,54.378482],[18.736342,54.378492],[18.736342,54.378492],[18.736342,54.378492],[18.738579,54.37625],[18.738579,54.37625],[18.738579,54.37625],[18.738579,54.37625],[18.738579,54.37625],[18.738579,54.37625],[18.738579,54.37625],[18.738579,54.37625],[18.738579,54.37625],[18.738579,54.37625],[18.738579,54.37625],[18.738579,54.37625],[18.743024,54.376259],[18.743024,54.376259],[18.743024,54.376259],[18.745261,54.374016],[18.745261,54.374016],[18.745261,54.374016],[18.745261,54.374016],[18.745261,54.374016],[18.745261,54.374016],[18.745261,54.374016],[18.745261,54.374016],[18.745261,54.374016],[18.745261,54.374016],[18.745261,54.374016],[18.745261,54.374016],[18.749706,54.374026],[18.749706,54.374026],[18.749706,54.374026],[18.749706,54.374026],[18.749706,54.374026],[18.749706,54.374026],[18.749706,54.374026],[18.749706,54.374026],[18.749706,54.374026],[18.749706,54.374026],[18.749706,54.374026],[18.749706,54.374026],[18.751915,54.376278],[18.751915,54.376278],[18.751915,54.376278],[18.756361,54.376287],[18.756361,54.376287],[18.756361,54.376287],[18.758596,54.374044],[18.758596,54.374044],[18.758596,54.374044],[18.758596,54.374044],[18.758596,54.374044],[18.758596,54.374044],[18.758596,54.374044],[18.758596,54.374044],[18.758596,54.374044],[18.758597,54.374044],[18.758597,54.374044],[18.758597,54.374044],[18.763042,54.374053],[18.763042,54.374053],[18.763042,54.374053],[18.765277,54.371809],[18.765277,54.371809],[18.765277,54.371809],[18.765277,54.371809],[18.765277,54.371809],[18.765277,54.371809],[18.765277,54.371809],[18.765277,54.371809],[18.765277,54.371809],[18.765277,54.371809],[18.765277,54.371809],[18.765277,54.371809],[18.769722,54.371818],[18.769722,54.371818],[18.769722,54.371818],[18.769722,54.371818],[18.769722,54.371818],[18.769722,54.371818],[18.769722,54.371818],[18.769722,54.371818],[18.769722,54.371818],[18.769722,54.371818],[18.769722,54.371818],[18.769722,54.371818],[18.771932,54.37407],[18.771932,54.37407],[18.771932,54.37407],[18.776377,54.374078],[18.776377,54.374078],[18.776377,54.374078],[18.776377,54.374078],[18.776377,54.374078],[18.776377,54.374078],[18.776377,54.374078],[18.776377,54.374078],[18.776377,54.374078],[18.776377,54.374078],[18.776377,54.374078],[18.776377,54.374078],[18.778588,54.37633],[18.778588,54.37633],[18.778588,54.37633],[18.783033,54.376338],[18.783033,54.376338],[18.783033,54.376338],[18.785267,54.374094],[18.785267,54.374094],[18.785267,54.374094],[18.783057,54.371843],[18.783057,54.371843],[18.783057,54.371843],[18.783057,54.371843],[18.783057,54.371843],[18.783057,54.371843],[18.783057,54.371843],[18.783057,54.371843],[18.783057,54.371843],[18.783057,54.371843],[18.783057,54.371843],[18.783057,54.371843],[18.785291,54.369599],[18.785291,54.369599],[18.785291,54.369599],[18.785291,54.369599],[18.785291,54.369599],[18.785291,54.369599],[18.785291,54.369599],[18.785291,54.369599],[18.785291,54.369599],[18.785291,54.369599],[18.785291,54.369599],[18.785291,54.369599],[18.789736,54.369607],[18.789736,54.369607],[18.789736,54.369607],[18.791969,54.367363],[18.791969,54.367363],[18.791969,54.367363],[18.791969,54.367363],[18.791969,54.367363],[18.791969,54.367363],[18.791969,54.367363],[18.791969,54.367363],[18.791969,54.367363],[18.791969,54.367363],[18.791969,54.367363],[18.791969,54.367363],[18.796414,54.367371],[18.796414,54.367371],[18.796414,54.367371],[18.796414,54.367371],[18.796414,54.367371],[18.796414,54.367371],[18.796414,54.367371],[18.796414,54.367371],[18.796414,54.367371],[18.796414,54.367371],[18.796414,54.367371],[18.796414,54.367371],[18.798625,54.369622],[18.798625,54.369622],[18.798625,54.369622],[18.80307,54.369629],[18.80307,54.369629],[18.80307,54.369629],[18.805302,54.367386],[18.805303,54.367386],[18.805303,54.367386],[18.805303,54.367386],[18.805303,54.367386],[18.805303,54.367386],[18.805303,54.367386],[18.805303,54.367386],[18.805303,54.367386],[18.805303,54.367386],[18.805303,54.367386],[18.805303,54.367386],[18.809747,54.367393],[18.809747,54.367393],[18.809747,54.367393],[18.811979,54.365149],[18.811979,54.365149],[18.811979,54.365149],[18.811979,54.365149],[18.811979,54.365149],[18.811979,54.365149],[18.811979,54.365149],[18.81198,54.365149],[18.81198,54.365149],[18.81198,54.365149],[18.81198,54.365149],[18.81198,54.365149],[18.816424,54.365155],[18.816424,54.365155],[18.816424,54.365155],[18.818656,54.362911],[18.818656,54.362911],[18.818656,54.362911],[18.818656,54.362911],[18.818656,54.362911],[18.818656,54.362911],[18.818656,54.362911],[18.818656,54.362911],[18.818656,54.362911],[18.818656,54.362911],[18.818656,54.362911],[18.818656,54.362911],[18.8231,54.362918],[18.8231,54.362918],[18.8231,54.362918],[18.825331,54.360674],[18.825331,54.360674],[18.825331,54.360674],[18.825331,54.360674],[18.825331,54.360674],[18.825331,54.360674],[18.825331,54.360674],[18.825331,54.360674],[18.825331,54.360674],[18.825331,54.360674],[18.825331,54.360674],[18.825331,54.360674],[18.829775,54.36068],[18.829775,54.36068],[18.829775,54.36068],[18.832006,54.358436],[18.832006,54.358436],[18.832006,54.358436],[18.832006,54.358436],[18.832006,54.358436],[18.832006,54.358436],[18.832006,54.358436],[18.832006,54.358436],[18.832006,54.358436],[18.832006,54.358436],[18.832006,54.358436],[18.832006,54.358436],[18.836449,54.358442],[18.836449,54.358442],[18.836449,54.358442],[18.83868,54.356197],[18.83868,54.356197],[18.83868,54.356197],[18.83868,54.356197],[18.83868,54.356197],[18.83868,54.356197],[18.83868,54.356197],[18.83868,54.356197],[18.83868,54.356197],[18.83868,54.356197],[18.83868,54.356197],[18.83868,54.356197],[18.843123,54.356203],[18.843123,54.356203],[18.843123,54.356203],[18.845353,54.353958],[18.845353,54.353958],[18.845353,54.353958],[18.845353,54.353958],[18.845353,54.353958],[18.845353,54.353958],[18.845353,54.353958],[18.845353,54.353958],[18.845353,54.353958],[18.845353,54.353958],[18.845353,54.353958],[18.845353,54.353958],[18.849796,54.353964],[18.849796,54.353964],[18.849796,54.353964],[18.849796,54.353964],[18.849796,54.353964],[18.849796,54.353964],[18.849796,54.353964],[18.849796,54.353964],[18.849796,54.353964],[18.849796,54.353964],[18.849796,54.353964],[18.849796,54.353964],[18.85201,54.356214],[18.85201,54.356214],[18.85201,54.356214],[18.856453,54.35622],[18.856453,54.35622],[18.856453,54.35622],[18.858682,54.353975],[18.858682,54.353975],[18.858682,54.353975],[18.858682,54.353975],[18.858682,54.353975],[18.858682,54.353975],[18.858682,54.353975],[18.858682,54.353975],[18.858682,54.353975],[18.858682,54.353975],[18.858682,54.353975],[18.858682,54.353975],[18.863125,54.35398],[18.863125,54.35398],[18.863125,54.35398],[18.865354,54.351735],[18.865354,54.351735],[18.865354,54.351735],[18.865354,54.351735],[18.865354,54.351735],[18.865354,54.351735],[18.865354,54.351735],[18.865354,54.351735],[18.865354,54.351735],[18.865354,54.351735],[18.865354,54.351735],[18.865354,54.351735],[18.869797,54.35174],[18.869797,54.35174],[18.869797,54.35174],[18.872025,54.349495],[18.872025,54.349495],[18.872025,54.349495],[18.872025,54.349495],[18.872025,54.349495],[18.872025,54.349495],[18.872025,54.349495],[18.872025,54.349495],[18.872025,54.349495],[18.872025,54.349495],[18.872025,54.349495],[18.872025,54.349495],[18.876468,54.349499],[18.876468,54.349499],[18.876468,54.349499],[18.876468,54.349499],[18.876468,54.349499],[18.876468,54.349499],[18.876468,54.349499],[18.876468,54.349499],[18.876468,54.349499],[18.876468,54.349499],[18.876468,54.349499],[18.876468,54.349499],[18.878682,54.351749],[18.878682,54.351749],[18.878682,54.351749],[18.883125,54.351753],[18.883125,54.351753],[18.883125,54.351753],[18.885353,54.349508],[18.885353,54.349508],[18.885353,54.349508],[18.885353,54.349508],[18.885353,54.349508],[18.885353,54.349508],[18.885353,54.349508],[18.885353,54.349508],[18.885353,54.349508],[18.885353,54.349508],[18.885353,54.349508],[18.885353,54.349508],[18.889795,54.349512],[18.889795,54.349512],[18.889795,54.349512],[18.892023,54.347267],[18.892023,54.347267],[18.892023,54.347267],[18.892023,54.347267],[18.892023,54.347267],[18.892023,54.347267],[18.892023,54.347267],[18.892023,54.347267],[18.892023,54.347267],[18.892023,54.347267],[18.892023,54.347267],[18.892023,54.347267],[18.896465,54.34727],[18.896465,54.34727],[18.896465,54.34727],[18.896465,54.34727],[18.896465,54.34727],[18.896465,54.34727],[18.896465,54.34727],[18.896465,54.34727],[18.896465,54.34727],[18.896465,54.34727],[18.896465,54.34727],[18.896465,54.34727],[18.89868,54.34952],[18.89868,54.34952],[18.898681,54.34952],[18.903123,54.349523],[18.903123,54.349523],[18.903123,54.349523],[18.905349,54.347278],[18.905349,54.347278],[18.905349,54.347278],[18.905349,54.347278],[18.905349,54.347278],[18.905349,54.347278],[18.905349,54.347278],[18.905349,54.347278],[18.90535,54.347278],[18.90535,54.347278],[18.90535,54.347278],[18.90535,54.347278],[18.909792,54.347281],[18.909792,54.347281],[18.909792,54.347281],[18.909792,54.347281],[18.909792,54.347281],[18.909792,54.347281],[18.909792,54.347281],[18.909792,54.347281],[18.909792,54.347281],[18.909792,54.347281],[18.909792,54.347281],[18.909792,54.347281],[18.912008,54.34953],[18.912008,54.34953],[18.912008,54.34953],[18.916451,54.349533],[18.916451,54.349533],[18.916451,54.349533],[18.918676,54.347287],[18.918676,54.347287],[18.918676,54.347287],[18.918676,54.347287],[18.918676,54.347287],[18.918676,54.347287],[18.918676,54.347287],[18.918676,54.347287],[18.918676,54.347287],[18.918676,54.347287],[18.918676,54.347287],[18.918676,54.347287],[18.923119,54.34729],[18.923119,54.34729],[18.923119,54.34729],[18.923119,54.34729],[18.923119,54.34729],[18.923119,54.34729],[18.923119,54.34729],[18.923119,54.34729],[18.923119,54.34729],[18.923119,54.34729],[18.923119,54.34729],[18.923119,54.34729],[18.925336,54.349539],[18.925336,54.349539],[18.925336,54.349539],[18.929778,54.349542],[18.929778,54.349542],[18.929778,54.349542],[18.929778,54.349542],[18.929778,54.349542],[18.929778,54.349542],[18.929778,54.349542],[18.929778,54.349542],[18.929778,54.349542],[18.929778,54.349542],[18.929778,54.349542],[18.929778,54.349542],[18.931996,54.351791],[18.931996,54.351791],[18.931996,54.351791],[18.936439,54.351793],[18.936439,54.351793],[18.936439,54.351793],[18.936439,54.351793],[18.936439,54.351793],[18.936439,54.351793],[18.936439,54.351793],[18.936439,54.351793],[18.936439,54.351793],[18.936439,54.351793],[18.936439,54.351793],[18.936439,54.351793],[18.938657,54.354042],[18.938657,54.354042],[18.938657,54.354042],[18.938657,54.354042],[18.938657,54.354042],[18.938657,54.354042],[18.938657,54.354042],[18.938657,54.354042],[18.938657,54.354042],[18.938657,54.354042],[18.938657,54.354042],[18.938657,54.354042],[18.936432,54.356288],[18.936432,54.356288],[18.936432,54.356288],[18.936432,54.356288],[18.936432,54.356288],[18.936432,54.356288],[18.936432,54.356288],[18.936432,54.356288],[18.936432,54.356288],[18.936432,54.356288],[18.936432,54.356288],[18.936432,54.356288],[18.931988,54.356286],[18.931988,54.356286],[18.931988,54.356286],[18.929763,54.358532],[18.929763,54.358532],[18.929763,54.358532],[18.931981,54.360781],[18.931981,54.360781],[18.931981,54.360781],[18.936425,54.360783],[18.936425,54.360783],[18.936425,54.360783],[18.936425,54.360783],[18.936425,54.360783],[18.936425,54.360783],[18.936425,54.360783],[18.936425,54.360783],[18.936425,54.360783],[18.936425,54.360783],[18.936425,54.360783],[18.936425,54.360783],[18.938643,54.363032],[18.938643,54.363032],[18.938643,54.363032],[18.943087,54.363034],[18.943087,54.363034],[18.943087,54.363034],[18.943087,54.363034],[18.943087,54.363034],[18.943087,54.363034],[18.943087,54.363034],[18.943087,54.363034],[18.943087,54.363034],[18.943087,54.363034],[18.943087,54.363034],[18.943087,54.363034],[18.945306,54.365283],[18.945306,54.365283],[18.945306,54.365283],[18.949751,54.365285],[18.949751,54.365285],[18.949751,54.365285],[18.951975,54.363038],[18.951975,54.363038],[18.951975,54.363038],[18.949756,54.36079],[18.949756,54.36079],[18.949756,54.36079],[18.949756,54.36079],[18.949756,54.36079],[18.949756,54.36079],[18.949756,54.36079],[18.949756,54.360789],[18.949756,54.360789],[18.949756,54.360789],[18.949756,54.360789],[18.949756,54.360789],[18.951981,54.358543],[18.951981,54.358543],[18.951981,54.358543],[18.949762,54.356295],[18.949762,54.356295],[18.949762,54.356295],[18.949762,54.356294],[18.949762,54.356294],[18.949762,54.356294],[18.949762,54.356294],[18.949762,54.356294],[18.949762,54.356294],[18.949762,54.356294],[18.949762,54.356294],[18.949762,54.356294],[18.951986,54.354048],[18.951986,54.354048],[18.951986,54.354048],[18.949767,54.351799],[18.949767,54.351799],[18.949767,54.351799],[18.949767,54.351799],[18.949767,54.351799],[18.949767,54.351799],[18.949767,54.351799],[18.949767,54.351799],[18.949767,54.351799],[18.949767,54.351799],[18.949767,54.351799],[18.949767,54.351799],[18.951991,54.349553],[18.951991,54.349553],[18.951991,54.349553],[18.949772,54.347304],[18.949772,54.347304],[18.949772,54.347304],[18.949772,54.347304],[18.949772,54.347304],[18.949772,54.347304],[18.949772,54.347304],[18.949772,54.347304],[18.949772,54.347304],[18.949772,54.347304],[18.949772,54.347304],[18.949772,54.347304],[18.951996,54.345058],[18.951996,54.345058],[18.951996,54.345058],[18.949778,54.342809],[18.949778,54.342809],[18.949778,54.342809],[18.945336,54.342807],[18.945336,54.342807],[18.945336,54.342807],[18.945336,54.342807],[18.945336,54.342807],[18.945336,54.342807],[18.945336,54.342807],[18.945336,54.342807],[18.945336,54.342807],[18.945336,54.342807],[18.945336,54.342807],[18.945336,54.342807],[18.943118,54.340559],[18.943118,54.340559],[18.943118,54.340559],[18.943118,54.340559],[18.943118,54.340559],[18.943118,54.340559],[18.943118,54.340559],[18.943118,54.340559],[18.943118,54.340559],[18.943118,54.340559],[18.943118,54.340559],[18.943118,54.340559],[18.945342,54.338312],[18.945342,54.338312],[18.945342,54.338312],[18.943125,54.336064],[18.943125,54.336064],[18.943125,54.336064],[18.943125,54.336064],[18.943125,54.336064],[18.943125,54.336064],[18.943125,54.336064],[18.943125,54.336064],[18.943125,54.336064],[18.943125,54.336064],[18.943125,54.336064],[18.943125,54.336064],[18.945348,54.333817],[18.945348,54.333817],[18.945348,54.333817],[18.943131,54.331569],[18.943131,54.331569],[18.943131,54.331569],[18.943131,54.331569],[18.943131,54.331569],[18.943131,54.331569],[18.943131,54.331569],[18.943131,54.331569],[18.943131,54.331569],[18.943131,54.331569],[18.943131,54.331569],[18.943131,54.331569],[18.945354,54.329322],[18.945354,54.329322],[18.945354,54.329322],[18.943137,54.327074],[18.943137,54.327074],[18.943137,54.327074],[18.943137,54.327074],[18.943137,54.327074],[18.943137,54.327074],[18.943137,54.327074],[18.943137,54.327074],[18.943137,54.327074],[18.943137,54.327074],[18.943137,54.327074],[18.943137,54.327074],[18.94536,54.324827],[18.94536,54.324827],[18.94536,54.324827],[18.943143,54.322579],[18.943143,54.322579],[18.943143,54.322579],[18.938704,54.322576],[18.938704,54.322576],[18.938704,54.322576],[18.938704,54.322576],[18.938704,54.322576],[18.938704,54.322576],[18.938703,54.322576],[18.938703,54.322576],[18.938703,54.322576],[18.938703,54.322576],[18.938703,54.322576],[18.938703,54.322576],[18.936487,54.320328],[18.936487,54.320328],[18.936487,54.320328],[18.936487,54.320328],[18.936487,54.320328],[18.936487,54.320328],[18.936487,54.320328],[18.936487,54.320328],[18.936487,54.320328],[18.936487,54.320328],[18.936487,54.320328],[18.936487,54.320328],[18.93871,54.318081],[18.93871,54.318081],[18.93871,54.318081],[18.936494,54.315833],[18.936494,54.315833],[18.936494,54.315833],[18.936494,54.315833],[18.936494,54.315833],[18.936494,54.315833],[18.936494,54.315833],[18.936494,54.315833],[18.936494,54.315833],[18.936494,54.315833],[18.936494,54.315833],[18.936494,54.315833],[18.938717,54.313586],[18.938717,54.313586],[18.938717,54.313586],[18.936501,54.311338],[18.936501,54.311338],[18.936501,54.311338],[18.936501,54.311338],[18.936501,54.311338],[18.936501,54.311338],[18.936501,54.311338],[18.936501,54.311338],[18.936501,54.311338],[18.936501,54.311338],[18.936501,54.311338],[18.936501,54.311338],[18.938724,54.309091],[18.938724,54.309091],[18.938724,54.309091],[18.936508,54.306843],[18.936508,54.306843],[18.936508,54.306843],[18.936508,54.306843],[18.936508,54.306843],[18.936508,54.306843],[18.936508,54.306843],[18.936508,54.306843],[18.936508,54.306843],[18.936508,54.306843],[18.936508,54.306843],[18.936508,54.306843],[18.93873,54.304596],[18.93873,54.304596],[18.93873,54.304596],[18.936515,54.302348],[18.936515,54.302348],[18.936515,54.302348],[18.936515,54.302348],[18.936515,54.302348],[18.936515,54.302348],[18.936515,54.302347],[18.936515,54.302347],[18.936515,54.302347],[18.936515,54.302347],[18.936515,54.302347],[18.936515,54.302347],[18.938737,54.300101],[18.938737,54.300101],[18.938737,54.300101],[18.936522,54.297852],[18.936522,54.297852],[18.936522,54.297852],[18.936522,54.297852],[18.936522,54.297852],[18.936522,54.297852],[18.936522,54.297852],[18.936522,54.297852],[18.936522,54.297852],[18.936522,54.297852],[18.936522,54.297852],[18.936522,54.297852],[18.938744,54.295606],[18.938744,54.295606],[18.938744,54.295606],[18.936529,54.293357],[18.936529,54.293357],[18.936529,54.293357],[18.936529,54.293357],[18.936529,54.293357],[18.936529,54.293357],[18.936529,54.293357],[18.936529,54.293357],[18.936529,54.293357],[18.936529,54.293357],[18.936529,54.293357],[18.936529,54.293357],[18.93875,54.291111],[18.93875,54.291111],[18.93875,54.291111],[18.93875,54.291111],[18.93875,54.291111],[18.93875,54.291111],[18.93875,54.291111],[18.93875,54.291111],[18.93875,54.291111],[18.93875,54.291111],[18.93875,54.291111],[18.93875,54.291111],[18.943186,54.291113],[18.943186,54.291113],[18.943186,54.291113],[18.945408,54.288867],[18.945408,54.288867],[18.945408,54.288867],[18.943193,54.286618],[18.943193,54.286618],[18.943193,54.286618],[18.943193,54.286618],[18.943193,54.286618],[18.943193,54.286618],[18.943193,54.286618],[18.943193,54.286618],[18.943193,54.286618],[18.943193,54.286618],[18.943193,54.286618],[18.943193,54.286618],[18.945414,54.284372],[18.945414,54.284372],[18.945414,54.284371],[18.943199,54.282123],[18.943199,54.282123],[18.943199,54.282123],[18.943199,54.282123],[18.943199,54.282123],[18.943199,54.282123],[18.943199,54.282123],[18.943199,54.282123],[18.943199,54.282123],[18.943199,54.282123],[18.943199,54.282123],[18.943199,54.282123],[18.945419,54.279876],[18.945419,54.279876],[18.945419,54.279876],[18.943205,54.277628],[18.943205,54.277628],[18.943205,54.277628],[18.93877,54.277626],[18.93877,54.277626],[18.93877,54.277626],[18.936549,54.279872],[18.936549,54.279872],[18.936549,54.279872],[18.936549,54.279872],[18.936549,54.279872],[18.936549,54.279872],[18.936549,54.279872],[18.936549,54.279872],[18.936549,54.279872],[18.936549,54.279872],[18.936549,54.279872],[18.936549,54.279872],[18.932114,54.27987],[18.932114,54.27987],[18.932114,54.27987],[18.929893,54.282116],[18.929893,54.282116],[18.929893,54.282116],[18.929893,54.282116],[18.929893,54.282116],[18.929893,54.282116],[18.929893,54.282116],[18.929893,54.282116],[18.929893,54.282116],[18.929893,54.282116],[18.929893,54.282116],[18.929893,54.282116],[18.925458,54.282113],[18.925458,54.282113],[18.925458,54.282113],[18.923236,54.284359],[18.923236,54.284359],[18.923236,54.284359],[18.923236,54.284359],[18.923236,54.284359],[18.923236,54.284359],[18.923236,54.284359],[18.923236,54.284359],[18.923236,54.284359],[18.923236,54.284359],[18.923236,54.284359],[18.923236,54.284359],[18.9188,54.284357],[18.9188,54.284357],[18.9188,54.284357],[18.916578,54.286603],[18.916578,54.286603],[18.916578,54.286603],[18.918791,54.288852],[18.918791,54.288852],[18.918791,54.288852],[18.918791,54.288852],[18.918791,54.288852],[18.918791,54.288852],[18.918791,54.288852],[18.918791,54.288852],[18.918791,54.288852],[18.918791,54.288852],[18.918791,54.288852],[18.918791,54.288852],[18.916569,54.291098],[18.916569,54.291098],[18.916569,54.291098],[18.918783,54.293347],[18.918783,54.293347],[18.918783,54.293347],[18.918783,54.293347],[18.918783,54.293347],[18.918783,54.293347],[18.918783,54.293347],[18.918783,54.293347],[18.918783,54.293347],[18.918783,54.293347],[18.918783,54.293347],[18.918783,54.293347],[18.91656,54.295593],[18.91656,54.295593],[18.91656,54.295593],[18.918774,54.297842],[18.918774,54.297842],[18.918774,54.297842],[18.918774,54.297842],[18.918774,54.297842],[18.918774,54.297842],[18.918774,54.297842],[18.918774,54.297842],[18.918774,54.297842],[18.918774,54.297842],[18.918774,54.297842],[18.918774,54.297842],[18.916551,54.300088],[18.916551,54.300088],[18.916551,54.300088],[18.916551,54.300088],[18.916551,54.300088],[18.916551,54.300088],[18.916551,54.300088],[18.916551,54.300088],[18.916551,54.300088],[18.916551,54.300088],[18.916551,54.300088],[18.916551,54.300088],[18.912114,54.300085],[18.912114,54.300085],[18.912114,54.300085],[18.90989,54.302331],[18.90989,54.302331],[18.90989,54.302331],[18.912104,54.30458],[18.912104,54.30458],[18.912104,54.30458],[18.912104,54.30458],[18.912104,54.30458],[18.912104,54.30458],[18.912104,54.30458],[18.912104,54.30458],[18.912104,54.30458],[18.912104,54.30458],[18.912104,54.30458],[18.912104,54.30458],[18.90988,54.306826],[18.90988,54.306826],[18.90988,54.306826],[18.912094,54.309075],[18.912094,54.309075],[18.912094,54.309075],[18.912094,54.309075],[18.912094,54.309075],[18.912094,54.309075],[18.912094,54.309075],[18.912094,54.309075],[18.912094,54.309075],[18.912094,54.309075],[18.912094,54.309075],[18.912094,54.309075],[18.90987,54.311321],[18.90987,54.311321],[18.90987,54.311321],[18.90987,54.311321],[18.90987,54.311321],[18.90987,54.311321],[18.90987,54.311321],[18.90987,54.311321],[18.90987,54.311321],[18.90987,54.311321],[18.90987,54.311321],[18.90987,54.311321],[18.905432,54.311317],[18.905432,54.311317],[18.905432,54.311317],[18.903208,54.313563],[18.903208,54.313563],[18.903208,54.313563],[18.903208,54.313563],[18.903208,54.313563],[18.903208,54.313563],[18.903207,54.313563],[18.903207,54.313563],[18.903207,54.313563],[18.903207,54.313563],[18.903207,54.313563],[18.903207,54.313563],[18.898769,54.313559],[18.898769,54.313559],[18.898769,54.313559],[18.898769,54.313559],[18.898769,54.313559],[18.898769,54.313559],[18.898769,54.313559],[18.898769,54.313559],[18.898769,54.313559],[18.898769,54.313559],[18.898769,54.313559],[18.898769,54.313559],[18.896555,54.31131],[18.896555,54.31131],[18.896555,54.31131],[18.892117,54.311306],[18.892117,54.311306],[18.892117,54.311306],[18.892117,54.311306],[18.892117,54.311306],[18.892117,54.311306],[18.892117,54.311306],[18.892117,54.311306],[18.892117,54.311306],[18.892117,54.311306],[18.892117,54.311306],[18.892117,54.311306],[18.889904,54.309057],[18.889904,54.309057],[18.889904,54.309057],[18.885465,54.309052],[18.885465,54.309052],[18.885465,54.309052],[18.885465,54.309052],[18.885465,54.309052],[18.885465,54.309052],[18.885465,54.309052],[18.885465,54.309052],[18.885465,54.309052],[18.885465,54.309052],[18.885465,54.309052],[18.885465,54.309052],[18.883253,54.306803],[18.883253,54.306803],[18.883253,54.306803],[18.878815,54.306798],[18.878815,54.306798],[18.878815,54.306798],[18.876589,54.309044],[18.876589,54.309044],[18.876589,54.309044],[18.876589,54.309044],[18.876589,54.309044],[18.876589,54.309044],[18.876589,54.309044],[18.876589,54.309044],[18.876589,54.309044],[18.876589,54.309044],[18.876589,54.309044],[18.876589,54.309044],[18.872151,54.309039],[18.872151,54.309039],[18.872151,54.309039],[18.869925,54.311284],[18.869925,54.311284],[18.869925,54.311284],[18.869925,54.311284],[18.869925,54.311284],[18.869925,54.311284],[18.869925,54.311284],[18.869925,54.311284],[18.869925,54.311284],[18.869925,54.311284],[18.869925,54.311284],[18.869925,54.311284],[18.865486,54.311279],[18.865486,54.311279],[18.865486,54.311279],[18.86326,54.313524],[18.86326,54.313524],[18.86326,54.313524],[18.86326,54.313524],[18.86326,54.313524],[18.86326,54.313524],[18.86326,54.313524],[18.86326,54.313524],[18.86326,54.313524],[18.86326,54.313524],[18.86326,54.313524],[18.86326,54.313524],[18.858821,54.313519],[18.858821,54.313519],[18.858821,54.313519],[18.856594,54.315764],[18.856594,54.315764],[18.856594,54.315764],[18.858806,54.318014],[18.858806,54.318014],[18.858806,54.318014],[18.858806,54.318014],[18.858806,54.318014],[18.858806,54.318014],[18.858806,54.318014],[18.858806,54.318014],[18.858806,54.318014],[18.858806,54.318014],[18.858806,54.318014],[18.858806,54.318014],[18.856578,54.320259],[18.856578,54.320259],[18.856578,54.320259],[18.856578,54.320259],[18.856578,54.320259],[18.856578,54.320259],[18.856578,54.320259],[18.856578,54.320259],[18.856578,54.320259],[18.856578,54.320259],[18.856578,54.320259],[18.856578,54.320259],[18.852139,54.320254],[18.852139,54.320254],[18.852139,54.320254],[18.849911,54.322499],[18.849911,54.322499],[18.849911,54.322499],[18.849911,54.322499],[18.849911,54.322499],[18.849911,54.322499],[18.849911,54.322499],[18.849911,54.322499],[18.849911,54.322499],[18.849911,54.322499],[18.849911,54.322499],[18.849911,54.322499],[18.845471,54.322493],[18.845471,54.322493],[18.845471,54.322493],[18.843243,54.324738],[18.843243,54.324738],[18.843243,54.324738],[18.843243,54.324738],[18.843243,54.324738],[18.843243,54.324738],[18.843243,54.324738],[18.843243,54.324738],[18.843243,54.324738],[18.843243,54.324738],[18.843243,54.324738],[18.843243,54.324738],[18.838803,54.324732],[18.838803,54.324732],[18.838803,54.324732],[18.836574,54.326976],[18.836574,54.326976],[18.836574,54.326976],[18.838785,54.329227],[18.838785,54.329227],[18.838786,54.329227],[18.838786,54.329227],[18.838786,54.329227],[18.838786,54.329227],[18.838786,54.329227],[18.838786,54.329227],[18.838786,54.329227],[18.838786,54.329227],[18.838785,54.329227],[18.838785,54.329227],[18.836556,54.331471],[18.836556,54.331471],[18.836556,54.331471],[18.836556,54.331471],[18.836556,54.331471],[18.836556,54.331471],[18.836556,54.331471],[18.836556,54.331471],[18.836556,54.331471],[18.836556,54.331471],[18.836556,54.331471],[18.836556,54.331471],[18.832116,54.331465],[18.832116,54.331465],[18.832116,54.331465],[18.829886,54.33371],[18.829886,54.33371],[18.829886,54.33371],[18.832098,54.33596],[18.832098,54.33596],[18.832098,54.33596],[18.832098,54.33596],[18.832098,54.33596],[18.832098,54.33596],[18.832098,54.33596],[18.832098,54.33596],[18.832098,54.33596],[18.832098,54.33596],[18.832098,54.33596],[18.832098,54.33596],[18.829868,54.338205],[18.829868,54.338205],[18.829868,54.338205],[18.829868,54.338205],[18.829868,54.338205],[18.829868,54.338205],[18.829868,54.338205],[18.829868,54.338205],[18.829868,54.338205],[18.829868,54.338205],[18.829868,54.338205],[18.829868,54.338205],[18.825426,54.338198],[18.825426,54.338198],[18.825426,54.338198],[18.823196,54.340443],[18.823196,54.340443],[18.823196,54.340443],[18.823196,54.340443],[18.823196,54.340443],[18.823196,54.340443],[18.823196,54.340443],[18.823196,54.340443],[18.823196,54.340443],[18.823196,54.340443],[18.823196,54.340443],[18.823196,54.340443],[18.818755,54.340436],[18.818755,54.340436],[18.818755,54.340436],[18.816524,54.34268],[18.816524,54.34268],[18.816524,54.34268],[18.816524,54.34268],[18.816524,54.34268],[18.816524,54.34268],[18.816524,54.34268],[18.816524,54.34268],[18.816524,54.34268],[18.816524,54.34268],[18.816524,54.34268],[18.816524,54.34268],[18.812082,54.342673],[18.812082,54.342673],[18.812082,54.342673],[18.809851,54.344917],[18.809851,54.344917],[18.809851,54.344918],[18.809851,54.344918],[18.809851,54.344918],[18.809851,54.344918],[18.809851,54.344918],[18.809851,54.344918],[18.809851,54.344918],[18.809851,54.344918],[18.809851,54.344918],[18.809851,54.344918],[18.805409,54.34491],[18.805409,54.34491],[18.805409,54.34491],[18.805409,54.34491],[18.805409,54.34491],[18.805409,54.34491],[18.805409,54.34491],[18.805409,54.34491],[18.805409,54.34491],[18.805409,54.34491],[18.805409,54.34491],[18.805409,54.34491],[18.803199,54.342659],[18.803199,54.342659],[18.803198,54.342659],[18.798757,54.342652],[18.798757,54.342652],[18.798757,54.342652],[18.796525,54.344896],[18.796525,54.344896],[18.796525,54.344896],[18.796525,54.344896],[18.796525,54.344896],[18.796525,54.344896],[18.796525,54.344896],[18.796525,54.344896],[18.796525,54.344896],[18.796525,54.344896],[18.796525,54.344896],[18.796525,54.344896],[18.792083,54.344888],[18.792083,54.344888],[18.792083,54.344888],[18.792083,54.344888],[18.792083,54.344888],[18.792083,54.344888],[18.792083,54.344888],[18.792083,54.344888],[18.792083,54.344888],[18.792083,54.344888],[18.792083,54.344888],[18.792083,54.344888],[18.789873,54.342637],[18.789873,54.342637],[18.789873,54.342637],[18.789873,54.342637],[18.789873,54.342637],[18.789873,54.342637],[18.789873,54.342637],[18.789873,54.342637],[18.789873,54.342637],[18.789873,54.342637],[18.789873,54.342637],[18.789873,54.342637],[18.792105,54.340393],[18.792105,54.340393],[18.792105,54.340393],[18.789896,54.338142],[18.789896,54.338142],[18.789896,54.338142],[18.785455,54.338134],[18.785455,54.338134],[18.785455,54.338134],[18.785455,54.338134],[18.785455,54.338134],[18.785455,54.338134],[18.785455,54.338134],[18.785455,54.338134],[18.785455,54.338134],[18.785455,54.338134],[18.785455,54.338134],[18.785455,54.338134],[18.783246,54.335883],[18.783246,54.335883],[18.783246,54.335883],[18.778805,54.335875],[18.778805,54.335875],[18.778805,54.335874],[18.778805,54.335874],[18.778805,54.335874],[18.778805,54.335874],[18.778805,54.335874],[18.778805,54.335874],[18.778805,54.335874],[18.778805,54.335874],[18.778805,54.335874],[18.778805,54.335874],[18.776597,54.333623],[18.776597,54.333623],[18.776597,54.333623],[18.772156,54.333615],[18.772156,54.333615],[18.772156,54.333615],[18.772156,54.333615],[18.772156,54.333615],[18.772156,54.333615],[18.772156,54.333615],[18.772156,54.333615],[18.772156,54.333615],[18.772156,54.333615],[18.772156,54.333615],[18.772156,54.333615],[18.769948,54.331363],[18.769948,54.331363],[18.769948,54.331363],[18.765508,54.331354],[18.765508,54.331354],[18.765507,54.331354],[18.765507,54.331354],[18.765507,54.331354],[18.765507,54.331354],[18.765507,54.331354],[18.765507,54.331354],[18.765507,54.331354],[18.765507,54.331354],[18.765507,54.331354],[18.765507,54.331354],[18.7633,54.329102],[18.7633,54.329102],[18.7633,54.329102],[18.75886,54.329094],[18.75886,54.329094],[18.75886,54.329094],[18.756626,54.331337],[18.756626,54.331337],[18.756626,54.331337],[18.756626,54.331337],[18.756626,54.331337],[18.756626,54.331337],[18.756626,54.331337],[18.756626,54.331337],[18.756626,54.331337],[18.756626,54.331337],[18.756626,54.331337],[18.756626,54.331337],[18.752186,54.331328],[18.752186,54.331328],[18.752186,54.331328],[18.749952,54.333571],[18.749952,54.333571],[18.749952,54.333571],[18.749952,54.333571],[18.749952,54.333571],[18.749952,54.333571],[18.749952,54.333571],[18.749952,54.333571],[18.749952,54.333571],[18.749952,54.333571],[18.749952,54.333571],[18.749952,54.333571],[18.745511,54.333561],[18.745511,54.333561],[18.745511,54.333561],[18.743277,54.335804],[18.743277,54.335804],[18.743277,54.335804],[18.745483,54.338056],[18.745483,54.338056],[18.745483,54.338056],[18.745483,54.338056],[18.745483,54.338056],[18.745483,54.338056],[18.745483,54.338056],[18.745483,54.338056],[18.745483,54.338056],[18.745483,54.338056],[18.745483,54.338056],[18.745483,54.338056],[18.743249,54.340299],[18.743249,54.340299],[18.743249,54.340299],[18.743249,54.340299],[18.743249,54.340299],[18.743249,54.340299],[18.743249,54.340299],[18.743249,54.340299],[18.743249,54.340299],[18.743249,54.340299],[18.743249,54.340299],[18.743249,54.340299],[18.738807,54.34029],[18.738807,54.34029],[18.738807,54.34029],[18.738807,54.34029],[18.738807,54.34029],[18.738807,54.34029],[18.738807,54.34029],[18.738807,54.34029],[18.738807,54.34029],[18.738807,54.34029],[18.738807,54.34029],[18.738807,54.34029],[18.736601,54.338037],[18.736601,54.338037],[18.736601,54.338037],[18.73216,54.338028],[18.73216,54.338028],[18.73216,54.338028],[18.73216,54.338028],[18.73216,54.338028],[18.73216,54.338028],[18.73216,54.338028],[18.73216,54.338028],[18.73216,54.338028],[18.73216,54.338027],[18.73216,54.338027],[18.73216,54.338027],[18.729954,54.335775],[18.729954,54.335775],[18.729954,54.335775],[18.725513,54.335765],[18.725513,54.335765],[18.725513,54.335765],[18.725513,54.335765],[18.725513,54.335765],[18.725513,54.335765],[18.725513,54.335765],[18.725513,54.335765],[18.725513,54.335765],[18.725513,54.335765],[18.725513,54.335765],[18.725513,54.335765],[18.723307,54.333513],[18.723307,54.333513],[18.723307,54.333513],[18.723307,54.333513],[18.723307,54.333512],[18.723307,54.333512],[18.723307,54.333512],[18.723307,54.333512],[18.723307,54.333512],[18.723307,54.333512],[18.723307,54.333512],[18.723307,54.333512],[18.725543,54.33127],[18.725543,54.33127],[18.725543,54.33127],[18.723337,54.329017],[18.723337,54.329017],[18.723337,54.329017],[18.718897,54.329007],[18.718897,54.329007],[18.718897,54.329007],[18.718897,54.329007],[18.718897,54.329007],[18.718897,54.329007],[18.718897,54.329007],[18.718897,54.329007],[18.718897,54.329007],[18.718897,54.329007],[18.718897,54.329007],[18.718897,54.329007],[18.716693,54.326755],[18.716692,54.326755],[18.716692,54.326755],[18.716692,54.326755],[18.716692,54.326755],[18.716692,54.326755],[18.716692,54.326755],[18.716692,54.326755],[18.716692,54.326754],[18.716692,54.326754],[18.716692,54.326754],[18.716693,54.326754],[18.718928,54.324512],[18.718928,54.324512],[18.718928,54.324512],[18.716723,54.32226],[18.716723,54.32226],[18.716723,54.32226],[18.716723,54.32226],[18.716723,54.32226],[18.716723,54.32226],[18.716723,54.32226],[18.716723,54.322259],[18.716723,54.322259],[18.716723,54.322259],[18.716723,54.322259],[18.716723,54.322259],[18.718958,54.320017],[18.718958,54.320017],[18.718958,54.320017],[18.716754,54.317764],[18.716754,54.317764],[18.716754,54.317764],[18.712315,54.317754],[18.712315,54.317754],[18.712315,54.317754],[18.712315,54.317754],[18.712315,54.317754],[18.712315,54.317754],[18.712315,54.317754],[18.712315,54.317754],[18.712315,54.317754],[18.712315,54.317754],[18.712315,54.317754],[18.712315,54.317754],[18.710111,54.315501],[18.710111,54.315501],[18.710111,54.315501],[18.710111,54.315501],[18.710111,54.315501],[18.710111,54.315501],[18.710111,54.315501],[18.710111,54.315501],[18.710111,54.315501],[18.710111,54.315501],[18.710111,54.315501],[18.710111,54.315501],[18.712347,54.313259],[18.712347,54.313259],[18.712347,54.313259],[18.710143,54.311006],[18.710143,54.311006],[18.710143,54.311006],[18.705705,54.310995],[18.705705,54.310995],[18.705705,54.310995],[18.705705,54.310995],[18.705705,54.310995],[18.705705,54.310995],[18.705705,54.310995],[18.705705,54.310995],[18.705705,54.310995],[18.705705,54.310995],[18.705705,54.310995],[18.705705,54.310995],[18.703502,54.308742],[18.703502,54.308742],[18.703502,54.308742],[18.699064,54.308731],[18.699064,54.308731],[18.699064,54.308731],[18.696828,54.310973],[18.696828,54.310973],[18.696828,54.310973],[18.696828,54.310973],[18.696828,54.310973],[18.696828,54.310973],[18.696828,54.310973],[18.696828,54.310973],[18.696828,54.310973],[18.696828,54.310973],[18.696828,54.310973],[18.696828,54.310973],[18.69239,54.310962],[18.69239,54.310962],[18.69239,54.310962],[18.69239,54.310962],[18.69239,54.310962],[18.69239,54.310962],[18.69239,54.310962],[18.69239,54.310962],[18.69239,54.310962],[18.69239,54.310962],[18.69239,54.310962],[18.69239,54.310962],[18.690187,54.308709],[18.690187,54.308709],[18.690187,54.308709],[18.690187,54.308709],[18.690187,54.308709],[18.690187,54.308709],[18.690187,54.308709],[18.690187,54.308709],[18.690187,54.308709],[18.690187,54.308709],[18.690187,54.308709],[18.690187,54.308709],[18.692423,54.306467],[18.692423,54.306467],[18.692423,54.306467],[18.690221,54.304214],[18.690221,54.304214],[18.690221,54.304214],[18.690221,54.304214],[18.690221,54.304214],[18.690221,54.304214],[18.690221,54.304214],[18.690221,54.304214],[18.690221,54.304214],[18.690221,54.304214],[18.690221,54.304214],[18.690221,54.304214],[18.692457,54.301972],[18.692457,54.301972],[18.692457,54.301972],[18.690255,54.299719],[18.690255,54.299719],[18.690255,54.299719],[18.685818,54.299708],[18.685818,54.299708],[18.685818,54.299708],[18.685818,54.299708],[18.685818,54.299708],[18.685818,54.299708],[18.685818,54.299708],[18.685818,54.299707],[18.685818,54.299707],[18.685818,54.299707],[18.685818,54.299707],[18.685818,54.299707],[18.683616,54.297454],[18.683616,54.297454],[18.683616,54.297454],[18.67918,54.297442],[18.67918,54.297442],[18.67918,54.297442],[18.67918,54.297442],[18.67918,54.297442],[18.67918,54.297442],[18.67918,54.297442],[18.67918,54.297442],[18.67918,54.297442],[18.67918,54.297442],[18.67918,54.297442],[18.67918,54.297442],[18.676979,54.295189],[18.676979,54.295189],[18.676979,54.295189],[18.672542,54.295177],[18.672542,54.295177],[18.672542,54.295177],[18.672542,54.295177],[18.672542,54.295177],[18.672542,54.295177],[18.672542,54.295177],[18.672542,54.295177],[18.672542,54.295177],[18.672542,54.295177],[18.672542,54.295177],[18.672542,54.295177],[18.670342,54.292924],[18.670342,54.292924],[18.670342,54.292924],[18.665906,54.292911],[18.665905,54.292911],[18.665905,54.292911],[18.665905,54.292911],[18.665905,54.292911],[18.665905,54.292911],[18.665905,54.292911],[18.665905,54.292911],[18.665905,54.292911],[18.665905,54.292911],[18.665905,54.292911],[18.665905,54.292911],[18.663706,54.290658],[18.663706,54.290658],[18.663706,54.290658],[18.659269,54.290645],[18.659269,54.290645],[18.659269,54.290645],[18.657033,54.292886],[18.657033,54.292886],[18.657033,54.292886],[18.657033,54.292886],[18.657033,54.292886],[18.657033,54.292886],[18.657033,54.292886],[18.657033,54.292886],[18.657033,54.292886],[18.657033,54.292886],[18.657033,54.292886],[18.657033,54.292886],[18.652596,54.292874],[18.652596,54.292874],[18.652596,54.292874],[18.652596,54.292874],[18.652596,54.292874],[18.652596,54.292874],[18.652596,54.292874],[18.652596,54.292874],[18.652596,54.292874],[18.652596,54.292874],[18.652596,54.292874],[18.652596,54.292874],[18.650397,54.29062],[18.650397,54.29062],[18.650397,54.29062],[18.645961,54.290607],[18.645961,54.290607],[18.645961,54.290607],[18.645961,54.290607],[18.645961,54.290607],[18.645961,54.290607],[18.645961,54.290607],[18.645961,54.290607],[18.645961,54.290607],[18.645961,54.290607],[18.645961,54.290607],[18.645961,54.290607],[18.643762,54.288353],[18.643762,54.288353],[18.643762,54.288353],[18.643762,54.288353],[18.643762,54.288353],[18.643762,54.288353],[18.643762,54.288353],[18.643762,54.288353],[18.643762,54.288353],[18.643762,54.288353],[18.643762,54.288353],[18.643762,54.288353],[18.646,54.286112],[18.646,54.286112],[18.646,54.286112],[18.643801,54.283858],[18.643801,54.283858],[18.643801,54.283858],[18.643801,54.283858],[18.643801,54.283858],[18.643801,54.283858],[18.643801,54.283858],[18.643801,54.283858],[18.643801,54.283858],[18.643801,54.283858],[18.643801,54.283858],[18.643801,54.283858],[18.646038,54.281617],[18.646038,54.281617],[18.646038,54.281617],[18.64384,54.279363],[18.64384,54.279363],[18.64384,54.279363],[18.64384,54.279363],[18.64384,54.279363],[18.64384,54.279363],[18.64384,54.279363],[18.64384,54.279363],[18.64384,54.279363],[18.64384,54.279363],[18.64384,54.279363],[18.64384,54.279363],[18.646077,54.277122],[18.646077,54.277122],[18.646077,54.277122],[18.643879,54.274868],[18.643879,54.274868],[18.643879,54.274868],[18.639444,54.274855],[18.639444,54.274855],[18.639444,54.274855],[18.639444,54.274855],[18.639444,54.274855],[18.639444,54.274855],[18.639444,54.274855],[18.639444,54.274855],[18.639444,54.274855],[18.639444,54.274855],[18.639444,54.274855],[18.639444,54.274855],[18.637247,54.272601],[18.637247,54.272601],[18.637247,54.272601],[18.632813,54.272587],[18.632813,54.272587],[18.632813,54.272587],[18.630575,54.274828],[18.630575,54.274828],[18.630575,54.274828],[18.630575,54.274828],[18.630575,54.274828],[18.630575,54.274828],[18.630575,54.274828],[18.630575,54.274828],[18.630575,54.274828],[18.630575,54.274828],[18.630575,54.274828],[18.630575,54.274828],[18.626141,54.274814],[18.626141,54.274814],[18.626141,54.274814],[18.626141,54.274814],[18.626141,54.274814],[18.626141,54.274814],[18.626141,54.274814],[18.626141,54.274814],[18.626141,54.274814],[18.626141,54.274814],[18.626141,54.274814],[18.626141,54.274814],[18.623944,54.27256],[18.623944,54.27256],[18.623944,54.27256],[18.61951,54.272546],[18.61951,54.272546],[18.61951,54.272546],[18.617272,54.274786],[18.617272,54.274786],[18.617272,54.274786],[18.617272,54.274786],[18.617272,54.274786],[18.617272,54.274786],[18.617272,54.274786],[18.617272,54.274786],[18.617272,54.274786],[18.617272,54.274786],[18.617272,54.274786],[18.617272,54.274786],[18.612838,54.274772],[18.612838,54.274772],[18.612838,54.274772],[18.610599,54.277012],[18.610599,54.277012],[18.610599,54.277013],[18.610599,54.277013],[18.610599,54.277013],[18.610599,54.277013],[18.610599,54.277013],[18.610599,54.277013],[18.610599,54.277013],[18.610599,54.277013],[18.610599,54.277013],[18.610599,54.277013],[18.606165,54.276998],[18.606165,54.276998],[18.606165,54.276998],[18.603926,54.279238],[18.603926,54.279238],[18.603926,54.279238],[18.603926,54.279238],[18.603926,54.279238],[18.603926,54.279238],[18.603926,54.279238],[18.603926,54.279238],[18.603926,54.279238],[18.603926,54.279238],[18.603926,54.279238],[18.603926,54.279238],[18.599491,54.279224],[18.599491,54.279224],[18.599491,54.279224],[18.597252,54.281464],[18.597252,54.281464],[18.597252,54.281464],[18.599447,54.283719],[18.599447,54.283719],[18.599447,54.283719],[18.599447,54.283719],[18.599447,54.283719],[18.599447,54.283719],[18.599447,54.283719],[18.599447,54.283719],[18.599447,54.283719],[18.599447,54.283719],[18.599447,54.283719],[18.599447,54.283719],[18.597208,54.285959],[18.597208,54.285959],[18.597208,54.285959],[18.599404,54.288214],[18.599404,54.288214],[18.599404,54.288214],[18.60384,54.288228],[18.60384,54.288228],[18.60384,54.288228],[18.60384,54.288228],[18.60384,54.288228],[18.60384,54.288228],[18.60384,54.288228],[18.60384,54.288228],[18.60384,54.288228],[18.60384,54.288228],[18.60384,54.288228],[18.60384,54.288228],[18.606036,54.290483],[18.606036,54.290483],[18.606036,54.290483],[18.606036,54.290483],[18.606036,54.290483],[18.606036,54.290483],[18.606036,54.290483],[18.606036,54.290483],[18.606036,54.290483],[18.606036,54.290483],[18.606036,54.290483],[18.606036,54.290483],[18.603797,54.292723],[18.603797,54.292723],[18.603797,54.292723],[18.603797,54.292723],[18.603797,54.292723],[18.603797,54.292723],[18.603797,54.292723],[18.603797,54.292723],[18.603797,54.292723],[18.603796,54.292723],[18.603796,54.292723],[18.603796,54.292723],[18.59936,54.292709],[18.59936,54.292709],[18.59936,54.292709],[18.59712,54.294949],[18.59712,54.294949],[18.59712,54.294949],[18.599317,54.297204],[18.599317,54.297204],[18.599317,54.297204],[18.599317,54.297204],[18.599317,54.297204],[18.599317,54.297204],[18.599317,54.297204],[18.599317,54.297204],[18.599317,54.297204],[18.599317,54.297204],[18.599317,54.297204],[18.599317,54.297204],[18.597076,54.299444],[18.597076,54.299444],[18.597076,54.299444],[18.599273,54.301699],[18.599273,54.301699],[18.599273,54.301699],[18.599273,54.301699],[18.599273,54.301699],[18.599273,54.301699],[18.599273,54.301699],[18.599273,54.301699],[18.599273,54.301699],[18.599273,54.301699],[18.599273,54.301699],[18.599273,54.301699],[18.597032,54.303939],[18.597032,54.303939],[18.597032,54.303939],[18.597032,54.303939],[18.597032,54.303939],[18.597032,54.303939],[18.597032,54.303939],[18.597032,54.303939],[18.597032,54.303939],[18.597032,54.303939],[18.597032,54.303939],[18.597032,54.303939],[18.592595,54.303924],[18.592595,54.303924],[18.592595,54.303924],[18.592595,54.303924],[18.592595,54.303924],[18.592595,54.303924],[18.592595,54.303924],[18.592595,54.303924],[18.592595,54.303924],[18.592595,54.303924],[18.592595,54.303924],[18.592595,54.303924],[18.590398,54.301669],[18.590398,54.301669],[18.590398,54.301669],[18.585961,54.301654],[18.585961,54.301654],[18.585961,54.301654],[18.585961,54.301654],[18.585961,54.301654],[18.585961,54.301654],[18.585961,54.301654],[18.585961,54.301654],[18.585961,54.301654],[18.585961,54.301654],[18.585961,54.301654],[18.585961,54.301654],[18.583765,54.299399],[18.583765,54.299399],[18.583765,54.299399],[18.579328,54.299383],[18.579328,54.299383],[18.579328,54.299383],[18.577087,54.301623],[18.577087,54.301623],[18.577087,54.301623],[18.577087,54.301623],[18.577087,54.301623],[18.577087,54.301623],[18.577087,54.301623],[18.577087,54.301623],[18.577087,54.301623],[18.577087,54.301623],[18.577087,54.301623],[18.577086,54.301623],[18.572649,54.301607],[18.572649,54.301607],[18.572649,54.301607],[18.570407,54.303847],[18.570407,54.303847],[18.570407,54.303847],[18.570407,54.303847],[18.570407,54.303847],[18.570407,54.303847],[18.570407,54.303847],[18.570407,54.303847],[18.570407,54.303847],[18.570407,54.303847],[18.570407,54.303847],[18.570407,54.303847],[18.56597,54.303831],[18.56597,54.303831],[18.56597,54.303831],[18.563727,54.30607],[18.563727,54.30607],[18.563727,54.30607],[18.565922,54.308326],[18.565922,54.308326],[18.565922,54.308326],[18.565922,54.308326],[18.565922,54.308326],[18.565922,54.308326],[18.565922,54.308326],[18.565922,54.308326],[18.565922,54.308326],[18.565922,54.308326],[18.565922,54.308326],[18.565922,54.308326],[18.56368,54.310565],[18.56368,54.310565],[18.56368,54.310565],[18.565875,54.312821],[18.565875,54.312821],[18.565875,54.312821],[18.565875,54.312821],[18.565875,54.312821],[18.565875,54.312821],[18.565875,54.312821],[18.565875,54.312821],[18.565875,54.312821],[18.565875,54.312821],[18.565875,54.312821],[18.565875,54.312821],[18.563632,54.31506],[18.563632,54.31506],[18.563632,54.31506],[18.563632,54.31506],[18.563632,54.31506],[18.563632,54.31506],[18.563632,54.31506],[18.563632,54.31506],[18.563632,54.31506],[18.563632,54.31506],[18.563632,54.31506],[18.563632,54.31506],[18.559194,54.315044],[18.559194,54.315044],[18.559194,54.315044],[18.559194,54.315044],[18.559194,54.315044],[18.559194,54.315044],[18.559193,54.315044],[18.559193,54.315044],[18.559193,54.315044],[18.559193,54.315044],[18.559193,54.315044],[18.559193,54.315044],[18.556998,54.312789],[18.556998,54.312789],[18.556998,54.312789],[18.55256,54.312772],[18.55256,54.312772],[18.55256,54.312772],[18.55256,54.312772],[18.55256,54.312772],[18.55256,54.312772],[18.55256,54.312772],[18.55256,54.312772],[18.55256,54.312772],[18.55256,54.312772],[18.55256,54.312772],[18.55256,54.312772],[18.550365,54.310516],[18.550365,54.310516],[18.550365,54.310516],[18.545927,54.3105],[18.545927,54.3105],[18.545927,54.3105],[18.543683,54.312739],[18.543683,54.312739],[18.543683,54.312739],[18.543683,54.312739],[18.543683,54.312739],[18.543683,54.312739],[18.543683,54.312739],[18.543683,54.312739],[18.543683,54.312739],[18.543683,54.312739],[18.543683,54.312739],[18.543683,54.312739],[18.539245,54.312722],[18.539245,54.312722],[18.539245,54.312722],[18.537,54.314961],[18.537,54.314961],[18.537,54.314961],[18.537,54.314961],[18.537,54.314961],[18.537,54.314961],[18.537,54.314961],[18.537,54.314961],[18.537,54.314961],[18.537,54.314961],[18.537,54.314961],[18.537,54.314961],[18.532561,54.314944],[18.532561,54.314944],[18.532561,54.314944],[18.530316,54.317183],[18.530316,54.317183],[18.530316,54.317183],[18.53251,54.319439],[18.53251,54.319439],[18.53251,54.319439],[18.53251,54.319439],[18.53251,54.319439],[18.53251,54.319439],[18.53251,54.319439],[18.53251,54.319439],[18.53251,54.319439],[18.53251,54.319439],[18.53251,54.319439],[18.53251,54.319439],[18.530265,54.321678],[18.530265,54.321678],[18.530265,54.321678],[18.532459,54.323934],[18.532459,54.323934],[18.532459,54.323934],[18.532459,54.323934],[18.532459,54.323934],[18.532459,54.323934],[18.532459,54.323934],[18.532459,54.323934],[18.532459,54.323934],[18.532459,54.323934],[18.532459,54.323934],[18.532459,54.323934],[18.530214,54.326173],[18.530214,54.326173],[18.530214,54.326173],[18.532408,54.328429],[18.532408,54.328429],[18.532408,54.328429],[18.532408,54.328429],[18.532408,54.328429],[18.532408,54.328429],[18.532408,54.328429],[18.532408,54.328429],[18.532408,54.328429],[18.532408,54.328429],[18.532408,54.328429],[18.532408,54.328429],[18.530163,54.330667],[18.530163,54.330667],[18.530163,54.330667],[18.530163,54.330667],[18.530163,54.330667],[18.530163,54.330667],[18.530163,54.330667],[18.530163,54.330668],[18.530163,54.330668],[18.530163,54.330668],[18.530163,54.330668],[18.530163,54.330668],[18.525722,54.33065],[18.525722,54.33065],[18.525722,54.33065],[18.523476,54.332889],[18.523476,54.332889],[18.523476,54.332889],[18.523476,54.332889],[18.523476,54.332889],[18.523476,54.332889],[18.523476,54.332889],[18.523476,54.332889],[18.523476,54.332889],[18.523476,54.332889],[18.523476,54.332889],[18.523476,54.332889],[18.519036,54.332871],[18.519036,54.332871],[18.519036,54.332871],[18.519036,54.332871],[18.519036,54.332871],[18.519036,54.332871],[18.519036,54.332871],[18.519036,54.332871],[18.519036,54.332871],[18.519036,54.332871],[18.519036,54.332871],[18.519036,54.332871],[18.516842,54.330615],[18.516842,54.330615],[18.516842,54.330615],[18.512401,54.330597],[18.512401,54.330597],[18.512401,54.330597],[18.510155,54.332835],[18.510155,54.332835],[18.510155,54.332835],[18.510155,54.332835],[18.510155,54.332835],[18.510155,54.332835],[18.510155,54.332835],[18.510154,54.332835],[18.510154,54.332835],[18.510154,54.332836],[18.510154,54.332836],[18.510154,54.332836],[18.505714,54.332817],[18.505714,54.332817],[18.505714,54.332817],[18.505714,54.332817],[18.505714,54.332817],[18.505714,54.332817],[18.505714,54.332817],[18.505714,54.332817],[18.505714,54.332817],[18.505714,54.332817],[18.505714,54.332817],[18.505714,54.332817],[18.503521,54.330561],[18.503521,54.330561],[18.503521,54.330561],[18.49908,54.330542],[18.49908,54.330542],[18.49908,54.330542],[18.49908,54.330542],[18.49908,54.330542],[18.49908,54.330542],[18.49908,54.330542],[18.49908,54.330542],[18.49908,54.330542],[18.49908,54.330542],[18.49908,54.330542],[18.49908,54.330542],[18.496888,54.328286],[18.496888,54.328286],[18.496888,54.328286],[18.496888,54.328286],[18.496888,54.328286],[18.496888,54.328286],[18.496888,54.328286],[18.496888,54.328286],[18.496888,54.328286],[18.496888,54.328286],[18.496888,54.328286],[18.496888,54.328286],[18.499135,54.326048],[18.499135,54.326048],[18.499135,54.326048],[18.496943,54.323791],[18.496943,54.323791],[18.496943,54.323791],[18.496943,54.323791],[18.496943,54.323791],[18.496943,54.323791],[18.496943,54.323791],[18.496943,54.323791],[18.496943,54.323791],[18.496943,54.323791],[18.496943,54.323791],[18.496943,54.323791],[18.49919,54.321553],[18.49919,54.321553],[18.49919,54.321553],[18.496997,54.319296],[18.496997,54.319296],[18.496997,54.319296],[18.496997,54.319296],[18.496997,54.319296],[18.496997,54.319296],[18.496997,54.319296],[18.496997,54.319296],[18.496997,54.319296],[18.496997,54.319296],[18.496997,54.319296],[18.496997,54.319296],[18.499244,54.317058],[18.499244,54.317058],[18.499244,54.317058],[18.497052,54.314801],[18.497052,54.314801],[18.497052,54.314801],[18.492614,54.314783],[18.492614,54.314783],[18.492614,54.314783],[18.490367,54.317021],[18.490367,54.317021],[18.490366,54.317021],[18.490366,54.317021],[18.490366,54.317021],[18.490366,54.317021],[18.490366,54.317021],[18.490366,54.317021],[18.490366,54.317021],[18.490366,54.317021],[18.490366,54.317021],[18.490366,54.317021],[18.485928,54.317002],[18.485928,54.317002],[18.485928,54.317002],[18.48368,54.31924],[18.48368,54.31924],[18.48368,54.31924],[18.48368,54.31924],[18.48368,54.31924],[18.48368,54.31924],[18.48368,54.31924],[18.48368,54.31924],[18.48368,54.31924],[18.48368,54.31924],[18.48368,54.31924],[18.48368,54.31924],[18.479241,54.319221],[18.479241,54.319221],[18.479241,54.319221],[18.476993,54.321458],[18.476993,54.321458],[18.476993,54.321458],[18.476993,54.321459],[18.476993,54.321459],[18.476993,54.321459],[18.476993,54.321459],[18.476993,54.321459],[18.476993,54.321459],[18.476993,54.321459],[18.476993,54.321459],[18.476993,54.321459],[18.472554,54.321439],[18.472554,54.321439],[18.472554,54.321439],[18.470305,54.323677],[18.470305,54.323677],[18.470305,54.323677],[18.470305,54.323677],[18.470305,54.323677],[18.470305,54.323677],[18.470305,54.323677],[18.470305,54.323677],[18.470305,54.323677],[18.470305,54.323677],[18.470305,54.323677],[18.470305,54.323677],[18.465865,54.323657],[18.465865,54.323657],[18.465865,54.323657],[18.463616,54.325895],[18.463616,54.325895],[18.463616,54.325895],[18.463616,54.325895],[18.463616,54.325895],[18.463616,54.325895],[18.463616,54.325895],[18.463616,54.325895],[18.463616,54.325895],[18.463616,54.325895],[18.463616,54.325895],[18.463616,54.325895],[18.459177,54.325875],[18.459177,54.325875],[18.459177,54.325875],[18.456927,54.328113],[18.456927,54.328113],[18.456927,54.328113],[18.456927,54.328113],[18.456927,54.328113],[18.456927,54.328113],[18.456927,54.328113],[18.456927,54.328113],[18.456927,54.328113],[18.456927,54.328113],[18.456927,54.328113],[18.456927,54.328113],[18.452487,54.328093],[18.452487,54.328093],[18.452487,54.328093],[18.450237,54.33033],[18.450237,54.33033],[18.450237,54.33033],[18.452427,54.332587],[18.452427,54.332587],[18.452427,54.332587],[18.452427,54.332587],[18.452427,54.332587],[18.452427,54.332587],[18.452427,54.332587],[18.452427,54.332587],[18.452427,54.332587],[18.452427,54.332587],[18.452427,54.332587],[18.452427,54.332587],[18.450177,54.334825],[18.450177,54.334825],[18.450177,54.334825],[18.452368,54.337082],[18.452368,54.337082],[18.452368,54.337082],[18.456809,54.337102],[18.456809,54.337102],[18.456809,54.337102],[18.456809,54.337102],[18.456809,54.337102],[18.456809,54.337102],[18.456809,54.337102],[18.456809,54.337102],[18.456809,54.337102],[18.456809,54.337102],[18.456809,54.337102],[18.456809,54.337102],[18.459,54.33936],[18.459,54.33936],[18.459,54.33936],[18.459,54.33936],[18.459,54.33936],[18.459,54.33936],[18.459,54.33936],[18.459,54.33936],[18.459,54.33936],[18.459,54.33936],[18.459,54.33936],[18.459,54.33936],[18.456749,54.341597],[18.456749,54.341597],[18.456749,54.341597],[18.458941,54.343855],[18.458941,54.343855],[18.458941,54.343855],[18.463382,54.343874],[18.463382,54.343874],[18.463382,54.343874],[18.463382,54.343874],[18.463382,54.343874],[18.463382,54.343874],[18.463382,54.343874],[18.463382,54.343874],[18.463382,54.343874],[18.463382,54.343874],[18.463382,54.343874],[18.463382,54.343874],[18.465574,54.346132],[18.465574,54.346132],[18.465574,54.346132],[18.465574,54.346132],[18.465574,54.346132],[18.465574,54.346132],[18.465574,54.346132],[18.465574,54.346132],[18.465574,54.346132],[18.465574,54.346132],[18.465574,54.346132],[18.465574,54.346132],[18.463324,54.348369],[18.463324,54.348369],[18.463324,54.348369],[18.463324,54.348369],[18.463324,54.348369],[18.463324,54.348369],[18.463324,54.348369],[18.463324,54.348369],[18.463324,54.348369],[18.463324,54.348369],[18.463324,54.348369],[18.463324,54.348369],[18.458882,54.348349],[18.458882,54.348349],[18.458882,54.348349],[18.456631,54.350587],[18.456631,54.350587],[18.456631,54.350587],[18.456631,54.350587],[18.456631,54.350587],[18.456631,54.350587],[18.456631,54.350587],[18.456631,54.350587],[18.456631,54.350587],[18.456631,54.350587],[18.456631,54.350587],[18.456631,54.350587],[18.452188,54.350567],[18.452188,54.350567],[18.452188,54.350567],[18.449937,54.352804],[18.449937,54.352804],[18.449937,54.352804],[18.449937,54.352804],[18.449937,54.352804],[18.449937,54.352804],[18.449937,54.352804],[18.449937,54.352804],[18.449937,54.352804],[18.449937,54.352804],[18.449937,54.352804],[18.449937,54.352804],[18.445494,54.352784],[18.445494,54.352784],[18.445494,54.352784],[18.443243,54.355021],[18.443243,54.355021],[18.443243,54.355021],[18.443243,54.355021],[18.443243,54.355021],[18.443243,54.355021],[18.443243,54.355021],[18.443243,54.355021],[18.443243,54.355021],[18.443243,54.355021],[18.443243,54.355021],[18.443243,54.355021],[18.4388,54.355],[18.4388,54.355],[18.4388,54.355],[18.436548,54.357237],[18.436548,54.357237],[18.436548,54.357237],[18.438739,54.359495],[18.438739,54.359495],[18.438739,54.359495],[18.438739,54.359495],[18.438739,54.359495],[18.438739,54.359495],[18.438739,54.359495],[18.438739,54.359495],[18.438739,54.359495],[18.438739,54.359495],[18.438739,54.359495],[18.438739,54.359495],[18.436486,54.361732],[18.436486,54.361732],[18.436486,54.361732],[18.438677,54.36399],[18.438677,54.36399],[18.438677,54.36399],[18.438677,54.36399],[18.438677,54.36399],[18.438677,54.36399],[18.438677,54.36399],[18.438677,54.36399],[18.438677,54.36399],[18.438677,54.36399],[18.438677,54.36399],[18.438677,54.36399],[18.436425,54.366227],[18.436425,54.366227],[18.436425,54.366227],[18.438616,54.368485],[18.438616,54.368485],[18.438616,54.368485],[18.438616,54.368485],[18.438616,54.368485],[18.438616,54.368485],[18.438616,54.368485],[18.438616,54.368485],[18.438616,54.368485],[18.438616,54.368485],[18.438616,54.368485],[18.438616,54.368485],[18.436363,54.370722],[18.436363,54.370722],[18.436363,54.370722],[18.438555,54.37298],[18.438555,54.37298],[18.438555,54.37298],[18.442999,54.373],[18.442999,54.373],[18.442999,54.373],[18.442999,54.373],[18.442999,54.373],[18.443,54.373],[18.443,54.373],[18.443,54.373],[18.443,54.373],[18.443,54.373],[18.443,54.373],[18.443,54.373],[18.445192,54.375258],[18.445192,54.375258],[18.445192,54.375258],[18.445192,54.375258],[18.445192,54.375258],[18.445192,54.375258],[18.445192,54.375258],[18.445192,54.375258],[18.445192,54.375258],[18.445192,54.375258],[18.445192,54.375258],[18.445192,54.375258],[18.442939,54.377495],[18.442939,54.377495],[18.442939,54.377495],[18.442939,54.377495],[18.442939,54.377495],[18.442939,54.377495],[18.442939,54.377495],[18.442939,54.377495],[18.442939,54.377495],[18.442939,54.377495],[18.442939,54.377495],[18.442939,54.377495],[18.438493,54.377474],[18.438493,54.377474],[18.438493,54.377474],[18.43624,54.379711],[18.43624,54.379711],[18.43624,54.379711],[18.43624,54.379711],[18.43624,54.379711],[18.43624,54.379711],[18.43624,54.379711],[18.43624,54.379711],[18.43624,54.379711],[18.43624,54.379711],[18.43624,54.379711],[18.43624,54.379711],[18.431794,54.379691],[18.431794,54.379691],[18.431794,54.379691],[18.42954,54.381928],[18.42954,54.381928]]]}}]}