{"type":"FeatureCollection","name":"lodz_hex_boundary","crs":{"type":"name","properties":{"name":"urn:ogc:def:crs:OGC:1.3:CRS84"}},"features":[{"type":"Feature","properties":{"name":"lodz"},"geometry":{"type":"Polygon","coordinates":[[[19.320804,51.799863],[19.320804,51.799863],[19.322914,51.802105],[19.322914,51.802105],[19.322914,51.802105],[19.322914,51.802105],[19.322914,51.802105],[19.322914,51.802105],[19.322914,51.802105],[19.322914,51.802105],[19.322914,51.802106],[19.322914,51.802106],[19.322914,51.802106],[19.322914,51.802106],[19.320836,51.80436],[19.320836,51.80436],[19.320836,51.80436],[19.322946,51.806602],[19.322946,51.806602],[19.322946,51.806602],[19.322946,51.806602],[19.322946,51.806602],[19.322946,51.806602],[19.322946,51.806602],[19.322946,51.806602],[19.322946,51.806602],[19.322946,51.806602],[19.322946,51.806602],[19.322946,51.806602],[19.320868,51.808857],[19.320868,51.808857],[19.320868,51.808857],[19.322978,51.811099],[19.322978,51.811099],[19.322978,51.811099],[19.327167,51.811088],[19.327167,51.811088],[19.327167,51.811088],[19.329245,51.808833],[19.329245,51.808833],[19.329245,51.808833],[19.329245,51.808833],[19.329245,51.808833],[19.329245,51.808833],[19.329245,51.808833],[19.329245,51.808833],[19.329245,51.808833],[19.329245,51.808833],[19.329245,51.808833],[19.329245,51.808833],[19.333433,51.808822],[19.333433,51.808822],[19.333433,51.808822],[19.333433,51.808822],[19.333433,51.808822],[19.333433,51.808822],[19.333433,51.808822],[19.333433,51.808822],[19.333433,51.808822],[19.333433,51.808822],[19.333433,51.808822],[19.333433,51.808822],[19.335544,51.811064],[19.335544,51.811064],[19.335544,51.811064],[19.335544,51.811064],[19.335544,51.811064],[19.335544,51.811064],[19.335544,51.811064],[19.335544,51.811064],[19.335544,51.811064],[19.335544,51.811064],[19.335544,51.811064],[19.335544,51.811064],[19.333466,51.813319],[19.333466,51.813319],[19.333466,51.813319],[19.335577,51.815561],[19.335577,51.815561],[19.335577,51.815561],[19.335577,51.815561],[19.335577,51.815561],[19.335577,51.815561],[19.335577,51.815561],[19.335577,51.815561],[19.335577,51.815561],[19.335577,51.815561],[19.335577,51.815561],[19.335577,51.815561],[19.333499,51.817815],[19.333499,51.817815],[19.333499,51.817815],[19.335611,51.820058],[19.335611,51.820058],[19.335611,51.820058],[19.335611,51.820058],[19.335611,51.820058],[19.335611,51.820058],[19.335611,51.820058],[19.335611,51.820058],[19.335611,51.820058],[19.335611,51.820058],[19.335611,51.820058],[19.335611,51.820058],[19.333533,51.822312],[19.333533,51.822312],[19.333533,51.822312],[19.335644,51.824555],[19.335644,51.824555],[19.335644,51.824555],[19.339834,51.824543],[19.339834,51.824543],[19.339834,51.824543],[19.339834,51.824543],[19.339834,51.824543],[19.339834,51.824543],[19.339834,51.824543],[19.339834,51.824543],[19.339834,51.824543],[19.339834,51.824543],[19.339834,51.824543],[19.339834,51.824543],[19.341946,51.826785],[19.341946,51.826785],[19.341946,51.826785],[19.341946,51.826785],[19.341946,51.826785],[19.341946,51.826785],[19.341946,51.826785],[19.341946,51.826785],[19.341946,51.826785],[19.341946,51.826785],[19.341946,51.826785],[19.341946,51.826785],[19.339868,51.82904],[19.339868,51.82904],[19.339868,51.82904],[19.34198,51.831282],[19.34198,51.831282],[19.34198,51.831282],[19.34617,51.83127],[19.34617,51.83127],[19.34617,51.83127],[19.34617,51.83127],[19.34617,51.83127],[19.34617,51.83127],[19.34617,51.83127],[19.34617,51.83127],[19.34617,51.83127],[19.34617,51.83127],[19.34617,51.83127],[19.346171,51.83127],[19.348283,51.833512],[19.348283,51.833512],[19.348283,51.833512],[19.348283,51.833512],[19.348283,51.833512],[19.348283,51.833512],[19.348283,51.833512],[19.348283,51.833512],[19.348283,51.833512],[19.348283,51.833512],[19.348283,51.833512],[19.348283,51.833512],[19.346205,51.835767],[19.346205,51.835767],[19.346205,51.835767],[19.348318,51.838009],[19.348318,51.838009],[19.348318,51.838009],[19.348318,51.838009],[19.348318,51.838009],[19.348318,51.838009],[19.348318,51.838009],[19.348318,51.838009],[19.348318,51.838009],[19.348318,51.838009],[19.348318,51.838009],[19.348318,51.838009],[19.346239,51.840263],[19.346239,51.840263],[19.346239,51.840263],[19.348352,51.842506],[19.348352,51.842506],[19.348352,51.842506],[19.352544,51.842493],[19.352544,51.842493],[19.352544,51.842493],[19.354622,51.840239],[19.354622,51.840239],[19.354622,51.840239],[19.354622,51.840239],[19.354622,51.840239],[19.354622,51.840239],[19.354622,51.840239],[19.354622,51.840239],[19.354622,51.840239],[19.354622,51.840239],[19.354622,51.840239],[19.354622,51.840239],[19.358813,51.840226],[19.358813,51.840226],[19.358813,51.840226],[19.360891,51.837971],[19.360891,51.837971],[19.360891,51.837971],[19.360891,51.837971],[19.360891,51.837971],[19.360891,51.837971],[19.360891,51.837971],[19.360891,51.837971],[19.360891,51.837971],[19.360891,51.837971],[19.360891,51.837971],[19.360891,51.837971],[19.365082,51.837958],[19.365082,51.837958],[19.365082,51.837958],[19.365082,51.837958],[19.365082,51.837958],[19.365082,51.837958],[19.365082,51.837958],[19.365082,51.837958],[19.365082,51.837958],[19.365082,51.837958],[19.365082,51.837958],[19.365082,51.837958],[19.367196,51.8402],[19.367196,51.8402],[19.367196,51.8402],[19.371387,51.840187],[19.371387,51.840187],[19.371387,51.840187],[19.373464,51.837932],[19.373464,51.837932],[19.373464,51.837932],[19.373464,51.837932],[19.373464,51.837932],[19.373464,51.837932],[19.373464,51.837932],[19.373464,51.837932],[19.373464,51.837932],[19.373464,51.837932],[19.373464,51.837932],[19.373464,51.837932],[19.377655,51.837918],[19.377655,51.837918],[19.377655,51.837918],[19.377655,51.837918],[19.377655,51.837918],[19.377655,51.837918],[19.377655,51.837918],[19.377655,51.837918],[19.377655,51.837918],[19.377655,51.837918],[19.377655,51.837918],[19.377655,51.837918],[19.37977,51.84016],[19.37977,51.84016],[19.37977,51.84016],[19.383961,51.840146],[19.383961,51.840146],[19.383961,51.840146],[19.386037,51.837891],[19.386037,51.837891],[19.386037,51.837891],[19.386037,51.837891],[19.386037,51.837891],[19.386037,51.837891],[19.386037,51.837891],[19.386037,51.837891],[19.386037,51.837891],[19.386037,51.837891],[19.386037,51.837891],[19.386037,51.837891],[19.390228,51.837877],[19.390228,51.837877],[19.390228,51.837877],[19.392304,51.835622],[19.392304,51.835622],[19.392304,51.835622],[19.390189,51.83338],[19.390189,51.83338],[19.390189,51.83338],[19.385999,51.833394],[19.385999,51.833394],[19.385999,51.833394],[19.385999,51.833394],[19.385999,51.833394],[19.385999,51.833394],[19.385999,51.833394],[19.385999,51.833394],[19.385999,51.833394],[19.385999,51.833394],[19.385999,51.833394],[19.385999,51.833394],[19.383884,51.831153],[19.383884,51.831153],[19.383884,51.831153],[19.383884,51.831153],[19.383884,51.831153],[19.383884,51.831153],[19.383884,51.831153],[19.383884,51.831153],[19.383884,51.831153],[19.383884,51.831153],[19.383884,51.831153],[19.383884,51.831153],[19.38596,51.828897],[19.38596,51.828897],[19.38596,51.828897],[19.38596,51.828897],[19.38596,51.828897],[19.38596,51.828897],[19.38596,51.828897],[19.38596,51.828897],[19.38596,51.828897],[19.38596,51.828897],[19.38596,51.828897],[19.38596,51.828897],[19.39015,51.828884],[19.39015,51.828884],[19.39015,51.828884],[19.39015,51.828884],[19.39015,51.828884],[19.39015,51.828884],[19.390151,51.828884],[19.390151,51.828884],[19.390151,51.828884],[19.390151,51.828884],[19.390151,51.828884],[19.390151,51.828884],[19.392265,51.831125],[19.392265,51.831125],[19.392265,51.831125],[19.396455,51.831111],[19.396455,51.831111],[19.396455,51.831111],[19.396456,51.831111],[19.396456,51.831111],[19.396456,51.831111],[19.396456,51.831111],[19.396456,51.831111],[19.396456,51.831111],[19.396456,51.831111],[19.396456,51.831111],[19.396456,51.831111],[19.398571,51.833352],[19.398571,51.833352],[19.398571,51.833352],[19.402761,51.833338],[19.402761,51.833338],[19.402761,51.833338],[19.404836,51.831083],[19.404836,51.831082],[19.404836,51.831082],[19.404836,51.831082],[19.404836,51.831082],[19.404836,51.831082],[19.404836,51.831082],[19.404836,51.831082],[19.404836,51.831082],[19.404836,51.831082],[19.404836,51.831082],[19.404836,51.831082],[19.409027,51.831068],[19.409027,51.831068],[19.409027,51.831068],[19.409027,51.831068],[19.409027,51.831068],[19.409027,51.831068],[19.409027,51.831068],[19.409027,51.831068],[19.409027,51.831068],[19.409027,51.831068],[19.409027,51.831068],[19.409027,51.831068],[19.411142,51.833309],[19.411142,51.833309],[19.411142,51.833309],[19.415333,51.833294],[19.415333,51.833294],[19.415333,51.833294],[19.417407,51.831039],[19.417407,51.831039],[19.417408,51.831039],[19.417408,51.831039],[19.417408,51.831039],[19.417408,51.831039],[19.417408,51.831039],[19.417408,51.831039],[19.417408,51.831039],[19.417408,51.831039],[19.417408,51.831039],[19.417408,51.831039],[19.421598,51.831024],[19.421598,51.831024],[19.421598,51.831024],[19.421598,51.831024],[19.421598,51.831024],[19.421598,51.831024],[19.421598,51.831024],[19.421598,51.831024],[19.421598,51.831024],[19.421598,51.831024],[19.421598,51.831024],[19.421598,51.831024],[19.423714,51.833264],[19.423714,51.833264],[19.423714,51.833264],[19.427905,51.833249],[19.427905,51.833249],[19.427905,51.833249],[19.427905,51.833249],[19.427905,51.833249],[19.427905,51.833249],[19.427905,51.833249],[19.427905,51.833249],[19.427905,51.833249],[19.427905,51.833249],[19.427905,51.833249],[19.427905,51.833249],[19.430022,51.83549],[19.430022,51.83549],[19.430022,51.83549],[19.434212,51.835475],[19.434212,51.835475],[19.434212,51.835475],[19.434212,51.835475],[19.434212,51.835475],[19.434212,51.835475],[19.434212,51.835475],[19.434212,51.835475],[19.434212,51.835475],[19.434212,51.835475],[19.434212,51.835475],[19.434212,51.835475],[19.436329,51.837715],[19.436329,51.837715],[19.436329,51.837715],[19.44052,51.8377],[19.44052,51.8377],[19.44052,51.8377],[19.442594,51.835443],[19.442594,51.835443],[19.442594,51.835443],[19.442594,51.835443],[19.442594,51.835443],[19.442594,51.835443],[19.442594,51.835443],[19.442594,51.835443],[19.442594,51.835443],[19.442594,51.835443],[19.442594,51.835443],[19.442594,51.835443],[19.446785,51.835428],[19.446785,51.835428],[19.446785,51.835428],[19.446785,51.835428],[19.446785,51.835428],[19.446785,51.835428],[19.446785,51.835428],[19.446785,51.835428],[19.446785,51.835428],[19.446785,51.835428],[19.446785,51.835428],[19.446785,51.835428],[19.448902,51.837668],[19.448902,51.837668],[19.448902,51.837668],[19.453093,51.837652],[19.453093,51.837652],[19.453093,51.837652],[19.453093,51.837652],[19.453093,51.837652],[19.453093,51.837652],[19.453093,51.837652],[19.453093,51.837652],[19.453093,51.837652],[19.453093,51.837652],[19.453093,51.837652],[19.453093,51.837652],[19.455211,51.839892],[19.455212,51.839892],[19.455212,51.839892],[19.455212,51.839892],[19.455212,51.839892],[19.455212,51.839892],[19.455212,51.839892],[19.455212,51.839892],[19.455212,51.839892],[19.455212,51.839892],[19.455212,51.839892],[19.455211,51.839892],[19.453139,51.842149],[19.453139,51.842149],[19.453139,51.842149],[19.453139,51.842149],[19.453139,51.842149],[19.453139,51.842149],[19.453138,51.842149],[19.453138,51.842149],[19.453138,51.842149],[19.453138,51.842149],[19.453138,51.842149],[19.453138,51.842149],[19.448947,51.842165],[19.448947,51.842165],[19.448947,51.842165],[19.446874,51.844421],[19.446874,51.844421],[19.446874,51.844421],[19.446874,51.844421],[19.446874,51.844421],[19.446874,51.844421],[19.446874,51.844421],[19.446874,51.844421],[19.446874,51.844421],[19.446874,51.844421],[19.446874,51.844421],[19.446874,51.844421],[19.442682,51.844437],[19.442682,51.844437],[19.442682,51.844437],[19.440608,51.846693],[19.440608,51.846693],[19.440608,51.846693],[19.442726,51.848934],[19.442726,51.848934],[19.442726,51.848934],[19.442726,51.848934],[19.442726,51.848934],[19.442726,51.848934],[19.442726,51.848934],[19.442726,51.848934],[19.442726,51.848934],[19.442726,51.848934],[19.442726,51.848934],[19.442726,51.848934],[19.440652,51.85119],[19.440652,51.85119],[19.440652,51.85119],[19.44277,51.853431],[19.44277,51.853431],[19.44277,51.853431],[19.446963,51.853415],[19.446963,51.853415],[19.446963,51.853415],[19.449037,51.851158],[19.449037,51.851158],[19.449037,51.851158],[19.449037,51.851158],[19.449037,51.851158],[19.449037,51.851158],[19.449037,51.851158],[19.449037,51.851158],[19.449037,51.851158],[19.449037,51.851158],[19.449037,51.851158],[19.449037,51.851158],[19.453229,51.851142],[19.453229,51.851142],[19.453229,51.851142],[19.453229,51.851142],[19.453229,51.851142],[19.453229,51.851142],[19.453229,51.851142],[19.453229,51.851142],[19.453229,51.851142],[19.453229,51.851142],[19.453229,51.851142],[19.453229,51.851142],[19.455348,51.853383],[19.455348,51.853383],[19.455348,51.853383],[19.45954,51.853366],[19.45954,51.853366],[19.45954,51.853366],[19.45954,51.853366],[19.45954,51.853366],[19.45954,51.853366],[19.45954,51.853366],[19.45954,51.853366],[19.45954,51.853366],[19.45954,51.853366],[19.45954,51.853366],[19.45954,51.853366],[19.461659,51.855607],[19.461659,51.855607],[19.461659,51.855607],[19.465852,51.85559],[19.465852,51.85559],[19.465852,51.85559],[19.465852,51.85559],[19.465852,51.85559],[19.465852,51.85559],[19.465852,51.85559],[19.465852,51.85559],[19.465852,51.85559],[19.465852,51.85559],[19.465852,51.85559],[19.465852,51.85559],[19.467972,51.85783],[19.467972,51.85783],[19.467972,51.85783],[19.472164,51.857813],[19.472164,51.857813],[19.472164,51.857813],[19.474237,51.855557],[19.474237,51.855557],[19.474237,51.855557],[19.474237,51.855557],[19.474237,51.855557],[19.474237,51.855557],[19.474237,51.855557],[19.474237,51.855557],[19.474237,51.855557],[19.474237,51.855557],[19.474237,51.855557],[19.474237,51.855557],[19.47843,51.85554],[19.47843,51.85554],[19.47843,51.85554],[19.47843,51.85554],[19.47843,51.85554],[19.47843,51.85554],[19.47843,51.85554],[19.47843,51.85554],[19.47843,51.85554],[19.47843,51.85554],[19.47843,51.85554],[19.47843,51.85554],[19.48055,51.857779],[19.48055,51.857779],[19.48055,51.857779],[19.484743,51.857762],[19.484743,51.857762],[19.484743,51.857762],[19.484743,51.857762],[19.484743,51.857762],[19.484743,51.857762],[19.484743,51.857762],[19.484743,51.857762],[19.484743,51.857762],[19.484743,51.857762],[19.484743,51.857762],[19.484743,51.857762],[19.486864,51.860002],[19.486864,51.860002],[19.486864,51.860002],[19.491057,51.859985],[19.491057,51.859985],[19.491057,51.859985],[19.493129,51.857727],[19.493129,51.857727],[19.493129,51.857727],[19.493129,51.857727],[19.493129,51.857727],[19.493129,51.857727],[19.493129,51.857727],[19.493129,51.857727],[19.493129,51.857727],[19.493129,51.857727],[19.493129,51.857727],[19.493129,51.857727],[19.497321,51.85771],[19.497321,51.85771],[19.497321,51.85771],[19.497321,51.85771],[19.497321,51.85771],[19.497321,51.85771],[19.497321,51.85771],[19.497321,51.85771],[19.497321,51.85771],[19.497321,51.85771],[19.497321,51.85771],[19.497321,51.85771],[19.499443,51.859949],[19.499443,51.859949],[19.499443,51.859949],[19.503636,51.859931],[19.503636,51.859931],[19.503636,51.859931],[19.505707,51.857674],[19.505707,51.857674],[19.505707,51.857674],[19.505707,51.857674],[19.505707,51.857674],[19.505707,51.857674],[19.505707,51.857674],[19.505707,51.857674],[19.505707,51.857674],[19.505707,51.857674],[19.505707,51.857674],[19.505707,51.857674],[19.5099,51.857656],[19.5099,51.857656],[19.5099,51.857656],[19.511971,51.855398],[19.511971,51.855398],[19.511971,51.855398],[19.511971,51.855398],[19.511971,51.855398],[19.511971,51.855398],[19.511971,51.855398],[19.511971,51.855398],[19.511971,51.855398],[19.511971,51.855398],[19.511971,51.855398],[19.511971,51.855398],[19.516163,51.85538],[19.516163,51.85538],[19.516163,51.85538],[19.518234,51.853123],[19.518234,51.853123],[19.518234,51.853123],[19.518234,51.853122],[19.518234,51.853122],[19.518234,51.853122],[19.518234,51.853122],[19.518234,51.853122],[19.518234,51.853122],[19.518234,51.853122],[19.518234,51.853122],[19.518234,51.853122],[19.522426,51.853104],[19.522426,51.853104],[19.522426,51.853104],[19.524496,51.850846],[19.524496,51.850846],[19.524496,51.850846],[19.524496,51.850846],[19.524496,51.850846],[19.524496,51.850846],[19.524496,51.850846],[19.524496,51.850846],[19.524496,51.850846],[19.524496,51.850846],[19.524496,51.850846],[19.524496,51.850846],[19.528688,51.850827],[19.528688,51.850827],[19.528688,51.850827],[19.530758,51.84857],[19.530758,51.84857],[19.530758,51.84857],[19.530758,51.84857],[19.530758,51.84857],[19.530758,51.84857],[19.530758,51.84857],[19.530758,51.84857],[19.530758,51.84857],[19.530758,51.84857],[19.530758,51.84857],[19.530758,51.84857],[19.53495,51.848551],[19.53495,51.848551],[19.53495,51.848551],[19.53495,51.848551],[19.53495,51.848551],[19.53495,51.848551],[19.53495,51.848551],[19.53495,51.848551],[19.53495,51.848551],[19.53495,51.848551],[19.53495,51.848551],[19.53495,51.848551],[19.537073,51.850789],[19.537073,51.850789],[19.537073,51.850789],[19.541265,51.85077],[19.541265,51.85077],[19.541265,51.85077],[19.543334,51.848512],[19.543334,51.848512],[19.543334,51.848512],[19.543334,51.848512],[19.543334,51.848512],[19.543334,51.848512],[19.543334,51.848512],[19.543334,51.848512],[19.543334,51.848512],[19.543334,51.848512],[19.543334,51.848512],[19.543334,51.848512],[19.547526,51.848493],[19.547526,51.848493],[19.547526,51.848493],[19.549594,51.846235],[19.549594,51.846235],[19.549594,51.846235],[19.549594,51.846235],[19.549594,51.846235],[19.549594,51.846235],[19.549594,51.846235],[19.549594,51.846235],[19.549594,51.846235],[19.549594,51.846235],[19.549594,51.846235],[19.549594,51.846235],[19.553786,51.846215],[19.553786,51.846215],[19.553786,51.846215],[19.553786,51.846215],[19.553786,51.846215],[19.553786,51.846215],[19.553786,51.846215],[19.553786,51.846215],[19.553786,51.846215],[19.553786,51.846215],[19.553786,51.846215],[19.553786,51.846215],[19.55591,51.848453],[19.55591,51.848453],[19.55591,51.848453],[19.55591,51.848453],[19.55591,51.848453],[19.55591,51.848453],[19.55591,51.848453],[19.55591,51.848453],[19.55591,51.848454],[19.55591,51.848454],[19.55591,51.848454],[19.55591,51.848454],[19.553841,51.850712],[19.553841,51.850712],[19.553841,51.850712],[19.555965,51.85295],[19.555965,51.85295],[19.555965,51.85295],[19.560157,51.85293],[19.560157,51.85293],[19.560157,51.85293],[19.562225,51.850672],[19.562225,51.850672],[19.562225,51.850672],[19.560102,51.848434],[19.560102,51.848434],[19.560102,51.848434],[19.560102,51.848434],[19.560102,51.848434],[19.560102,51.848434],[19.560102,51.848434],[19.560102,51.848434],[19.560102,51.848434],[19.560102,51.848434],[19.560102,51.848434],[19.560102,51.848434],[19.562169,51.846175],[19.562169,51.846175],[19.562169,51.846175],[19.562169,51.846175],[19.562169,51.846175],[19.562169,51.846175],[19.562169,51.846175],[19.562169,51.846175],[19.562169,51.846175],[19.56217,51.846175],[19.56217,51.846175],[19.56217,51.846175],[19.566361,51.846155],[19.566361,51.846155],[19.566361,51.846155],[19.568429,51.843897],[19.568429,51.843897],[19.568429,51.843897],[19.566305,51.841658],[19.566305,51.841658],[19.566305,51.841658],[19.566305,51.841658],[19.566305,51.841658],[19.566305,51.841658],[19.566305,51.841658],[19.566305,51.841658],[19.566305,51.841658],[19.566305,51.841658],[19.566305,51.841658],[19.566305,51.841658],[19.568372,51.8394],[19.568372,51.8394],[19.568372,51.8394],[19.568372,51.8394],[19.568372,51.8394],[19.568372,51.8394],[19.568372,51.8394],[19.568372,51.8394],[19.568372,51.8394],[19.568372,51.8394],[19.568372,51.8394],[19.568372,51.8394],[19.572563,51.83938],[19.572563,51.83938],[19.572563,51.83938],[19.57463,51.837121],[19.57463,51.837121],[19.57463,51.837121],[19.572506,51.834883],[19.572506,51.834883],[19.572506,51.834883],[19.568316,51.834903],[19.568316,51.834903],[19.568315,51.834903],[19.568315,51.834903],[19.568315,51.834903],[19.568315,51.834903],[19.568315,51.834903],[19.568315,51.834903],[19.568315,51.834903],[19.568315,51.834903],[19.568315,51.834903],[19.568315,51.834903],[19.566192,51.832665],[19.566192,51.832665],[19.566192,51.832665],[19.562002,51.832685],[19.562002,51.832685],[19.562002,51.832685],[19.562002,51.832685],[19.562001,51.832685],[19.562001,51.832685],[19.562001,51.832685],[19.562001,51.832685],[19.562001,51.832685],[19.562001,51.832685],[19.562001,51.832685],[19.562001,51.832685],[19.559878,51.830447],[19.559878,51.830447],[19.559878,51.830447],[19.555688,51.830467],[19.555688,51.830467],[19.555688,51.830467],[19.555688,51.830467],[19.555688,51.830467],[19.555688,51.830467],[19.555688,51.830467],[19.555688,51.830467],[19.555688,51.830466],[19.555688,51.830466],[19.555688,51.830466],[19.555688,51.830466],[19.553565,51.828228],[19.553565,51.828228],[19.553565,51.828228],[19.553565,51.828228],[19.553565,51.828228],[19.553565,51.828228],[19.553565,51.828228],[19.553565,51.828228],[19.553565,51.828228],[19.553565,51.828228],[19.553565,51.828228],[19.553565,51.828228],[19.555633,51.82597],[19.555633,51.82597],[19.555633,51.82597],[19.55351,51.823731],[19.55351,51.823731],[19.55351,51.823731],[19.55351,51.823731],[19.55351,51.823731],[19.55351,51.823731],[19.55351,51.823731],[19.55351,51.823731],[19.55351,51.823731],[19.55351,51.823731],[19.55351,51.823731],[19.55351,51.823731],[19.555577,51.821473],[19.555577,51.821473],[19.555577,51.821473],[19.553455,51.819235],[19.553455,51.819235],[19.553455,51.819235],[19.553455,51.819235],[19.553455,51.819235],[19.553455,51.819235],[19.553455,51.819235],[19.553455,51.819235],[19.553455,51.819234],[19.553455,51.819234],[19.553455,51.819234],[19.553455,51.819234],[19.555522,51.816976],[19.555522,51.816976],[19.555522,51.816976],[19.5534,51.814738],[19.5534,51.814738],[19.5534,51.814738],[19.5534,51.814738],[19.5534,51.814738],[19.5534,51.814738],[19.5534,51.814738],[19.5534,51.814738],[19.5534,51.814738],[19.5534,51.814738],[19.5534,51.814738],[19.5534,51.814738],[19.555467,51.81248],[19.555467,51.81248],[19.555467,51.81248],[19.555467,51.81248],[19.555467,51.81248],[19.555467,51.81248],[19.555467,51.81248],[19.555467,51.81248],[19.555467,51.81248],[19.555467,51.81248],[19.555467,51.81248],[19.555467,51.81248],[19.559655,51.81246],[19.559655,51.81246],[19.559655,51.81246],[19.559655,51.81246],[19.559655,51.81246],[19.559655,51.81246],[19.559655,51.81246],[19.559655,51.81246],[19.559655,51.81246],[19.559655,51.81246],[19.559655,51.81246],[19.559655,51.81246],[19.561778,51.814698],[19.561778,51.814698],[19.561778,51.814698],[19.565966,51.814678],[19.565966,51.814678],[19.565966,51.814678],[19.565966,51.814678],[19.565966,51.814678],[19.565966,51.814678],[19.565966,51.814678],[19.565966,51.814678],[19.565966,51.814678],[19.565966,51.814678],[19.565966,51.814678],[19.565967,51.814678],[19.568089,51.816916],[19.568089,51.816916],[19.568089,51.816916],[19.572278,51.816896],[19.572278,51.816896],[19.572278,51.816896],[19.572278,51.816896],[19.572278,51.816896],[19.572278,51.816896],[19.572278,51.816896],[19.572278,51.816896],[19.572278,51.816896],[19.572278,51.816896],[19.572278,51.816896],[19.572278,51.816896],[19.574401,51.819134],[19.574401,51.819134],[19.574401,51.819134],[19.57859,51.819114],[19.57859,51.819114],[19.57859,51.819114],[19.580656,51.816855],[19.580656,51.816855],[19.580656,51.816855],[19.580656,51.816855],[19.580656,51.816855],[19.580656,51.816855],[19.580656,51.816855],[19.580656,51.816855],[19.580656,51.816855],[19.580656,51.816855],[19.580656,51.816855],[19.580656,51.816855],[19.584845,51.816834],[19.584845,51.816834],[19.584845,51.816834],[19.584845,51.816834],[19.584845,51.816834],[19.584845,51.816834],[19.584845,51.816834],[19.584845,51.816834],[19.584845,51.816834],[19.584845,51.816834],[19.584845,51.816834],[19.584845,51.816834],[19.586969,51.819072],[19.586969,51.819072],[19.586969,51.819072],[19.591158,51.819051],[19.591158,51.819051],[19.591158,51.819051],[19.593223,51.816792],[19.593223,51.816792],[19.593223,51.816792],[19.593223,51.816792],[19.593223,51.816792],[19.593223,51.816792],[19.593223,51.816792],[19.593223,51.816792],[19.593223,51.816792],[19.593223,51.816792],[19.593223,51.816792],[19.593223,51.816792],[19.597412,51.816771],[19.597412,51.816771],[19.597412,51.816771],[19.597412,51.816771],[19.597412,51.816771],[19.597412,51.816771],[19.597412,51.816771],[19.597412,51.816771],[19.597412,51.816771],[19.597412,51.816771],[19.597412,51.816771],[19.597412,51.816771],[19.599536,51.819009],[19.599536,51.819009],[19.599536,51.819009],[19.603725,51.818987],[19.603725,51.818987],[19.603725,51.818987],[19.60579,51.816728],[19.60579,51.816728],[19.60579,51.816728],[19.60579,51.816728],[19.60579,51.816728],[19.60579,51.816728],[19.60579,51.816728],[19.60579,51.816728],[19.60579,51.816728],[19.60579,51.816728],[19.60579,51.816728],[19.60579,51.816728],[19.609979,51.816706],[19.609979,51.816706],[19.609979,51.816706],[19.612043,51.814447],[19.612043,51.814447],[19.612043,51.814447],[19.612043,51.814447],[19.612043,51.814447],[19.612043,51.814447],[19.612043,51.814447],[19.612043,51.814447],[19.612043,51.814447],[19.612043,51.814447],[19.612043,51.814447],[19.612043,51.814447],[19.616231,51.814425],[19.616231,51.814425],[19.616231,51.814425],[19.616231,51.814425],[19.616231,51.814425],[19.616231,51.814425],[19.616231,51.814425],[19.616231,51.814425],[19.616231,51.814425],[19.616231,51.814425],[19.616231,51.814425],[19.616231,51.814425],[19.618357,51.816663],[19.618357,51.816663],[19.618357,51.816663],[19.622545,51.816641],[19.622545,51.816641],[19.622545,51.816641],[19.624609,51.814381],[19.624609,51.814381],[19.624609,51.814381],[19.622484,51.812144],[19.622484,51.812144],[19.622483,51.812144],[19.618295,51.812166],[19.618295,51.812166],[19.618295,51.812166],[19.618295,51.812166],[19.618295,51.812166],[19.618295,51.812166],[19.618295,51.812166],[19.618295,51.812166],[19.618295,51.812166],[19.618295,51.812166],[19.618295,51.812166],[19.618295,51.812166],[19.61617,51.809929],[19.61617,51.809929],[19.61617,51.809929],[19.61617,51.809929],[19.61617,51.809929],[19.61617,51.809929],[19.61617,51.809929],[19.61617,51.809929],[19.61617,51.809929],[19.61617,51.809929],[19.61617,51.809929],[19.61617,51.809929],[19.618233,51.807669],[19.618233,51.807669],[19.618233,51.807669],[19.616109,51.805432],[19.616109,51.805432],[19.616109,51.805432],[19.616109,51.805432],[19.616109,51.805432],[19.616109,51.805432],[19.616109,51.805432],[19.616109,51.805432],[19.616109,51.805432],[19.616109,51.805432],[19.616109,51.805432],[19.616109,51.805432],[19.618172,51.803173],[19.618172,51.803173],[19.618172,51.803173],[19.618172,51.803173],[19.618172,51.803173],[19.618172,51.803173],[19.618172,51.803173],[19.618172,51.803173],[19.618172,51.803173],[19.618172,51.803173],[19.618172,51.803173],[19.618172,51.803173],[19.62236,51.80315],[19.62236,51.80315],[19.62236,51.80315],[19.624422,51.800891],[19.624422,51.800891],[19.624422,51.800891],[19.622298,51.798654],[19.622298,51.798654],[19.622298,51.798654],[19.622298,51.798654],[19.622298,51.798654],[19.622298,51.798654],[19.622298,51.798654],[19.622298,51.798654],[19.622298,51.798654],[19.622298,51.798654],[19.622298,51.798654],[19.622298,51.798654],[19.62436,51.796394],[19.62436,51.796394],[19.62436,51.796394],[19.622236,51.794157],[19.622236,51.794157],[19.622236,51.794157],[19.622236,51.794157],[19.622236,51.794157],[19.622236,51.794157],[19.622236,51.794157],[19.622236,51.794157],[19.622236,51.794157],[19.622236,51.794157],[19.622236,51.794157],[19.622236,51.794157],[19.624298,51.791898],[19.624298,51.791898],[19.624298,51.791898],[19.622174,51.78966],[19.622174,51.78966],[19.622174,51.78966],[19.622174,51.78966],[19.622174,51.78966],[19.622174,51.78966],[19.622174,51.78966],[19.622174,51.78966],[19.622174,51.78966],[19.622174,51.78966],[19.622174,51.78966],[19.622174,51.78966],[19.624236,51.787401],[19.624236,51.787401],[19.624236,51.787401],[19.622112,51.785164],[19.622112,51.785164],[19.622112,51.785164],[19.622112,51.785164],[19.622112,51.785164],[19.622112,51.785164],[19.622112,51.785164],[19.622112,51.785164],[19.622112,51.785164],[19.622112,51.785164],[19.622112,51.785164],[19.622112,51.785164],[19.624174,51.782904],[19.624174,51.782904],[19.624174,51.782904],[19.62205,51.780667],[19.62205,51.780667],[19.62205,51.780667],[19.617865,51.780689],[19.617865,51.780689],[19.617865,51.780689],[19.617865,51.780689],[19.617865,51.780689],[19.617865,51.780689],[19.617865,51.780689],[19.617865,51.780689],[19.617865,51.780689],[19.617865,51.780689],[19.617865,51.780689],[19.617865,51.780689],[19.615741,51.778452],[19.615741,51.778452],[19.615741,51.778452],[19.615741,51.778452],[19.615741,51.778452],[19.615741,51.778452],[19.615741,51.778452],[19.615741,51.778451],[19.615741,51.778451],[19.615741,51.778451],[19.615741,51.778451],[19.615741,51.778451],[19.617803,51.776192],[19.617803,51.776192],[19.617803,51.776192],[19.617803,51.776192],[19.617803,51.776192],[19.617803,51.776192],[19.617803,51.776192],[19.617803,51.776192],[19.617803,51.776192],[19.617803,51.776192],[19.617803,51.776192],[19.617803,51.776192],[19.621988,51.77617],[19.621988,51.77617],[19.621988,51.77617],[19.62405,51.773911],[19.62405,51.773911],[19.62405,51.773911],[19.621927,51.771673],[19.621927,51.771673],[19.621927,51.771673],[19.621927,51.771673],[19.621927,51.771673],[19.621927,51.771673],[19.621927,51.771673],[19.621927,51.771673],[19.621927,51.771673],[19.621927,51.771673],[19.621927,51.771673],[19.621927,51.771673],[19.623988,51.769414],[19.623988,51.769414],[19.623988,51.769414],[19.623988,51.769414],[19.623988,51.769414],[19.623988,51.769414],[19.623988,51.769414],[19.623988,51.769414],[19.623988,51.769414],[19.623988,51.769414],[19.623988,51.769414],[19.623988,51.769414],[19.628172,51.769392],[19.628172,51.769392],[19.628172,51.769392],[19.630233,51.767132],[19.630233,51.767132],[19.630233,51.767132],[19.62811,51.764895],[19.62811,51.764895],[19.62811,51.764895],[19.623926,51.764917],[19.623926,51.764917],[19.623926,51.764917],[19.623926,51.764917],[19.623926,51.764917],[19.623926,51.764917],[19.623926,51.764917],[19.623926,51.764917],[19.623926,51.764917],[19.623926,51.764917],[19.623926,51.764917],[19.623926,51.764917],[19.621803,51.76268],[19.621803,51.76268],[19.621803,51.76268],[19.621803,51.76268],[19.621803,51.76268],[19.621803,51.76268],[19.621803,51.76268],[19.621803,51.76268],[19.621803,51.76268],[19.621803,51.76268],[19.621803,51.76268],[19.621803,51.76268],[19.623864,51.76042],[19.623864,51.76042],[19.623864,51.76042],[19.623864,51.76042],[19.623864,51.76042],[19.623864,51.76042],[19.623864,51.76042],[19.623864,51.76042],[19.623864,51.76042],[19.623864,51.76042],[19.623864,51.76042],[19.623864,51.76042],[19.628048,51.760398],[19.628048,51.760398],[19.628048,51.760398],[19.630108,51.758139],[19.630108,51.758139],[19.630108,51.758139],[19.630108,51.758139],[19.630108,51.758139],[19.630108,51.758139],[19.630108,51.758139],[19.630108,51.758139],[19.630108,51.758139],[19.630108,51.758139],[19.630108,51.758139],[19.630108,51.758139],[19.634292,51.758116],[19.634292,51.758116],[19.634292,51.758116],[19.636352,51.755856],[19.636352,51.755856],[19.636352,51.755856],[19.636352,51.755856],[19.636352,51.755856],[19.636352,51.755856],[19.636352,51.755856],[19.636352,51.755856],[19.636352,51.755856],[19.636352,51.755856],[19.636352,51.755856],[19.636352,51.755856],[19.640535,51.755834],[19.640535,51.755834],[19.640535,51.755834],[19.642595,51.753574],[19.642595,51.753574],[19.642595,51.753574],[19.640472,51.751337],[19.640472,51.751337],[19.640472,51.751337],[19.636289,51.75136],[19.636289,51.75136],[19.636289,51.75136],[19.636289,51.75136],[19.636289,51.75136],[19.636289,51.75136],[19.636289,51.75136],[19.636289,51.75136],[19.636289,51.75136],[19.636289,51.75136],[19.636289,51.75136],[19.636289,51.75136],[19.634166,51.749123],[19.634166,51.749123],[19.634166,51.749123],[19.629983,51.749145],[19.629983,51.749145],[19.629983,51.749145],[19.629983,51.749145],[19.629983,51.749145],[19.629983,51.749145],[19.629983,51.749145],[19.629983,51.749145],[19.629983,51.749145],[19.629983,51.749145],[19.629983,51.749145],[19.629983,51.749145],[19.627861,51.746908],[19.627861,51.746908],[19.627861,51.746908],[19.627861,51.746908],[19.627861,51.746908],[19.627861,51.746908],[19.627861,51.746908],[19.627861,51.746908],[19.627861,51.746908],[19.627861,51.746908],[19.627861,51.746908],[19.627861,51.746908],[19.62992,51.744648],[19.629921,51.744648],[19.629921,51.744648],[19.629921,51.744648],[19.629921,51.744648],[19.629921,51.744648],[19.629921,51.744648],[19.629921,51.744648],[19.629921,51.744648],[19.629921,51.744648],[19.629921,51.744648],[19.629921,51.744648],[19.634103,51.744626],[19.634103,51.744626],[19.634103,51.744626],[19.636162,51.742366],[19.636162,51.742366],[19.636162,51.742366],[19.63404,51.740129],[19.63404,51.740129],[19.63404,51.740129],[19.63404,51.740129],[19.63404,51.740129],[19.63404,51.740129],[19.63404,51.740129],[19.63404,51.740129],[19.63404,51.740129],[19.63404,51.740129],[19.63404,51.740129],[19.63404,51.740129],[19.636099,51.737869],[19.636099,51.737869],[19.636099,51.737869],[19.633977,51.735632],[19.633977,51.735632],[19.633977,51.735632],[19.633977,51.735632],[19.633977,51.735632],[19.633977,51.735632],[19.633977,51.735632],[19.633977,51.735632],[19.633977,51.735632],[19.633977,51.735632],[19.633977,51.735632],[19.633977,51.735632],[19.636036,51.733373],[19.636036,51.733373],[19.636036,51.733373],[19.633914,51.731136],[19.633914,51.731136],[19.633914,51.731136],[19.633914,51.731136],[19.633914,51.731136],[19.633914,51.731136],[19.633914,51.731136],[19.633914,51.731136],[19.633914,51.731136],[19.633914,51.731136],[19.633914,51.731136],[19.633914,51.731136],[19.635973,51.728876],[19.635973,51.728876],[19.635973,51.728876],[19.633851,51.726639],[19.633851,51.726639],[19.633851,51.726639],[19.633851,51.726639],[19.633851,51.726639],[19.633851,51.726639],[19.633851,51.726639],[19.633851,51.726639],[19.633851,51.726639],[19.633851,51.726639],[19.633851,51.726639],[19.633851,51.726639],[19.63591,51.724379],[19.63591,51.724379],[19.63591,51.724379],[19.633788,51.722142],[19.633788,51.722142],[19.633788,51.722142],[19.629608,51.722165],[19.629608,51.722165],[19.629608,51.722165],[19.629608,51.722165],[19.629608,51.722165],[19.629608,51.722165],[19.629608,51.722165],[19.629608,51.722165],[19.629608,51.722164],[19.629608,51.722164],[19.629608,51.722164],[19.629608,51.722164],[19.627487,51.719927],[19.627487,51.719927],[19.627487,51.719927],[19.627487,51.719927],[19.627487,51.719927],[19.627487,51.719927],[19.627487,51.719927],[19.627487,51.719927],[19.627487,51.719927],[19.627487,51.719927],[19.627487,51.719927],[19.627487,51.719927],[19.629546,51.717668],[19.629546,51.717668],[19.629546,51.717668],[19.627425,51.715431],[19.627425,51.715431],[19.627425,51.715431],[19.623245,51.715453],[19.623245,51.715453],[19.623245,51.715453],[19.623245,51.715453],[19.623245,51.715453],[19.623245,51.715453],[19.623245,51.715453],[19.623245,51.715453],[19.623245,51.715453],[19.623245,51.715453],[19.623245,51.715453],[19.623245,51.715453],[19.621124,51.713215],[19.621124,51.713215],[19.621124,51.713215],[19.621124,51.713215],[19.621124,51.713215],[19.621124,51.713215],[19.621124,51.713215],[19.621124,51.713215],[19.621124,51.713215],[19.621124,51.713215],[19.621124,51.713215],[19.621124,51.713215],[19.623183,51.710956],[19.623183,51.710956],[19.623183,51.710956],[19.621063,51.708719],[19.621063,51.708719],[19.621063,51.708719],[19.621063,51.708719],[19.621063,51.708719],[19.621063,51.708719],[19.621063,51.708719],[19.621063,51.708719],[19.621063,51.708719],[19.621063,51.708719],[19.621063,51.708719],[19.621063,51.708719],[19.623121,51.706459],[19.623121,51.706459],[19.623121,51.706459],[19.621001,51.704222],[19.621001,51.704222],[19.621001,51.704222],[19.616823,51.704244],[19.616823,51.704244],[19.616823,51.704244],[19.616823,51.704244],[19.616823,51.704244],[19.616823,51.704244],[19.616823,51.704244],[19.616823,51.704244],[19.616823,51.704244],[19.616823,51.704244],[19.616823,51.704244],[19.616823,51.704244],[19.614703,51.702006],[19.614703,51.702006],[19.614703,51.702006],[19.614703,51.702006],[19.614703,51.702006],[19.614703,51.702006],[19.614703,51.702006],[19.614703,51.702006],[19.614703,51.702006],[19.614703,51.702006],[19.614703,51.702006],[19.614703,51.702006],[19.616762,51.699747],[19.616762,51.699747],[19.616762,51.699747],[19.614642,51.69751],[19.614642,51.69751],[19.614642,51.69751],[19.610464,51.697531],[19.610464,51.697531],[19.610464,51.697531],[19.610464,51.697531],[19.610464,51.697531],[19.610464,51.697531],[19.610464,51.697531],[19.610464,51.697531],[19.610464,51.697531],[19.610464,51.697531],[19.610464,51.697531],[19.610464,51.697531],[19.608345,51.695294],[19.608345,51.695294],[19.608345,51.695294],[19.604167,51.695315],[19.604167,51.695315],[19.604167,51.695315],[19.604167,51.695315],[19.604167,51.695315],[19.604167,51.695315],[19.604167,51.695315],[19.604167,51.695315],[19.604167,51.695315],[19.604167,51.695315],[19.604167,51.695315],[19.604167,51.695315],[19.602049,51.693078],[19.602049,51.693078],[19.602049,51.693078],[19.597871,51.693099],[19.597871,51.693099],[19.597871,51.693099],[19.595812,51.695358],[19.595812,51.695358],[19.595812,51.695358],[19.595812,51.695358],[19.595812,51.695358],[19.595812,51.695358],[19.595812,51.695358],[19.595812,51.695358],[19.595812,51.695358],[19.595812,51.695358],[19.595812,51.695358],[19.595812,51.695358],[19.591634,51.695379],[19.591634,51.695379],[19.591634,51.695379],[19.589575,51.697638],[19.589575,51.697638],[19.589575,51.697638],[19.589575,51.697638],[19.589575,51.697638],[19.589575,51.697638],[19.589575,51.697638],[19.589574,51.697638],[19.589574,51.697638],[19.589574,51.697638],[19.589574,51.697638],[19.589574,51.697638],[19.585397,51.697659],[19.585397,51.697659],[19.585397,51.697659],[19.583337,51.699918],[19.583337,51.699918],[19.583337,51.699918],[19.583337,51.699918],[19.583337,51.699918],[19.583337,51.699918],[19.583336,51.699918],[19.583336,51.699918],[19.583336,51.699918],[19.583336,51.699918],[19.583336,51.699918],[19.583336,51.699918],[19.579158,51.699938],[19.579158,51.699938],[19.579158,51.699938],[19.577098,51.702197],[19.577098,51.702197],[19.577098,51.702197],[19.577098,51.702197],[19.577098,51.702197],[19.577098,51.702197],[19.577098,51.702197],[19.577098,51.702197],[19.577098,51.702197],[19.577098,51.702197],[19.577098,51.702197],[19.577098,51.702197],[19.57292,51.702218],[19.57292,51.702218],[19.57292,51.702218],[19.57292,51.702218],[19.57292,51.702218],[19.57292,51.702218],[19.572919,51.702218],[19.572919,51.702218],[19.572919,51.702218],[19.572919,51.702218],[19.572919,51.702218],[19.572919,51.702218],[19.570802,51.699979],[19.570802,51.699979],[19.570802,51.699979],[19.566624,51.7],[19.566624,51.7],[19.566624,51.7],[19.566624,51.7],[19.566624,51.7],[19.566624,51.7],[19.566624,51.7],[19.566624,51.7],[19.566624,51.7],[19.566624,51.7],[19.566624,51.7],[19.566624,51.7],[19.564507,51.697761],[19.564507,51.697761],[19.564507,51.697761],[19.564507,51.697761],[19.564507,51.697761],[19.564507,51.697761],[19.564507,51.697761],[19.564507,51.697761],[19.564507,51.697761],[19.564507,51.697761],[19.564507,51.697761],[19.564507,51.697761],[19.566568,51.695503],[19.566568,51.695503],[19.566568,51.695503],[19.564451,51.693264],[19.564451,51.693264],[19.564451,51.693264],[19.560273,51.693284],[19.560273,51.693284],[19.560273,51.693284],[19.558212,51.695543],[19.558212,51.695543],[19.558212,51.695543],[19.558212,51.695543],[19.558212,51.695543],[19.558212,51.695543],[19.558212,51.695543],[19.558212,51.695543],[19.558212,51.695543],[19.558212,51.695543],[19.558212,51.695543],[19.558212,51.695543],[19.554034,51.695563],[19.554034,51.695563],[19.554034,51.695563],[19.554034,51.695563],[19.554034,51.695563],[19.554034,51.695563],[19.554034,51.695563],[19.554034,51.695563],[19.554034,51.695562],[19.554034,51.695562],[19.554034,51.695562],[19.554034,51.695562],[19.551918,51.693324],[19.551918,51.693324],[19.551918,51.693324],[19.547741,51.693343],[19.547741,51.693343],[19.547741,51.693343],[19.547741,51.693343],[19.547741,51.693343],[19.547741,51.693343],[19.547741,51.693343],[19.547741,51.693343],[19.547741,51.693343],[19.547741,51.693343],[19.547741,51.693343],[19.54774,51.693343],[19.545625,51.691105],[19.545625,51.691105],[19.545625,51.691105],[19.541447,51.691124],[19.541447,51.691124],[19.541447,51.691124],[19.539385,51.693382],[19.539385,51.693382],[19.539385,51.693382],[19.539385,51.693382],[19.539385,51.693382],[19.539385,51.693382],[19.539385,51.693382],[19.539385,51.693382],[19.539385,51.693382],[19.539385,51.693382],[19.539385,51.693382],[19.539385,51.693382],[19.535208,51.693401],[19.535208,51.693401],[19.535208,51.693401],[19.535208,51.693401],[19.535208,51.693401],[19.535208,51.693401],[19.535208,51.693401],[19.535208,51.693401],[19.535208,51.693401],[19.535208,51.693401],[19.535208,51.693401],[19.535208,51.693401],[19.533093,51.691162],[19.533093,51.691162],[19.533093,51.691162],[19.533093,51.691162],[19.533093,51.691162],[19.533093,51.691162],[19.533093,51.691162],[19.533093,51.691162],[19.533093,51.691162],[19.533093,51.691162],[19.533093,51.691162],[19.533093,51.691162],[19.535155,51.688904],[19.535155,51.688904],[19.535155,51.688904],[19.53304,51.686665],[19.53304,51.686665],[19.53304,51.686665],[19.528863,51.686684],[19.528863,51.686684],[19.528863,51.686684],[19.5268,51.688942],[19.5268,51.688942],[19.5268,51.688942],[19.5268,51.688942],[19.5268,51.688942],[19.5268,51.688942],[19.5268,51.688942],[19.5268,51.688942],[19.5268,51.688942],[19.5268,51.688942],[19.5268,51.688942],[19.5268,51.688942],[19.522623,51.688961],[19.522623,51.688961],[19.522623,51.688961],[19.522623,51.688961],[19.522623,51.688961],[19.522623,51.688961],[19.522623,51.688961],[19.522623,51.688961],[19.522623,51.688961],[19.522623,51.688961],[19.522623,51.688961],[19.522623,51.688961],[19.520509,51.686722],[19.520509,51.686722],[19.520509,51.686722],[19.516332,51.68674],[19.516332,51.68674],[19.516332,51.68674],[19.514269,51.688998],[19.514269,51.688998],[19.514269,51.688998],[19.514269,51.688998],[19.514269,51.688998],[19.514269,51.688998],[19.514269,51.688998],[19.514269,51.688998],[19.514269,51.688998],[19.514269,51.688998],[19.514269,51.688998],[19.514269,51.688998],[19.510092,51.689016],[19.510092,51.689016],[19.510092,51.689016],[19.508028,51.691273],[19.508028,51.691273],[19.508028,51.691273],[19.510142,51.693513],[19.510142,51.693513],[19.510142,51.693513],[19.510142,51.693513],[19.510142,51.693513],[19.510142,51.693513],[19.510142,51.693513],[19.510142,51.693513],[19.510142,51.693513],[19.510142,51.693513],[19.510142,51.693513],[19.510142,51.693513],[19.508079,51.69577],[19.508079,51.69577],[19.508079,51.69577],[19.508079,51.69577],[19.508079,51.69577],[19.508079,51.69577],[19.508078,51.69577],[19.508078,51.69577],[19.508078,51.69577],[19.508078,51.69577],[19.508078,51.69577],[19.508078,51.69577],[19.503901,51.695788],[19.503901,51.695788],[19.503901,51.695788],[19.503901,51.695788],[19.503901,51.695788],[19.503901,51.695788],[19.503901,51.695788],[19.503901,51.695788],[19.503901,51.695788],[19.503901,51.695788],[19.503901,51.695788],[19.503901,51.695788],[19.501787,51.693549],[19.501787,51.693549],[19.501787,51.693549],[19.497609,51.693567],[19.497609,51.693567],[19.497609,51.693567],[19.495545,51.695824],[19.495545,51.695824],[19.495545,51.695824],[19.495545,51.695824],[19.495545,51.695824],[19.495545,51.695824],[19.495545,51.695824],[19.495545,51.695824],[19.495545,51.695824],[19.495545,51.695824],[19.495545,51.695824],[19.495545,51.695824],[19.491367,51.695841],[19.491367,51.695841],[19.491367,51.695841],[19.489303,51.698098],[19.489303,51.698098],[19.489303,51.698098],[19.489302,51.698098],[19.489302,51.698098],[19.489302,51.698098],[19.489302,51.698098],[19.489302,51.698098],[19.489302,51.698098],[19.489302,51.698098],[19.489302,51.698098],[19.489302,51.698098],[19.485125,51.698116],[19.485124,51.698116],[19.485124,51.698116],[19.485124,51.698116],[19.485124,51.698116],[19.485124,51.698116],[19.485124,51.698116],[19.485124,51.698116],[19.485124,51.698116],[19.485124,51.698116],[19.485124,51.698116],[19.485124,51.698116],[19.483011,51.695876],[19.483011,51.695876],[19.483011,51.695876],[19.478834,51.695893],[19.478834,51.695893],[19.478834,51.695893],[19.478834,51.695893],[19.478834,51.695893],[19.478834,51.695893],[19.478834,51.695893],[19.478834,51.695893],[19.478834,51.695893],[19.478834,51.695893],[19.478834,51.695893],[19.478834,51.695893],[19.476721,51.693653],[19.476721,51.693653],[19.476721,51.693653],[19.472543,51.69367],[19.472543,51.69367],[19.472543,51.69367],[19.472543,51.69367],[19.472543,51.69367],[19.472543,51.69367],[19.472543,51.69367],[19.472543,51.69367],[19.472543,51.69367],[19.472543,51.69367],[19.472543,51.69367],[19.472543,51.69367],[19.470431,51.69143],[19.470431,51.69143],[19.470431,51.69143],[19.470431,51.69143],[19.470431,51.69143],[19.470431,51.69143],[19.470431,51.69143],[19.470431,51.69143],[19.470431,51.69143],[19.470431,51.69143],[19.470431,51.69143],[19.470431,51.69143],[19.472497,51.689173],[19.472497,51.689173],[19.472497,51.689173],[19.470385,51.686933],[19.470385,51.686933],[19.470385,51.686933],[19.466208,51.68695],[19.466208,51.68695],[19.466208,51.68695],[19.466208,51.68695],[19.466208,51.68695],[19.466208,51.68695],[19.466208,51.68695],[19.466208,51.68695],[19.466208,51.68695],[19.466208,51.68695],[19.466208,51.68695],[19.466208,51.68695],[19.464096,51.684709],[19.464096,51.684709],[19.464096,51.684709],[19.459919,51.684726],[19.459919,51.684726],[19.459919,51.684726],[19.457854,51.686982],[19.457854,51.686982],[19.457854,51.686982],[19.457854,51.686982],[19.457854,51.686982],[19.457853,51.686983],[19.457853,51.686983],[19.457853,51.686983],[19.457853,51.686983],[19.457853,51.686983],[19.457853,51.686983],[19.457853,51.686983],[19.453677,51.686999],[19.453677,51.686999],[19.453677,51.686999],[19.453676,51.686999],[19.453676,51.686999],[19.453676,51.686999],[19.453676,51.686999],[19.453676,51.686999],[19.453676,51.686999],[19.453676,51.686999],[19.453676,51.686999],[19.453676,51.686999],[19.451566,51.684758],[19.451566,51.684758],[19.451566,51.684758],[19.447389,51.684774],[19.447389,51.684774],[19.447389,51.684774],[19.445322,51.687031],[19.445322,51.687031],[19.445322,51.687031],[19.445322,51.687031],[19.445322,51.687031],[19.445322,51.687031],[19.445322,51.687031],[19.445322,51.687031],[19.445322,51.687031],[19.445322,51.687031],[19.445322,51.687031],[19.445322,51.687031],[19.441145,51.687046],[19.441145,51.687046],[19.441145,51.687046],[19.441145,51.687046],[19.441145,51.687046],[19.441145,51.687046],[19.441145,51.687046],[19.441145,51.687046],[19.441145,51.687046],[19.441145,51.687046],[19.441145,51.687046],[19.441145,51.687046],[19.439035,51.684806],[19.439035,51.684806],[19.439035,51.684806],[19.434858,51.684821],[19.434858,51.684821],[19.434858,51.684821],[19.434858,51.684821],[19.434858,51.684821],[19.434858,51.684821],[19.434858,51.684821],[19.434858,51.684821],[19.434858,51.684821],[19.434858,51.684821],[19.434858,51.684821],[19.434858,51.684821],[19.432748,51.682581],[19.432748,51.682581],[19.432748,51.682581],[19.428572,51.682596],[19.428572,51.682596],[19.428572,51.682596],[19.426504,51.684852],[19.426504,51.684852],[19.426504,51.684852],[19.426504,51.684852],[19.426504,51.684852],[19.426504,51.684852],[19.426504,51.684852],[19.426504,51.684852],[19.426504,51.684852],[19.426504,51.684852],[19.426504,51.684852],[19.426504,51.684852],[19.422328,51.684867],[19.422328,51.684867],[19.422328,51.684867],[19.42026,51.687123],[19.42026,51.687123],[19.42026,51.687123],[19.42026,51.687123],[19.42026,51.687123],[19.42026,51.687123],[19.42026,51.687123],[19.42026,51.687123],[19.42026,51.687123],[19.42026,51.687123],[19.42026,51.687123],[19.42026,51.687123],[19.416083,51.687138],[19.416083,51.687138],[19.416083,51.687138],[19.414015,51.689394],[19.414015,51.689394],[19.414015,51.689394],[19.416124,51.691635],[19.416124,51.691635],[19.416124,51.691635],[19.416124,51.691635],[19.416124,51.691635],[19.416124,51.691635],[19.416124,51.691635],[19.416124,51.691635],[19.416124,51.691635],[19.416124,51.691635],[19.416124,51.691635],[19.416124,51.691635],[19.414056,51.693891],[19.414056,51.693891],[19.414056,51.693891],[19.414056,51.693891],[19.414056,51.693891],[19.414056,51.693891],[19.414056,51.693891],[19.414056,51.693891],[19.414056,51.693891],[19.414056,51.693891],[19.414056,51.693891],[19.414056,51.693891],[19.409878,51.693905],[19.409878,51.693905],[19.409878,51.693905],[19.409878,51.693905],[19.409878,51.693905],[19.409878,51.693905],[19.409878,51.693905],[19.409878,51.693905],[19.409878,51.693905],[19.409878,51.693905],[19.409878,51.693905],[19.409878,51.693905],[19.407769,51.691664],[19.407769,51.691664],[19.407769,51.691664],[19.403592,51.691679],[19.403592,51.691679],[19.403592,51.691679],[19.403592,51.691679],[19.403592,51.691679],[19.403592,51.691679],[19.403592,51.691679],[19.403591,51.691679],[19.403591,51.691679],[19.403591,51.691679],[19.403591,51.691679],[19.403591,51.691679],[19.401483,51.689437],[19.401483,51.689437],[19.401483,51.689437],[19.397306,51.689451],[19.397306,51.689451],[19.397306,51.689451],[19.395237,51.691707],[19.395237,51.691707],[19.395236,51.691707],[19.395236,51.691707],[19.395236,51.691707],[19.395236,51.691707],[19.395236,51.691707],[19.395236,51.691707],[19.395236,51.691707],[19.395236,51.691707],[19.395236,51.691707],[19.395236,51.691707],[19.391059,51.691721],[19.391059,51.691721],[19.391059,51.691721],[19.38899,51.693976],[19.388989,51.693976],[19.388989,51.693976],[19.388989,51.693976],[19.388989,51.693976],[19.388989,51.693976],[19.388989,51.693976],[19.388989,51.693976],[19.388989,51.693976],[19.388989,51.693976],[19.388989,51.693976],[19.388989,51.693976],[19.384812,51.69399],[19.384812,51.69399],[19.384812,51.69399],[19.384812,51.69399],[19.384812,51.69399],[19.384812,51.69399],[19.384812,51.69399],[19.384812,51.69399],[19.384812,51.69399],[19.384812,51.69399],[19.384812,51.69399],[19.384812,51.69399],[19.382704,51.691748],[19.382704,51.691748],[19.382704,51.691748],[19.378526,51.691762],[19.378526,51.691762],[19.378526,51.691762],[19.376456,51.694017],[19.376456,51.694017],[19.376456,51.694017],[19.376456,51.694017],[19.376456,51.694017],[19.376456,51.694017],[19.376456,51.694017],[19.376456,51.694017],[19.376456,51.694017],[19.376456,51.694017],[19.376456,51.694017],[19.376456,51.694017],[19.372279,51.69403],[19.372279,51.69403],[19.372279,51.69403],[19.370208,51.696286],[19.370208,51.696286],[19.370208,51.696286],[19.370208,51.696286],[19.370208,51.696286],[19.370208,51.696286],[19.370208,51.696286],[19.370208,51.696286],[19.370208,51.696286],[19.370208,51.696286],[19.370208,51.696286],[19.370208,51.696286],[19.36603,51.696299],[19.36603,51.696299],[19.36603,51.696299],[19.36603,51.696299],[19.36603,51.696299],[19.36603,51.696299],[19.36603,51.696299],[19.36603,51.696299],[19.36603,51.696299],[19.36603,51.696299],[19.36603,51.696299],[19.36603,51.696299],[19.363923,51.694057],[19.363923,51.694057],[19.363923,51.694057],[19.359745,51.69407],[19.359745,51.69407],[19.359745,51.69407],[19.357674,51.696324],[19.357674,51.696324],[19.357674,51.696324],[19.359781,51.698566],[19.359781,51.698566],[19.359781,51.698566],[19.359781,51.698566],[19.359781,51.698566],[19.359781,51.698567],[19.359781,51.698567],[19.359781,51.698567],[19.359781,51.698567],[19.359781,51.698567],[19.359781,51.698567],[19.359781,51.698567],[19.35771,51.700821],[19.35771,51.700821],[19.35771,51.700821],[19.35771,51.700821],[19.35771,51.700821],[19.35771,51.700821],[19.35771,51.700821],[19.35771,51.700821],[19.35771,51.700821],[19.357709,51.700821],[19.357709,51.700821],[19.357709,51.700821],[19.353531,51.700834],[19.353531,51.700834],[19.353531,51.700834],[19.351459,51.703089],[19.351459,51.703089],[19.351459,51.703089],[19.351459,51.703089],[19.351459,51.703089],[19.351459,51.703089],[19.351459,51.703089],[19.351459,51.703089],[19.351459,51.703089],[19.351459,51.703089],[19.351459,51.703089],[19.351459,51.703089],[19.347281,51.703101],[19.347281,51.703101],[19.347281,51.703101],[19.345209,51.705356],[19.345209,51.705356],[19.345209,51.705356],[19.347315,51.707598],[19.347315,51.707598],[19.347315,51.707598],[19.347315,51.707598],[19.347315,51.707598],[19.347315,51.707598],[19.347315,51.707598],[19.347315,51.707598],[19.347315,51.707598],[19.347315,51.707598],[19.347315,51.707598],[19.347315,51.707598],[19.345243,51.709853],[19.345243,51.709853],[19.345243,51.709853],[19.34735,51.712095],[19.34735,51.712095],[19.34735,51.712095],[19.34735,51.712095],[19.34735,51.712095],[19.34735,51.712095],[19.34735,51.712095],[19.34735,51.712095],[19.34735,51.712095],[19.34735,51.712095],[19.34735,51.712095],[19.34735,51.712095],[19.345277,51.71435],[19.345277,51.71435],[19.345277,51.71435],[19.345277,51.71435],[19.345277,51.71435],[19.345277,51.71435],[19.345277,51.71435],[19.345277,51.71435],[19.345277,51.71435],[19.345277,51.71435],[19.345277,51.71435],[19.345277,51.71435],[19.341097,51.714362],[19.341097,51.714362],[19.341097,51.714362],[19.339024,51.716617],[19.339024,51.716617],[19.339024,51.716617],[19.341131,51.718859],[19.341131,51.718859],[19.341131,51.718859],[19.341131,51.718859],[19.341131,51.718859],[19.341131,51.718859],[19.341131,51.718859],[19.341131,51.718859],[19.341131,51.718859],[19.341131,51.718859],[19.341131,51.718859],[19.341131,51.718859],[19.339058,51.721113],[19.339058,51.721113],[19.339058,51.721113],[19.339058,51.721113],[19.339058,51.721113],[19.339058,51.721113],[19.339058,51.721113],[19.339058,51.721113],[19.339058,51.721113],[19.339058,51.721113],[19.339058,51.721113],[19.339058,51.721113],[19.334878,51.721125],[19.334878,51.721125],[19.334878,51.721125],[19.332804,51.72338],[19.332804,51.72338],[19.332804,51.72338],[19.334911,51.725622],[19.334911,51.725622],[19.334911,51.725622],[19.334911,51.725622],[19.334911,51.725622],[19.334911,51.725622],[19.334911,51.725622],[19.334911,51.725622],[19.334911,51.725622],[19.334911,51.725622],[19.334911,51.725622],[19.334911,51.725622],[19.332837,51.727877],[19.332837,51.727877],[19.332837,51.727877],[19.334944,51.730119],[19.334944,51.730119],[19.334944,51.730119],[19.334944,51.730119],[19.334944,51.730119],[19.334944,51.730119],[19.334944,51.730119],[19.334944,51.730119],[19.334944,51.730119],[19.334944,51.730119],[19.334944,51.730119],[19.334944,51.730119],[19.33287,51.732374],[19.33287,51.732374],[19.33287,51.732374],[19.334977,51.734616],[19.334978,51.734616],[19.334978,51.734616],[19.334978,51.734616],[19.334978,51.734616],[19.334978,51.734616],[19.334978,51.734616],[19.334978,51.734616],[19.334978,51.734616],[19.334978,51.734616],[19.334978,51.734616],[19.334977,51.734616],[19.332903,51.736871],[19.332903,51.736871],[19.332903,51.736871],[19.335011,51.739113],[19.335011,51.739113],[19.335011,51.739113],[19.335011,51.739113],[19.335011,51.739113],[19.335011,51.739113],[19.335011,51.739113],[19.335011,51.739113],[19.335011,51.739113],[19.335011,51.739113],[19.335011,51.739113],[19.335011,51.739113],[19.332936,51.741368],[19.332936,51.741368],[19.332936,51.741368],[19.335044,51.74361],[19.335044,51.74361],[19.335044,51.74361],[19.339226,51.743598],[19.339226,51.743598],[19.339226,51.743598],[19.341301,51.741344],[19.341301,51.741344],[19.341301,51.741344],[19.341301,51.741344],[19.341301,51.741344],[19.341301,51.741344],[19.341301,51.741344],[19.341301,51.741344],[19.341301,51.741344],[19.341301,51.741344],[19.341301,51.741344],[19.341301,51.741344],[19.345483,51.741332],[19.345483,51.741332],[19.345483,51.741332],[19.345483,51.741332],[19.345483,51.741332],[19.345483,51.741332],[19.345483,51.741332],[19.345483,51.741332],[19.345483,51.741332],[19.345483,51.741332],[19.345483,51.741332],[19.345483,51.741332],[19.347591,51.743574],[19.347591,51.743574],[19.347591,51.743574],[19.351773,51.743561],[19.351773,51.743561],[19.351773,51.743561],[19.351773,51.743561],[19.351773,51.743561],[19.351773,51.743561],[19.351773,51.743561],[19.351773,51.743561],[19.351773,51.743561],[19.351773,51.743561],[19.351773,51.743561],[19.351773,51.743561],[19.353882,51.745804],[19.353882,51.745804],[19.353882,51.745804],[19.358065,51.745791],[19.358065,51.745791],[19.358065,51.745791],[19.360138,51.743536],[19.360138,51.743536],[19.360138,51.743536],[19.360138,51.743536],[19.360138,51.743536],[19.360138,51.743536],[19.360138,51.743536],[19.360138,51.743536],[19.360138,51.743536],[19.360138,51.743536],[19.360138,51.743536],[19.360138,51.743536],[19.36432,51.743523],[19.36432,51.743523],[19.36432,51.743523],[19.36432,51.743523],[19.36432,51.743523],[19.36432,51.743523],[19.36432,51.743523],[19.36432,51.743523],[19.36432,51.743523],[19.36432,51.743523],[19.36432,51.743523],[19.36432,51.743523],[19.36643,51.745765],[19.36643,51.745765],[19.36643,51.745765],[19.36643,51.745765],[19.36643,51.745765],[19.36643,51.745765],[19.36643,51.745765],[19.36643,51.745765],[19.36643,51.745765],[19.36643,51.745765],[19.36643,51.745765],[19.36643,51.745765],[19.364356,51.74802],[19.364356,51.74802],[19.364356,51.74802],[19.366466,51.750262],[19.366466,51.750262],[19.366466,51.750262],[19.366466,51.750262],[19.366466,51.750262],[19.366466,51.750262],[19.366466,51.750262],[19.366466,51.750262],[19.366466,51.750262],[19.366466,51.750262],[19.366466,51.750262],[19.366466,51.750262],[19.364393,51.752517],[19.364393,51.752517],[19.364393,51.752517],[19.366502,51.754759],[19.366502,51.754759],[19.366502,51.754759],[19.366502,51.754759],[19.366502,51.754759],[19.366502,51.754759],[19.366502,51.754759],[19.366502,51.754759],[19.366502,51.754759],[19.366502,51.754759],[19.366502,51.754759],[19.366502,51.754759],[19.364429,51.757014],[19.364429,51.757014],[19.364429,51.757014],[19.364429,51.757014],[19.364429,51.757014],[19.364429,51.757014],[19.364429,51.757014],[19.364429,51.757014],[19.364429,51.757014],[19.364429,51.757014],[19.364429,51.757014],[19.364429,51.757014],[19.360245,51.757027],[19.360245,51.757027],[19.360245,51.757027],[19.360245,51.757027],[19.360245,51.757027],[19.360245,51.757027],[19.360245,51.757027],[19.360245,51.757027],[19.360245,51.757027],[19.360245,51.757027],[19.360245,51.757027],[19.360245,51.757027],[19.358136,51.754785],[19.358136,51.754785],[19.358136,51.754785],[19.353952,51.754797],[19.353952,51.754797],[19.353952,51.754797],[19.351878,51.757052],[19.351878,51.757052],[19.351878,51.757052],[19.351878,51.757052],[19.351878,51.757052],[19.351878,51.757052],[19.351878,51.757052],[19.351878,51.757052],[19.351878,51.757052],[19.351878,51.757052],[19.351878,51.757052],[19.351878,51.757052],[19.347695,51.757065],[19.347695,51.757065],[19.347695,51.757065],[19.34562,51.759319],[19.34562,51.759319],[19.34562,51.759319],[19.347729,51.761562],[19.347729,51.761562],[19.347729,51.761562],[19.347729,51.761562],[19.347729,51.761562],[19.347729,51.761562],[19.347729,51.761562],[19.347729,51.761562],[19.347729,51.761562],[19.347729,51.761562],[19.347729,51.761562],[19.347729,51.761562],[19.345654,51.763816],[19.345654,51.763816],[19.345654,51.763816],[19.345654,51.763816],[19.345654,51.763816],[19.345654,51.763816],[19.345654,51.763816],[19.345654,51.763816],[19.345654,51.763816],[19.345654,51.763816],[19.345654,51.763816],[19.345654,51.763816],[19.34147,51.763828],[19.34147,51.763828],[19.34147,51.763828],[19.339395,51.766083],[19.339395,51.766083],[19.339395,51.766083],[19.339395,51.766083],[19.339395,51.766083],[19.339395,51.766083],[19.339395,51.766083],[19.339395,51.766083],[19.339395,51.766083],[19.339395,51.766083],[19.339395,51.766083],[19.339395,51.766083],[19.33521,51.766095],[19.33521,51.766095],[19.33521,51.766095],[19.333135,51.768349],[19.333135,51.768349],[19.333135,51.768349],[19.335244,51.770592],[19.335244,51.770592],[19.335244,51.770592],[19.335244,51.770592],[19.335244,51.770592],[19.335244,51.770592],[19.335244,51.770592],[19.335244,51.770592],[19.335244,51.770592],[19.335244,51.770592],[19.335244,51.770592],[19.335244,51.770592],[19.333168,51.772846],[19.333168,51.772846],[19.333168,51.772846],[19.335277,51.775089],[19.335277,51.775089],[19.335277,51.775089],[19.339462,51.775077],[19.339462,51.775077],[19.339462,51.775077],[19.339462,51.775077],[19.339462,51.775077],[19.339462,51.775077],[19.339462,51.775077],[19.339462,51.775077],[19.339462,51.775077],[19.339462,51.775077],[19.339462,51.775077],[19.339462,51.775077],[19.341572,51.777319],[19.341572,51.777319],[19.341572,51.777319],[19.341572,51.777319],[19.341572,51.777319],[19.341572,51.777319],[19.341572,51.777319],[19.341572,51.777319],[19.341572,51.777319],[19.341572,51.777319],[19.341572,51.777319],[19.341572,51.777319],[19.339496,51.779574],[19.339496,51.779574],[19.339496,51.779574],[19.339496,51.779574],[19.339496,51.779574],[19.339496,51.779574],[19.339496,51.779574],[19.339496,51.779574],[19.339496,51.779574],[19.339496,51.779574],[19.339496,51.779574],[19.339496,51.779574],[19.33531,51.779586],[19.33531,51.779586],[19.33531,51.779586],[19.333234,51.78184],[19.333234,51.78184],[19.333234,51.78184],[19.335344,51.784083],[19.335344,51.784083],[19.335344,51.784083],[19.335344,51.784083],[19.335344,51.784083],[19.335344,51.784083],[19.335344,51.784083],[19.335344,51.784083],[19.335344,51.784083],[19.335344,51.784083],[19.335344,51.784083],[19.335344,51.784083],[19.333267,51.786337],[19.333267,51.786337],[19.333267,51.786337],[19.335377,51.78858],[19.335377,51.78858],[19.335377,51.78858],[19.339564,51.788568],[19.339564,51.788568],[19.339564,51.788568],[19.34164,51.786313],[19.34164,51.786313],[19.34164,51.786313],[19.34164,51.786313],[19.34164,51.786313],[19.34164,51.786313],[19.34164,51.786313],[19.34164,51.786313],[19.34164,51.786313],[19.34164,51.786313],[19.34164,51.786313],[19.34164,51.786313],[19.345826,51.786301],[19.345826,51.786301],[19.345826,51.786301],[19.345826,51.786301],[19.345826,51.786301],[19.345826,51.786301],[19.345826,51.786301],[19.345826,51.786301],[19.345826,51.786301],[19.345826,51.786301],[19.345826,51.786301],[19.345826,51.786301],[19.347937,51.788543],[19.347937,51.788543],[19.347937,51.788543],[19.352123,51.788531],[19.352123,51.788531],[19.352123,51.788531],[19.352123,51.788531],[19.352123,51.788531],[19.352123,51.788531],[19.352123,51.788531],[19.352123,51.788531],[19.352123,51.788531],[19.352123,51.788531],[19.352123,51.788531],[19.352123,51.788531],[19.354234,51.790773],[19.354234,51.790773],[19.354234,51.790773],[19.354234,51.790773],[19.354234,51.790773],[19.354234,51.790773],[19.354234,51.790773],[19.354234,51.790773],[19.354234,51.790773],[19.354234,51.790773],[19.354234,51.790773],[19.354234,51.790773],[19.352158,51.793027],[19.352158,51.793027],[19.352158,51.793027],[19.352158,51.793028],[19.352158,51.793028],[19.352158,51.793028],[19.352158,51.793028],[19.352158,51.793028],[19.352158,51.793028],[19.352158,51.793028],[19.352158,51.793028],[19.352158,51.793028],[19.347971,51.79304],[19.347971,51.79304],[19.347971,51.79304],[19.345895,51.795295],[19.345895,51.795295],[19.345895,51.795295],[19.345895,51.795295],[19.345895,51.795295],[19.345895,51.795295],[19.345895,51.795295],[19.345895,51.795295],[19.345895,51.795295],[19.345895,51.795295],[19.345895,51.795295],[19.345895,51.795295],[19.341708,51.795307],[19.341708,51.795307],[19.341708,51.795307],[19.341708,51.795307],[19.341708,51.795307],[19.341708,51.795307],[19.341708,51.795307],[19.341708,51.795307],[19.341708,51.795307],[19.341708,51.795307],[19.341708,51.795307],[19.341708,51.795307],[19.339597,51.793064],[19.339597,51.793064],[19.339597,51.793064],[19.33541,51.793076],[19.33541,51.793076],[19.33541,51.793076],[19.333334,51.795331],[19.333334,51.795331],[19.333334,51.795331],[19.333334,51.795331],[19.333334,51.795331],[19.333334,51.795331],[19.333334,51.795331],[19.333334,51.795331],[19.333334,51.795331],[19.333334,51.795331],[19.333334,51.795331],[19.333334,51.795331],[19.329146,51.795343],[19.329146,51.795343],[19.329146,51.795343],[19.327069,51.797597],[19.327069,51.797597],[19.327069,51.797597],[19.327069,51.797597],[19.327069,51.797597],[19.327069,51.797597],[19.327069,51.797597],[19.327069,51.797597],[19.327069,51.797597],[19.327069,51.797597],[19.327069,51.797597],[19.327069,51.797597],[19.322882,51.797609],[19.322882,51.797609],[19.322882,51.797609],[19.320804,51.799863],[19.320804,51.799863]]]}}]}