{"type":"FeatureCollection","name":"hex500","crs":{"type":"name","properties":{"name":"urn:ogc:def:crs:OGC:1.3:CRS84"}},"xy_coordinate_resolution":1e-06,"features":[{"type":"Feature","properties":{"hex_id":366,"pop_20_29":27.0,"total_30min":2,"dominant_label":"Uniwersytet Gdański","dominant_role":"uniwersytet","politechnika_30min":0,"uniwersytet_30min":2,"medyczny_30min":0},"geometry":{"type":"Polygon","coordinates":[[[18.542636,54.407132],[18.544835,54.409388],[18.549284,54.409404],[18.551533,54.407165],[18.549333,54.404909],[18.544885,54.404893],[18.542636,54.407132]]]}},{"type":"Feature","properties":{"hex_id":390,"pop_20_29":240.0,"total_30min":2,"dominant_label":"Uniwersytet Gdański","dominant_role":"uniwersytet","politechnika_30min":0,"uniwersytet_30min":2,"medyczny_30min":0},"geometry":{"type":"Polygon","coordinates":[[[18.549235,54.413899],[18.551435,54.416155],[18.555884,54.416171],[18.558133,54.413932],[18.555933,54.411676],[18.551484,54.41166],[18.549235,54.413899]]]}},{"type":"Feature","properties":{"hex_id":391,"pop_20_29":62.0,"total_30min":4,"dominant_label":"Uniwersytet Gdański","dominant_role":"uniwersytet","politechnika_30min":0,"uniwersytet_30min":4,"medyczny_30min":0},"geometry":{"type":"Polygon","coordinates":[[[18.549284,54.409404],[18.551484,54.41166],[18.555933,54.411676],[18.558182,54.409437],[18.555982,54.407182],[18.551533,54.407165],[18.549284,54.409404]]]}},{"type":"Feature","properties":{"hex_id":392,"pop_20_29":57.0,"total_30min":3,"dominant_label":"Uniwersytet Gdański","dominant_role":"uniwersytet","politechnika_30min":0,"uniwersytet_30min":3,"medyczny_30min":0},"geometry":{"type":"Polygon","coordinates":[[[18.549333,54.404909],[18.551533,54.407165],[18.555982,54.407182],[18.55823,54.404942],[18.55603,54.402687],[18.551582,54.40267],[18.549333,54.404909]]]}},{"type":"Feature","properties":{"hex_id":415,"pop_20_29":133.0,"total_30min":2,"dominant_label":"Uniwersytet Gdański","dominant_role":"uniwersytet","politechnika_30min":0,"uniwersytet_30min":2,"medyczny_30min":0},"geometry":{"type":"Polygon","coordinates":[[[18.555884,54.416171],[18.558085,54.418427],[18.562535,54.418443],[18.564784,54.416204],[18.562583,54.413948],[18.558133,54.413932],[18.555884,54.416171]]]}},{"type":"Feature","properties":{"hex_id":416,"pop_20_29":51.0,"total_30min":4,"dominant_label":"Uniwersytet Gdański","dominant_role":"uniwersytet","politechnika_30min":0,"uniwersytet_30min":4,"medyczny_30min":0},"geometry":{"type":"Polygon","coordinates":[[[18.555933,54.411676],[18.558133,54.413932],[18.562583,54.413948],[18.564831,54.411709],[18.562631,54.409453],[18.558182,54.409437],[18.555933,54.411676]]]}},{"type":"Feature","properties":{"hex_id":417,"pop_20_29":155.0,"total_30min":4,"dominant_label":"Uniwersytet Gdański","dominant_role":"uniwersytet","politechnika_30min":0,"uniwersytet_30min":4,"medyczny_30min":0},"geometry":{"type":"Polygon","coordinates":[[[18.555982,54.407182],[18.558182,54.409437],[18.562631,54.409453],[18.564879,54.407214],[18.562678,54.404958],[18.55823,54.404942],[18.555982,54.407182]]]}},{"type":"Feature","properties":{"hex_id":418,"pop_20_29":125.0,"total_30min":4,"dominant_label":"Uniwersytet Gdański","dominant_role":"uniwersytet","politechnika_30min":0,"uniwersytet_30min":4,"medyczny_30min":0},"geometry":{"type":"Polygon","coordinates":[[[18.55603,54.402687],[18.55823,54.404942],[18.562678,54.404958],[18.564926,54.402719],[18.562726,54.400464],[18.558278,54.400447],[18.55603,54.402687]]]}},{"type":"Feature","properties":{"hex_id":439,"pop_20_29":238.0,"total_30min":2,"dominant_label":"Uniwersytet Gdański","dominant_role":"uniwersytet","politechnika_30min":0,"uniwersytet_30min":2,"medyczny_30min":0},"geometry":{"type":"Polygon","coordinates":[[[18.562535,54.418443],[18.564736,54.420699],[18.569186,54.420714],[18.571435,54.418475],[18.569233,54.41622],[18.564784,54.416204],[18.562535,54.418443]]]}},{"type":"Feature","properties":{"hex_id":440,"pop_20_29":143.0,"total_30min":4,"dominant_label":"Uniwersytet Gdański","dominant_role":"uniwersytet","politechnika_30min":0,"uniwersytet_30min":4,"medyczny_30min":0},"geometry":{"type":"Polygon","coordinates":[[[18.562583,54.413948],[18.564784,54.416204],[18.569233,54.41622],[18.571481,54.41398],[18.56928,54.411725],[18.564831,54.411709],[18.562583,54.413948]]]}},{"type":"Feature","properties":{"hex_id":441,"pop_20_29":201.0,"total_30min":4,"dominant_label":"Uniwersytet Gdański","dominant_role":"uniwersytet","politechnika_30min":0,"uniwersytet_30min":4,"medyczny_30min":0},"geometry":{"type":"Polygon","coordinates":[[[18.562631,54.409453],[18.564831,54.411709],[18.56928,54.411725],[18.571528,54.409485],[18.569327,54.40723],[18.564879,54.407214],[18.562631,54.409453]]]}},{"type":"Feature","properties":{"hex_id":442,"pop_20_29":152.0,"total_30min":4,"dominant_label":"Uniwersytet Gdański","dominant_role":"uniwersytet","politechnika_30min":0,"uniwersytet_30min":4,"medyczny_30min":0},"geometry":{"type":"Polygon","coordinates":[[[18.562678,54.404958],[18.564879,54.407214],[18.569327,54.40723],[18.571575,54.40499],[18.569375,54.402735],[18.564926,54.402719],[18.562678,54.404958]]]}},{"type":"Feature","properties":{"hex_id":443,"pop_20_29":100.0,"total_30min":15,"dominant_label":"Politechnika Gdańska","dominant_role":"politechnika","politechnika_30min":10,"uniwersytet_30min":4,"medyczny_30min":1},"geometry":{"type":"Polygon","coordinates":[[[18.562726,54.400464],[18.564926,54.402719],[18.569375,54.402735],[18.571622,54.400495],[18.569422,54.39824],[18.564974,54.398224],[18.562726,54.400464]]]}},{"type":"Feature","properties":{"hex_id":444,"pop_20_29":178.0,"total_30min":6,"dominant_label":"Uniwersytet Gdański","dominant_role":"uniwersytet","politechnika_30min":2,"uniwersytet_30min":4,"medyczny_30min":0},"geometry":{"type":"Polygon","coordinates":[[[18.562774,54.395969],[18.564974,54.398224],[18.569422,54.39824],[18.571669,54.396001],[18.569469,54.393745],[18.565021,54.393729],[18.562774,54.395969]]]}},{"type":"Feature","properties":{"hex_id":445,"pop_20_29":22.0,"total_30min":4,"dominant_label":"Uniwersytet Gdański","dominant_role":"uniwersytet","politechnika_30min":0,"uniwersytet_30min":4,"medyczny_30min":0},"geometry":{"type":"Polygon","coordinates":[[[18.562822,54.391474],[18.565021,54.393729],[18.569469,54.393745],[18.571716,54.391506],[18.569516,54.38925],[18.565069,54.389234],[18.562822,54.391474]]]}},{"type":"Feature","properties":{"hex_id":446,"pop_20_29":89.0,"total_30min":4,"dominant_label":"Uniwersytet Gdański","dominant_role":"uniwersytet","politechnika_30min":0,"uniwersytet_30min":4,"medyczny_30min":0},"geometry":{"type":"Polygon","coordinates":[[[18.56287,54.386979],[18.565069,54.389234],[18.569516,54.38925],[18.571762,54.387011],[18.569563,54.384755],[18.565117,54.38474],[18.56287,54.386979]]]}},{"type":"Feature","properties":{"hex_id":449,"pop_20_29":61.0,"total_30min":3,"dominant_label":"Politechnika Gdańska","dominant_role":"politechnika","politechnika_30min":2,"uniwersytet_30min":1,"medyczny_30min":0},"geometry":{"type":"Polygon","coordinates":[[[18.563013,54.373494],[18.565212,54.37575],[18.569657,54.375766],[18.571903,54.373526],[18.569704,54.371271],[18.565259,54.371255],[18.563013,54.373494]]]}},{"type":"Feature","properties":{"hex_id":466,"pop_20_29":531.0,"total_30min":2,"dominant_label":"Uniwersytet Gdański","dominant_role":"uniwersytet","politechnika_30min":0,"uniwersytet_30min":2,"medyczny_30min":0},"geometry":{"type":"Polygon","coordinates":[[[18.569186,54.420714],[18.571388,54.42297],[18.575838,54.422986],[18.578086,54.420746],[18.575884,54.418491],[18.571435,54.418475],[18.569186,54.420714]]]}},{"type":"Feature","properties":{"hex_id":467,"pop_20_29":94.0,"total_30min":4,"dominant_label":"Uniwersytet Gdański","dominant_role":"uniwersytet","politechnika_30min":0,"uniwersytet_30min":4,"medyczny_30min":0},"geometry":{"type":"Polygon","coordinates":[[[18.569233,54.41622],[18.571435,54.418475],[18.575884,54.418491],[18.578132,54.416251],[18.575931,54.413996],[18.571481,54.41398],[18.569233,54.41622]]]}},{"type":"Feature","properties":{"hex_id":468,"pop_20_29":84.0,"total_30min":4,"dominant_label":"Uniwersytet Gdański","dominant_role":"uniwersytet","politechnika_30min":0,"uniwersytet_30min":4,"medyczny_30min":0},"geometry":{"type":"Polygon","coordinates":[[[18.56928,54.411725],[18.571481,54.41398],[18.575931,54.413996],[18.578179,54.411756],[18.575977,54.409501],[18.571528,54.409485],[18.56928,54.411725]]]}},{"type":"Feature","properties":{"hex_id":469,"pop_20_29":94.0,"total_30min":3,"dominant_label":"Uniwersytet Gdański","dominant_role":"uniwersytet","politechnika_30min":0,"uniwersytet_30min":3,"medyczny_30min":0},"geometry":{"type":"Polygon","coordinates":[[[18.569327,54.40723],[18.571528,54.409485],[18.575977,54.409501],[18.578225,54.407261],[18.576024,54.405006],[18.571575,54.40499],[18.569327,54.40723]]]}},{"type":"Feature","properties":{"hex_id":470,"pop_20_29":74.0,"total_30min":4,"dominant_label":"Uniwersytet Gdański","dominant_role":"uniwersytet","politechnika_30min":0,"uniwersytet_30min":4,"medyczny_30min":0},"geometry":{"type":"Polygon","coordinates":[[[18.569375,54.402735],[18.571575,54.40499],[18.576024,54.405006],[18.578271,54.402766],[18.57607,54.400511],[18.571622,54.400495],[18.569375,54.402735]]]}},{"type":"Feature","properties":{"hex_id":471,"pop_20_29":33.0,"total_30min":6,"dominant_label":"Uniwersytet Gdański","dominant_role":"uniwersytet","politechnika_30min":2,"uniwersytet_30min":4,"medyczny_30min":0},"geometry":{"type":"Polygon","coordinates":[[[18.569422,54.39824],[18.571622,54.400495],[18.57607,54.400511],[18.578317,54.398271],[18.576116,54.396016],[18.571669,54.396001],[18.569422,54.39824]]]}},{"type":"Feature","properties":{"hex_id":472,"pop_20_29":32.0,"total_30min":15,"dominant_label":"Politechnika Gdańska","dominant_role":"politechnika","politechnika_30min":10,"uniwersytet_30min":4,"medyczny_30min":1},"geometry":{"type":"Polygon","coordinates":[[[18.569469,54.393745],[18.571669,54.396001],[18.576116,54.396016],[18.578363,54.393777],[18.576163,54.391521],[18.571716,54.391506],[18.569469,54.393745]]]}},{"type":"Feature","properties":{"hex_id":473,"pop_20_29":208.0,"total_30min":10,"dominant_label":"Politechnika Gdańska","dominant_role":"politechnika","politechnika_30min":5,"uniwersytet_30min":4,"medyczny_30min":1},"geometry":{"type":"Polygon","coordinates":[[[18.569516,54.38925],[18.571716,54.391506],[18.576163,54.391521],[18.578409,54.389282],[18.576209,54.387026],[18.571762,54.387011],[18.569516,54.38925]]]}},{"type":"Feature","properties":{"hex_id":474,"pop_20_29":41.0,"total_30min":4,"dominant_label":"Uniwersytet Gdański","dominant_role":"uniwersytet","politechnika_30min":0,"uniwersytet_30min":4,"medyczny_30min":0},"geometry":{"type":"Polygon","coordinates":[[[18.569563,54.384755],[18.571762,54.387011],[18.576209,54.387026],[18.578455,54.384787],[18.576255,54.382532],[18.571809,54.382516],[18.569563,54.384755]]]}},{"type":"Feature","properties":{"hex_id":475,"pop_20_29":34.0,"total_30min":1,"dominant_label":"Uniwersytet Gdański","dominant_role":"uniwersytet","politechnika_30min":0,"uniwersytet_30min":1,"medyczny_30min":0},"geometry":{"type":"Polygon","coordinates":[[[18.56961,54.380261],[18.571809,54.382516],[18.576255,54.382532],[18.578501,54.380292],[18.576302,54.378037],[18.571856,54.378021],[18.56961,54.380261]]]}},{"type":"Feature","properties":{"hex_id":494,"pop_20_29":464.0,"total_30min":2,"dominant_label":"Uniwersytet Gdański","dominant_role":"uniwersytet","politechnika_30min":0,"uniwersytet_30min":2,"medyczny_30min":0},"geometry":{"type":"Polygon","coordinates":[[[18.575838,54.422986],[18.57804,54.425241],[18.582491,54.425256],[18.584739,54.423016],[18.582536,54.420761],[18.578086,54.420746],[18.575838,54.422986]]]}},{"type":"Feature","properties":{"hex_id":495,"pop_20_29":508.0,"total_30min":4,"dominant_label":"Uniwersytet Gdański","dominant_role":"uniwersytet","politechnika_30min":0,"uniwersytet_30min":4,"medyczny_30min":0},"geometry":{"type":"Polygon","coordinates":[[[18.575884,54.418491],[18.578086,54.420746],[18.582536,54.420761],[18.584784,54.418522],[18.582582,54.416266],[18.578132,54.416251],[18.575884,54.418491]]]}},{"type":"Feature","properties":{"hex_id":496,"pop_20_29":268.0,"total_30min":2,"dominant_label":"Uniwersytet Gdański","dominant_role":"uniwersytet","politechnika_30min":0,"uniwersytet_30min":2,"medyczny_30min":0},"geometry":{"type":"Polygon","coordinates":[[[18.575931,54.413996],[18.578132,54.416251],[18.582582,54.416266],[18.58483,54.414027],[18.582628,54.411772],[18.578179,54.411756],[18.575931,54.413996]]]}},{"type":"Feature","properties":{"hex_id":498,"pop_20_29":562.0,"total_30min":4,"dominant_label":"Uniwersytet Gdański","dominant_role":"uniwersytet","politechnika_30min":0,"uniwersytet_30min":4,"medyczny_30min":0},"geometry":{"type":"Polygon","coordinates":[[[18.576024,54.405006],[18.578225,54.407261],[18.582673,54.407277],[18.58492,54.405037],[18.582719,54.402782],[18.578271,54.402766],[18.576024,54.405006]]]}},{"type":"Feature","properties":{"hex_id":499,"pop_20_29":321.0,"total_30min":4,"dominant_label":"Uniwersytet Gdański","dominant_role":"uniwersytet","politechnika_30min":0,"uniwersytet_30min":4,"medyczny_30min":0},"geometry":{"type":"Polygon","coordinates":[[[18.57607,54.400511],[18.578271,54.402766],[18.582719,54.402782],[18.584966,54.400542],[18.582765,54.398287],[18.578317,54.398271],[18.57607,54.400511]]]}},{"type":"Feature","properties":{"hex_id":500,"pop_20_29":14.0,"total_30min":4,"dominant_label":"Uniwersytet Gdański","dominant_role":"uniwersytet","politechnika_30min":0,"uniwersytet_30min":4,"medyczny_30min":0},"geometry":{"type":"Polygon","coordinates":[[[18.576116,54.396016],[18.578317,54.398271],[18.582765,54.398287],[18.585011,54.396047],[18.58281,54.393792],[18.578363,54.393777],[18.576116,54.396016]]]}},{"type":"Feature","properties":{"hex_id":501,"pop_20_29":24.0,"total_30min":10,"dominant_label":"Politechnika Gdańska","dominant_role":"politechnika","politechnika_30min":5,"uniwersytet_30min":4,"medyczny_30min":1},"geometry":{"type":"Polygon","coordinates":[[[18.576163,54.391521],[18.578363,54.393777],[18.58281,54.393792],[18.585057,54.391552],[18.582856,54.389297],[18.578409,54.389282],[18.576163,54.391521]]]}},{"type":"Feature","properties":{"hex_id":502,"pop_20_29":293.0,"total_30min":32,"dominant_label":"Politechnika Gdańska","dominant_role":"politechnika","politechnika_30min":27,"uniwersytet_30min":4,"medyczny_30min":1},"geometry":{"type":"Polygon","coordinates":[[[18.576209,54.387026],[18.578409,54.389282],[18.582856,54.389297],[18.585102,54.387057],[18.582901,54.384802],[18.578455,54.384787],[18.576209,54.387026]]]}},{"type":"Feature","properties":{"hex_id":503,"pop_20_29":133.0,"total_30min":7,"dominant_label":"Uniwersytet Gdański","dominant_role":"uniwersytet","politechnika_30min":3,"uniwersytet_30min":4,"medyczny_30min":0},"geometry":{"type":"Polygon","coordinates":[[[18.576255,54.382532],[18.578455,54.384787],[18.582901,54.384802],[18.585147,54.382562],[18.582947,54.380307],[18.578501,54.380292],[18.576255,54.382532]]]}},{"type":"Feature","properties":{"hex_id":504,"pop_20_29":258.0,"total_30min":21,"dominant_label":"Politechnika Gdańska","dominant_role":"politechnika","politechnika_30min":17,"uniwersytet_30min":3,"medyczny_30min":1},"geometry":{"type":"Polygon","coordinates":[[[18.576302,54.378037],[18.578501,54.380292],[18.582947,54.380307],[18.585193,54.378068],[18.582993,54.375812],[18.578547,54.375797],[18.576302,54.378037]]]}},{"type":"Feature","properties":{"hex_id":524,"pop_20_29":174.0,"total_30min":3,"dominant_label":"Uniwersytet Gdański","dominant_role":"uniwersytet","politechnika_30min":0,"uniwersytet_30min":3,"medyczny_30min":0},"geometry":{"type":"Polygon","coordinates":[[[18.582536,54.420761],[18.584739,54.423016],[18.589189,54.423032],[18.591437,54.420792],[18.589234,54.418537],[18.584784,54.418522],[18.582536,54.420761]]]}},{"type":"Feature","properties":{"hex_id":525,"pop_20_29":408.0,"total_30min":3,"dominant_label":"Uniwersytet Gdański","dominant_role":"uniwersytet","politechnika_30min":0,"uniwersytet_30min":3,"medyczny_30min":0},"geometry":{"type":"Polygon","coordinates":[[[18.582582,54.416266],[18.584784,54.418522],[18.589234,54.418537],[18.591481,54.416297],[18.589279,54.414042],[18.58483,54.414027],[18.582582,54.416266]]]}},{"type":"Feature","properties":{"hex_id":526,"pop_20_29":302.0,"total_30min":2,"dominant_label":"Uniwersytet Gdański","dominant_role":"uniwersytet","politechnika_30min":0,"uniwersytet_30min":2,"medyczny_30min":0},"geometry":{"type":"Polygon","coordinates":[[[18.582628,54.411772],[18.58483,54.414027],[18.589279,54.414042],[18.591526,54.411802],[18.589324,54.409547],[18.584875,54.409532],[18.582628,54.411772]]]}},{"type":"Feature","properties":{"hex_id":527,"pop_20_29":340.0,"total_30min":2,"dominant_label":"Uniwersytet Gdański","dominant_role":"uniwersytet","politechnika_30min":0,"uniwersytet_30min":2,"medyczny_30min":0},"geometry":{"type":"Polygon","coordinates":[[[18.582673,54.407277],[18.584875,54.409532],[18.589324,54.409547],[18.591571,54.407307],[18.589369,54.405052],[18.58492,54.405037],[18.582673,54.407277]]]}},{"type":"Feature","properties":{"hex_id":528,"pop_20_29":528.0,"total_30min":4,"dominant_label":"Uniwersytet Gdański","dominant_role":"uniwersytet","politechnika_30min":0,"uniwersytet_30min":4,"medyczny_30min":0},"geometry":{"type":"Polygon","coordinates":[[[18.582719,54.402782],[18.58492,54.405037],[18.589369,54.405052],[18.591615,54.402812],[18.589414,54.400557],[18.584966,54.400542],[18.582719,54.402782]]]}},{"type":"Feature","properties":{"hex_id":529,"pop_20_29":94.0,"total_30min":2,"dominant_label":"Uniwersytet Gdański","dominant_role":"uniwersytet","politechnika_30min":0,"uniwersytet_30min":2,"medyczny_30min":0},"geometry":{"type":"Polygon","coordinates":[[[18.582765,54.398287],[18.584966,54.400542],[18.589414,54.400557],[18.59166,54.398317],[18.589459,54.396062],[18.585011,54.396047],[18.582765,54.398287]]]}},{"type":"Feature","properties":{"hex_id":530,"pop_20_29":291.0,"total_30min":1,"dominant_label":"Uniwersytet Gdański","dominant_role":"uniwersytet","politechnika_30min":0,"uniwersytet_30min":1,"medyczny_30min":0},"geometry":{"type":"Polygon","coordinates":[[[18.58281,54.393792],[18.585011,54.396047],[18.589459,54.396062],[18.591705,54.393822],[18.589504,54.391567],[18.585057,54.391552],[18.58281,54.393792]]]}},{"type":"Feature","properties":{"hex_id":531,"pop_20_29":146.0,"total_30min":34,"dominant_label":"Politechnika Gdańska","dominant_role":"politechnika","politechnika_30min":29,"uniwersytet_30min":4,"medyczny_30min":1},"geometry":{"type":"Polygon","coordinates":[[[18.582856,54.389297],[18.585057,54.391552],[18.589504,54.391567],[18.591749,54.389328],[18.589548,54.387073],[18.585102,54.387057],[18.582856,54.389297]]]}},{"type":"Feature","properties":{"hex_id":532,"pop_20_29":338.0,"total_30min":30,"dominant_label":"Politechnika Gdańska","dominant_role":"politechnika","politechnika_30min":25,"uniwersytet_30min":4,"medyczny_30min":1},"geometry":{"type":"Polygon","coordinates":[[[18.582901,54.384802],[18.585102,54.387057],[18.589548,54.387073],[18.591794,54.384833],[18.589593,54.382578],[18.585147,54.382562],[18.582901,54.384802]]]}},{"type":"Feature","properties":{"hex_id":533,"pop_20_29":315.0,"total_30min":16,"dominant_label":"Politechnika Gdańska","dominant_role":"politechnika","politechnika_30min":12,"uniwersytet_30min":3,"medyczny_30min":1},"geometry":{"type":"Polygon","coordinates":[[[18.582947,54.380307],[18.585147,54.382562],[18.589593,54.382578],[18.591839,54.380338],[18.589638,54.378083],[18.585193,54.378068],[18.582947,54.380307]]]}},{"type":"Feature","properties":{"hex_id":537,"pop_20_29":32.0,"total_30min":1,"dominant_label":"Politechnika Gdańska","dominant_role":"politechnika","politechnika_30min":1,"uniwersytet_30min":0,"medyczny_30min":0},"geometry":{"type":"Polygon","coordinates":[[[18.583129,54.362328],[18.585328,54.364583],[18.589772,54.364598],[18.592017,54.362358],[18.589817,54.360103],[18.585374,54.360088],[18.583129,54.362328]]]}},{"type":"Feature","properties":{"hex_id":538,"pop_20_29":505.0,"total_30min":19,"dominant_label":"Politechnika Gdańska","dominant_role":"politechnika","politechnika_30min":18,"uniwersytet_30min":0,"medyczny_30min":1},"geometry":{"type":"Polygon","coordinates":[[[18.583175,54.357833],[18.585374,54.360088],[18.589817,54.360103],[18.592061,54.357863],[18.589862,54.355608],[18.585419,54.355593],[18.583175,54.357833]]]}},{"type":"Feature","properties":{"hex_id":539,"pop_20_29":23.0,"total_30min":2,"dominant_label":"Politechnika Gdańska","dominant_role":"politechnika","politechnika_30min":2,"uniwersytet_30min":0,"medyczny_30min":0},"geometry":{"type":"Polygon","coordinates":[[[18.58322,54.353338],[18.585419,54.355593],[18.589862,54.355608],[18.592106,54.353368],[18.589907,54.351113],[18.585464,54.351098],[18.58322,54.353338]]]}},{"type":"Feature","properties":{"hex_id":557,"pop_20_29":382.0,"total_30min":4,"dominant_label":"Uniwersytet Gdański","dominant_role":"uniwersytet","politechnika_30min":0,"uniwersytet_30min":4,"medyczny_30min":0},"geometry":{"type":"Polygon","coordinates":[[[18.589369,54.405052],[18.591571,54.407307],[18.596019,54.407322],[18.598266,54.405082],[18.596064,54.402827],[18.591615,54.402812],[18.589369,54.405052]]]}},{"type":"Feature","properties":{"hex_id":560,"pop_20_29":307.0,"total_30min":7,"dominant_label":"Uniwersytet Gdański","dominant_role":"uniwersytet","politechnika_30min":3,"uniwersytet_30min":4,"medyczny_30min":0},"geometry":{"type":"Polygon","coordinates":[[[18.589504,54.391567],[18.591705,54.393822],[18.596152,54.393837],[18.598397,54.391597],[18.596196,54.389342],[18.591749,54.389328],[18.589504,54.391567]]]}},{"type":"Feature","properties":{"hex_id":561,"pop_20_29":106.0,"total_30min":32,"dominant_label":"Politechnika Gdańska","dominant_role":"politechnika","politechnika_30min":27,"uniwersytet_30min":4,"medyczny_30min":1},"geometry":{"type":"Polygon","coordinates":[[[18.589548,54.387073],[18.591749,54.389328],[18.596196,54.389342],[18.598441,54.387102],[18.59624,54.384848],[18.591794,54.384833],[18.589548,54.387073]]]}},{"type":"Feature","properties":{"hex_id":562,"pop_20_29":279.0,"total_30min":35,"dominant_label":"Politechnika Gdańska","dominant_role":"politechnika","politechnika_30min":29,"uniwersytet_30min":4,"medyczny_30min":2},"geometry":{"type":"Polygon","coordinates":[[[18.589593,54.382578],[18.591794,54.384833],[18.59624,54.384848],[18.598485,54.382608],[18.596284,54.380353],[18.591839,54.380338],[18.589593,54.382578]]]}},{"type":"Feature","properties":{"hex_id":563,"pop_20_29":198.0,"total_30min":21,"dominant_label":"Politechnika Gdańska","dominant_role":"politechnika","politechnika_30min":17,"uniwersytet_30min":3,"medyczny_30min":1},"geometry":{"type":"Polygon","coordinates":[[[18.589638,54.378083],[18.591839,54.380338],[18.596284,54.380353],[18.598529,54.378113],[18.596328,54.375858],[18.591883,54.375843],[18.589638,54.378083]]]}},{"type":"Feature","properties":{"hex_id":565,"pop_20_29":29.0,"total_30min":16,"dominant_label":"Politechnika Gdańska","dominant_role":"politechnika","politechnika_30min":15,"uniwersytet_30min":0,"medyczny_30min":1},"geometry":{"type":"Polygon","coordinates":[[[18.589728,54.369093],[18.591928,54.371348],[18.596372,54.371363],[18.598617,54.369123],[18.596417,54.366868],[18.591972,54.366853],[18.589728,54.369093]]]}},{"type":"Feature","properties":{"hex_id":566,"pop_20_29":87.0,"total_30min":2,"dominant_label":"Politechnika Gdańska","dominant_role":"politechnika","politechnika_30min":2,"uniwersytet_30min":0,"medyczny_30min":0},"geometry":{"type":"Polygon","coordinates":[[[18.589772,54.364598],[18.591972,54.366853],[18.596417,54.366868],[18.598661,54.364628],[18.596461,54.362373],[18.592017,54.362358],[18.589772,54.364598]]]}},{"type":"Feature","properties":{"hex_id":567,"pop_20_29":310.0,"total_30min":2,"dominant_label":"Politechnika Gdańska","dominant_role":"politechnika","politechnika_30min":2,"uniwersytet_30min":0,"medyczny_30min":0},"geometry":{"type":"Polygon","coordinates":[[[18.589817,54.360103],[18.592017,54.362358],[18.596461,54.362373],[18.598704,54.360133],[18.596505,54.357878],[18.592061,54.357863],[18.589817,54.360103]]]}},{"type":"Feature","properties":{"hex_id":569,"pop_20_29":301.0,"total_30min":14,"dominant_label":"Politechnika Gdańska","dominant_role":"politechnika","politechnika_30min":12,"uniwersytet_30min":1,"medyczny_30min":1},"geometry":{"type":"Polygon","coordinates":[[[18.589907,54.351113],[18.592106,54.353368],[18.596549,54.353383],[18.598792,54.351143],[18.596593,54.348888],[18.59215,54.348873],[18.589907,54.351113]]]}},{"type":"Feature","properties":{"hex_id":587,"pop_20_29":215.0,"total_30min":1,"dominant_label":"Uniwersytet Gdański","dominant_role":"uniwersytet","politechnika_30min":0,"uniwersytet_30min":1,"medyczny_30min":0},"geometry":{"type":"Polygon","coordinates":[[[18.596152,54.393837],[18.598354,54.396092],[18.602801,54.396107],[18.605046,54.393867],[18.602844,54.391612],[18.598397,54.391597],[18.596152,54.393837]]]}},{"type":"Feature","properties":{"hex_id":588,"pop_20_29":350.0,"total_30min":2,"dominant_label":"Uniwersytet Gdański","dominant_role":"uniwersytet","politechnika_30min":0,"uniwersytet_30min":2,"medyczny_30min":0},"geometry":{"type":"Polygon","coordinates":[[[18.596196,54.389342],[18.598397,54.391597],[18.602844,54.391612],[18.60509,54.389372],[18.602888,54.387117],[18.598441,54.387102],[18.596196,54.389342]]]}},{"type":"Feature","properties":{"hex_id":589,"pop_20_29":60.0,"total_30min":34,"dominant_label":"Politechnika Gdańska","dominant_role":"politechnika","politechnika_30min":29,"uniwersytet_30min":4,"medyczny_30min":1},"geometry":{"type":"Polygon","coordinates":[[[18.59624,54.384848],[18.598441,54.387102],[18.602888,54.387117],[18.605133,54.384877],[18.602931,54.382622],[18.598485,54.382608],[18.59624,54.384848]]]}},{"type":"Feature","properties":{"hex_id":590,"pop_20_29":556.0,"total_30min":35,"dominant_label":"Politechnika Gdańska","dominant_role":"politechnika","politechnika_30min":29,"uniwersytet_30min":4,"medyczny_30min":2},"geometry":{"type":"Polygon","coordinates":[[[18.596284,54.380353],[18.598485,54.382608],[18.602931,54.382622],[18.605176,54.380382],[18.602975,54.378127],[18.598529,54.378113],[18.596284,54.380353]]]}},{"type":"Feature","properties":{"hex_id":591,"pop_20_29":116.0,"total_30min":33,"dominant_label":"Politechnika Gdańska","dominant_role":"politechnika","politechnika_30min":29,"uniwersytet_30min":2,"medyczny_30min":2},"geometry":{"type":"Polygon","coordinates":[[[18.596328,54.375858],[18.598529,54.378113],[18.602975,54.378127],[18.605219,54.375887],[18.603018,54.373632],[18.598573,54.373618],[18.596328,54.375858]]]}},{"type":"Feature","properties":{"hex_id":592,"pop_20_29":55.0,"total_30min":30,"dominant_label":"Politechnika Gdańska","dominant_role":"politechnika","politechnika_30min":29,"uniwersytet_30min":0,"medyczny_30min":1},"geometry":{"type":"Polygon","coordinates":[[[18.596372,54.371363],[18.598573,54.373618],[18.603018,54.373632],[18.605262,54.371392],[18.603061,54.369137],[18.598617,54.369123],[18.596372,54.371363]]]}},{"type":"Feature","properties":{"hex_id":593,"pop_20_29":51.0,"total_30min":28,"dominant_label":"Politechnika Gdańska","dominant_role":"politechnika","politechnika_30min":28,"uniwersytet_30min":0,"medyczny_30min":0},"geometry":{"type":"Polygon","coordinates":[[[18.596417,54.366868],[18.598617,54.369123],[18.603061,54.369137],[18.605305,54.366897],[18.603105,54.364643],[18.598661,54.364628],[18.596417,54.366868]]]}},{"type":"Feature","properties":{"hex_id":594,"pop_20_29":117.0,"total_30min":13,"dominant_label":"Politechnika Gdańska","dominant_role":"politechnika","politechnika_30min":13,"uniwersytet_30min":0,"medyczny_30min":0},"geometry":{"type":"Polygon","coordinates":[[[18.596461,54.362373],[18.598661,54.364628],[18.603105,54.364643],[18.605348,54.362402],[18.603148,54.360148],[18.598704,54.360133],[18.596461,54.362373]]]}},{"type":"Feature","properties":{"hex_id":595,"pop_20_29":117.0,"total_30min":31,"dominant_label":"Politechnika Gdańska","dominant_role":"politechnika","politechnika_30min":29,"uniwersytet_30min":0,"medyczny_30min":2},"geometry":{"type":"Polygon","coordinates":[[[18.596505,54.357878],[18.598704,54.360133],[18.603148,54.360148],[18.605391,54.357907],[18.603191,54.355653],[18.598748,54.355638],[18.596505,54.357878]]]}},{"type":"Feature","properties":{"hex_id":596,"pop_20_29":220.0,"total_30min":20,"dominant_label":"Politechnika Gdańska","dominant_role":"politechnika","politechnika_30min":19,"uniwersytet_30min":0,"medyczny_30min":1},"geometry":{"type":"Polygon","coordinates":[[[18.596549,54.353383],[18.598748,54.355638],[18.603191,54.355653],[18.605434,54.353413],[18.603235,54.351158],[18.598792,54.351143],[18.596549,54.353383]]]}},{"type":"Feature","properties":{"hex_id":597,"pop_20_29":57.0,"total_30min":10,"dominant_label":"Politechnika Gdańska","dominant_role":"politechnika","politechnika_30min":9,"uniwersytet_30min":0,"medyczny_30min":1},"geometry":{"type":"Polygon","coordinates":[[[18.596593,54.348888],[18.598792,54.351143],[18.603235,54.351158],[18.605477,54.348918],[18.603278,54.346663],[18.598836,54.346648],[18.596593,54.348888]]]}},{"type":"Feature","properties":{"hex_id":599,"pop_20_29":21.0,"total_30min":1,"dominant_label":"Politechnika Gdańska","dominant_role":"politechnika","politechnika_30min":1,"uniwersytet_30min":0,"medyczny_30min":0},"geometry":{"type":"Polygon","coordinates":[[[18.596681,54.339898],[18.59888,54.342153],[18.603321,54.342168],[18.605564,54.339928],[18.603364,54.337673],[18.598923,54.337658],[18.596681,54.339898]]]}},{"type":"Feature","properties":{"hex_id":600,"pop_20_29":253.0,"total_30min":1,"dominant_label":"Gdański Uniwersytet Medyczny","dominant_role":"medyczny","politechnika_30min":0,"uniwersytet_30min":0,"medyczny_30min":1},"geometry":{"type":"Polygon","coordinates":[[[18.596725,54.335403],[18.598923,54.337658],[18.603364,54.337673],[18.605607,54.335433],[18.603408,54.333178],[18.598967,54.333163],[18.596725,54.335403]]]}},{"type":"Feature","properties":{"hex_id":619,"pop_20_29":222.0,"total_30min":6,"dominant_label":"Politechnika Gdańska","dominant_role":"politechnika","politechnika_30min":5,"uniwersytet_30min":0,"medyczny_30min":1},"geometry":{"type":"Polygon","coordinates":[[[18.602844,54.391612],[18.605046,54.393867],[18.609494,54.393881],[18.611738,54.391641],[18.609536,54.389386],[18.60509,54.389372],[18.602844,54.391612]]]}},{"type":"Feature","properties":{"hex_id":620,"pop_20_29":276.0,"total_30min":14,"dominant_label":"Politechnika Gdańska","dominant_role":"politechnika","politechnika_30min":11,"uniwersytet_30min":2,"medyczny_30min":1},"geometry":{"type":"Polygon","coordinates":[[[18.602888,54.387117],[18.60509,54.389372],[18.609536,54.389386],[18.611781,54.387146],[18.609579,54.384891],[18.605133,54.384877],[18.602888,54.387117]]]}},{"type":"Feature","properties":{"hex_id":621,"pop_20_29":481.0,"total_30min":34,"dominant_label":"Politechnika Gdańska","dominant_role":"politechnika","politechnika_30min":29,"uniwersytet_30min":4,"medyczny_30min":1},"geometry":{"type":"Polygon","coordinates":[[[18.602931,54.382622],[18.605133,54.384877],[18.609579,54.384891],[18.611823,54.382651],[18.609622,54.380397],[18.605176,54.380382],[18.602931,54.382622]]]}},{"type":"Feature","properties":{"hex_id":622,"pop_20_29":413.0,"total_30min":36,"dominant_label":"Politechnika Gdańska","dominant_role":"politechnika","politechnika_30min":29,"uniwersytet_30min":5,"medyczny_30min":2},"geometry":{"type":"Polygon","coordinates":[[[18.602975,54.378127],[18.605176,54.380382],[18.609622,54.380397],[18.611866,54.378156],[18.609664,54.375902],[18.605219,54.375887],[18.602975,54.378127]]]}},{"type":"Feature","properties":{"hex_id":623,"pop_20_29":232.0,"total_30min":30,"dominant_label":"Politechnika Gdańska","dominant_role":"politechnika","politechnika_30min":29,"uniwersytet_30min":0,"medyczny_30min":1},"geometry":{"type":"Polygon","coordinates":[[[18.603018,54.373632],[18.605219,54.375887],[18.609664,54.375902],[18.611908,54.373661],[18.609707,54.371407],[18.605262,54.371392],[18.603018,54.373632]]]}},{"type":"Feature","properties":{"hex_id":624,"pop_20_29":142.0,"total_30min":30,"dominant_label":"Politechnika Gdańska","dominant_role":"politechnika","politechnika_30min":29,"uniwersytet_30min":0,"medyczny_30min":1},"geometry":{"type":"Polygon","coordinates":[[[18.603061,54.369137],[18.605262,54.371392],[18.609707,54.371407],[18.61195,54.369166],[18.609749,54.366912],[18.605305,54.366897],[18.603061,54.369137]]]}},{"type":"Feature","properties":{"hex_id":625,"pop_20_29":69.0,"total_30min":31,"dominant_label":"Politechnika Gdańska","dominant_role":"politechnika","politechnika_30min":29,"uniwersytet_30min":0,"medyczny_30min":2},"geometry":{"type":"Polygon","coordinates":[[[18.603105,54.364643],[18.605305,54.366897],[18.609749,54.366912],[18.611993,54.364671],[18.609792,54.362417],[18.605348,54.362402],[18.603105,54.364643]]]}},{"type":"Feature","properties":{"hex_id":626,"pop_20_29":20.0,"total_30min":31,"dominant_label":"Politechnika Gdańska","dominant_role":"politechnika","politechnika_30min":29,"uniwersytet_30min":0,"medyczny_30min":2},"geometry":{"type":"Polygon","coordinates":[[[18.603148,54.360148],[18.605348,54.362402],[18.609792,54.362417],[18.612035,54.360177],[18.609835,54.357922],[18.605391,54.357907],[18.603148,54.360148]]]}},{"type":"Feature","properties":{"hex_id":627,"pop_20_29":236.0,"total_30min":28,"dominant_label":"Politechnika Gdańska","dominant_role":"politechnika","politechnika_30min":25,"uniwersytet_30min":1,"medyczny_30min":2},"geometry":{"type":"Polygon","coordinates":[[[18.603191,54.355653],[18.605391,54.357907],[18.609835,54.357922],[18.612078,54.355682],[18.609877,54.353427],[18.605434,54.353413],[18.603191,54.355653]]]}},{"type":"Feature","properties":{"hex_id":628,"pop_20_29":309.0,"total_30min":6,"dominant_label":"Politechnika Gdańska","dominant_role":"politechnika","politechnika_30min":4,"uniwersytet_30min":1,"medyczny_30min":1},"geometry":{"type":"Polygon","coordinates":[[[18.603235,54.351158],[18.605434,54.353413],[18.609877,54.353427],[18.61212,54.351187],[18.60992,54.348932],[18.605477,54.348918],[18.603235,54.351158]]]}},{"type":"Feature","properties":{"hex_id":629,"pop_20_29":90.0,"total_30min":3,"dominant_label":"Politechnika Gdańska","dominant_role":"politechnika","politechnika_30min":1,"uniwersytet_30min":1,"medyczny_30min":1},"geometry":{"type":"Polygon","coordinates":[[[18.603278,54.346663],[18.605477,54.348918],[18.60992,54.348932],[18.612162,54.346692],[18.609962,54.344437],[18.605521,54.344423],[18.603278,54.346663]]]}},{"type":"Feature","properties":{"hex_id":631,"pop_20_29":257.0,"total_30min":2,"dominant_label":"Uniwersytet Gdański","dominant_role":"uniwersytet","politechnika_30min":0,"uniwersytet_30min":1,"medyczny_30min":1},"geometry":{"type":"Polygon","coordinates":[[[18.603364,54.337673],[18.605564,54.339928],[18.610005,54.339942],[18.612247,54.337702],[18.610047,54.335447],[18.605607,54.335433],[18.603364,54.337673]]]}},{"type":"Feature","properties":{"hex_id":652,"pop_20_29":267.0,"total_30min":4,"dominant_label":"Politechnika Gdańska","dominant_role":"politechnika","politechnika_30min":3,"uniwersytet_30min":0,"medyczny_30min":1},"geometry":{"type":"Polygon","coordinates":[[[18.609536,54.389386],[18.611738,54.391641],[18.616185,54.391655],[18.61843,54.389415],[18.616227,54.38716],[18.611781,54.387146],[18.609536,54.389386]]]}},{"type":"Feature","properties":{"hex_id":653,"pop_20_29":372.0,"total_30min":24,"dominant_label":"Politechnika Gdańska","dominant_role":"politechnika","politechnika_30min":23,"uniwersytet_30min":0,"medyczny_30min":1},"geometry":{"type":"Polygon","coordinates":[[[18.609579,54.384891],[18.611781,54.387146],[18.616227,54.38716],[18.618471,54.38492],[18.616269,54.382665],[18.611823,54.382651],[18.609579,54.384891]]]}},{"type":"Feature","properties":{"hex_id":654,"pop_20_29":435.0,"total_30min":30,"dominant_label":"Politechnika Gdańska","dominant_role":"politechnika","politechnika_30min":29,"uniwersytet_30min":0,"medyczny_30min":1},"geometry":{"type":"Polygon","coordinates":[[[18.609622,54.380397],[18.611823,54.382651],[18.616269,54.382665],[18.618513,54.380425],[18.616311,54.37817],[18.611866,54.378156],[18.609622,54.380397]]]}},{"type":"Feature","properties":{"hex_id":655,"pop_20_29":426.0,"total_30min":36,"dominant_label":"Politechnika Gdańska","dominant_role":"politechnika","politechnika_30min":29,"uniwersytet_30min":5,"medyczny_30min":2},"geometry":{"type":"Polygon","coordinates":[[[18.609664,54.375902],[18.611866,54.378156],[18.616311,54.37817],[18.618555,54.37593],[18.616353,54.373676],[18.611908,54.373661],[18.609664,54.375902]]]}},{"type":"Feature","properties":{"hex_id":656,"pop_20_29":15.0,"total_30min":33,"dominant_label":"Politechnika Gdańska","dominant_role":"politechnika","politechnika_30min":29,"uniwersytet_30min":2,"medyczny_30min":2},"geometry":{"type":"Polygon","coordinates":[[[18.609707,54.371407],[18.611908,54.373661],[18.616353,54.373676],[18.618596,54.371435],[18.616395,54.369181],[18.61195,54.369166],[18.609707,54.371407]]]}},{"type":"Feature","properties":{"hex_id":657,"pop_20_29":42.0,"total_30min":31,"dominant_label":"Politechnika Gdańska","dominant_role":"politechnika","politechnika_30min":29,"uniwersytet_30min":0,"medyczny_30min":2},"geometry":{"type":"Polygon","coordinates":[[[18.609749,54.366912],[18.61195,54.369166],[18.616395,54.369181],[18.618638,54.36694],[18.616437,54.364686],[18.611993,54.364671],[18.609749,54.366912]]]}},{"type":"Feature","properties":{"hex_id":658,"pop_20_29":44.0,"total_30min":32,"dominant_label":"Politechnika Gdańska","dominant_role":"politechnika","politechnika_30min":29,"uniwersytet_30min":1,"medyczny_30min":2},"geometry":{"type":"Polygon","coordinates":[[[18.609792,54.362417],[18.611993,54.364671],[18.616437,54.364686],[18.61868,54.362445],[18.616479,54.360191],[18.612035,54.360177],[18.609792,54.362417]]]}},{"type":"Feature","properties":{"hex_id":659,"pop_20_29":108.0,"total_30min":11,"dominant_label":"Politechnika Gdańska","dominant_role":"politechnika","politechnika_30min":8,"uniwersytet_30min":1,"medyczny_30min":2},"geometry":{"type":"Polygon","coordinates":[[[18.609835,54.357922],[18.612035,54.360177],[18.616479,54.360191],[18.618721,54.35795],[18.616521,54.355696],[18.612078,54.355682],[18.609835,54.357922]]]}},{"type":"Feature","properties":{"hex_id":660,"pop_20_29":303.0,"total_30min":28,"dominant_label":"Politechnika Gdańska","dominant_role":"politechnika","politechnika_30min":25,"uniwersytet_30min":1,"medyczny_30min":2},"geometry":{"type":"Polygon","coordinates":[[[18.609877,54.353427],[18.612078,54.355682],[18.616521,54.355696],[18.618763,54.353455],[18.616562,54.351201],[18.61212,54.351187],[18.609877,54.353427]]]}},{"type":"Feature","properties":{"hex_id":661,"pop_20_29":367.0,"total_30min":11,"dominant_label":"Politechnika Gdańska","dominant_role":"politechnika","politechnika_30min":8,"uniwersytet_30min":1,"medyczny_30min":2},"geometry":{"type":"Polygon","coordinates":[[[18.60992,54.348932],[18.61212,54.351187],[18.616562,54.351201],[18.618805,54.34896],[18.616604,54.346706],[18.612162,54.346692],[18.60992,54.348932]]]}},{"type":"Feature","properties":{"hex_id":663,"pop_20_29":258.0,"total_30min":2,"dominant_label":"Uniwersytet Gdański","dominant_role":"uniwersytet","politechnika_30min":0,"uniwersytet_30min":1,"medyczny_30min":1},"geometry":{"type":"Polygon","coordinates":[[[18.610005,54.339942],[18.612205,54.342197],[18.616646,54.342211],[18.618888,54.339971],[18.616688,54.337716],[18.612247,54.337702],[18.610005,54.339942]]]}},{"type":"Feature","properties":{"hex_id":680,"pop_20_29":14.0,"total_30min":4,"dominant_label":"Politechnika Gdańska","dominant_role":"politechnika","politechnika_30min":4,"uniwersytet_30min":0,"medyczny_30min":0},"geometry":{"type":"Polygon","coordinates":[[[18.61606,54.40514],[18.618263,54.407394],[18.622712,54.407408],[18.624956,54.405168],[18.622753,54.402914],[18.618305,54.4029],[18.61606,54.40514]]]}},{"type":"Feature","properties":{"hex_id":682,"pop_20_29":297.0,"total_30min":19,"dominant_label":"Politechnika Gdańska","dominant_role":"politechnika","politechnika_30min":18,"uniwersytet_30min":0,"medyczny_30min":1},"geometry":{"type":"Polygon","coordinates":[[[18.616143,54.39615],[18.618346,54.398405],[18.622794,54.398419],[18.625038,54.396178],[18.622835,54.393924],[18.618388,54.39391],[18.616143,54.39615]]]}},{"type":"Feature","properties":{"hex_id":683,"pop_20_29":140.0,"total_30min":19,"dominant_label":"Politechnika Gdańska","dominant_role":"politechnika","politechnika_30min":18,"uniwersytet_30min":0,"medyczny_30min":1},"geometry":{"type":"Polygon","coordinates":[[[18.616185,54.391655],[18.618388,54.39391],[18.622835,54.393924],[18.625079,54.391683],[18.622877,54.389429],[18.61843,54.389415],[18.616185,54.391655]]]}},{"type":"Feature","properties":{"hex_id":684,"pop_20_29":303.0,"total_30min":25,"dominant_label":"Politechnika Gdańska","dominant_role":"politechnika","politechnika_30min":24,"uniwersytet_30min":0,"medyczny_30min":1},"geometry":{"type":"Polygon","coordinates":[[[18.616227,54.38716],[18.61843,54.389415],[18.622877,54.389429],[18.62512,54.387188],[18.622918,54.384934],[18.618471,54.38492],[18.616227,54.38716]]]}},{"type":"Feature","properties":{"hex_id":685,"pop_20_29":182.0,"total_30min":30,"dominant_label":"Politechnika Gdańska","dominant_role":"politechnika","politechnika_30min":27,"uniwersytet_30min":1,"medyczny_30min":2},"geometry":{"type":"Polygon","coordinates":[[[18.616269,54.382665],[18.618471,54.38492],[18.622918,54.384934],[18.625161,54.382693],[18.622959,54.380439],[18.618513,54.380425],[18.616269,54.382665]]]}},{"type":"Feature","properties":{"hex_id":686,"pop_20_29":345.0,"total_30min":33,"dominant_label":"Politechnika Gdańska","dominant_role":"politechnika","politechnika_30min":29,"uniwersytet_30min":2,"medyczny_30min":2},"geometry":{"type":"Polygon","coordinates":[[[18.616311,54.37817],[18.618513,54.380425],[18.622959,54.380439],[18.625202,54.378198],[18.623,54.375944],[18.618555,54.37593],[18.616311,54.37817]]]}},{"type":"Feature","properties":{"hex_id":687,"pop_20_29":139.0,"total_30min":36,"dominant_label":"Politechnika Gdańska","dominant_role":"politechnika","politechnika_30min":29,"uniwersytet_30min":5,"medyczny_30min":2},"geometry":{"type":"Polygon","coordinates":[[[18.616353,54.373676],[18.618555,54.37593],[18.623,54.375944],[18.625243,54.373703],[18.623041,54.371449],[18.618596,54.371435],[18.616353,54.373676]]]}},{"type":"Feature","properties":{"hex_id":688,"pop_20_29":82.0,"total_30min":32,"dominant_label":"Politechnika Gdańska","dominant_role":"politechnika","politechnika_30min":29,"uniwersytet_30min":1,"medyczny_30min":2},"geometry":{"type":"Polygon","coordinates":[[[18.616395,54.369181],[18.618596,54.371435],[18.623041,54.371449],[18.625284,54.369209],[18.623082,54.366954],[18.618638,54.36694],[18.616395,54.369181]]]}},{"type":"Feature","properties":{"hex_id":689,"pop_20_29":3.0,"total_30min":32,"dominant_label":"Politechnika Gdańska","dominant_role":"politechnika","politechnika_30min":29,"uniwersytet_30min":1,"medyczny_30min":2},"geometry":{"type":"Polygon","coordinates":[[[18.616437,54.364686],[18.618638,54.36694],[18.623082,54.366954],[18.625325,54.364714],[18.623124,54.362459],[18.61868,54.362445],[18.616437,54.364686]]]}},{"type":"Feature","properties":{"hex_id":690,"pop_20_29":81.0,"total_30min":4,"dominant_label":"Politechnika Gdańska","dominant_role":"politechnika","politechnika_30min":2,"uniwersytet_30min":0,"medyczny_30min":2},"geometry":{"type":"Polygon","coordinates":[[[18.616479,54.360191],[18.61868,54.362445],[18.623124,54.362459],[18.625366,54.360219],[18.623165,54.357964],[18.618721,54.35795],[18.616479,54.360191]]]}},{"type":"Feature","properties":{"hex_id":691,"pop_20_29":133.0,"total_30min":17,"dominant_label":"Politechnika Gdańska","dominant_role":"politechnika","politechnika_30min":14,"uniwersytet_30min":1,"medyczny_30min":2},"geometry":{"type":"Polygon","coordinates":[[[18.616521,54.355696],[18.618721,54.35795],[18.623165,54.357964],[18.625407,54.355724],[18.623206,54.353469],[18.618763,54.353455],[18.616521,54.355696]]]}},{"type":"Feature","properties":{"hex_id":692,"pop_20_29":207.0,"total_30min":2,"dominant_label":"Uniwersytet Gdański","dominant_role":"uniwersytet","politechnika_30min":0,"uniwersytet_30min":1,"medyczny_30min":1},"geometry":{"type":"Polygon","coordinates":[[[18.616562,54.351201],[18.618763,54.353455],[18.623206,54.353469],[18.625448,54.351229],[18.623247,54.348974],[18.618805,54.34896],[18.616562,54.351201]]]}},{"type":"Feature","properties":{"hex_id":693,"pop_20_29":291.0,"total_30min":2,"dominant_label":"Uniwersytet Gdański","dominant_role":"uniwersytet","politechnika_30min":0,"uniwersytet_30min":1,"medyczny_30min":1},"geometry":{"type":"Polygon","coordinates":[[[18.616604,54.346706],[18.618805,54.34896],[18.623247,54.348974],[18.625489,54.346734],[18.623288,54.344479],[18.618846,54.344465],[18.616604,54.346706]]]}},{"type":"Feature","properties":{"hex_id":694,"pop_20_29":273.0,"total_30min":2,"dominant_label":"Uniwersytet Gdański","dominant_role":"uniwersytet","politechnika_30min":0,"uniwersytet_30min":1,"medyczny_30min":1},"geometry":{"type":"Polygon","coordinates":[[[18.616646,54.342211],[18.618846,54.344465],[18.623288,54.344479],[18.625529,54.342239],[18.623329,54.339984],[18.618888,54.339971],[18.616646,54.342211]]]}},{"type":"Feature","properties":{"hex_id":695,"pop_20_29":191.0,"total_30min":2,"dominant_label":"Uniwersytet Gdański","dominant_role":"uniwersytet","politechnika_30min":0,"uniwersytet_30min":1,"medyczny_30min":1},"geometry":{"type":"Polygon","coordinates":[[[18.616688,54.337716],[18.618888,54.339971],[18.623329,54.339984],[18.62557,54.337744],[18.62337,54.33549],[18.618929,54.335476],[18.616688,54.337716]]]}},{"type":"Feature","properties":{"hex_id":715,"pop_20_29":333.0,"total_30min":9,"dominant_label":"Politechnika Gdańska","dominant_role":"politechnika","politechnika_30min":8,"uniwersytet_30min":0,"medyczny_30min":1},"geometry":{"type":"Polygon","coordinates":[[[18.622877,54.389429],[18.625079,54.391683],[18.629526,54.391697],[18.63177,54.389456],[18.629567,54.387202],[18.62512,54.387188],[18.622877,54.389429]]]}},{"type":"Feature","properties":{"hex_id":716,"pop_20_29":436.0,"total_30min":14,"dominant_label":"Politechnika Gdańska","dominant_role":"politechnika","politechnika_30min":13,"uniwersytet_30min":0,"medyczny_30min":1},"geometry":{"type":"Polygon","coordinates":[[[18.622918,54.384934],[18.62512,54.387188],[18.629567,54.387202],[18.63181,54.384961],[18.629607,54.382707],[18.625161,54.382693],[18.622918,54.384934]]]}},{"type":"Feature","properties":{"hex_id":717,"pop_20_29":334.0,"total_30min":25,"dominant_label":"Politechnika Gdańska","dominant_role":"politechnika","politechnika_30min":23,"uniwersytet_30min":0,"medyczny_30min":2},"geometry":{"type":"Polygon","coordinates":[[[18.622959,54.380439],[18.625161,54.382693],[18.629607,54.382707],[18.63185,54.380466],[18.629648,54.378212],[18.625202,54.378198],[18.622959,54.380439]]]}},{"type":"Feature","properties":{"hex_id":718,"pop_20_29":103.0,"total_30min":33,"dominant_label":"Politechnika Gdańska","dominant_role":"politechnika","politechnika_30min":29,"uniwersytet_30min":2,"medyczny_30min":2},"geometry":{"type":"Polygon","coordinates":[[[18.623,54.375944],[18.625202,54.378198],[18.629648,54.378212],[18.631891,54.375971],[18.629688,54.373717],[18.625243,54.373703],[18.623,54.375944]]]}},{"type":"Feature","properties":{"hex_id":720,"pop_20_29":87.0,"total_30min":32,"dominant_label":"Politechnika Gdańska","dominant_role":"politechnika","politechnika_30min":29,"uniwersytet_30min":1,"medyczny_30min":2},"geometry":{"type":"Polygon","coordinates":[[[18.623082,54.366954],[18.625284,54.369209],[18.629729,54.369222],[18.631971,54.366982],[18.629769,54.364727],[18.625325,54.364714],[18.623082,54.366954]]]}},{"type":"Feature","properties":{"hex_id":721,"pop_20_29":39.0,"total_30min":24,"dominant_label":"Politechnika Gdańska","dominant_role":"politechnika","politechnika_30min":21,"uniwersytet_30min":1,"medyczny_30min":2},"geometry":{"type":"Polygon","coordinates":[[[18.623124,54.362459],[18.625325,54.364714],[18.629769,54.364727],[18.632011,54.362487],[18.62981,54.360232],[18.625366,54.360219],[18.623124,54.362459]]]}},{"type":"Feature","properties":{"hex_id":722,"pop_20_29":203.0,"total_30min":5,"dominant_label":"Politechnika Gdańska","dominant_role":"politechnika","politechnika_30min":2,"uniwersytet_30min":1,"medyczny_30min":2},"geometry":{"type":"Polygon","coordinates":[[[18.623165,54.357964],[18.625366,54.360219],[18.62981,54.360232],[18.632051,54.357992],[18.62985,54.355737],[18.625407,54.355724],[18.623165,54.357964]]]}},{"type":"Feature","properties":{"hex_id":723,"pop_20_29":100.0,"total_30min":4,"dominant_label":"Gdański Uniwersytet Medyczny","dominant_role":"medyczny","politechnika_30min":1,"uniwersytet_30min":1,"medyczny_30min":2},"geometry":{"type":"Polygon","coordinates":[[[18.623206,54.353469],[18.625407,54.355724],[18.62985,54.355737],[18.632092,54.353497],[18.62989,54.351242],[18.625448,54.351229],[18.623206,54.353469]]]}},{"type":"Feature","properties":{"hex_id":724,"pop_20_29":295.0,"total_30min":10,"dominant_label":"Politechnika Gdańska","dominant_role":"politechnika","politechnika_30min":7,"uniwersytet_30min":1,"medyczny_30min":2},"geometry":{"type":"Polygon","coordinates":[[[18.623247,54.348974],[18.625448,54.351229],[18.62989,54.351242],[18.632132,54.349002],[18.629931,54.346748],[18.625489,54.346734],[18.623247,54.348974]]]}},{"type":"Feature","properties":{"hex_id":725,"pop_20_29":65.0,"total_30min":6,"dominant_label":"Politechnika Gdańska","dominant_role":"politechnika","politechnika_30min":4,"uniwersytet_30min":1,"medyczny_30min":1},"geometry":{"type":"Polygon","coordinates":[[[18.623288,54.344479],[18.625489,54.346734],[18.629931,54.346748],[18.632172,54.344507],[18.629971,54.342253],[18.625529,54.342239],[18.623288,54.344479]]]}},{"type":"Feature","properties":{"hex_id":726,"pop_20_29":260.0,"total_30min":2,"dominant_label":"Uniwersytet Gdański","dominant_role":"uniwersytet","politechnika_30min":0,"uniwersytet_30min":1,"medyczny_30min":1},"geometry":{"type":"Polygon","coordinates":[[[18.623329,54.339984],[18.625529,54.342239],[18.629971,54.342253],[18.632212,54.340012],[18.630012,54.337758],[18.62557,54.337744],[18.623329,54.339984]]]}},{"type":"Feature","properties":{"hex_id":727,"pop_20_29":295.0,"total_30min":1,"dominant_label":"Uniwersytet Gdański","dominant_role":"uniwersytet","politechnika_30min":0,"uniwersytet_30min":1,"medyczny_30min":0},"geometry":{"type":"Polygon","coordinates":[[[18.62337,54.33549],[18.62557,54.337744],[18.630012,54.337758],[18.632252,54.335517],[18.630052,54.333263],[18.625611,54.333249],[18.62337,54.33549]]]}},{"type":"Feature","properties":{"hex_id":728,"pop_20_29":255.0,"total_30min":1,"dominant_label":"Uniwersytet Gdański","dominant_role":"uniwersytet","politechnika_30min":0,"uniwersytet_30min":1,"medyczny_30min":0},"geometry":{"type":"Polygon","coordinates":[[[18.623411,54.330995],[18.625611,54.333249],[18.630052,54.333263],[18.632292,54.331022],[18.630092,54.328768],[18.625652,54.328754],[18.623411,54.330995]]]}},{"type":"Feature","properties":{"hex_id":730,"pop_20_29":13.0,"total_30min":1,"dominant_label":"Uniwersytet Gdański","dominant_role":"uniwersytet","politechnika_30min":0,"uniwersytet_30min":1,"medyczny_30min":0},"geometry":{"type":"Polygon","coordinates":[[[18.623493,54.322005],[18.625693,54.324259],[18.630133,54.324273],[18.632372,54.322032],[18.630173,54.319778],[18.625734,54.319764],[18.623493,54.322005]]]}},{"type":"Feature","properties":{"hex_id":731,"pop_20_29":52.0,"total_30min":1,"dominant_label":"Uniwersytet Gdański","dominant_role":"uniwersytet","politechnika_30min":0,"uniwersytet_30min":1,"medyczny_30min":0},"geometry":{"type":"Polygon","coordinates":[[[18.623535,54.31751],[18.625734,54.319764],[18.630173,54.319778],[18.632413,54.317537],[18.630213,54.315283],[18.625774,54.315269],[18.623535,54.31751]]]}},{"type":"Feature","properties":{"hex_id":748,"pop_20_29":129.0,"total_30min":26,"dominant_label":"Politechnika Gdańska","dominant_role":"politechnika","politechnika_30min":23,"uniwersytet_30min":1,"medyczny_30min":2},"geometry":{"type":"Polygon","coordinates":[[[18.629648,54.378212],[18.63185,54.380466],[18.636296,54.38048],[18.638539,54.378239],[18.636336,54.375985],[18.631891,54.375971],[18.629648,54.378212]]]}},{"type":"Feature","properties":{"hex_id":749,"pop_20_29":96.0,"total_30min":23,"dominant_label":"Politechnika Gdańska","dominant_role":"politechnika","politechnika_30min":21,"uniwersytet_30min":1,"medyczny_30min":1},"geometry":{"type":"Polygon","coordinates":[[[18.629688,54.373717],[18.631891,54.375971],[18.636336,54.375985],[18.638578,54.373744],[18.636376,54.37149],[18.631931,54.371476],[18.629688,54.373717]]]}},{"type":"Feature","properties":{"hex_id":750,"pop_20_29":33.0,"total_30min":33,"dominant_label":"Politechnika Gdańska","dominant_role":"politechnika","politechnika_30min":29,"uniwersytet_30min":2,"medyczny_30min":2},"geometry":{"type":"Polygon","coordinates":[[[18.629729,54.369222],[18.631931,54.371476],[18.636376,54.37149],[18.638618,54.369249],[18.636415,54.366995],[18.631971,54.366982],[18.629729,54.369222]]]}},{"type":"Feature","properties":{"hex_id":751,"pop_20_29":180.0,"total_30min":32,"dominant_label":"Politechnika Gdańska","dominant_role":"politechnika","politechnika_30min":29,"uniwersytet_30min":1,"medyczny_30min":2},"geometry":{"type":"Polygon","coordinates":[[[18.629769,54.364727],[18.631971,54.366982],[18.636415,54.366995],[18.638657,54.364754],[18.636455,54.3625],[18.632011,54.362487],[18.629769,54.364727]]]}},{"type":"Feature","properties":{"hex_id":752,"pop_20_29":8.0,"total_30min":20,"dominant_label":"Politechnika Gdańska","dominant_role":"politechnika","politechnika_30min":17,"uniwersytet_30min":1,"medyczny_30min":2},"geometry":{"type":"Polygon","coordinates":[[[18.62981,54.360232],[18.632011,54.362487],[18.636455,54.3625],[18.638697,54.360259],[18.636495,54.358005],[18.632051,54.357992],[18.62981,54.360232]]]}},{"type":"Feature","properties":{"hex_id":753,"pop_20_29":125.0,"total_30min":4,"dominant_label":"Gdański Uniwersytet Medyczny","dominant_role":"medyczny","politechnika_30min":1,"uniwersytet_30min":1,"medyczny_30min":2},"geometry":{"type":"Polygon","coordinates":[[[18.62985,54.355737],[18.632051,54.357992],[18.636495,54.358005],[18.638736,54.355764],[18.636535,54.35351],[18.632092,54.353497],[18.62985,54.355737]]]}},{"type":"Feature","properties":{"hex_id":754,"pop_20_29":210.0,"total_30min":19,"dominant_label":"Politechnika Gdańska","dominant_role":"politechnika","politechnika_30min":16,"uniwersytet_30min":1,"medyczny_30min":2},"geometry":{"type":"Polygon","coordinates":[[[18.62989,54.351242],[18.632092,54.353497],[18.636535,54.35351],[18.638776,54.351269],[18.636574,54.349015],[18.632132,54.349002],[18.62989,54.351242]]]}},{"type":"Feature","properties":{"hex_id":755,"pop_20_29":106.0,"total_30min":3,"dominant_label":"Politechnika Gdańska","dominant_role":"politechnika","politechnika_30min":1,"uniwersytet_30min":1,"medyczny_30min":1},"geometry":{"type":"Polygon","coordinates":[[[18.629931,54.346748],[18.632132,54.349002],[18.636574,54.349015],[18.638815,54.346774],[18.636614,54.34452],[18.632172,54.344507],[18.629931,54.346748]]]}},{"type":"Feature","properties":{"hex_id":756,"pop_20_29":47.0,"total_30min":1,"dominant_label":"Uniwersytet Gdański","dominant_role":"uniwersytet","politechnika_30min":0,"uniwersytet_30min":1,"medyczny_30min":0},"geometry":{"type":"Polygon","coordinates":[[[18.629971,54.342253],[18.632172,54.344507],[18.636614,54.34452],[18.638854,54.342279],[18.636653,54.340025],[18.632212,54.340012],[18.629971,54.342253]]]}},{"type":"Feature","properties":{"hex_id":757,"pop_20_29":29.0,"total_30min":1,"dominant_label":"Uniwersytet Gdański","dominant_role":"uniwersytet","politechnika_30min":0,"uniwersytet_30min":1,"medyczny_30min":0},"geometry":{"type":"Polygon","coordinates":[[[18.630012,54.337758],[18.632212,54.340012],[18.636653,54.340025],[18.638894,54.337784],[18.636693,54.33553],[18.632252,54.335517],[18.630012,54.337758]]]}},{"type":"Feature","properties":{"hex_id":758,"pop_20_29":48.0,"total_30min":1,"dominant_label":"Uniwersytet Gdański","dominant_role":"uniwersytet","politechnika_30min":0,"uniwersytet_30min":1,"medyczny_30min":0},"geometry":{"type":"Polygon","coordinates":[[[18.630052,54.333263],[18.632252,54.335517],[18.636693,54.33553],[18.638933,54.33329],[18.636733,54.331035],[18.632292,54.331022],[18.630052,54.333263]]]}},{"type":"Feature","properties":{"hex_id":759,"pop_20_29":230.0,"total_30min":1,"dominant_label":"Uniwersytet Gdański","dominant_role":"uniwersytet","politechnika_30min":0,"uniwersytet_30min":1,"medyczny_30min":0},"geometry":{"type":"Polygon","coordinates":[[[18.630092,54.328768],[18.632292,54.331022],[18.636733,54.331035],[18.638973,54.328795],[18.636772,54.32654],[18.632332,54.326527],[18.630092,54.328768]]]}},{"type":"Feature","properties":{"hex_id":760,"pop_20_29":225.0,"total_30min":1,"dominant_label":"Uniwersytet Gdański","dominant_role":"uniwersytet","politechnika_30min":0,"uniwersytet_30min":1,"medyczny_30min":0},"geometry":{"type":"Polygon","coordinates":[[[18.630133,54.324273],[18.632332,54.326527],[18.636772,54.32654],[18.639012,54.3243],[18.636812,54.322045],[18.632372,54.322032],[18.630133,54.324273]]]}},{"type":"Feature","properties":{"hex_id":777,"pop_20_29":1.0,"total_30min":8,"dominant_label":"Politechnika Gdańska","dominant_role":"politechnika","politechnika_30min":7,"uniwersytet_30min":0,"medyczny_30min":1},"geometry":{"type":"Polygon","coordinates":[[[18.636257,54.384975],[18.63846,54.387229],[18.642906,54.387242],[18.645149,54.385001],[18.642945,54.382747],[18.638499,54.382734],[18.636257,54.384975]]]}},{"type":"Feature","properties":{"hex_id":782,"pop_20_29":16.0,"total_30min":33,"dominant_label":"Politechnika Gdańska","dominant_role":"politechnika","politechnika_30min":29,"uniwersytet_30min":2,"medyczny_30min":2},"geometry":{"type":"Polygon","coordinates":[[[18.636455,54.3625],[18.638657,54.364754],[18.643101,54.364767],[18.645343,54.362527],[18.64314,54.360272],[18.638697,54.360259],[18.636455,54.3625]]]}},{"type":"Feature","properties":{"hex_id":783,"pop_20_29":36.0,"total_30min":24,"dominant_label":"Politechnika Gdańska","dominant_role":"politechnika","politechnika_30min":21,"uniwersytet_30min":1,"medyczny_30min":2},"geometry":{"type":"Polygon","coordinates":[[[18.636495,54.358005],[18.638697,54.360259],[18.64314,54.360272],[18.645382,54.358032],[18.643179,54.355778],[18.638736,54.355764],[18.636495,54.358005]]]}},{"type":"Feature","properties":{"hex_id":784,"pop_20_29":19.0,"total_30min":23,"dominant_label":"Politechnika Gdańska","dominant_role":"politechnika","politechnika_30min":20,"uniwersytet_30min":1,"medyczny_30min":2},"geometry":{"type":"Polygon","coordinates":[[[18.636535,54.35351],[18.638736,54.355764],[18.643179,54.355778],[18.64542,54.353537],[18.643218,54.351283],[18.638776,54.351269],[18.636535,54.35351]]]}},{"type":"Feature","properties":{"hex_id":785,"pop_20_29":81.0,"total_30min":22,"dominant_label":"Politechnika Gdańska","dominant_role":"politechnika","politechnika_30min":19,"uniwersytet_30min":1,"medyczny_30min":2},"geometry":{"type":"Polygon","coordinates":[[[18.636574,54.349015],[18.638776,54.351269],[18.643218,54.351283],[18.645459,54.349042],[18.643257,54.346788],[18.638815,54.346774],[18.636574,54.349015]]]}},{"type":"Feature","properties":{"hex_id":786,"pop_20_29":178.0,"total_30min":2,"dominant_label":"Uniwersytet Gdański","dominant_role":"uniwersytet","politechnika_30min":0,"uniwersytet_30min":1,"medyczny_30min":1},"geometry":{"type":"Polygon","coordinates":[[[18.636614,54.34452],[18.638815,54.346774],[18.643257,54.346788],[18.645498,54.344547],[18.643296,54.342293],[18.638854,54.342279],[18.636614,54.34452]]]}},{"type":"Feature","properties":{"hex_id":787,"pop_20_29":50.0,"total_30min":2,"dominant_label":"Uniwersytet Gdański","dominant_role":"uniwersytet","politechnika_30min":0,"uniwersytet_30min":1,"medyczny_30min":1},"geometry":{"type":"Polygon","coordinates":[[[18.636653,54.340025],[18.638854,54.342279],[18.643296,54.342293],[18.645536,54.340052],[18.643335,54.337798],[18.638894,54.337784],[18.636653,54.340025]]]}},{"type":"Feature","properties":{"hex_id":807,"pop_20_29":8.0,"total_30min":11,"dominant_label":"Politechnika Gdańska","dominant_role":"politechnika","politechnika_30min":10,"uniwersytet_30min":0,"medyczny_30min":1},"geometry":{"type":"Polygon","coordinates":[[[18.642906,54.387242],[18.64511,54.389496],[18.649557,54.389509],[18.6518,54.387268],[18.649595,54.385014],[18.645149,54.385001],[18.642906,54.387242]]]}},{"type":"Feature","properties":{"hex_id":812,"pop_20_29":59.0,"total_30min":11,"dominant_label":"Politechnika Gdańska","dominant_role":"politechnika","politechnika_30min":8,"uniwersytet_30min":1,"medyczny_30min":2},"geometry":{"type":"Polygon","coordinates":[[[18.643101,54.364767],[18.645304,54.367021],[18.649748,54.367034],[18.65199,54.364793],[18.649787,54.362539],[18.645343,54.362527],[18.643101,54.364767]]]}},{"type":"Feature","properties":{"hex_id":813,"pop_20_29":123.0,"total_30min":24,"dominant_label":"Politechnika Gdańska","dominant_role":"politechnika","politechnika_30min":21,"uniwersytet_30min":1,"medyczny_30min":2},"geometry":{"type":"Polygon","coordinates":[[[18.64314,54.360272],[18.645343,54.362527],[18.649787,54.362539],[18.652028,54.360298],[18.649825,54.358045],[18.645382,54.358032],[18.64314,54.360272]]]}},{"type":"Feature","properties":{"hex_id":814,"pop_20_29":124.0,"total_30min":27,"dominant_label":"Politechnika Gdańska","dominant_role":"politechnika","politechnika_30min":24,"uniwersytet_30min":1,"medyczny_30min":2},"geometry":{"type":"Polygon","coordinates":[[[18.643179,54.355778],[18.645382,54.358032],[18.649825,54.358045],[18.652066,54.355803],[18.649863,54.35355],[18.64542,54.353537],[18.643179,54.355778]]]}},{"type":"Feature","properties":{"hex_id":815,"pop_20_29":176.0,"total_30min":12,"dominant_label":"Politechnika Gdańska","dominant_role":"politechnika","politechnika_30min":9,"uniwersytet_30min":1,"medyczny_30min":2},"geometry":{"type":"Polygon","coordinates":[[[18.643218,54.351283],[18.64542,54.353537],[18.649863,54.35355],[18.652104,54.351309],[18.649901,54.349055],[18.645459,54.349042],[18.643218,54.351283]]]}},{"type":"Feature","properties":{"hex_id":816,"pop_20_29":185.0,"total_30min":6,"dominant_label":"Politechnika Gdańska","dominant_role":"politechnika","politechnika_30min":4,"uniwersytet_30min":1,"medyczny_30min":1},"geometry":{"type":"Polygon","coordinates":[[[18.643257,54.346788],[18.645459,54.349042],[18.649901,54.349055],[18.652142,54.346814],[18.64994,54.34456],[18.645498,54.344547],[18.643257,54.346788]]]}},{"type":"Feature","properties":{"hex_id":817,"pop_20_29":101.0,"total_30min":2,"dominant_label":"Uniwersytet Gdański","dominant_role":"uniwersytet","politechnika_30min":0,"uniwersytet_30min":1,"medyczny_30min":1},"geometry":{"type":"Polygon","coordinates":[[[18.643296,54.342293],[18.645498,54.344547],[18.64994,54.34456],[18.65218,54.342319],[18.649978,54.340065],[18.645536,54.340052],[18.643296,54.342293]]]}},{"type":"Feature","properties":{"hex_id":818,"pop_20_29":11.0,"total_30min":1,"dominant_label":"Uniwersytet Gdański","dominant_role":"uniwersytet","politechnika_30min":0,"uniwersytet_30min":1,"medyczny_30min":0},"geometry":{"type":"Polygon","coordinates":[[[18.643335,54.337798],[18.645536,54.340052],[18.649978,54.340065],[18.652217,54.337824],[18.650016,54.33557],[18.645575,54.335557],[18.643335,54.337798]]]}},{"type":"Feature","properties":{"hex_id":833,"pop_20_29":53.0,"total_30min":1,"dominant_label":"Gdański Uniwersytet Medyczny","dominant_role":"medyczny","politechnika_30min":0,"uniwersytet_30min":0,"medyczny_30min":1},"geometry":{"type":"Polygon","coordinates":[[[18.649557,54.389509],[18.651761,54.391763],[18.656208,54.391776],[18.658451,54.389535],[18.656246,54.387281],[18.6518,54.387268],[18.649557,54.389509]]]}},{"type":"Feature","properties":{"hex_id":840,"pop_20_29":301.0,"total_30min":2,"dominant_label":"Uniwersytet Gdański","dominant_role":"uniwersytet","politechnika_30min":0,"uniwersytet_30min":1,"medyczny_30min":1},"geometry":{"type":"Polygon","coordinates":[[[18.649825,54.358045],[18.652028,54.360298],[18.656471,54.360311],[18.658712,54.35807],[18.656509,54.355816],[18.652066,54.355803],[18.649825,54.358045]]]}},{"type":"Feature","properties":{"hex_id":841,"pop_20_29":194.0,"total_30min":2,"dominant_label":"Uniwersytet Gdański","dominant_role":"uniwersytet","politechnika_30min":0,"uniwersytet_30min":1,"medyczny_30min":1},"geometry":{"type":"Polygon","coordinates":[[[18.649863,54.35355],[18.652066,54.355803],[18.656509,54.355816],[18.658749,54.353575],[18.656546,54.351321],[18.652104,54.351309],[18.649863,54.35355]]]}},{"type":"Feature","properties":{"hex_id":842,"pop_20_29":257.0,"total_30min":2,"dominant_label":"Uniwersytet Gdański","dominant_role":"uniwersytet","politechnika_30min":0,"uniwersytet_30min":1,"medyczny_30min":1},"geometry":{"type":"Polygon","coordinates":[[[18.649901,54.349055],[18.652104,54.351309],[18.656546,54.351321],[18.658786,54.34908],[18.656584,54.346826],[18.652142,54.346814],[18.649901,54.349055]]]}},{"type":"Feature","properties":{"hex_id":843,"pop_20_29":157.0,"total_30min":1,"dominant_label":"Uniwersytet Gdański","dominant_role":"uniwersytet","politechnika_30min":0,"uniwersytet_30min":1,"medyczny_30min":0},"geometry":{"type":"Polygon","coordinates":[[[18.64994,54.34456],[18.652142,54.346814],[18.656584,54.346826],[18.658823,54.344585],[18.656621,54.342331],[18.65218,54.342319],[18.64994,54.34456]]]}},{"type":"Feature","properties":{"hex_id":844,"pop_20_29":291.0,"total_30min":1,"dominant_label":"Uniwersytet Gdański","dominant_role":"uniwersytet","politechnika_30min":0,"uniwersytet_30min":1,"medyczny_30min":0},"geometry":{"type":"Polygon","coordinates":[[[18.649978,54.340065],[18.65218,54.342319],[18.656621,54.342331],[18.658861,54.34009],[18.656659,54.337836],[18.652217,54.337824],[18.649978,54.340065]]]}},{"type":"Feature","properties":{"hex_id":845,"pop_20_29":28.0,"total_30min":1,"dominant_label":"Uniwersytet Gdański","dominant_role":"uniwersytet","politechnika_30min":0,"uniwersytet_30min":1,"medyczny_30min":0},"geometry":{"type":"Polygon","coordinates":[[[18.650016,54.33557],[18.652217,54.337824],[18.656659,54.337836],[18.658898,54.335595],[18.656696,54.333341],[18.652255,54.333329],[18.650016,54.33557]]]}},{"type":"Feature","properties":{"hex_id":869,"pop_20_29":61.0,"total_30min":2,"dominant_label":"Uniwersytet Gdański","dominant_role":"uniwersytet","politechnika_30min":0,"uniwersytet_30min":1,"medyczny_30min":1},"geometry":{"type":"Polygon","coordinates":[[[18.656509,54.355816],[18.658712,54.35807],[18.663155,54.358082],[18.665395,54.355841],[18.663192,54.353588],[18.658749,54.353575],[18.656509,54.355816]]]}},{"type":"Feature","properties":{"hex_id":870,"pop_20_29":142.0,"total_30min":1,"dominant_label":"Uniwersytet Gdański","dominant_role":"uniwersytet","politechnika_30min":0,"uniwersytet_30min":1,"medyczny_30min":0},"geometry":{"type":"Polygon","coordinates":[[[18.656546,54.351321],[18.658749,54.353575],[18.663192,54.353588],[18.665432,54.351346],[18.663229,54.349093],[18.658786,54.34908],[18.656546,54.351321]]]}},{"type":"Feature","properties":{"hex_id":871,"pop_20_29":193.0,"total_30min":1,"dominant_label":"Uniwersytet Gdański","dominant_role":"uniwersytet","politechnika_30min":0,"uniwersytet_30min":1,"medyczny_30min":0},"geometry":{"type":"Polygon","coordinates":[[[18.656584,54.346826],[18.658786,54.34908],[18.663229,54.349093],[18.665468,54.346851],[18.663265,54.344598],[18.658823,54.344585],[18.656584,54.346826]]]}},{"type":"Feature","properties":{"hex_id":872,"pop_20_29":411.0,"total_30min":1,"dominant_label":"Uniwersytet Gdański","dominant_role":"uniwersytet","politechnika_30min":0,"uniwersytet_30min":1,"medyczny_30min":0},"geometry":{"type":"Polygon","coordinates":[[[18.656621,54.342331],[18.658823,54.344585],[18.663265,54.344598],[18.665505,54.342356],[18.663302,54.340103],[18.658861,54.34009],[18.656621,54.342331]]]}},{"type":"Feature","properties":{"hex_id":873,"pop_20_29":23.0,"total_30min":1,"dominant_label":"Uniwersytet Gdański","dominant_role":"uniwersytet","politechnika_30min":0,"uniwersytet_30min":1,"medyczny_30min":0},"geometry":{"type":"Polygon","coordinates":[[[18.656659,54.337836],[18.658861,54.34009],[18.663302,54.340103],[18.665541,54.337861],[18.663339,54.335608],[18.658898,54.335595],[18.656659,54.337836]]]}},{"type":"Feature","properties":{"hex_id":887,"pop_20_29":271.0,"total_30min":8,"dominant_label":"Politechnika Gdańska","dominant_role":"politechnika","politechnika_30min":7,"uniwersytet_30min":0,"medyczny_30min":1},"geometry":{"type":"Polygon","coordinates":[[[18.662824,54.398537],[18.665029,54.400791],[18.669477,54.400803],[18.671719,54.398561],[18.669513,54.396308],[18.665066,54.396296],[18.662824,54.398537]]]}},{"type":"Feature","properties":{"hex_id":897,"pop_20_29":26.0,"total_30min":1,"dominant_label":"Uniwersytet Gdański","dominant_role":"uniwersytet","politechnika_30min":0,"uniwersytet_30min":1,"medyczny_30min":0},"geometry":{"type":"Polygon","coordinates":[[[18.663192,54.353588],[18.665395,54.355841],[18.669838,54.355853],[18.672078,54.353612],[18.669874,54.351358],[18.665432,54.351346],[18.663192,54.353588]]]}},{"type":"Feature","properties":{"hex_id":898,"pop_20_29":352.0,"total_30min":1,"dominant_label":"Uniwersytet Gdański","dominant_role":"uniwersytet","politechnika_30min":0,"uniwersytet_30min":1,"medyczny_30min":0},"geometry":{"type":"Polygon","coordinates":[[[18.663229,54.349093],[18.665432,54.351346],[18.669874,54.351358],[18.672113,54.349117],[18.66991,54.346863],[18.665468,54.346851],[18.663229,54.349093]]]}},{"type":"Feature","properties":{"hex_id":899,"pop_20_29":70.0,"total_30min":1,"dominant_label":"Uniwersytet Gdański","dominant_role":"uniwersytet","politechnika_30min":0,"uniwersytet_30min":1,"medyczny_30min":0},"geometry":{"type":"Polygon","coordinates":[[[18.663265,54.344598],[18.665468,54.346851],[18.66991,54.346863],[18.672149,54.344622],[18.669946,54.342368],[18.665505,54.342356],[18.663265,54.344598]]]}},{"type":"Feature","properties":{"hex_id":924,"pop_20_29":165.0,"total_30min":1,"dominant_label":"Uniwersytet Gdański","dominant_role":"uniwersytet","politechnika_30min":0,"uniwersytet_30min":1,"medyczny_30min":0},"geometry":{"type":"Polygon","coordinates":[[[18.669874,54.351358],[18.672078,54.353612],[18.676521,54.353624],[18.67876,54.351382],[18.676556,54.349129],[18.672113,54.349117],[18.669874,54.351358]]]}},{"type":"Feature","properties":{"hex_id":998,"pop_20_29":5.0,"total_30min":1,"dominant_label":"Uniwersytet Gdański","dominant_role":"uniwersytet","politechnika_30min":0,"uniwersytet_30min":1,"medyczny_30min":0},"geometry":{"type":"Polygon","coordinates":[[[18.689883,54.349164],[18.692088,54.351417],[18.69653,54.351428],[18.698768,54.349186],[18.696563,54.346933],[18.692121,54.346922],[18.689883,54.349164]]]}},{"type":"Feature","properties":{"hex_id":1206,"pop_20_29":20.0,"total_30min":1,"dominant_label":"Uniwersytet Gdański","dominant_role":"uniwersytet","politechnika_30min":0,"uniwersytet_30min":1,"medyczny_30min":0},"geometry":{"type":"Polygon","coordinates":[[[18.809851,54.344918],[18.812062,54.347169],[18.816504,54.347175],[18.818735,54.344931],[18.816524,54.34268],[18.812082,54.342673],[18.809851,54.344918]]]}}]}