{"type":"FeatureCollection","features":[{"type":"Feature","geometry":{"type":"Point","coordinates":[19.9305134,50.0605502]},"properties":{"university":"Uniwersytet Jagielloński","name":"Wydział Filozofii Uniwersytetu Jagiellońskiego","role":"uniwersytet"}},{"type":"Feature","geometry":{"type":"Point","coordinates":[19.9305978,50.0600218]},"properties":{"university":"Uniwersytet Jagielloński","name":"Ośrodek Informacji i Promocji Uniwersytetu Jagiellońskiego","role":"uniwersytet"}},{"type":"Feature","geometry":{"type":"Point","coordinates":[19.9245605,50.0637027]},"properties":{"university":"Uniwersytet Jagielloński","name":"Katedra Patofizjologii Collegium Medicum Uniwersytetu Jagiellońskiego","role":"uniwersytet"}},{"type":"Feature","geometry":{"type":"Point","coordinates":[19.9410257,50.0737026]},"properties":{"university":"Uniwersytet Jagielloński","name":"Collegium Medicum Uniwersytetu Jagiellońskiego - Instytut Stomatologii","role":"uniwersytet"}},{"type":"Feature","geometry":{"type":"Point","coordinates":[19.9338231,50.0608702]},"properties":{"university":"Uniwersytet Jagielloński","name":"Uniwersytet Jagielloński - wydział polonistyki","role":"uniwersytet"}},{"type":"Feature","geometry":{"type":"Point","coordinates":[19.9467467,50.051067]},"properties":{"university":"Uniwersytet Jagielloński","name":"Instytut Judaistyki","role":"uniwersytet"}},{"type":"Feature","geometry":{"type":"Point","coordinates":[19.9466199,50.0510371]},"properties":{"university":"Uniwersytet Jagielloński","name":"Katedra Prawa Własności Intelektualnej","role":"uniwersytet"}},{"type":"Feature","geometry":{"type":"Point","coordinates":[19.9454252,50.0624286]},"properties":{"university":"Uniwersytet Jagielloński","name":"Instytut Muzykologii UJ","role":"uniwersytet"}},{"type":"Feature","geometry":{"type":"Point","coordinates":[19.9003936,50.0263355]},"properties":{"university":"Uniwersytet Jagielloński","name":"Wydział Biochemii, Biofizyki i Biotechnologii","role":"uniwersytet"}},{"type":"Feature","geometry":{"type":"Point","coordinates":[19.9037258,50.0274364]},"properties":{"university":"Uniwersytet Jagielloński","name":"Instytut Botaniki","role":"uniwersytet"}},{"type":"Feature","geometry":{"type":"Point","coordinates":[19.9030104,50.0268654]},"properties":{"university":"Uniwersytet Jagielloński","name":"Instytut Nauk Geologicznych","role":"uniwersytet"}},{"type":"Feature","geometry":{"type":"Point","coordinates":[19.9016414,50.0255064]},"properties":{"university":"Uniwersytet Jagielloński","name":"Wydział Biologii","role":"uniwersytet"}},{"type":"Feature","geometry":{"type":"Point","coordinates":[19.9007144,50.0274227]},"properties":{"university":"Uniwersytet Jagielloński","name":"Instytut Zoologii","role":"uniwersytet"}},{"type":"Feature","geometry":{"type":"Point","coordinates":[19.9071722,50.0305176]},"properties":{"university":"Uniwersytet Jagielloński","name":"Wydział Matematyki i Informatyki","role":"uniwersytet"}},{"type":"Feature","geometry":{"type":"Point","coordinates":[19.9090903,50.0299542]},"properties":{"university":"Uniwersytet Jagielloński","name":"Wydział Zarządzania i Komunikacji Społecznej","role":"uniwersytet"}},{"type":"Feature","geometry":{"type":"Point","coordinates":[19.9054965,50.0289664]},"properties":{"university":"Uniwersytet Jagielloński","name":"Wydział Fizyki, Astronomii i Informatyki Stosowanej","role":"uniwersytet"}},{"type":"Feature","geometry":{"type":"Point","coordinates":[19.9071866,50.0291014]},"properties":{"university":"Uniwersytet Jagielloński","name":"Wydział Chemii","role":"uniwersytet"}},{"type":"Feature","geometry":{"type":"Point","coordinates":[19.9201743,50.0606955]},"properties":{"university":"Uniwersytet Jagielloński","name":"Instytut Bliskiego i Dalekiego Wschodu","role":"uniwersytet"}},{"type":"Feature","geometry":{"type":"Point","coordinates":[19.9281855,50.0660821]},"properties":{"university":"Uniwersytet Jagielloński","name":"Wydział Nauk o Zdrowiu","role":"uniwersytet"}},{"type":"Feature","geometry":{"type":"Point","coordinates":[19.9309195,50.0607296]},"properties":{"university":"Uniwersytet Jagielloński","name":"Samorząd Studentów Uniwersytetu Jagiellońskiego","role":"uniwersytet"}},{"type":"Feature","geometry":{"type":"Point","coordinates":[19.9304539,50.0606586]},"properties":{"university":"Uniwersytet Jagielloński","name":"Dział Spraw Studenckich Uniwersytetu Jagiellońskiego","role":"uniwersytet"}},{"type":"Feature","geometry":{"type":"Point","coordinates":[19.8248829,50.0536821]},"properties":{"university":"Uniwersytet Jagielloński","name":"Obserwatorium Astronomiczne UJ","role":"uniwersytet"}},{"type":"Feature","geometry":{"type":"Point","coordinates":[19.9437875,50.0715589]},"properties":{"university":"Politechnika Krakowska","name":"Wydział Inżynierii Lądowej","role":"politechnika"}},{"type":"Feature","geometry":{"type":"Point","coordinates":[19.9430343,50.0710205]},"properties":{"university":"Politechnika Krakowska","name":"Wydział Inżynierii Elektrycznej i Komputerowej","role":"politechnika"}},{"type":"Feature","geometry":{"type":"Point","coordinates":[19.9427387,50.0725848]},"properties":{"university":"Politechnika Krakowska","name":"Pawilon Konferencyjno-Wystawowy Kotłownia","role":"politechnika"}},{"type":"Feature","geometry":{"type":"Point","coordinates":[19.940498,50.0726858]},"properties":{"university":"Politechnika Krakowska","name":"Dział Zaopatrzenia i Magazyn Politechniki Krakowskiej","role":"politechnika"}},{"type":"Feature","geometry":{"type":"Point","coordinates":[19.9400442,50.071895]},"properties":{"university":"Politechnika Krakowska","name":"Międzywydziałowe Centrum Edukacyjno-Badawcze PK „Działownia\"","role":"politechnika"}},{"type":"Feature","geometry":{"type":"Point","coordinates":[19.94191,50.0713741]},"properties":{"university":"Politechnika Krakowska","name":"Studium Języków Obcych","role":"politechnika"}},{"type":"Feature","geometry":{"type":"Point","coordinates":[19.9413279,50.0724408]},"properties":{"university":"Politechnika Krakowska","name":"Houston","role":"politechnika"}},{"type":"Feature","geometry":{"type":"Point","coordinates":[19.9410325,50.0719009]},"properties":{"university":"Politechnika Krakowska","name":"Instytut Materiałów i Konstrukcji Budowlanych Wydział Inżynierii Lądowej Politechniki Krakowskiej","role":"politechnika"}},{"type":"Feature","geometry":{"type":"Point","coordinates":[19.9423489,50.071968]},"properties":{"university":"Politechnika Krakowska","name":"Wydział Architektury","role":"politechnika"}},{"type":"Feature","geometry":{"type":"Point","coordinates":[19.9430342,50.0720143]},"properties":{"university":"Politechnika Krakowska","name":"Czytelnia","role":"politechnika"}},{"type":"Feature","geometry":{"type":"Point","coordinates":[19.9420451,50.0718473]},"properties":{"university":"Politechnika Krakowska","name":"Politechnika Krakowska - Kampus Warszawska","role":"politechnika"}},{"type":"Feature","geometry":{"type":"Point","coordinates":[19.9421332,50.0709318]},"properties":{"university":"Politechnika Krakowska","name":"Biblioteka Główna","role":"politechnika"}},{"type":"Feature","geometry":{"type":"Point","coordinates":[19.9434234,50.072688]},"properties":{"university":"Politechnika Krakowska","name":"Muzeum Politechniki Krakowskiej","role":"politechnika"}},{"type":"Feature","geometry":{"type":"Point","coordinates":[19.9432796,50.072503]},"properties":{"university":"Politechnika Krakowska","name":"Galeria GIL","role":"politechnika"}},{"type":"Feature","geometry":{"type":"Point","coordinates":[19.940694,50.0725181]},"properties":{"university":"Politechnika Krakowska","name":"Laboratorium Wysokich Napięć","role":"politechnika"}},{"type":"Feature","geometry":{"type":"Point","coordinates":[19.9955756,50.0761922]},"properties":{"university":"Politechnika Krakowska","name":"Hala Sport. H","role":"politechnika"}},{"type":"Feature","geometry":{"type":"Point","coordinates":[19.9975149,50.0756182]},"properties":{"university":"Politechnika Krakowska","name":"Politechnika Krakowska - Kampus Czyżyny","role":"politechnika"}},{"type":"Feature","geometry":{"type":"Point","coordinates":[19.9954954,50.0759698]},"properties":{"university":"Politechnika Krakowska","name":"","role":"politechnika"}},{"type":"Feature","geometry":{"type":"Point","coordinates":[19.9966269,50.0750518]},"properties":{"university":"Politechnika Krakowska","name":"","role":"politechnika"}},{"type":"Feature","geometry":{"type":"Point","coordinates":[19.9961214,50.0750242]},"properties":{"university":"Politechnika Krakowska","name":"","role":"politechnika"}},{"type":"Feature","geometry":{"type":"Point","coordinates":[19.9972608,50.0751187]},"properties":{"university":"Politechnika Krakowska","name":"","role":"politechnika"}},{"type":"Feature","geometry":{"type":"Point","coordinates":[19.9958887,50.0748405]},"properties":{"university":"Politechnika Krakowska","name":"Bud. D","role":"politechnika"}},{"type":"Feature","geometry":{"type":"Point","coordinates":[19.9963991,50.0748684]},"properties":{"university":"Politechnika Krakowska","name":"Bud. C","role":"politechnika"}},{"type":"Feature","geometry":{"type":"Point","coordinates":[19.9952626,50.0757895]},"properties":{"university":"Politechnika Krakowska","name":"Bud. J","role":"politechnika"}},{"type":"Feature","geometry":{"type":"Point","coordinates":[19.9969023,50.0748958]},"properties":{"university":"Politechnika Krakowska","name":"Bud. B","role":"politechnika"}},{"type":"Feature","geometry":{"type":"Point","coordinates":[19.9957724,50.0758173]},"properties":{"university":"Politechnika Krakowska","name":"Bud. K","role":"politechnika"}},{"type":"Feature","geometry":{"type":"Point","coordinates":[19.9955488,50.0755662]},"properties":{"university":"Politechnika Krakowska","name":"","role":"politechnika"}},{"type":"Feature","geometry":{"type":"Point","coordinates":[19.9040439,50.0291017]},"properties":{"university":"Uniwersytet Jagielloński","name":"","role":"uniwersytet"}},{"type":"Feature","geometry":{"type":"Point","coordinates":[19.9201173,50.0626172]},"properties":{"university":"Uniwersytet Jagielloński","name":"Instytut Filologii Wschodniosłowiańskiej Uniwersytetu Jagiellońskiego","role":"uniwersytet"}},{"type":"Feature","geometry":{"type":"Point","coordinates":[19.920123,50.063575]},"properties":{"university":"Uniwersytet Jagielloński","name":"Wydział Studiów Międzynarodowych i Politycznych UJ","role":"uniwersytet"}},{"type":"Feature","geometry":{"type":"Point","coordinates":[19.9093035,50.0756805]},"properties":{"university":"Politechnika Krakowska","name":"Wydział Architektury","role":"politechnika"}},{"type":"Feature","geometry":{"type":"Point","coordinates":[19.9101561,50.0758397]},"properties":{"university":"Politechnika Krakowska","name":"","role":"politechnika"}},{"type":"Feature","geometry":{"type":"Point","coordinates":[19.9095968,50.0758563]},"properties":{"university":"Politechnika Krakowska","name":"","role":"politechnika"}},{"type":"Feature","geometry":{"type":"Point","coordinates":[19.9006262,50.0273939]},"properties":{"university":"Uniwersytet Jagielloński","name":"","role":"uniwersytet"}},{"type":"Feature","geometry":{"type":"Point","coordinates":[19.9022174,50.0275496]},"properties":{"university":"Uniwersytet Jagielloński","name":"Centrum Edukacji Przyrodniczej","role":"uniwersytet"}},{"type":"Feature","geometry":{"type":"Point","coordinates":[19.9461222,50.0605337]},"properties":{"university":"Uniwersytet Jagielloński","name":"Uniwersytet Jagielloński - Collegium Medicum","role":"uniwersytet"}},{"type":"Feature","geometry":{"type":"Point","coordinates":[19.9420167,50.0470578]},"properties":{"university":"Uniwersytet Jagielloński","name":"Collegium Medicum Uniwersytetu Jagiellońskiego","role":"uniwersytet"}},{"type":"Feature","geometry":{"type":"Point","coordinates":[19.9047251,50.0283288]},"properties":{"university":"Uniwersytet Jagielloński","name":"Kampus 600-lecia Odnowienia Uniwersytetu Jagiellońskiego","role":"uniwersytet"}},{"type":"Feature","geometry":{"type":"Point","coordinates":[19.9397853,50.0714597]},"properties":{"university":"Politechnika Krakowska","name":"Małopolskie laboratorium budownictwa energooszczędnego","role":"politechnika"}},{"type":"Feature","geometry":{"type":"Point","coordinates":[19.9963305,50.0752553]},"properties":{"university":"Politechnika Krakowska","name":"Hala lab. E","role":"politechnika"}},{"type":"Feature","geometry":{"type":"Point","coordinates":[19.9944533,50.0759821]},"properties":{"university":"Politechnika Krakowska","name":"Bud. G","role":"politechnika"}},{"type":"Feature","geometry":{"type":"Point","coordinates":[19.9438991,50.0722832]},"properties":{"university":"Politechnika Krakowska","name":"Wydział Inżynierii Środowiska i Energetyki","role":"politechnika"}},{"type":"Feature","geometry":{"type":"Point","coordinates":[19.9321022,50.0669119]},"properties":{"university":"Uniwersytet Jagielloński","name":"Instytut Pedagogiki UJ","role":"uniwersytet"}},{"type":"Feature","geometry":{"type":"Point","coordinates":[19.9250065,50.0630544]},"properties":{"university":"Uniwersytet Jagielloński","name":"Uniwersytet Jagielloński","role":"uniwersytet"}},{"type":"Feature","geometry":{"type":"Point","coordinates":[19.9453366,50.0624307]},"properties":{"university":"Uniwersytet Jagielloński","name":"Uniwerystet Jagielloński","role":"uniwersytet"}},{"type":"Feature","geometry":{"type":"Point","coordinates":[19.931505,50.0600492]},"properties":{"university":"Uniwersytet Jagielloński","name":"","role":"uniwersytet"}},{"type":"Feature","geometry":{"type":"Point","coordinates":[19.9048084,50.0289832]},"properties":{"university":"Uniwersytet Jagielloński","name":"","role":"uniwersytet"}},{"type":"Feature","geometry":{"type":"Point","coordinates":[19.9251914,50.0605432]},"properties":{"university":"Uniwersytet Jagielloński","name":"Uniwersytet Jagielloński","role":"uniwersytet"}},{"type":"Feature","geometry":{"type":"Point","coordinates":[19.9994641,50.0753533]},"properties":{"university":"Politechnika Krakowska","name":"Bud. O","role":"politechnika"}}]}