{"type":"FeatureCollection","features":[{"type":"Feature","geometry":{"type":"Point","coordinates":[19.4542642,51.7758704]},"properties":{"university":"Uniwersytet Łódzki","name":"Uniwersytet Łódzki - Biblioteka i Czytelnia Brytyjska","role":"uniwersytet"}},{"type":"Feature","geometry":{"type":"Point","coordinates":[19.4570966,51.7744631]},"properties":{"university":"Uniwersytet Łódzki","name":"Uniwersytet Łódzki Studium J. Angielskiego","role":"uniwersytet"}},{"type":"Feature","geometry":{"type":"Point","coordinates":[19.4495583,51.7491574]},"properties":{"university":"Politechnika Łódzka","name":"AZS Politechnika Łódzka","role":"politechnika"}},{"type":"Feature","geometry":{"type":"Point","coordinates":[19.4553984,51.7473138]},"properties":{"university":"Politechnika Łódzka","name":"B10 Wydział Inżynierii Procesowej i Ochrony Środowiska","role":"politechnika"}},{"type":"Feature","geometry":{"type":"Point","coordinates":[19.4871735,51.775745]},"properties":{"university":"Uniwersytet Łódzki","name":"Uniwersytet Łódzki - Wydział Zarządzania","role":"uniwersytet"}},{"type":"Feature","geometry":{"type":"Point","coordinates":[19.4873568,51.7741967]},"properties":{"university":"Uniwersytet Łódzki","name":"Biblioteka Uniwersytetu Łódzkiego","role":"uniwersytet"}},{"type":"Feature","geometry":{"type":"Point","coordinates":[19.4737208,51.7707205]},"properties":{"university":"Uniwersytet Łódzki","name":"Studium Języka Angielskiego Uniwersytetu Łódzkiego","role":"uniwersytet"}},{"type":"Feature","geometry":{"type":"Point","coordinates":[19.4743164,51.7729675]},"properties":{"university":"Uniwersytet Łódzki","name":"Centrum Rekrutacji Uniwersytetu Łódzkiego","role":"uniwersytet"}},{"type":"Feature","geometry":{"type":"Point","coordinates":[19.474646,51.7725429]},"properties":{"university":"Uniwersytet Łódzki","name":"Rektorat Uniwersytetu Łódzkiego","role":"uniwersytet"}},{"type":"Feature","geometry":{"type":"Point","coordinates":[19.4832885,51.7778716]},"properties":{"university":"Uniwersytet Łódzki","name":"Wydział Prawa i Administracji Uniwersytetu Łódzkiego","role":"uniwersytet"}},{"type":"Feature","geometry":{"type":"Point","coordinates":[19.4540269,51.7698593]},"properties":{"university":"Uniwersytet Medyczny","name":"Uniwersytet Medyczny w Łodzi Rektorat","role":"medyczny"}},{"type":"Feature","geometry":{"type":"Point","coordinates":[19.4814169,51.7735107]},"properties":{"university":"Uniwersytet Łódzki","name":"Wydział Nauk Geograficznych Uniwersytetu Łódzkiego","role":"uniwersytet"}},{"type":"Feature","geometry":{"type":"Point","coordinates":[19.4559914,51.7473564]},"properties":{"university":"Politechnika Łódzka","name":"B11 Wydział Fizyki Technicznej, Informatyki i Matematyki Stosowanej","role":"politechnika"}},{"type":"Feature","geometry":{"type":"Point","coordinates":[19.453366,51.746409]},"properties":{"university":"Politechnika Łódzka","name":"B16 Wydawnictwo Politechniki Łódzkiej","role":"politechnika"}},{"type":"Feature","geometry":{"type":"Point","coordinates":[19.453082,51.7485781]},"properties":{"university":"Politechnika Łódzka","name":"Rektorat Politechniki Łódzkiej","role":"politechnika"}},{"type":"Feature","geometry":{"type":"Point","coordinates":[19.4522337,51.7536888]},"properties":{"university":"Politechnika Łódzka","name":"Politechnika Łódzka - Kampus A","role":"politechnika"}},{"type":"Feature","geometry":{"type":"Point","coordinates":[19.4492933,51.7455552]},"properties":{"university":"Politechnika Łódzka","name":"AZS Politechnika Łódzka","role":"politechnika"}},{"type":"Feature","geometry":{"type":"Point","coordinates":[19.4495432,51.7468216]},"properties":{"university":"Politechnika Łódzka","name":"Politechnika Łódzka - Kampus C","role":"politechnika"}},{"type":"Feature","geometry":{"type":"Point","coordinates":[19.4519237,51.7454094]},"properties":{"university":"Politechnika Łódzka","name":"B24 Centrum Językowe Politechniki Łódzkiej","role":"politechnika"}},{"type":"Feature","geometry":{"type":"Point","coordinates":[19.4945336,51.7760445]},"properties":{"university":"Uniwersytet Łódzki","name":"Uniwersytet Łódzki - Wydział Filologiczny","role":"uniwersytet"}},{"type":"Feature","geometry":{"type":"Point","coordinates":[19.4889858,51.7802767]},"properties":{"university":"Uniwersytet Łódzki","name":"Uniwersytet Łódzki - Wydział Chemii","role":"uniwersytet"}},{"type":"Feature","geometry":{"type":"Point","coordinates":[19.4615761,51.749437]},"properties":{"university":"Politechnika Łódzka","name":"Politechnika Łódzka - Kampus D","role":"politechnika"}},{"type":"Feature","geometry":{"type":"Point","coordinates":[19.4433114,51.7932985]},"properties":{"university":"Uniwersytet Medyczny","name":"Katedra i Zakład Medycyny Sądowej Uniwersytetu Medycznego w Łodzi","role":"medyczny"}},{"type":"Feature","geometry":{"type":"Point","coordinates":[19.4530357,51.7477018]},"properties":{"university":"Politechnika Łódzka","name":"B6 Instytut Architektury i Urbanistyki Politechniki Łódzkiej","role":"politechnika"}},{"type":"Feature","geometry":{"type":"Point","coordinates":[19.4721576,51.7716248]},"properties":{"university":"Uniwersytet Łódzki","name":"Wydział Studiów Międzynarodowych i Politologicznych Uniwersytetu Łódzkiego","role":"uniwersytet"}},{"type":"Feature","geometry":{"type":"Point","coordinates":[19.4738554,51.7713328]},"properties":{"university":"Uniwersytet Łódzki","name":"Uniwersytet Łódzki","role":"uniwersytet"}},{"type":"Feature","geometry":{"type":"Point","coordinates":[19.4686717,51.772319]},"properties":{"university":"Uniwersytet Medyczny","name":"Katedra Anatomii Uniwersytetu Medycznego w Łodzi","role":"medyczny"}},{"type":"Feature","geometry":{"type":"Point","coordinates":[19.4644861,51.7749853]},"properties":{"university":"Uniwersytet Łódzki","name":"Wydział Ekonomiczno-Socjologiczny Uniwersytetu Łódzkiego","role":"uniwersytet"}},{"type":"Feature","geometry":{"type":"Point","coordinates":[19.4744745,51.7755289]},"properties":{"university":"Uniwersytet Łódzki","name":"Wydział Filozoficzno-Historyczny Uniwersytetu Łódzkiego","role":"uniwersytet"}},{"type":"Feature","geometry":{"type":"Point","coordinates":[19.4366839,51.7713574]},"properties":{"university":"Uniwersytet Medyczny","name":"Uniwersytet Medyczny w Łodzi - Klinika i Zakład Endokrynologii i Chorób Metabolicznych","role":"medyczny"}},{"type":"Feature","geometry":{"type":"Point","coordinates":[19.4944324,51.7765099]},"properties":{"university":"Uniwersytet Łódzki","name":"Wydział Filologiczny Uniwersytetu Łódzkiego","role":"uniwersytet"}},{"type":"Feature","geometry":{"type":"Point","coordinates":[19.4919685,51.7754728]},"properties":{"university":"Uniwersytet Medyczny","name":"Biblioteka Główna Uniwersytetu Medycznego","role":"medyczny"}},{"type":"Feature","geometry":{"type":"Point","coordinates":[19.4900796,51.7747233]},"properties":{"university":"Uniwersytet Medyczny","name":"Wydział Farmaceutyczny Uniwersytetu Medycznego w Łodzi","role":"medyczny"}},{"type":"Feature","geometry":{"type":"Point","coordinates":[19.4873756,51.7741668]},"properties":{"university":"Uniwersytet Łódzki","name":"Biblioteka Główna Uniwersytetu Łódzkiego","role":"uniwersytet"}},{"type":"Feature","geometry":{"type":"Point","coordinates":[19.4874613,51.7757855]},"properties":{"university":"Uniwersytet Łódzki","name":"Wydział Zarządzania Uniwersytetu Łódzkiego","role":"uniwersytet"}},{"type":"Feature","geometry":{"type":"Point","coordinates":[19.4868567,51.7767766]},"properties":{"university":"Uniwersytet Łódzki","name":"Wydział Matematyki i Informatyki Uniwersytetu Łódzkiego","role":"uniwersytet"}},{"type":"Feature","geometry":{"type":"Point","coordinates":[19.4891246,51.7768114]},"properties":{"university":"Uniwersytet Łódzki","name":"Wydział Fizyki i Informatyki Stosowanej Uniwersytetu Łódzkiego","role":"uniwersytet"}},{"type":"Feature","geometry":{"type":"Point","coordinates":[19.483085,51.7781126]},"properties":{"university":"Uniwersytet Łódzki","name":"Wydział Prawa i Administracji Uniwersytetu Łódzkiego","role":"uniwersytet"}},{"type":"Feature","geometry":{"type":"Point","coordinates":[19.4850399,51.7779132]},"properties":{"university":"Uniwersytet Medyczny","name":"Zakład Mikrobiologii Farmaceutycznej i Diagnostyki Mikrobiologicznej Uniwersytetu Medycznego","role":"medyczny"}},{"type":"Feature","geometry":{"type":"Point","coordinates":[19.4828812,51.7754408]},"properties":{"university":"Uniwersytet Łódzki","name":"Centrum Szkoleniowo-Konferencyjne Uniwersytetu Łódzkiego","role":"uniwersytet"}},{"type":"Feature","geometry":{"type":"Point","coordinates":[19.4837489,51.7753737]},"properties":{"university":"Uniwersytet Łódzki","name":"Studium Języka Polskiego dla Cudzoziemców Uniwersytetu Łódzkiego","role":"uniwersytet"}},{"type":"Feature","geometry":{"type":"Point","coordinates":[19.4741784,51.7715542]},"properties":{"university":"Uniwersytet Łódzki","name":"Instytut Filozofii Uniwersytetu Łódzkiego","role":"uniwersytet"}},{"type":"Feature","geometry":{"type":"Point","coordinates":[19.4543851,51.769887]},"properties":{"university":"Uniwersytet Medyczny","name":"Uniwersytet Medyczny w Łodzi","role":"medyczny"}},{"type":"Feature","geometry":{"type":"Point","coordinates":[19.4496305,51.7545274]},"properties":{"university":"Politechnika Łódzka","name":"Alchemium","role":"politechnika"}},{"type":"Feature","geometry":{"type":"Point","coordinates":[19.4585665,51.746755]},"properties":{"university":"Politechnika Łódzka","name":"Politechnika Łódzka - Kampus E","role":"politechnika"}},{"type":"Feature","geometry":{"type":"Point","coordinates":[19.453731,51.7468697]},"properties":{"university":"Politechnika Łódzka","name":"Politechnika Łódzka - Kampus B","role":"politechnika"}},{"type":"Feature","geometry":{"type":"Point","coordinates":[19.473127,51.7738589]},"properties":{"university":"Uniwersytet Medyczny","name":"Oddział Pielęgniarstwa i Położnictwa Wydziału Nauk O Zdrowiu Uniwersytetu Medycznego w Łodzi","role":"medyczny"}}]}