{"type":"FeatureCollection","features":[{"type":"Feature","geometry":{"type":"Point","coordinates":[16.9510672,52.4016752]},"properties":{"university":"Politechnika Poznańska","name":"Centrum Języków i Komunikacji","role":"politechnika"}},{"type":"Feature","geometry":{"type":"Point","coordinates":[16.942079,52.4637336]},"properties":{"university":"Uniwersytet im. Adama Mickiewicza","name":"Wydział Geografii Społeczno-Ekonomicznej i Gospodarki Przestrzennej UAM","role":"uniwersytet"}},{"type":"Feature","geometry":{"type":"Point","coordinates":[16.9213021,52.4036519]},"properties":{"university":"Uniwersytet im. Adama Mickiewicza","name":"Collegium Novum","role":"uniwersytet"}},{"type":"Feature","geometry":{"type":"Point","coordinates":[16.8900631,52.4085968]},"properties":{"university":"Uniwersytet Medyczny im. K. Marcinkowskiego","name":"Centrum Stomatologii Uniwersytetu Medycznego","role":"medyczny"}},{"type":"Feature","geometry":{"type":"Point","coordinates":[16.8893719,52.4073707]},"properties":{"university":"Uniwersytet Medyczny im. K. Marcinkowskiego","name":"Centrum Kongresowo-Dydaktyczne Uniwersytetu Medycznego","role":"medyczny"}},{"type":"Feature","geometry":{"type":"Point","coordinates":[16.9534927,52.4024677]},"properties":{"university":"Politechnika Poznańska","name":"Centrum Mechatroniki Biomechaniki i Nanoinżynierii","role":"politechnika"}},{"type":"Feature","geometry":{"type":"Point","coordinates":[16.9269951,52.4667973]},"properties":{"university":"Uniwersytet im. Adama Mickiewicza","name":"Collegium Mathematicum im. Władysława Orlicza","role":"uniwersytet"}},{"type":"Feature","geometry":{"type":"Point","coordinates":[16.918197,52.3941997]},"properties":{"university":"Politechnika Poznańska","name":"Rektorat Politechniki Poznańskiej","role":"politechnika"}},{"type":"Feature","geometry":{"type":"Point","coordinates":[16.9506358,52.4049752]},"properties":{"university":"Politechnika Poznańska","name":"Centrum Dydaktyczne Wydziału Technologii Chemicznej","role":"politechnika"}},{"type":"Feature","geometry":{"type":"Point","coordinates":[16.8958576,52.4104309]},"properties":{"university":"Uniwersytet Medyczny im. K. Marcinkowskiego","name":"Centrum Kształcenia w Języku Angielskim Uniwersytetu Medycznego","role":"medyczny"}},{"type":"Feature","geometry":{"type":"Point","coordinates":[16.8912623,52.407169]},"properties":{"university":"Uniwersytet Medyczny im. K. Marcinkowskiego","name":"Uniwersytet Medyczny im. Karola Marcinkowskiego","role":"medyczny"}},{"type":"Feature","geometry":{"type":"Point","coordinates":[16.9477892,52.4095076]},"properties":{"university":"Uniwersytet im. Adama Mickiewicza","name":"Wydział Teologiczny UAM","role":"uniwersytet"}},{"type":"Feature","geometry":{"type":"Point","coordinates":[16.9178206,52.4289114]},"properties":{"university":"Uniwersytet im. Adama Mickiewicza","name":"","role":"uniwersytet"}},{"type":"Feature","geometry":{"type":"Point","coordinates":[16.9519839,52.4062906]},"properties":{"university":"Politechnika Poznańska","name":"Wydział Architektury oraz Wydział Inżynierii Zarządzania","role":"politechnika"}},{"type":"Feature","geometry":{"type":"Point","coordinates":[16.8836736,52.4145883]},"properties":{"university":"Uniwersytet im. Adama Mickiewicza","name":"Kampus Ogrody UAM","role":"uniwersytet"}},{"type":"Feature","geometry":{"type":"Point","coordinates":[16.9410683,52.4622547]},"properties":{"university":"Uniwersytet im. Adama Mickiewicza","name":"Stacja naukowa","role":"uniwersytet"}},{"type":"Feature","geometry":{"type":"Point","coordinates":[16.9416046,52.4618273]},"properties":{"university":"Uniwersytet im. Adama Mickiewicza","name":"Stacja pomiarowa Różany Potok","role":"uniwersytet"}},{"type":"Feature","geometry":{"type":"Point","coordinates":[16.917804,52.3944422]},"properties":{"university":"Politechnika Poznańska","name":"Politechnika Poznańska (Kampus Wilda)","role":"politechnika"}},{"type":"Feature","geometry":{"type":"Point","coordinates":[16.9248713,52.4161582]},"properties":{"university":"Uniwersytet im. Adama Mickiewicza","name":"Kampus Śródmiejski UAM","role":"uniwersytet"}},{"type":"Feature","geometry":{"type":"Point","coordinates":[16.904707,52.4041644]},"properties":{"university":"Uniwersytet Medyczny im. K. Marcinkowskiego","name":"Uniwersytet Medyczny im. Karola Marcinkowskiego","role":"medyczny"}},{"type":"Feature","geometry":{"type":"Point","coordinates":[16.9051309,52.4055563]},"properties":{"university":"Uniwersytet Medyczny im. K. Marcinkowskiego","name":"Uniwersytet Medyczny im. Karola Marcinkowskiego","role":"medyczny"}},{"type":"Feature","geometry":{"type":"Point","coordinates":[16.9400267,52.4029912]},"properties":{"university":"Uniwersytet Medyczny im. K. Marcinkowskiego","name":"","role":"medyczny"}},{"type":"Feature","geometry":{"type":"Point","coordinates":[16.9247863,52.4674462]},"properties":{"university":"Uniwersytet im. Adama Mickiewicza","name":"Kampus Morasko UAM (część zachodnia)","role":"uniwersytet"}},{"type":"Feature","geometry":{"type":"Point","coordinates":[16.8772498,52.4057818]},"properties":{"university":"Uniwersytet im. Adama Mickiewicza","name":"Uniwersytet im. Adama Mickiewicza w Poznaniu","role":"uniwersytet"}}]}