{"type":"FeatureCollection","features":[{"type":"Feature","geometry":{"type":"Point","coordinates":[14.5335776,53.4359638]},"properties":{"university":"Uniwersytet Szczeciński","name":"Wydział Nauk Ścisłych i Przyrodniczych Uniwersytetu Szczecińskiego","role":"uniwersytet"}},{"type":"Feature","geometry":{"type":"Point","coordinates":[14.4975526,53.403877]},"properties":{"university":"Uniwersytet Szczeciński","name":"Wydział Nauk Społecznych Uniwersytetu Szczecińskiego","role":"uniwersytet"}},{"type":"Feature","geometry":{"type":"Point","coordinates":[14.5316028,53.4198346]},"properties":{"university":"Uniwersytet Szczeciński","name":"Uniwersyteckie Centrum Edukacyjne Uniwersytetu Szczecińskiego","role":"uniwersytet"}},{"type":"Feature","geometry":{"type":"Point","coordinates":[14.5315831,53.4388205]},"properties":{"university":"Uniwersytet Szczeciński","name":"Studium Wychowania Fizycznego i Sportu","role":"uniwersytet"}},{"type":"Feature","geometry":{"type":"Point","coordinates":[14.5314768,53.4388168]},"properties":{"university":"Uniwersytet Szczeciński","name":"Akademickie Centrum Kształcenia Językowego","role":"uniwersytet"}},{"type":"Feature","geometry":{"type":"Point","coordinates":[14.5313705,53.4388131]},"properties":{"university":"Uniwersytet Szczeciński","name":"Uniwersyteckie Centrum Edukacji","role":"uniwersytet"}},{"type":"Feature","geometry":{"type":"Point","coordinates":[14.5399463,53.4387502]},"properties":{"university":"Uniwersytet Szczeciński","name":"Instytut Pedagogiki Uniwersytetu Szczecińskiego","role":"uniwersytet"}},{"type":"Feature","geometry":{"type":"Point","coordinates":[14.5341496,53.4357817]},"properties":{"university":"Uniwersytet Szczeciński","name":"Instytut Nauk o Morzu i Środowisku Uniwersytetu Szczecińskiego","role":"uniwersytet"}},{"type":"Feature","geometry":{"type":"Point","coordinates":[14.533699,53.4354201]},"properties":{"university":"Uniwersytet Szczeciński","name":"Centrum Dydaktyczno-Badawcze Nauk Przyrodniczych Uniwersytetu Szczecińskiego","role":"uniwersytet"}},{"type":"Feature","geometry":{"type":"Point","coordinates":[14.5305887,53.4127601]},"properties":{"university":"Pomorski Uniwersytet Medyczny","name":"Centrum Egzaminów Testowych","role":"medyczny"}},{"type":"Feature","geometry":{"type":"Point","coordinates":[14.5199571,53.42711]},"properties":{"university":"Zachodniopomorski Uniwersytet Technologiczny","name":"Wydział Elektryczny ZUT – budynek C","role":"politechnika"}},{"type":"Feature","geometry":{"type":"Point","coordinates":[14.5424207,53.4355367]},"properties":{"university":"Uniwersytet Szczeciński","name":"Wydział Nauk Ścisłych i Przyrodniczych Uniwersytetu Szczecińskiego","role":"uniwersytet"}},{"type":"Feature","geometry":{"type":"Point","coordinates":[14.5347584,53.4236415]},"properties":{"university":"Zachodniopomorski Uniwersytet Technologiczny","name":"Wydział Inżynierii Mechanicznej i Mechatroniki ZUT","role":"politechnika"}},{"type":"Feature","geometry":{"type":"Point","coordinates":[14.5350563,53.4250414]},"properties":{"university":"Zachodniopomorski Uniwersytet Technologiczny","name":"Wydział Technologii i Inżynierii Chemicznej ZUT","role":"politechnika"}},{"type":"Feature","geometry":{"type":"Point","coordinates":[14.5338935,53.4248329]},"properties":{"university":"Zachodniopomorski Uniwersytet Technologiczny","name":"Wydział Elektryczny ZUT","role":"politechnika"}},{"type":"Feature","geometry":{"type":"Point","coordinates":[14.5345471,53.4247207]},"properties":{"university":"Zachodniopomorski Uniwersytet Technologiczny","name":"Katedra Technologii Energetycznych","role":"politechnika"}},{"type":"Feature","geometry":{"type":"Point","coordinates":[14.5370248,53.4254312]},"properties":{"university":"Zachodniopomorski Uniwersytet Technologiczny","name":"Wydział Budownictwa i Inżynierii Środowiska ZUT","role":"politechnika"}},{"type":"Feature","geometry":{"type":"Point","coordinates":[14.5354494,53.424367]},"properties":{"university":"Zachodniopomorski Uniwersytet Technologiczny","name":"Rektorat ZUT","role":"politechnika"}},{"type":"Feature","geometry":{"type":"Point","coordinates":[14.5373759,53.4244372]},"properties":{"university":"Zachodniopomorski Uniwersytet Technologiczny","name":"Budynek Jednostek Międzywydziałowych ZUT w Szczecinie","role":"politechnika"}},{"type":"Feature","geometry":{"type":"Point","coordinates":[14.5351829,53.4187526]},"properties":{"university":"Uniwersytet Szczeciński","name":"Wydział Humanistyczny Uniwersytetu Szczecińskiego","role":"uniwersytet"}},{"type":"Feature","geometry":{"type":"Point","coordinates":[14.5355988,53.421392]},"properties":{"university":"Zachodniopomorski Uniwersytet Technologiczny","name":"Wydział Technologii i Inżynierii Chemicznej ZUT","role":"politechnika"}},{"type":"Feature","geometry":{"type":"Point","coordinates":[14.5326981,53.420973]},"properties":{"university":"Zachodniopomorski Uniwersytet Technologiczny","name":"Biblioteka Główna ZUT","role":"politechnika"}},{"type":"Feature","geometry":{"type":"Point","coordinates":[14.5351218,53.4198708]},"properties":{"university":"Zachodniopomorski Uniwersytet Technologiczny","name":"Wydział Techniki Morskiej i Transportu ZUT","role":"politechnika"}},{"type":"Feature","geometry":{"type":"Point","coordinates":[14.5336284,53.4184843]},"properties":{"university":"Uniwersytet Szczeciński","name":"Wydział Prawa i Administracji Uniwersytetu Szczecińskiego","role":"uniwersytet"}},{"type":"Feature","geometry":{"type":"Point","coordinates":[14.5377361,53.4182112]},"properties":{"university":"Uniwersytet Szczeciński","name":"Hala Sportowa WKFiZ Uniwersytetu Szczecińskiego","role":"uniwersytet"}},{"type":"Feature","geometry":{"type":"Point","coordinates":[14.536056,53.4185909]},"properties":{"university":"Uniwersytet Szczeciński","name":"","role":"uniwersytet"}},{"type":"Feature","geometry":{"type":"Point","coordinates":[14.5369273,53.4184898]},"properties":{"university":"Uniwersytet Szczeciński","name":"Wydział Kultury Fizycznej i Zdrowia Uniwersytetu Szczecińskiego","role":"uniwersytet"}},{"type":"Feature","geometry":{"type":"Point","coordinates":[14.5397558,53.4214216]},"properties":{"university":"Uniwersytet Szczeciński","name":"Wydział Prawa i Administracji Uniwersytetu Szczecińskiego","role":"uniwersytet"}},{"type":"Feature","geometry":{"type":"Point","coordinates":[14.5543571,53.4230607]},"properties":{"university":"Pomorski Uniwersytet Medyczny","name":"Pomorski Uniwersytet Medyczny w Szczecinie","role":"medyczny"}},{"type":"Feature","geometry":{"type":"Point","coordinates":[14.5478808,53.4396246]},"properties":{"university":"Uniwersytet Szczeciński","name":"Wydział Nauk Ścisłych i Przyrodniczych Uniwersytetu Szczecińskiego","role":"uniwersytet"}},{"type":"Feature","geometry":{"type":"Point","coordinates":[14.5292274,53.4473376]},"properties":{"university":"Zachodniopomorski Uniwersytet Technologiczny","name":"Wydział Kształtowania Środowiska i Rolnictwa ZUT","role":"politechnika"}},{"type":"Feature","geometry":{"type":"Point","coordinates":[14.5628808,53.4448938]},"properties":{"university":"Zachodniopomorski Uniwersytet Technologiczny","name":"Wydział Nauk o Żywności i Rybactwa ZUT","role":"politechnika"}},{"type":"Feature","geometry":{"type":"Point","coordinates":[14.4983479,53.4027996]},"properties":{"university":"Uniwersytet Szczeciński","name":"Wydział Ekonomii, Finansów i Zarządzania Uniwersytetu Szczecińskiego","role":"uniwersytet"}},{"type":"Feature","geometry":{"type":"Point","coordinates":[14.4913109,53.44752]},"properties":{"university":"Zachodniopomorski Uniwersytet Technologiczny","name":"Wydział Architektury ZUT","role":"politechnika"}},{"type":"Feature","geometry":{"type":"Point","coordinates":[14.4911367,53.4486235]},"properties":{"university":"Zachodniopomorski Uniwersytet Technologiczny","name":"Wydział Informatyki ZUT, budynek 2","role":"politechnika"}},{"type":"Feature","geometry":{"type":"Point","coordinates":[14.4936722,53.4482263]},"properties":{"university":"Pomorski Uniwersytet Medyczny","name":"Wydział Nauk o Zdrowiu Pomorskiego Uniwersytetu Medycznego","role":"medyczny"}},{"type":"Feature","geometry":{"type":"Point","coordinates":[14.4923719,53.4470011]},"properties":{"university":"Zachodniopomorski Uniwersytet Technologiczny","name":"Wydział Informatyki ZUT","role":"politechnika"}},{"type":"Feature","geometry":{"type":"Point","coordinates":[14.4901212,53.4486108]},"properties":{"university":"Pomorski Uniwersytet Medyczny","name":"Międzywydziałowe Centrum Dydaktyki nr 2 Pomorskiego Uniwersytetu Medycznego","role":"medyczny"}},{"type":"Feature","geometry":{"type":"Point","coordinates":[14.4931901,53.44762]},"properties":{"university":"Zachodniopomorski Uniwersytet Technologiczny","name":"Wydział Ekonomiczny ZUT","role":"politechnika"}},{"type":"Feature","geometry":{"type":"Point","coordinates":[14.4990853,53.4466851]},"properties":{"university":"Zachodniopomorski Uniwersytet Technologiczny","name":"Zachodniopomorski Uniwersytet Technologiczny - Wydział Biotechnologii i Hodowli Zwierząt","role":"politechnika"}},{"type":"Feature","geometry":{"type":"Point","coordinates":[14.4998624,53.4470073]},"properties":{"university":"Zachodniopomorski Uniwersytet Technologiczny","name":"Wydział Ekonomiczny ZUT","role":"politechnika"}},{"type":"Feature","geometry":{"type":"Point","coordinates":[14.4991326,53.4470912]},"properties":{"university":"Zachodniopomorski Uniwersytet Technologiczny","name":"Wydział Biotechnologii i Hodowli Zwierząt ZUT w Szczecinie","role":"politechnika"}},{"type":"Feature","geometry":{"type":"Point","coordinates":[14.4996799,53.4481103]},"properties":{"university":"Zachodniopomorski Uniwersytet Technologiczny","name":"Zachodniopomorski Uniwersytet Technologiczny - Wydział Biotechnologii i Hodowli Zwierząt","role":"politechnika"}},{"type":"Feature","geometry":{"type":"Point","coordinates":[14.5355983,53.4184124]},"properties":{"university":"Uniwersytet Szczeciński","name":"Uniwersytet Szczeciński","role":"uniwersytet"}},{"type":"Feature","geometry":{"type":"Point","coordinates":[14.5364105,53.4239508]},"properties":{"university":"Zachodniopomorski Uniwersytet Technologiczny","name":"Centrum Dydaktyczno-Badawcze Nanotechnologii ZUT","role":"politechnika"}},{"type":"Feature","geometry":{"type":"Point","coordinates":[14.5201687,53.438237]},"properties":{"university":"Uniwersytet Szczeciński","name":"Wydział Ekonomii, Finansów i Zarządzania Uniwersytetu Szczecińskiego","role":"uniwersytet"}},{"type":"Feature","geometry":{"type":"Point","coordinates":[14.5429498,53.4356532]},"properties":{"university":"Uniwersytet Szczeciński","name":"Uniwersytet Szczeciński","role":"uniwersytet"}},{"type":"Feature","geometry":{"type":"Point","coordinates":[14.5270766,53.4481895]},"properties":{"university":"Uniwersytet Szczeciński","name":"Wydział Teologiczny Uniwersytetu Szczecińskiego","role":"uniwersytet"}},{"type":"Feature","geometry":{"type":"Point","coordinates":[14.5316422,53.4494728]},"properties":{"university":"Zachodniopomorski Uniwersytet Technologiczny","name":"Zwierzętarnia ZUT","role":"politechnika"}},{"type":"Feature","geometry":{"type":"Point","coordinates":[14.5397534,53.4213842]},"properties":{"university":"Uniwersytet Szczeciński","name":"Uniwersytet Szczeciński","role":"uniwersytet"}},{"type":"Feature","geometry":{"type":"Point","coordinates":[14.5544773,53.4230194]},"properties":{"university":"Pomorski Uniwersytet Medyczny","name":"Pomorski Uniwersytet Medyczny","role":"medyczny"}},{"type":"Feature","geometry":{"type":"Point","coordinates":[14.5042941,53.4504329]},"properties":{"university":"Pomorski Uniwersytet Medyczny","name":"Międzywydziałowe Centrum Dydaktyki Nr 3 PUM w Szczecinie","role":"medyczny"}},{"type":"Feature","geometry":{"type":"Point","coordinates":[14.4934878,53.4490366]},"properties":{"university":"Pomorski Uniwersytet Medyczny","name":"Centrum Symulacji Medycznej Pomorskiego Uniwersytetu Medycznego","role":"medyczny"}}]}