{"type":"FeatureCollection","name":"hex500","crs":{"type":"name","properties":{"name":"urn:ogc:def:crs:OGC:1.3:CRS84"}},"xy_coordinate_resolution":1e-06,"features":[{"type":"Feature","properties":{"hex_id":21,"pop_20_29":30.0,"total_30min":2,"dominant_label":"Pomorski Uniwersytet Medyczny","dominant_role":"medyczny","politechnika_30min":0,"uniwersytet_30min":0,"medyczny_30min":2},"geometry":{"type":"Polygon","coordinates":[[[14.457305,53.459178],[14.459233,53.461501],[14.463568,53.461666],[14.465975,53.459508],[14.464047,53.457185],[14.459712,53.45702],[14.457305,53.459178]]]}},{"type":"Feature","properties":{"hex_id":36,"pop_20_29":75.0,"total_30min":7,"dominant_label":"Zachodniopomorski Uniwersytet Technologiczny","dominant_role":"politechnika","politechnika_30min":4,"uniwersytet_30min":0,"medyczny_30min":3},"geometry":{"type":"Polygon","coordinates":[[[14.464047,53.457185],[14.465975,53.459508],[14.470311,53.459673],[14.472718,53.457514],[14.470789,53.455191],[14.466454,53.455026],[14.464047,53.457185]]]}},{"type":"Feature","properties":{"hex_id":37,"pop_20_29":47.0,"total_30min":1,"dominant_label":"Pomorski Uniwersytet Medyczny","dominant_role":"medyczny","politechnika_30min":0,"uniwersytet_30min":0,"medyczny_30min":1},"geometry":{"type":"Polygon","coordinates":[[[14.464526,53.452703],[14.466454,53.455026],[14.470789,53.455191],[14.473195,53.453033],[14.471267,53.450709],[14.466932,53.450545],[14.464526,53.452703]]]}},{"type":"Feature","properties":{"hex_id":56,"pop_20_29":48.0,"total_30min":11,"dominant_label":"Zachodniopomorski Uniwersytet Technologiczny","dominant_role":"politechnika","politechnika_30min":8,"uniwersytet_30min":0,"medyczny_30min":3},"geometry":{"type":"Polygon","coordinates":[[[14.470789,53.455191],[14.472718,53.457514],[14.477053,53.457679],[14.479459,53.45552],[14.47753,53.453197],[14.473195,53.453033],[14.470789,53.455191]]]}},{"type":"Feature","properties":{"hex_id":57,"pop_20_29":22.0,"total_30min":7,"dominant_label":"Zachodniopomorski Uniwersytet Technologiczny","dominant_role":"politechnika","politechnika_30min":4,"uniwersytet_30min":0,"medyczny_30min":3},"geometry":{"type":"Polygon","coordinates":[[[14.471267,53.450709],[14.473195,53.453033],[14.47753,53.453197],[14.479936,53.451038],[14.478007,53.448715],[14.473673,53.448551],[14.471267,53.450709]]]}},{"type":"Feature","properties":{"hex_id":79,"pop_20_29":8.0,"total_30min":20,"dominant_label":"Zachodniopomorski Uniwersytet Technologiczny","dominant_role":"politechnika","politechnika_30min":9,"uniwersytet_30min":7,"medyczny_30min":4},"geometry":{"type":"Polygon","coordinates":[[[14.47753,53.453197],[14.479459,53.45552],[14.483794,53.455684],[14.4862,53.453526],[14.484271,53.451203],[14.479936,53.451038],[14.47753,53.453197]]]}},{"type":"Feature","properties":{"hex_id":81,"pop_20_29":62.0,"total_30min":18,"dominant_label":"Zachodniopomorski Uniwersytet Technologiczny","dominant_role":"politechnika","politechnika_30min":9,"uniwersytet_30min":5,"medyczny_30min":4},"geometry":{"type":"Polygon","coordinates":[[[14.478484,53.444234],[14.480413,53.446557],[14.484747,53.446721],[14.487152,53.444562],[14.485223,53.442239],[14.480889,53.442075],[14.478484,53.444234]]]}},{"type":"Feature","properties":{"hex_id":82,"pop_20_29":99.0,"total_30min":12,"dominant_label":"Zachodniopomorski Uniwersytet Technologiczny","dominant_role":"politechnika","politechnika_30min":8,"uniwersytet_30min":0,"medyczny_30min":4},"geometry":{"type":"Polygon","coordinates":[[[14.478961,53.439752],[14.480889,53.442075],[14.485223,53.442239],[14.487628,53.44008],[14.485699,53.437757],[14.481366,53.437593],[14.478961,53.439752]]]}},{"type":"Feature","properties":{"hex_id":85,"pop_20_29":203.0,"total_30min":2,"dominant_label":"Zachodniopomorski Uniwersytet Technologiczny","dominant_role":"politechnika","politechnika_30min":2,"uniwersytet_30min":0,"medyczny_30min":0},"geometry":{"type":"Polygon","coordinates":[[[14.48039,53.426307],[14.482318,53.42863],[14.486651,53.428794],[14.489055,53.426635],[14.487127,53.424312],[14.482795,53.424148],[14.48039,53.426307]]]}},{"type":"Feature","properties":{"hex_id":86,"pop_20_29":119.0,"total_30min":4,"dominant_label":"Zachodniopomorski Uniwersytet Technologiczny","dominant_role":"politechnika","politechnika_30min":2,"uniwersytet_30min":2,"medyczny_30min":0},"geometry":{"type":"Polygon","coordinates":[[[14.480867,53.421825],[14.482795,53.424148],[14.487127,53.424312],[14.48953,53.422153],[14.487602,53.41983],[14.483271,53.419666],[14.480867,53.421825]]]}},{"type":"Feature","properties":{"hex_id":87,"pop_20_29":74.0,"total_30min":2,"dominant_label":"Uniwersytet Szczeciński","dominant_role":"uniwersytet","politechnika_30min":0,"uniwersytet_30min":2,"medyczny_30min":0},"geometry":{"type":"Polygon","coordinates":[[[14.481343,53.417343],[14.483271,53.419666],[14.487602,53.41983],[14.490006,53.417671],[14.488078,53.415348],[14.483746,53.415184],[14.481343,53.417343]]]}},{"type":"Feature","properties":{"hex_id":88,"pop_20_29":29.0,"total_30min":1,"dominant_label":"Uniwersytet Szczeciński","dominant_role":"uniwersytet","politechnika_30min":0,"uniwersytet_30min":1,"medyczny_30min":0},"geometry":{"type":"Polygon","coordinates":[[[14.481819,53.412861],[14.483746,53.415184],[14.488078,53.415348],[14.490481,53.41319],[14.488553,53.410867],[14.484222,53.410703],[14.481819,53.412861]]]}},{"type":"Feature","properties":{"hex_id":89,"pop_20_29":31.0,"total_30min":2,"dominant_label":"Uniwersytet Szczeciński","dominant_role":"uniwersytet","politechnika_30min":0,"uniwersytet_30min":2,"medyczny_30min":0},"geometry":{"type":"Polygon","coordinates":[[[14.482295,53.40838],[14.484222,53.410703],[14.488553,53.410867],[14.490956,53.408708],[14.489028,53.406385],[14.484698,53.406221],[14.482295,53.40838]]]}},{"type":"Feature","properties":{"hex_id":91,"pop_20_29":23.0,"total_30min":5,"dominant_label":"Uniwersytet Szczeciński","dominant_role":"uniwersytet","politechnika_30min":1,"uniwersytet_30min":4,"medyczny_30min":0},"geometry":{"type":"Polygon","coordinates":[[[14.483246,53.399416],[14.485173,53.401739],[14.489503,53.401903],[14.491905,53.399744],[14.489978,53.397421],[14.485649,53.397257],[14.483246,53.399416]]]}},{"type":"Feature","properties":{"hex_id":92,"pop_20_29":86.0,"total_30min":17,"dominant_label":"Zachodniopomorski Uniwersytet Technologiczny","dominant_role":"politechnika","politechnika_30min":9,"uniwersytet_30min":8,"medyczny_30min":0},"geometry":{"type":"Polygon","coordinates":[[[14.483722,53.394934],[14.485649,53.397257],[14.489978,53.397421],[14.49238,53.395262],[14.490453,53.392939],[14.486124,53.392775],[14.483722,53.394934]]]}},{"type":"Feature","properties":{"hex_id":103,"pop_20_29":181.0,"total_30min":22,"dominant_label":"Zachodniopomorski Uniwersytet Technologiczny","dominant_role":"politechnika","politechnika_30min":10,"uniwersytet_30min":8,"medyczny_30min":4},"geometry":{"type":"Polygon","coordinates":[[[14.483794,53.455684],[14.485724,53.458007],[14.490059,53.458171],[14.492465,53.456013],[14.490535,53.45369],[14.4862,53.453526],[14.483794,53.455684]]]}},{"type":"Feature","properties":{"hex_id":104,"pop_20_29":108.0,"total_30min":21,"dominant_label":"Zachodniopomorski Uniwersytet Technologiczny","dominant_role":"politechnika","politechnika_30min":9,"uniwersytet_30min":8,"medyczny_30min":4},"geometry":{"type":"Polygon","coordinates":[[[14.484271,53.451203],[14.4862,53.453526],[14.490535,53.45369],[14.49294,53.451531],[14.491011,53.449208],[14.486676,53.449044],[14.484271,53.451203]]]}},{"type":"Feature","properties":{"hex_id":105,"pop_20_29":71.0,"total_30min":21,"dominant_label":"Zachodniopomorski Uniwersytet Technologiczny","dominant_role":"politechnika","politechnika_30min":9,"uniwersytet_30min":8,"medyczny_30min":4},"geometry":{"type":"Polygon","coordinates":[[[14.484747,53.446721],[14.486676,53.449044],[14.491011,53.449208],[14.493416,53.447049],[14.491486,53.444726],[14.487152,53.444562],[14.484747,53.446721]]]}},{"type":"Feature","properties":{"hex_id":106,"pop_20_29":309.0,"total_30min":20,"dominant_label":"Zachodniopomorski Uniwersytet Technologiczny","dominant_role":"politechnika","politechnika_30min":9,"uniwersytet_30min":7,"medyczny_30min":4},"geometry":{"type":"Polygon","coordinates":[[[14.485223,53.442239],[14.487152,53.444562],[14.491486,53.444726],[14.493891,53.442567],[14.491962,53.440244],[14.487628,53.44008],[14.485223,53.442239]]]}},{"type":"Feature","properties":{"hex_id":107,"pop_20_29":91.0,"total_30min":12,"dominant_label":"Zachodniopomorski Uniwersytet Technologiczny","dominant_role":"politechnika","politechnika_30min":8,"uniwersytet_30min":0,"medyczny_30min":4},"geometry":{"type":"Polygon","coordinates":[[[14.485699,53.437757],[14.487628,53.44008],[14.491962,53.440244],[14.494366,53.438085],[14.492437,53.435762],[14.488104,53.435599],[14.485699,53.437757]]]}},{"type":"Feature","properties":{"hex_id":110,"pop_20_29":262.0,"total_30min":16,"dominant_label":"Zachodniopomorski Uniwersytet Technologiczny","dominant_role":"politechnika","politechnika_30min":11,"uniwersytet_30min":5,"medyczny_30min":0},"geometry":{"type":"Polygon","coordinates":[[[14.487127,53.424312],[14.489055,53.426635],[14.493387,53.426799],[14.495791,53.42464],[14.493862,53.422317],[14.48953,53.422153],[14.487127,53.424312]]]}},{"type":"Feature","properties":{"hex_id":111,"pop_20_29":68.0,"total_30min":20,"dominant_label":"Zachodniopomorski Uniwersytet Technologiczny","dominant_role":"politechnika","politechnika_30min":11,"uniwersytet_30min":9,"medyczny_30min":0},"geometry":{"type":"Polygon","coordinates":[[[14.487602,53.41983],[14.48953,53.422153],[14.493862,53.422317],[14.496265,53.420158],[14.494337,53.417835],[14.490006,53.417671],[14.487602,53.41983]]]}},{"type":"Feature","properties":{"hex_id":112,"pop_20_29":80.0,"total_30min":3,"dominant_label":"Uniwersytet Szczeciński","dominant_role":"uniwersytet","politechnika_30min":1,"uniwersytet_30min":2,"medyczny_30min":0},"geometry":{"type":"Polygon","coordinates":[[[14.488078,53.415348],[14.490006,53.417671],[14.494337,53.417835],[14.49674,53.415676],[14.494812,53.413353],[14.490481,53.41319],[14.488078,53.415348]]]}},{"type":"Feature","properties":{"hex_id":113,"pop_20_29":55.0,"total_30min":2,"dominant_label":"Uniwersytet Szczeciński","dominant_role":"uniwersytet","politechnika_30min":0,"uniwersytet_30min":2,"medyczny_30min":0},"geometry":{"type":"Polygon","coordinates":[[[14.488553,53.410867],[14.490481,53.41319],[14.494812,53.413353],[14.497214,53.411194],[14.495286,53.408871],[14.490956,53.408708],[14.488553,53.410867]]]}},{"type":"Feature","properties":{"hex_id":114,"pop_20_29":24.0,"total_30min":13,"dominant_label":"Uniwersytet Szczeciński","dominant_role":"uniwersytet","politechnika_30min":6,"uniwersytet_30min":7,"medyczny_30min":0},"geometry":{"type":"Polygon","coordinates":[[[14.489028,53.406385],[14.490956,53.408708],[14.495286,53.408871],[14.497688,53.406712],[14.495761,53.40439],[14.491431,53.404226],[14.489028,53.406385]]]}},{"type":"Feature","properties":{"hex_id":115,"pop_20_29":64.0,"total_30min":9,"dominant_label":"Uniwersytet Szczeciński","dominant_role":"uniwersytet","politechnika_30min":3,"uniwersytet_30min":6,"medyczny_30min":0},"geometry":{"type":"Polygon","coordinates":[[[14.489503,53.401903],[14.491431,53.404226],[14.495761,53.40439],[14.498163,53.40223],[14.496235,53.399908],[14.491905,53.399744],[14.489503,53.401903]]]}},{"type":"Feature","properties":{"hex_id":116,"pop_20_29":268.0,"total_30min":22,"dominant_label":"Zachodniopomorski Uniwersytet Technologiczny","dominant_role":"politechnika","politechnika_30min":11,"uniwersytet_30min":10,"medyczny_30min":1},"geometry":{"type":"Polygon","coordinates":[[[14.489978,53.397421],[14.491905,53.399744],[14.496235,53.399908],[14.498637,53.397749],[14.496709,53.395426],[14.49238,53.395262],[14.489978,53.397421]]]}},{"type":"Feature","properties":{"hex_id":117,"pop_20_29":190.0,"total_30min":18,"dominant_label":"Zachodniopomorski Uniwersytet Technologiczny","dominant_role":"politechnika","politechnika_30min":9,"uniwersytet_30min":9,"medyczny_30min":0},"geometry":{"type":"Polygon","coordinates":[[[14.490453,53.392939],[14.49238,53.395262],[14.496709,53.395426],[14.49911,53.393267],[14.497183,53.390944],[14.492854,53.39078],[14.490453,53.392939]]]}},{"type":"Feature","properties":{"hex_id":126,"pop_20_29":84.0,"total_30min":22,"dominant_label":"Zachodniopomorski Uniwersytet Technologiczny","dominant_role":"politechnika","politechnika_30min":10,"uniwersytet_30min":8,"medyczny_30min":4},"geometry":{"type":"Polygon","coordinates":[[[14.490059,53.458171],[14.491989,53.460494],[14.496325,53.460658],[14.49873,53.458499],[14.4968,53.456176],[14.492465,53.456013],[14.490059,53.458171]]]}},{"type":"Feature","properties":{"hex_id":127,"pop_20_29":385.0,"total_30min":16,"dominant_label":"Zachodniopomorski Uniwersytet Technologiczny","dominant_role":"politechnika","politechnika_30min":10,"uniwersytet_30min":2,"medyczny_30min":4},"geometry":{"type":"Polygon","coordinates":[[[14.490535,53.45369],[14.492465,53.456013],[14.4968,53.456176],[14.499205,53.454017],[14.497275,53.451695],[14.49294,53.451531],[14.490535,53.45369]]]}},{"type":"Feature","properties":{"hex_id":128,"pop_20_29":29.0,"total_30min":24,"dominant_label":"Zachodniopomorski Uniwersytet Technologiczny","dominant_role":"politechnika","politechnika_30min":12,"uniwersytet_30min":8,"medyczny_30min":4},"geometry":{"type":"Polygon","coordinates":[[[14.491011,53.449208],[14.49294,53.451531],[14.497275,53.451695],[14.49968,53.449535],[14.49775,53.447213],[14.493416,53.447049],[14.491011,53.449208]]]}},{"type":"Feature","properties":{"hex_id":129,"pop_20_29":37.0,"total_30min":34,"dominant_label":"Zachodniopomorski Uniwersytet Technologiczny","dominant_role":"politechnika","politechnika_30min":19,"uniwersytet_30min":11,"medyczny_30min":4},"geometry":{"type":"Polygon","coordinates":[[[14.491486,53.444726],[14.493416,53.447049],[14.49775,53.447213],[14.500155,53.445054],[14.498225,53.442731],[14.493891,53.442567],[14.491486,53.444726]]]}},{"type":"Feature","properties":{"hex_id":130,"pop_20_29":266.0,"total_30min":22,"dominant_label":"Zachodniopomorski Uniwersytet Technologiczny","dominant_role":"politechnika","politechnika_30min":11,"uniwersytet_30min":7,"medyczny_30min":4},"geometry":{"type":"Polygon","coordinates":[[[14.491962,53.440244],[14.493891,53.442567],[14.498225,53.442731],[14.500629,53.440572],[14.4987,53.438249],[14.494366,53.438085],[14.491962,53.440244]]]}},{"type":"Feature","properties":{"hex_id":131,"pop_20_29":111.0,"total_30min":35,"dominant_label":"Zachodniopomorski Uniwersytet Technologiczny","dominant_role":"politechnika","politechnika_30min":19,"uniwersytet_30min":12,"medyczny_30min":4},"geometry":{"type":"Polygon","coordinates":[[[14.492437,53.435762],[14.494366,53.438085],[14.4987,53.438249],[14.501104,53.43609],[14.499174,53.433767],[14.494841,53.433603],[14.492437,53.435762]]]}},{"type":"Feature","properties":{"hex_id":133,"pop_20_29":29.0,"total_30min":22,"dominant_label":"Zachodniopomorski Uniwersytet Technologiczny","dominant_role":"politechnika","politechnika_30min":15,"uniwersytet_30min":3,"medyczny_30min":4},"geometry":{"type":"Polygon","coordinates":[[[14.493387,53.426799],[14.495316,53.429122],[14.499649,53.429285],[14.502052,53.427126],[14.500123,53.424803],[14.495791,53.42464],[14.493387,53.426799]]]}},{"type":"Feature","properties":{"hex_id":134,"pop_20_29":60.0,"total_30min":32,"dominant_label":"Zachodniopomorski Uniwersytet Technologiczny","dominant_role":"politechnika","politechnika_30min":19,"uniwersytet_30min":9,"medyczny_30min":4},"geometry":{"type":"Polygon","coordinates":[[[14.493862,53.422317],[14.495791,53.42464],[14.500123,53.424803],[14.502526,53.422644],[14.500597,53.420322],[14.496265,53.420158],[14.493862,53.422317]]]}},{"type":"Feature","properties":{"hex_id":135,"pop_20_29":33.0,"total_30min":16,"dominant_label":"Zachodniopomorski Uniwersytet Technologiczny","dominant_role":"politechnika","politechnika_30min":9,"uniwersytet_30min":5,"medyczny_30min":2},"geometry":{"type":"Polygon","coordinates":[[[14.494337,53.417835],[14.496265,53.420158],[14.500597,53.420322],[14.503,53.418162],[14.501071,53.41584],[14.49674,53.415676],[14.494337,53.417835]]]}},{"type":"Feature","properties":{"hex_id":136,"pop_20_29":80.0,"total_30min":15,"dominant_label":"Zachodniopomorski Uniwersytet Technologiczny","dominant_role":"politechnika","politechnika_30min":8,"uniwersytet_30min":5,"medyczny_30min":2},"geometry":{"type":"Polygon","coordinates":[[[14.494812,53.413353],[14.49674,53.415676],[14.501071,53.41584],[14.503474,53.41368],[14.501545,53.411358],[14.497214,53.411194],[14.494812,53.413353]]]}},{"type":"Feature","properties":{"hex_id":137,"pop_20_29":76.0,"total_30min":14,"dominant_label":"Zachodniopomorski Uniwersytet Technologiczny","dominant_role":"politechnika","politechnika_30min":7,"uniwersytet_30min":7,"medyczny_30min":0},"geometry":{"type":"Polygon","coordinates":[[[14.495286,53.408871],[14.497214,53.411194],[14.501545,53.411358],[14.503947,53.409199],[14.502019,53.406876],[14.497688,53.406712],[14.495286,53.408871]]]}},{"type":"Feature","properties":{"hex_id":138,"pop_20_29":235.0,"total_30min":22,"dominant_label":"Zachodniopomorski Uniwersytet Technologiczny","dominant_role":"politechnika","politechnika_30min":11,"uniwersytet_30min":10,"medyczny_30min":1},"geometry":{"type":"Polygon","coordinates":[[[14.495761,53.40439],[14.497688,53.406712],[14.502019,53.406876],[14.504421,53.404717],[14.502492,53.402394],[14.498163,53.40223],[14.495761,53.40439]]]}},{"type":"Feature","properties":{"hex_id":139,"pop_20_29":38.0,"total_30min":5,"dominant_label":"Uniwersytet Szczeciński","dominant_role":"uniwersytet","politechnika_30min":1,"uniwersytet_30min":4,"medyczny_30min":0},"geometry":{"type":"Polygon","coordinates":[[[14.496235,53.399908],[14.498163,53.40223],[14.502492,53.402394],[14.504894,53.400235],[14.502966,53.397912],[14.498637,53.397749],[14.496235,53.399908]]]}},{"type":"Feature","properties":{"hex_id":150,"pop_20_29":62.0,"total_30min":22,"dominant_label":"Zachodniopomorski Uniwersytet Technologiczny","dominant_role":"politechnika","politechnika_30min":10,"uniwersytet_30min":8,"medyczny_30min":4},"geometry":{"type":"Polygon","coordinates":[[[14.4968,53.456176],[14.49873,53.458499],[14.503066,53.458663],[14.505471,53.456503],[14.50354,53.454181],[14.499205,53.454017],[14.4968,53.456176]]]}},{"type":"Feature","properties":{"hex_id":151,"pop_20_29":325.0,"total_30min":24,"dominant_label":"Zachodniopomorski Uniwersytet Technologiczny","dominant_role":"politechnika","politechnika_30min":11,"uniwersytet_30min":9,"medyczny_30min":4},"geometry":{"type":"Polygon","coordinates":[[[14.497275,53.451695],[14.499205,53.454017],[14.50354,53.454181],[14.505945,53.452022],[14.504015,53.449699],[14.49968,53.449535],[14.497275,53.451695]]]}},{"type":"Feature","properties":{"hex_id":152,"pop_20_29":241.0,"total_30min":21,"dominant_label":"Zachodniopomorski Uniwersytet Technologiczny","dominant_role":"politechnika","politechnika_30min":9,"uniwersytet_30min":8,"medyczny_30min":4},"geometry":{"type":"Polygon","coordinates":[[[14.49775,53.447213],[14.49968,53.449535],[14.504015,53.449699],[14.506419,53.44754],[14.504489,53.445217],[14.500155,53.445054],[14.49775,53.447213]]]}},{"type":"Feature","properties":{"hex_id":153,"pop_20_29":233.0,"total_30min":35,"dominant_label":"Zachodniopomorski Uniwersytet Technologiczny","dominant_role":"politechnika","politechnika_30min":19,"uniwersytet_30min":12,"medyczny_30min":4},"geometry":{"type":"Polygon","coordinates":[[[14.498225,53.442731],[14.500155,53.445054],[14.504489,53.445217],[14.506893,53.443058],[14.504963,53.440735],[14.500629,53.440572],[14.498225,53.442731]]]}},{"type":"Feature","properties":{"hex_id":154,"pop_20_29":113.0,"total_30min":21,"dominant_label":"Zachodniopomorski Uniwersytet Technologiczny","dominant_role":"politechnika","politechnika_30min":10,"uniwersytet_30min":7,"medyczny_30min":4},"geometry":{"type":"Polygon","coordinates":[[[14.4987,53.438249],[14.500629,53.440572],[14.504963,53.440735],[14.507367,53.438576],[14.505437,53.436253],[14.501104,53.43609],[14.4987,53.438249]]]}},{"type":"Feature","properties":{"hex_id":155,"pop_20_29":266.0,"total_30min":37,"dominant_label":"Zachodniopomorski Uniwersytet Technologiczny","dominant_role":"politechnika","politechnika_30min":19,"uniwersytet_30min":12,"medyczny_30min":6},"geometry":{"type":"Polygon","coordinates":[[[14.499174,53.433767],[14.501104,53.43609],[14.505437,53.436253],[14.50784,53.434094],[14.505911,53.431771],[14.501578,53.431608],[14.499174,53.433767]]]}},{"type":"Feature","properties":{"hex_id":156,"pop_20_29":308.0,"total_30min":25,"dominant_label":"Zachodniopomorski Uniwersytet Technologiczny","dominant_role":"politechnika","politechnika_30min":16,"uniwersytet_30min":5,"medyczny_30min":4},"geometry":{"type":"Polygon","coordinates":[[[14.499649,53.429285],[14.501578,53.431608],[14.505911,53.431771],[14.508314,53.429612],[14.506384,53.427289],[14.502052,53.427126],[14.499649,53.429285]]]}},{"type":"Feature","properties":{"hex_id":157,"pop_20_29":44.0,"total_30min":5,"dominant_label":"Zachodniopomorski Uniwersytet Technologiczny","dominant_role":"politechnika","politechnika_30min":3,"uniwersytet_30min":1,"medyczny_30min":1},"geometry":{"type":"Polygon","coordinates":[[[14.500123,53.424803],[14.502052,53.427126],[14.506384,53.427289],[14.508787,53.42513],[14.506858,53.422808],[14.502526,53.422644],[14.500123,53.424803]]]}},{"type":"Feature","properties":{"hex_id":158,"pop_20_29":11.0,"total_30min":21,"dominant_label":"Zachodniopomorski Uniwersytet Technologiczny","dominant_role":"politechnika","politechnika_30min":11,"uniwersytet_30min":8,"medyczny_30min":2},"geometry":{"type":"Polygon","coordinates":[[[14.500597,53.420322],[14.502526,53.422644],[14.506858,53.422808],[14.509261,53.420648],[14.507331,53.418326],[14.503,53.418162],[14.500597,53.420322]]]}},{"type":"Feature","properties":{"hex_id":160,"pop_20_29":23.0,"total_30min":18,"dominant_label":"Zachodniopomorski Uniwersytet Technologiczny","dominant_role":"politechnika","politechnika_30min":10,"uniwersytet_30min":8,"medyczny_30min":0},"geometry":{"type":"Polygon","coordinates":[[[14.501545,53.411358],[14.503474,53.41368],[14.507805,53.413844],[14.510207,53.411684],[14.508278,53.409362],[14.503947,53.409199],[14.501545,53.411358]]]}},{"type":"Feature","properties":{"hex_id":161,"pop_20_29":24.0,"total_30min":27,"dominant_label":"Zachodniopomorski Uniwersytet Technologiczny","dominant_role":"politechnika","politechnika_30min":11,"uniwersytet_30min":11,"medyczny_30min":5},"geometry":{"type":"Polygon","coordinates":[[[14.502019,53.406876],[14.503947,53.409199],[14.508278,53.409362],[14.51068,53.407202],[14.508751,53.40488],[14.504421,53.404717],[14.502019,53.406876]]]}},{"type":"Feature","properties":{"hex_id":162,"pop_20_29":37.0,"total_30min":9,"dominant_label":"Uniwersytet Szczeciński","dominant_role":"uniwersytet","politechnika_30min":3,"uniwersytet_30min":6,"medyczny_30min":0},"geometry":{"type":"Polygon","coordinates":[[[14.502492,53.402394],[14.504421,53.404717],[14.508751,53.40488],[14.511152,53.40272],[14.509224,53.400398],[14.504894,53.400235],[14.502492,53.402394]]]}},{"type":"Feature","properties":{"hex_id":174,"pop_20_29":47.0,"total_30min":23,"dominant_label":"Zachodniopomorski Uniwersytet Technologiczny","dominant_role":"politechnika","politechnika_30min":10,"uniwersytet_30min":9,"medyczny_30min":4},"geometry":{"type":"Polygon","coordinates":[[[14.50354,53.454181],[14.505471,53.456503],[14.509806,53.456667],[14.512211,53.454507],[14.51028,53.452185],[14.505945,53.452022],[14.50354,53.454181]]]}},{"type":"Feature","properties":{"hex_id":175,"pop_20_29":20.0,"total_30min":22,"dominant_label":"Zachodniopomorski Uniwersytet Technologiczny","dominant_role":"politechnika","politechnika_30min":10,"uniwersytet_30min":8,"medyczny_30min":4},"geometry":{"type":"Polygon","coordinates":[[[14.504015,53.449699],[14.505945,53.452022],[14.51028,53.452185],[14.512684,53.450026],[14.510754,53.447703],[14.506419,53.44754],[14.504015,53.449699]]]}},{"type":"Feature","properties":{"hex_id":176,"pop_20_29":59.0,"total_30min":20,"dominant_label":"Zachodniopomorski Uniwersytet Technologiczny","dominant_role":"politechnika","politechnika_30min":9,"uniwersytet_30min":7,"medyczny_30min":4},"geometry":{"type":"Polygon","coordinates":[[[14.504489,53.445217],[14.506419,53.44754],[14.510754,53.447703],[14.513157,53.445544],[14.511227,53.443221],[14.506893,53.443058],[14.504489,53.445217]]]}},{"type":"Feature","properties":{"hex_id":177,"pop_20_29":86.0,"total_30min":27,"dominant_label":"Zachodniopomorski Uniwersytet Technologiczny","dominant_role":"politechnika","politechnika_30min":14,"uniwersytet_30min":9,"medyczny_30min":4},"geometry":{"type":"Polygon","coordinates":[[[14.504963,53.440735],[14.506893,53.443058],[14.511227,53.443221],[14.513631,53.441062],[14.5117,53.438739],[14.507367,53.438576],[14.504963,53.440735]]]}},{"type":"Feature","properties":{"hex_id":178,"pop_20_29":102.0,"total_30min":19,"dominant_label":"Zachodniopomorski Uniwersytet Technologiczny","dominant_role":"politechnika","politechnika_30min":9,"uniwersytet_30min":7,"medyczny_30min":3},"geometry":{"type":"Polygon","coordinates":[[[14.505437,53.436253],[14.507367,53.438576],[14.5117,53.438739],[14.514104,53.43658],[14.512174,53.434257],[14.50784,53.434094],[14.505437,53.436253]]]}},{"type":"Feature","properties":{"hex_id":179,"pop_20_29":365.0,"total_30min":42,"dominant_label":"Zachodniopomorski Uniwersytet Technologiczny","dominant_role":"politechnika","politechnika_30min":21,"uniwersytet_30min":15,"medyczny_30min":6},"geometry":{"type":"Polygon","coordinates":[[[14.505911,53.431771],[14.50784,53.434094],[14.512174,53.434257],[14.514577,53.432098],[14.512647,53.429775],[14.508314,53.429612],[14.505911,53.431771]]]}},{"type":"Feature","properties":{"hex_id":180,"pop_20_29":54.0,"total_30min":18,"dominant_label":"Zachodniopomorski Uniwersytet Technologiczny","dominant_role":"politechnika","politechnika_30min":13,"uniwersytet_30min":3,"medyczny_30min":2},"geometry":{"type":"Polygon","coordinates":[[[14.506384,53.427289],[14.508314,53.429612],[14.512647,53.429775],[14.515049,53.427616],[14.51312,53.425293],[14.508787,53.42513],[14.506384,53.427289]]]}},{"type":"Feature","properties":{"hex_id":181,"pop_20_29":136.0,"total_30min":29,"dominant_label":"Zachodniopomorski Uniwersytet Technologiczny","dominant_role":"politechnika","politechnika_30min":15,"uniwersytet_30min":14,"medyczny_30min":0},"geometry":{"type":"Polygon","coordinates":[[[14.506858,53.422808],[14.508787,53.42513],[14.51312,53.425293],[14.515522,53.423134],[14.513592,53.420811],[14.509261,53.420648],[14.506858,53.422808]]]}},{"type":"Feature","properties":{"hex_id":184,"pop_20_29":2.0,"total_30min":23,"dominant_label":"Zachodniopomorski Uniwersytet Technologiczny","dominant_role":"politechnika","politechnika_30min":11,"uniwersytet_30min":11,"medyczny_30min":1},"geometry":{"type":"Polygon","coordinates":[[[14.508278,53.409362],[14.510207,53.411684],[14.514538,53.411847],[14.516939,53.409688],[14.51501,53.407365],[14.51068,53.407202],[14.508278,53.409362]]]}},{"type":"Feature","properties":{"hex_id":185,"pop_20_29":29.0,"total_30min":22,"dominant_label":"Zachodniopomorski Uniwersytet Technologiczny","dominant_role":"politechnika","politechnika_30min":11,"uniwersytet_30min":10,"medyczny_30min":1},"geometry":{"type":"Polygon","coordinates":[[[14.508751,53.40488],[14.51068,53.407202],[14.51501,53.407365],[14.517411,53.405206],[14.515482,53.402883],[14.511152,53.40272],[14.508751,53.40488]]]}},{"type":"Feature","properties":{"hex_id":200,"pop_20_29":13.0,"total_30min":25,"dominant_label":"Uniwersytet Szczeciński","dominant_role":"uniwersytet","politechnika_30min":10,"uniwersytet_30min":11,"medyczny_30min":4},"geometry":{"type":"Polygon","coordinates":[[[14.51028,53.452185],[14.512211,53.454507],[14.516546,53.454671],[14.51895,53.452511],[14.517019,53.450189],[14.512684,53.450026],[14.51028,53.452185]]]}},{"type":"Feature","properties":{"hex_id":201,"pop_20_29":66.0,"total_30min":24,"dominant_label":"Zachodniopomorski Uniwersytet Technologiczny","dominant_role":"politechnika","politechnika_30min":10,"uniwersytet_30min":10,"medyczny_30min":4},"geometry":{"type":"Polygon","coordinates":[[[14.510754,53.447703],[14.512684,53.450026],[14.517019,53.450189],[14.519423,53.448029],[14.517492,53.445707],[14.513157,53.445544],[14.510754,53.447703]]]}},{"type":"Feature","properties":{"hex_id":202,"pop_20_29":132.0,"total_30min":34,"dominant_label":"Zachodniopomorski Uniwersytet Technologiczny","dominant_role":"politechnika","politechnika_30min":18,"uniwersytet_30min":12,"medyczny_30min":4},"geometry":{"type":"Polygon","coordinates":[[[14.511227,53.443221],[14.513157,53.445544],[14.517492,53.445707],[14.519895,53.443547],[14.517965,53.441225],[14.513631,53.441062],[14.511227,53.443221]]]}},{"type":"Feature","properties":{"hex_id":203,"pop_20_29":72.0,"total_30min":31,"dominant_label":"Zachodniopomorski Uniwersytet Technologiczny","dominant_role":"politechnika","politechnika_30min":17,"uniwersytet_30min":11,"medyczny_30min":3},"geometry":{"type":"Polygon","coordinates":[[[14.5117,53.438739],[14.513631,53.441062],[14.517965,53.441225],[14.520368,53.439065],[14.518437,53.436743],[14.514104,53.43658],[14.5117,53.438739]]]}},{"type":"Feature","properties":{"hex_id":204,"pop_20_29":77.0,"total_30min":38,"dominant_label":"Zachodniopomorski Uniwersytet Technologiczny","dominant_role":"politechnika","politechnika_30min":21,"uniwersytet_30min":14,"medyczny_30min":3},"geometry":{"type":"Polygon","coordinates":[[[14.512174,53.434257],[14.514104,53.43658],[14.518437,53.436743],[14.52084,53.434583],[14.51891,53.432261],[14.514577,53.432098],[14.512174,53.434257]]]}},{"type":"Feature","properties":{"hex_id":205,"pop_20_29":304.0,"total_30min":41,"dominant_label":"Zachodniopomorski Uniwersytet Technologiczny","dominant_role":"politechnika","politechnika_30min":20,"uniwersytet_30min":16,"medyczny_30min":5},"geometry":{"type":"Polygon","coordinates":[[[14.512647,53.429775],[14.514577,53.432098],[14.51891,53.432261],[14.521312,53.430101],[14.519382,53.427779],[14.515049,53.427616],[14.512647,53.429775]]]}},{"type":"Feature","properties":{"hex_id":206,"pop_20_29":1.0,"total_30min":17,"dominant_label":"Zachodniopomorski Uniwersytet Technologiczny","dominant_role":"politechnika","politechnika_30min":12,"uniwersytet_30min":5,"medyczny_30min":0},"geometry":{"type":"Polygon","coordinates":[[[14.51312,53.425293],[14.515049,53.427616],[14.519382,53.427779],[14.521784,53.425619],[14.519854,53.423297],[14.515522,53.423134],[14.51312,53.425293]]]}},{"type":"Feature","properties":{"hex_id":207,"pop_20_29":286.0,"total_30min":25,"dominant_label":"Zachodniopomorski Uniwersytet Technologiczny","dominant_role":"politechnika","politechnika_30min":12,"uniwersytet_30min":11,"medyczny_30min":2},"geometry":{"type":"Polygon","coordinates":[[[14.513592,53.420811],[14.515522,53.423134],[14.519854,53.423297],[14.522256,53.421137],[14.520326,53.418815],[14.515995,53.418652],[14.513592,53.420811]]]}},{"type":"Feature","properties":{"hex_id":209,"pop_20_29":5.0,"total_30min":23,"dominant_label":"Zachodniopomorski Uniwersytet Technologiczny","dominant_role":"politechnika","politechnika_30min":11,"uniwersytet_30min":11,"medyczny_30min":1},"geometry":{"type":"Polygon","coordinates":[[[14.514538,53.411847],[14.516467,53.41417],[14.520798,53.414333],[14.5232,53.412173],[14.52127,53.409851],[14.516939,53.409688],[14.514538,53.411847]]]}},{"type":"Feature","properties":{"hex_id":210,"pop_20_29":29.0,"total_30min":23,"dominant_label":"Zachodniopomorski Uniwersytet Technologiczny","dominant_role":"politechnika","politechnika_30min":11,"uniwersytet_30min":11,"medyczny_30min":1},"geometry":{"type":"Polygon","coordinates":[[[14.51501,53.407365],[14.516939,53.409688],[14.52127,53.409851],[14.523671,53.407691],[14.521742,53.405369],[14.517411,53.405206],[14.51501,53.407365]]]}},{"type":"Feature","properties":{"hex_id":211,"pop_20_29":290.0,"total_30min":8,"dominant_label":"Uniwersytet Szczeciński","dominant_role":"uniwersytet","politechnika_30min":3,"uniwersytet_30min":4,"medyczny_30min":1},"geometry":{"type":"Polygon","coordinates":[[[14.515482,53.402883],[14.517411,53.405206],[14.521742,53.405369],[14.524142,53.403209],[14.522213,53.400887],[14.517883,53.400724],[14.515482,53.402883]]]}},{"type":"Feature","properties":{"hex_id":212,"pop_20_29":98.0,"total_30min":12,"dominant_label":"Zachodniopomorski Uniwersytet Technologiczny","dominant_role":"politechnika","politechnika_30min":6,"uniwersytet_30min":5,"medyczny_30min":1},"geometry":{"type":"Polygon","coordinates":[[[14.515955,53.398401],[14.517883,53.400724],[14.522213,53.400887],[14.524614,53.398727],[14.522685,53.396405],[14.518355,53.396242],[14.515955,53.398401]]]}},{"type":"Feature","properties":{"hex_id":213,"pop_20_29":96.0,"total_30min":9,"dominant_label":"Zachodniopomorski Uniwersytet Technologiczny","dominant_role":"politechnika","politechnika_30min":4,"uniwersytet_30min":4,"medyczny_30min":1},"geometry":{"type":"Polygon","coordinates":[[[14.516427,53.39392],[14.518355,53.396242],[14.522685,53.396405],[14.525085,53.394245],[14.523156,53.391923],[14.518827,53.39176],[14.516427,53.39392]]]}},{"type":"Feature","properties":{"hex_id":224,"pop_20_29":24.0,"total_30min":15,"dominant_label":"Zachodniopomorski Uniwersytet Technologiczny","dominant_role":"politechnika","politechnika_30min":10,"uniwersytet_30min":2,"medyczny_30min":3},"geometry":{"type":"Polygon","coordinates":[[[14.516073,53.459153],[14.518004,53.461475],[14.52234,53.461638],[14.524745,53.459478],[14.522813,53.457156],[14.518477,53.456993],[14.516073,53.459153]]]}},{"type":"Feature","properties":{"hex_id":225,"pop_20_29":108.0,"total_30min":19,"dominant_label":"Zachodniopomorski Uniwersytet Technologiczny","dominant_role":"politechnika","politechnika_30min":10,"uniwersytet_30min":5,"medyczny_30min":4},"geometry":{"type":"Polygon","coordinates":[[[14.516546,53.454671],[14.518477,53.456993],[14.522813,53.457156],[14.525217,53.454996],[14.523285,53.452674],[14.51895,53.452511],[14.516546,53.454671]]]}},{"type":"Feature","properties":{"hex_id":226,"pop_20_29":34.0,"total_30min":23,"dominant_label":"Zachodniopomorski Uniwersytet Technologiczny","dominant_role":"politechnika","politechnika_30min":10,"uniwersytet_30min":9,"medyczny_30min":4},"geometry":{"type":"Polygon","coordinates":[[[14.517019,53.450189],[14.51895,53.452511],[14.523285,53.452674],[14.525689,53.450514],[14.523757,53.448192],[14.519423,53.448029],[14.517019,53.450189]]]}},{"type":"Feature","properties":{"hex_id":227,"pop_20_29":32.0,"total_30min":32,"dominant_label":"Zachodniopomorski Uniwersytet Technologiczny","dominant_role":"politechnika","politechnika_30min":16,"uniwersytet_30min":12,"medyczny_30min":4},"geometry":{"type":"Polygon","coordinates":[[[14.517492,53.445707],[14.519423,53.448029],[14.523757,53.448192],[14.526161,53.446032],[14.524229,53.44371],[14.519895,53.443547],[14.517492,53.445707]]]}},{"type":"Feature","properties":{"hex_id":228,"pop_20_29":74.0,"total_30min":32,"dominant_label":"Zachodniopomorski Uniwersytet Technologiczny","dominant_role":"politechnika","politechnika_30min":18,"uniwersytet_30min":11,"medyczny_30min":3},"geometry":{"type":"Polygon","coordinates":[[[14.517965,53.441225],[14.519895,53.443547],[14.524229,53.44371],[14.526632,53.44155],[14.524701,53.439228],[14.520368,53.439065],[14.517965,53.441225]]]}},{"type":"Feature","properties":{"hex_id":229,"pop_20_29":5.0,"total_30min":34,"dominant_label":"Zachodniopomorski Uniwersytet Technologiczny","dominant_role":"politechnika","politechnika_30min":19,"uniwersytet_30min":12,"medyczny_30min":3},"geometry":{"type":"Polygon","coordinates":[[[14.518437,53.436743],[14.520368,53.439065],[14.524701,53.439228],[14.527104,53.437068],[14.525173,53.434746],[14.52084,53.434583],[14.518437,53.436743]]]}},{"type":"Feature","properties":{"hex_id":230,"pop_20_29":19.0,"total_30min":25,"dominant_label":"Zachodniopomorski Uniwersytet Technologiczny","dominant_role":"politechnika","politechnika_30min":13,"uniwersytet_30min":9,"medyczny_30min":3},"geometry":{"type":"Polygon","coordinates":[[[14.51891,53.432261],[14.52084,53.434583],[14.525173,53.434746],[14.527576,53.432586],[14.525645,53.430264],[14.521312,53.430101],[14.51891,53.432261]]]}},{"type":"Feature","properties":{"hex_id":232,"pop_20_29":85.0,"total_30min":24,"dominant_label":"Zachodniopomorski Uniwersytet Technologiczny","dominant_role":"politechnika","politechnika_30min":12,"uniwersytet_30min":10,"medyczny_30min":2},"geometry":{"type":"Polygon","coordinates":[[[14.519854,53.423297],[14.521784,53.425619],[14.526117,53.425782],[14.528518,53.423622],[14.526588,53.4213],[14.522256,53.421137],[14.519854,53.423297]]]}},{"type":"Feature","properties":{"hex_id":234,"pop_20_29":18.0,"total_30min":27,"dominant_label":"Uniwersytet Szczeciński","dominant_role":"uniwersytet","politechnika_30min":11,"uniwersytet_30min":13,"medyczny_30min":3},"geometry":{"type":"Polygon","coordinates":[[[14.520798,53.414333],[14.522728,53.416655],[14.527059,53.416818],[14.529461,53.414658],[14.527531,53.412336],[14.5232,53.412173],[14.520798,53.414333]]]}},{"type":"Feature","properties":{"hex_id":235,"pop_20_29":421.0,"total_30min":21,"dominant_label":"Zachodniopomorski Uniwersytet Technologiczny","dominant_role":"politechnika","politechnika_30min":11,"uniwersytet_30min":9,"medyczny_30min":1},"geometry":{"type":"Polygon","coordinates":[[[14.52127,53.409851],[14.5232,53.412173],[14.527531,53.412336],[14.529932,53.410176],[14.528002,53.407854],[14.523671,53.407691],[14.52127,53.409851]]]}},{"type":"Feature","properties":{"hex_id":236,"pop_20_29":379.0,"total_30min":21,"dominant_label":"Zachodniopomorski Uniwersytet Technologiczny","dominant_role":"politechnika","politechnika_30min":11,"uniwersytet_30min":9,"medyczny_30min":1},"geometry":{"type":"Polygon","coordinates":[[[14.521742,53.405369],[14.523671,53.407691],[14.528002,53.407854],[14.530402,53.405694],[14.528473,53.403372],[14.524142,53.403209],[14.521742,53.405369]]]}},{"type":"Feature","properties":{"hex_id":237,"pop_20_29":260.0,"total_30min":23,"dominant_label":"Zachodniopomorski Uniwersytet Technologiczny","dominant_role":"politechnika","politechnika_30min":11,"uniwersytet_30min":9,"medyczny_30min":3},"geometry":{"type":"Polygon","coordinates":[[[14.522213,53.400887],[14.524142,53.403209],[14.528473,53.403372],[14.530873,53.401212],[14.528943,53.39889],[14.524614,53.398727],[14.522213,53.400887]]]}},{"type":"Feature","properties":{"hex_id":238,"pop_20_29":287.0,"total_30min":20,"dominant_label":"Zachodniopomorski Uniwersytet Technologiczny","dominant_role":"politechnika","politechnika_30min":11,"uniwersytet_30min":8,"medyczny_30min":1},"geometry":{"type":"Polygon","coordinates":[[[14.522685,53.396405],[14.524614,53.398727],[14.528943,53.39889],[14.531344,53.39673],[14.529414,53.394407],[14.525085,53.394245],[14.522685,53.396405]]]}},{"type":"Feature","properties":{"hex_id":253,"pop_20_29":32.0,"total_30min":2,"dominant_label":"Zachodniopomorski Uniwersytet Technologiczny","dominant_role":"politechnika","politechnika_30min":1,"uniwersytet_30min":1,"medyczny_30min":0},"geometry":{"type":"Polygon","coordinates":[[[14.52234,53.461638],[14.524272,53.46396],[14.528609,53.464123],[14.531013,53.461963],[14.52908,53.459641],[14.524745,53.459478],[14.52234,53.461638]]]}},{"type":"Feature","properties":{"hex_id":254,"pop_20_29":13.0,"total_30min":4,"dominant_label":"Zachodniopomorski Uniwersytet Technologiczny","dominant_role":"politechnika","politechnika_30min":2,"uniwersytet_30min":2,"medyczny_30min":0},"geometry":{"type":"Polygon","coordinates":[[[14.522813,53.457156],[14.524745,53.459478],[14.52908,53.459641],[14.531484,53.457481],[14.529552,53.455159],[14.525217,53.454996],[14.522813,53.457156]]]}},{"type":"Feature","properties":{"hex_id":255,"pop_20_29":71.0,"total_30min":17,"dominant_label":"Zachodniopomorski Uniwersytet Technologiczny","dominant_role":"politechnika","politechnika_30min":9,"uniwersytet_30min":5,"medyczny_30min":3},"geometry":{"type":"Polygon","coordinates":[[[14.523285,53.452674],[14.525217,53.454996],[14.529552,53.455159],[14.531956,53.452999],[14.530024,53.450677],[14.525689,53.450514],[14.523285,53.452674]]]}},{"type":"Feature","properties":{"hex_id":256,"pop_20_29":6.0,"total_30min":24,"dominant_label":"Zachodniopomorski Uniwersytet Technologiczny","dominant_role":"politechnika","politechnika_30min":11,"uniwersytet_30min":10,"medyczny_30min":3},"geometry":{"type":"Polygon","coordinates":[[[14.523757,53.448192],[14.525689,53.450514],[14.530024,53.450677],[14.532427,53.448517],[14.530495,53.446195],[14.526161,53.446032],[14.523757,53.448192]]]}},{"type":"Feature","properties":{"hex_id":257,"pop_20_29":79.0,"total_30min":33,"dominant_label":"Zachodniopomorski Uniwersytet Technologiczny","dominant_role":"politechnika","politechnika_30min":17,"uniwersytet_30min":12,"medyczny_30min":4},"geometry":{"type":"Polygon","coordinates":[[[14.524229,53.44371],[14.526161,53.446032],[14.530495,53.446195],[14.532898,53.444035],[14.530967,53.441713],[14.526632,53.44155],[14.524229,53.44371]]]}},{"type":"Feature","properties":{"hex_id":258,"pop_20_29":263.0,"total_30min":40,"dominant_label":"Zachodniopomorski Uniwersytet Technologiczny","dominant_role":"politechnika","politechnika_30min":19,"uniwersytet_30min":15,"medyczny_30min":6},"geometry":{"type":"Polygon","coordinates":[[[14.524701,53.439228],[14.526632,53.44155],[14.530967,53.441713],[14.533369,53.439553],[14.531438,53.437231],[14.527104,53.437068],[14.524701,53.439228]]]}},{"type":"Feature","properties":{"hex_id":259,"pop_20_29":538.0,"total_30min":43,"dominant_label":"Zachodniopomorski Uniwersytet Technologiczny","dominant_role":"politechnika","politechnika_30min":19,"uniwersytet_30min":19,"medyczny_30min":5},"geometry":{"type":"Polygon","coordinates":[[[14.525173,53.434746],[14.527104,53.437068],[14.531438,53.437231],[14.53384,53.435071],[14.531909,53.432749],[14.527576,53.432586],[14.525173,53.434746]]]}},{"type":"Feature","properties":{"hex_id":260,"pop_20_29":348.0,"total_30min":39,"dominant_label":"Uniwersytet Szczeciński","dominant_role":"uniwersytet","politechnika_30min":16,"uniwersytet_30min":18,"medyczny_30min":5},"geometry":{"type":"Polygon","coordinates":[[[14.525645,53.430264],[14.527576,53.432586],[14.531909,53.432749],[14.534311,53.430589],[14.53238,53.428267],[14.528047,53.428104],[14.525645,53.430264]]]}},{"type":"Feature","properties":{"hex_id":261,"pop_20_29":129.0,"total_30min":40,"dominant_label":"Uniwersytet Szczeciński","dominant_role":"uniwersytet","politechnika_30min":14,"uniwersytet_30min":21,"medyczny_30min":5},"geometry":{"type":"Polygon","coordinates":[[[14.526117,53.425782],[14.528047,53.428104],[14.53238,53.428267],[14.534781,53.426107],[14.532851,53.423785],[14.528518,53.423622],[14.526117,53.425782]]]}},{"type":"Feature","properties":{"hex_id":262,"pop_20_29":342.0,"total_30min":34,"dominant_label":"Uniwersytet Szczeciński","dominant_role":"uniwersytet","politechnika_30min":12,"uniwersytet_30min":19,"medyczny_30min":3},"geometry":{"type":"Polygon","coordinates":[[[14.526588,53.4213],[14.528518,53.423622],[14.532851,53.423785],[14.535252,53.421625],[14.533321,53.419302],[14.52899,53.41914],[14.526588,53.4213]]]}},{"type":"Feature","properties":{"hex_id":263,"pop_20_29":252.0,"total_30min":30,"dominant_label":"Uniwersytet Szczeciński","dominant_role":"uniwersytet","politechnika_30min":11,"uniwersytet_30min":16,"medyczny_30min":3},"geometry":{"type":"Polygon","coordinates":[[[14.527059,53.416818],[14.52899,53.41914],[14.533321,53.419302],[14.535722,53.417143],[14.533792,53.41482],[14.529461,53.414658],[14.527059,53.416818]]]}},{"type":"Feature","properties":{"hex_id":264,"pop_20_29":582.0,"total_30min":27,"dominant_label":"Uniwersytet Szczeciński","dominant_role":"uniwersytet","politechnika_30min":11,"uniwersytet_30min":13,"medyczny_30min":3},"geometry":{"type":"Polygon","coordinates":[[[14.527531,53.412336],[14.529461,53.414658],[14.533792,53.41482],[14.536193,53.41266],[14.534262,53.410338],[14.529932,53.410176],[14.527531,53.412336]]]}},{"type":"Feature","properties":{"hex_id":265,"pop_20_29":109.0,"total_30min":21,"dominant_label":"Zachodniopomorski Uniwersytet Technologiczny","dominant_role":"politechnika","politechnika_30min":10,"uniwersytet_30min":8,"medyczny_30min":3},"geometry":{"type":"Polygon","coordinates":[[[14.528002,53.407854],[14.529932,53.410176],[14.534262,53.410338],[14.536663,53.408178],[14.534733,53.405856],[14.530402,53.405694],[14.528002,53.407854]]]}},{"type":"Feature","properties":{"hex_id":266,"pop_20_29":45.0,"total_30min":14,"dominant_label":"Zachodniopomorski Uniwersytet Technologiczny","dominant_role":"politechnika","politechnika_30min":6,"uniwersytet_30min":5,"medyczny_30min":3},"geometry":{"type":"Polygon","coordinates":[[[14.528473,53.403372],[14.530402,53.405694],[14.534733,53.405856],[14.537133,53.403696],[14.535203,53.401374],[14.530873,53.401212],[14.528473,53.403372]]]}},{"type":"Feature","properties":{"hex_id":268,"pop_20_29":1.0,"total_30min":2,"dominant_label":"Zachodniopomorski Uniwersytet Technologiczny","dominant_role":"politechnika","politechnika_30min":1,"uniwersytet_30min":1,"medyczny_30min":0},"geometry":{"type":"Polygon","coordinates":[[[14.529414,53.394407],[14.531344,53.39673],[14.535673,53.396892],[14.538073,53.394732],[14.536143,53.39241],[14.531814,53.392248],[14.529414,53.394407]]]}},{"type":"Feature","properties":{"hex_id":286,"pop_20_29":148.0,"total_30min":3,"dominant_label":"Uniwersytet Szczeciński","dominant_role":"uniwersytet","politechnika_30min":1,"uniwersytet_30min":2,"medyczny_30min":0},"geometry":{"type":"Polygon","coordinates":[[[14.52908,53.459641],[14.531013,53.461963],[14.535349,53.462126],[14.537752,53.459966],[14.53582,53.457644],[14.531484,53.457481],[14.52908,53.459641]]]}},{"type":"Feature","properties":{"hex_id":287,"pop_20_29":49.0,"total_30min":5,"dominant_label":"Zachodniopomorski Uniwersytet Technologiczny","dominant_role":"politechnika","politechnika_30min":3,"uniwersytet_30min":2,"medyczny_30min":0},"geometry":{"type":"Polygon","coordinates":[[[14.529552,53.455159],[14.531484,53.457481],[14.53582,53.457644],[14.538223,53.455484],[14.536291,53.453161],[14.531956,53.452999],[14.529552,53.455159]]]}},{"type":"Feature","properties":{"hex_id":288,"pop_20_29":40.0,"total_30min":5,"dominant_label":"Uniwersytet Szczeciński","dominant_role":"uniwersytet","politechnika_30min":2,"uniwersytet_30min":3,"medyczny_30min":0},"geometry":{"type":"Polygon","coordinates":[[[14.530024,53.450677],[14.531956,53.452999],[14.536291,53.453161],[14.538694,53.451002],[14.536762,53.448679],[14.532427,53.448517],[14.530024,53.450677]]]}},{"type":"Feature","properties":{"hex_id":289,"pop_20_29":24.0,"total_30min":23,"dominant_label":"Uniwersytet Szczeciński","dominant_role":"uniwersytet","politechnika_30min":9,"uniwersytet_30min":11,"medyczny_30min":3},"geometry":{"type":"Polygon","coordinates":[[[14.530495,53.446195],[14.532427,53.448517],[14.536762,53.448679],[14.539164,53.446519],[14.537232,53.444197],[14.532898,53.444035],[14.530495,53.446195]]]}},{"type":"Feature","properties":{"hex_id":290,"pop_20_29":54.0,"total_30min":23,"dominant_label":"Uniwersytet Szczeciński","dominant_role":"uniwersytet","politechnika_30min":9,"uniwersytet_30min":12,"medyczny_30min":2},"geometry":{"type":"Polygon","coordinates":[[[14.530967,53.441713],[14.532898,53.444035],[14.537232,53.444197],[14.539635,53.442037],[14.537703,53.439715],[14.533369,53.439553],[14.530967,53.441713]]]}},{"type":"Feature","properties":{"hex_id":291,"pop_20_29":85.0,"total_30min":40,"dominant_label":"Uniwersytet Szczeciński","dominant_role":"uniwersytet","politechnika_30min":16,"uniwersytet_30min":19,"medyczny_30min":5},"geometry":{"type":"Polygon","coordinates":[[[14.531438,53.437231],[14.533369,53.439553],[14.537703,53.439715],[14.540105,53.437555],[14.538173,53.435233],[14.53384,53.435071],[14.531438,53.437231]]]}},{"type":"Feature","properties":{"hex_id":292,"pop_20_29":739.0,"total_30min":47,"dominant_label":"Uniwersytet Szczeciński","dominant_role":"uniwersytet","politechnika_30min":20,"uniwersytet_30min":21,"medyczny_30min":6},"geometry":{"type":"Polygon","coordinates":[[[14.531909,53.432749],[14.53384,53.435071],[14.538173,53.435233],[14.540575,53.433073],[14.538644,53.430751],[14.534311,53.430589],[14.531909,53.432749]]]}},{"type":"Feature","properties":{"hex_id":293,"pop_20_29":830.0,"total_30min":44,"dominant_label":"Uniwersytet Szczeciński","dominant_role":"uniwersytet","politechnika_30min":16,"uniwersytet_30min":22,"medyczny_30min":6},"geometry":{"type":"Polygon","coordinates":[[[14.53238,53.428267],[14.534311,53.430589],[14.538644,53.430751],[14.541045,53.428591],[14.539114,53.426269],[14.534781,53.426107],[14.53238,53.428267]]]}},{"type":"Feature","properties":{"hex_id":294,"pop_20_29":608.0,"total_30min":37,"dominant_label":"Uniwersytet Szczeciński","dominant_role":"uniwersytet","politechnika_30min":12,"uniwersytet_30min":22,"medyczny_30min":3},"geometry":{"type":"Polygon","coordinates":[[[14.532851,53.423785],[14.534781,53.426107],[14.539114,53.426269],[14.541515,53.424109],[14.539584,53.421787],[14.535252,53.421625],[14.532851,53.423785]]]}},{"type":"Feature","properties":{"hex_id":295,"pop_20_29":414.0,"total_30min":30,"dominant_label":"Uniwersytet Szczeciński","dominant_role":"uniwersytet","politechnika_30min":11,"uniwersytet_30min":16,"medyczny_30min":3},"geometry":{"type":"Polygon","coordinates":[[[14.533321,53.419302],[14.535252,53.421625],[14.539584,53.421787],[14.541985,53.419627],[14.540054,53.417305],[14.535722,53.417143],[14.533321,53.419302]]]}},{"type":"Feature","properties":{"hex_id":296,"pop_20_29":681.0,"total_30min":25,"dominant_label":"Zachodniopomorski Uniwersytet Technologiczny","dominant_role":"politechnika","politechnika_30min":11,"uniwersytet_30min":11,"medyczny_30min":3},"geometry":{"type":"Polygon","coordinates":[[[14.533792,53.41482],[14.535722,53.417143],[14.540054,53.417305],[14.542455,53.415145],[14.540524,53.412823],[14.536193,53.41266],[14.533792,53.41482]]]}},{"type":"Feature","properties":{"hex_id":297,"pop_20_29":40.0,"total_30min":15,"dominant_label":"Uniwersytet Szczeciński","dominant_role":"uniwersytet","politechnika_30min":3,"uniwersytet_30min":9,"medyczny_30min":3},"geometry":{"type":"Polygon","coordinates":[[[14.534262,53.410338],[14.536193,53.41266],[14.540524,53.412823],[14.542924,53.410663],[14.540994,53.40834],[14.536663,53.408178],[14.534262,53.410338]]]}},{"type":"Feature","properties":{"hex_id":319,"pop_20_29":94.0,"total_30min":1,"dominant_label":"Uniwersytet Szczeciński","dominant_role":"uniwersytet","politechnika_30min":0,"uniwersytet_30min":1,"medyczny_30min":0},"geometry":{"type":"Polygon","coordinates":[[[14.535349,53.462126],[14.537281,53.464448],[14.541618,53.46461],[14.544021,53.46245],[14.542088,53.460128],[14.537752,53.459966],[14.535349,53.462126]]]}},{"type":"Feature","properties":{"hex_id":320,"pop_20_29":404.0,"total_30min":2,"dominant_label":"Zachodniopomorski Uniwersytet Technologiczny","dominant_role":"politechnika","politechnika_30min":1,"uniwersytet_30min":1,"medyczny_30min":0},"geometry":{"type":"Polygon","coordinates":[[[14.53582,53.457644],[14.537752,53.459966],[14.542088,53.460128],[14.544491,53.457968],[14.542559,53.455646],[14.538223,53.455484],[14.53582,53.457644]]]}},{"type":"Feature","properties":{"hex_id":321,"pop_20_29":361.0,"total_30min":4,"dominant_label":"Zachodniopomorski Uniwersytet Technologiczny","dominant_role":"politechnika","politechnika_30min":2,"uniwersytet_30min":2,"medyczny_30min":0},"geometry":{"type":"Polygon","coordinates":[[[14.536291,53.453161],[14.538223,53.455484],[14.542559,53.455646],[14.544961,53.453486],[14.543029,53.451164],[14.538694,53.451002],[14.536291,53.453161]]]}},{"type":"Feature","properties":{"hex_id":322,"pop_20_29":274.0,"total_30min":8,"dominant_label":"Uniwersytet Szczeciński","dominant_role":"uniwersytet","politechnika_30min":2,"uniwersytet_30min":6,"medyczny_30min":0},"geometry":{"type":"Polygon","coordinates":[[[14.536762,53.448679],[14.538694,53.451002],[14.543029,53.451164],[14.545431,53.449004],[14.543499,53.446682],[14.539164,53.446519],[14.536762,53.448679]]]}},{"type":"Feature","properties":{"hex_id":323,"pop_20_29":450.0,"total_30min":27,"dominant_label":"Zachodniopomorski Uniwersytet Technologiczny","dominant_role":"politechnika","politechnika_30min":11,"uniwersytet_30min":11,"medyczny_30min":5},"geometry":{"type":"Polygon","coordinates":[[[14.537232,53.444197],[14.539164,53.446519],[14.543499,53.446682],[14.545901,53.444521],[14.543969,53.442199],[14.539635,53.442037],[14.537232,53.444197]]]}},{"type":"Feature","properties":{"hex_id":324,"pop_20_29":141.0,"total_30min":24,"dominant_label":"Zachodniopomorski Uniwersytet Technologiczny","dominant_role":"politechnika","politechnika_30min":12,"uniwersytet_30min":12,"medyczny_30min":0},"geometry":{"type":"Polygon","coordinates":[[[14.537703,53.439715],[14.539635,53.442037],[14.543969,53.442199],[14.546371,53.440039],[14.544439,53.437717],[14.540105,53.437555],[14.537703,53.439715]]]}},{"type":"Feature","properties":{"hex_id":325,"pop_20_29":368.0,"total_30min":36,"dominant_label":"Uniwersytet Szczeciński","dominant_role":"uniwersytet","politechnika_30min":15,"uniwersytet_30min":19,"medyczny_30min":2},"geometry":{"type":"Polygon","coordinates":[[[14.538173,53.435233],[14.540105,53.437555],[14.544439,53.437717],[14.54684,53.435557],[14.544908,53.433235],[14.540575,53.433073],[14.538173,53.435233]]]}},{"type":"Feature","properties":{"hex_id":326,"pop_20_29":605.0,"total_30min":39,"dominant_label":"Uniwersytet Szczeciński","dominant_role":"uniwersytet","politechnika_30min":16,"uniwersytet_30min":19,"medyczny_30min":4},"geometry":{"type":"Polygon","coordinates":[[[14.538644,53.430751],[14.540575,53.433073],[14.544908,53.433235],[14.54731,53.431075],[14.545378,53.428753],[14.541045,53.428591],[14.538644,53.430751]]]}},{"type":"Feature","properties":{"hex_id":327,"pop_20_29":779.0,"total_30min":41,"dominant_label":"Uniwersytet Szczeciński","dominant_role":"uniwersytet","politechnika_30min":14,"uniwersytet_30min":22,"medyczny_30min":5},"geometry":{"type":"Polygon","coordinates":[[[14.539114,53.426269],[14.541045,53.428591],[14.545378,53.428753],[14.547779,53.426593],[14.545848,53.424271],[14.541515,53.424109],[14.539114,53.426269]]]}},{"type":"Feature","properties":{"hex_id":328,"pop_20_29":214.0,"total_30min":32,"dominant_label":"Uniwersytet Szczeciński","dominant_role":"uniwersytet","politechnika_30min":12,"uniwersytet_30min":18,"medyczny_30min":2},"geometry":{"type":"Polygon","coordinates":[[[14.539584,53.421787],[14.541515,53.424109],[14.545848,53.424271],[14.548248,53.422111],[14.546317,53.419789],[14.541985,53.419627],[14.539584,53.421787]]]}},{"type":"Feature","properties":{"hex_id":329,"pop_20_29":211.0,"total_30min":32,"dominant_label":"Uniwersytet Szczeciński","dominant_role":"uniwersytet","politechnika_30min":11,"uniwersytet_30min":18,"medyczny_30min":3},"geometry":{"type":"Polygon","coordinates":[[[14.540054,53.417305],[14.541985,53.419627],[14.546317,53.419789],[14.548717,53.417629],[14.546786,53.415307],[14.542455,53.415145],[14.540054,53.417305]]]}},{"type":"Feature","properties":{"hex_id":330,"pop_20_29":136.0,"total_30min":15,"dominant_label":"Uniwersytet Szczeciński","dominant_role":"uniwersytet","politechnika_30min":4,"uniwersytet_30min":8,"medyczny_30min":3},"geometry":{"type":"Polygon","coordinates":[[[14.540524,53.412823],[14.542455,53.415145],[14.546786,53.415307],[14.549186,53.413146],[14.547255,53.410824],[14.542924,53.410663],[14.540524,53.412823]]]}},{"type":"Feature","properties":{"hex_id":355,"pop_20_29":108.0,"total_30min":1,"dominant_label":"Uniwersytet Szczeciński","dominant_role":"uniwersytet","politechnika_30min":0,"uniwersytet_30min":1,"medyczny_30min":0},"geometry":{"type":"Polygon","coordinates":[[[14.542088,53.460128],[14.544021,53.46245],[14.548357,53.462612],[14.55076,53.460452],[14.548827,53.45813],[14.544491,53.457968],[14.542088,53.460128]]]}},{"type":"Feature","properties":{"hex_id":356,"pop_20_29":114.0,"total_30min":1,"dominant_label":"Uniwersytet Szczeciński","dominant_role":"uniwersytet","politechnika_30min":0,"uniwersytet_30min":1,"medyczny_30min":0},"geometry":{"type":"Polygon","coordinates":[[[14.542559,53.455646],[14.544491,53.457968],[14.548827,53.45813],[14.55123,53.45597],[14.549297,53.453648],[14.544961,53.453486],[14.542559,53.455646]]]}},{"type":"Feature","properties":{"hex_id":357,"pop_20_29":336.0,"total_30min":6,"dominant_label":"Zachodniopomorski Uniwersytet Technologiczny","dominant_role":"politechnika","politechnika_30min":3,"uniwersytet_30min":3,"medyczny_30min":0},"geometry":{"type":"Polygon","coordinates":[[[14.543029,53.451164],[14.544961,53.453486],[14.549297,53.453648],[14.551699,53.451487],[14.549766,53.449165],[14.545431,53.449004],[14.543029,53.451164]]]}},{"type":"Feature","properties":{"hex_id":358,"pop_20_29":605.0,"total_30min":15,"dominant_label":"Uniwersytet Szczeciński","dominant_role":"uniwersytet","politechnika_30min":3,"uniwersytet_30min":10,"medyczny_30min":2},"geometry":{"type":"Polygon","coordinates":[[[14.543499,53.446682],[14.545431,53.449004],[14.549766,53.449165],[14.552168,53.447005],[14.550236,53.444683],[14.545901,53.444521],[14.543499,53.446682]]]}},{"type":"Feature","properties":{"hex_id":359,"pop_20_29":373.0,"total_30min":32,"dominant_label":"Zachodniopomorski Uniwersytet Technologiczny","dominant_role":"politechnika","politechnika_30min":15,"uniwersytet_30min":12,"medyczny_30min":5},"geometry":{"type":"Polygon","coordinates":[[[14.543969,53.442199],[14.545901,53.444521],[14.550236,53.444683],[14.552637,53.442523],[14.550705,53.440201],[14.546371,53.440039],[14.543969,53.442199]]]}},{"type":"Feature","properties":{"hex_id":360,"pop_20_29":368.0,"total_30min":31,"dominant_label":"Uniwersytet Szczeciński","dominant_role":"uniwersytet","politechnika_30min":14,"uniwersytet_30min":15,"medyczny_30min":2},"geometry":{"type":"Polygon","coordinates":[[[14.544439,53.437717],[14.546371,53.440039],[14.550705,53.440201],[14.553106,53.438041],[14.551174,53.435719],[14.54684,53.435557],[14.544439,53.437717]]]}},{"type":"Feature","properties":{"hex_id":361,"pop_20_29":717.0,"total_30min":40,"dominant_label":"Uniwersytet Szczeciński","dominant_role":"uniwersytet","politechnika_30min":17,"uniwersytet_30min":21,"medyczny_30min":2},"geometry":{"type":"Polygon","coordinates":[[[14.544908,53.433235],[14.54684,53.435557],[14.551174,53.435719],[14.553575,53.433559],[14.551643,53.431237],[14.54731,53.431075],[14.544908,53.433235]]]}},{"type":"Feature","properties":{"hex_id":362,"pop_20_29":357.0,"total_30min":38,"dominant_label":"Uniwersytet Szczeciński","dominant_role":"uniwersytet","politechnika_30min":16,"uniwersytet_30min":20,"medyczny_30min":2},"geometry":{"type":"Polygon","coordinates":[[[14.545378,53.428753],[14.54731,53.431075],[14.551643,53.431237],[14.554044,53.429077],[14.552112,53.426755],[14.547779,53.426593],[14.545378,53.428753]]]}},{"type":"Feature","properties":{"hex_id":363,"pop_20_29":236.0,"total_30min":39,"dominant_label":"Uniwersytet Szczeciński","dominant_role":"uniwersytet","politechnika_30min":15,"uniwersytet_30min":21,"medyczny_30min":3},"geometry":{"type":"Polygon","coordinates":[[[14.545848,53.424271],[14.547779,53.426593],[14.552112,53.426755],[14.554512,53.424594],[14.552581,53.422272],[14.548248,53.422111],[14.545848,53.424271]]]}},{"type":"Feature","properties":{"hex_id":364,"pop_20_29":256.0,"total_30min":33,"dominant_label":"Uniwersytet Szczeciński","dominant_role":"uniwersytet","politechnika_30min":12,"uniwersytet_30min":19,"medyczny_30min":2},"geometry":{"type":"Polygon","coordinates":[[[14.546317,53.419789],[14.548248,53.422111],[14.552581,53.422272],[14.554981,53.420112],[14.553049,53.41779],[14.548717,53.417629],[14.546317,53.419789]]]}},{"type":"Feature","properties":{"hex_id":389,"pop_20_29":86.0,"total_30min":1,"dominant_label":"Zachodniopomorski Uniwersytet Technologiczny","dominant_role":"politechnika","politechnika_30min":1,"uniwersytet_30min":0,"medyczny_30min":0},"geometry":{"type":"Polygon","coordinates":[[[14.547887,53.467094],[14.549821,53.469416],[14.554158,53.469578],[14.556561,53.467418],[14.554627,53.465096],[14.550291,53.464934],[14.547887,53.467094]]]}},{"type":"Feature","properties":{"hex_id":390,"pop_20_29":76.0,"total_30min":1,"dominant_label":"Zachodniopomorski Uniwersytet Technologiczny","dominant_role":"politechnika","politechnika_30min":1,"uniwersytet_30min":0,"medyczny_30min":0},"geometry":{"type":"Polygon","coordinates":[[[14.548357,53.462612],[14.550291,53.464934],[14.554627,53.465096],[14.55703,53.462935],[14.555096,53.460613],[14.55076,53.460452],[14.548357,53.462612]]]}},{"type":"Feature","properties":{"hex_id":391,"pop_20_29":74.0,"total_30min":2,"dominant_label":"Zachodniopomorski Uniwersytet Technologiczny","dominant_role":"politechnika","politechnika_30min":1,"uniwersytet_30min":1,"medyczny_30min":0},"geometry":{"type":"Polygon","coordinates":[[[14.548827,53.45813],[14.55076,53.460452],[14.555096,53.460613],[14.557499,53.458453],[14.555565,53.456131],[14.55123,53.45597],[14.548827,53.45813]]]}},{"type":"Feature","properties":{"hex_id":392,"pop_20_29":283.0,"total_30min":5,"dominant_label":"Zachodniopomorski Uniwersytet Technologiczny","dominant_role":"politechnika","politechnika_30min":3,"uniwersytet_30min":2,"medyczny_30min":0},"geometry":{"type":"Polygon","coordinates":[[[14.549297,53.453648],[14.55123,53.45597],[14.555565,53.456131],[14.557968,53.453971],[14.556034,53.451649],[14.551699,53.451487],[14.549297,53.453648]]]}},{"type":"Feature","properties":{"hex_id":393,"pop_20_29":189.0,"total_30min":4,"dominant_label":"Zachodniopomorski Uniwersytet Technologiczny","dominant_role":"politechnika","politechnika_30min":2,"uniwersytet_30min":2,"medyczny_30min":0},"geometry":{"type":"Polygon","coordinates":[[[14.549766,53.449165],[14.551699,53.451487],[14.556034,53.451649],[14.558436,53.449489],[14.556503,53.447167],[14.552168,53.447005],[14.549766,53.449165]]]}},{"type":"Feature","properties":{"hex_id":394,"pop_20_29":595.0,"total_30min":11,"dominant_label":"Uniwersytet Szczeciński","dominant_role":"uniwersytet","politechnika_30min":3,"uniwersytet_30min":8,"medyczny_30min":0},"geometry":{"type":"Polygon","coordinates":[[[14.550236,53.444683],[14.552168,53.447005],[14.556503,53.447167],[14.558905,53.445007],[14.556972,53.442685],[14.552637,53.442523],[14.550236,53.444683]]]}},{"type":"Feature","properties":{"hex_id":395,"pop_20_29":197.0,"total_30min":16,"dominant_label":"Uniwersytet Szczeciński","dominant_role":"uniwersytet","politechnika_30min":3,"uniwersytet_30min":10,"medyczny_30min":3},"geometry":{"type":"Polygon","coordinates":[[[14.550705,53.440201],[14.552637,53.442523],[14.556972,53.442685],[14.559373,53.440524],[14.55744,53.438202],[14.553106,53.438041],[14.550705,53.440201]]]}},{"type":"Feature","properties":{"hex_id":396,"pop_20_29":368.0,"total_30min":28,"dominant_label":"Uniwersytet Szczeciński","dominant_role":"uniwersytet","politechnika_30min":12,"uniwersytet_30min":14,"medyczny_30min":2},"geometry":{"type":"Polygon","coordinates":[[[14.551174,53.435719],[14.553106,53.438041],[14.55744,53.438202],[14.559841,53.436042],[14.557909,53.43372],[14.553575,53.433559],[14.551174,53.435719]]]}},{"type":"Feature","properties":{"hex_id":397,"pop_20_29":245.0,"total_30min":37,"dominant_label":"Uniwersytet Szczeciński","dominant_role":"uniwersytet","politechnika_30min":15,"uniwersytet_30min":20,"medyczny_30min":2},"geometry":{"type":"Polygon","coordinates":[[[14.551643,53.431237],[14.553575,53.433559],[14.557909,53.43372],[14.560309,53.43156],[14.558377,53.429238],[14.554044,53.429077],[14.551643,53.431237]]]}},{"type":"Feature","properties":{"hex_id":398,"pop_20_29":200.0,"total_30min":32,"dominant_label":"Uniwersytet Szczeciński","dominant_role":"uniwersytet","politechnika_30min":12,"uniwersytet_30min":18,"medyczny_30min":2},"geometry":{"type":"Polygon","coordinates":[[[14.552112,53.426755],[14.554044,53.429077],[14.558377,53.429238],[14.560777,53.427078],[14.558845,53.424756],[14.554512,53.424594],[14.552112,53.426755]]]}},{"type":"Feature","properties":{"hex_id":399,"pop_20_29":198.0,"total_30min":32,"dominant_label":"Uniwersytet Szczeciński","dominant_role":"uniwersytet","politechnika_30min":12,"uniwersytet_30min":18,"medyczny_30min":2},"geometry":{"type":"Polygon","coordinates":[[[14.552581,53.422272],[14.554512,53.424594],[14.558845,53.424756],[14.561245,53.422595],[14.559313,53.420274],[14.554981,53.420112],[14.552581,53.422272]]]}},{"type":"Feature","properties":{"hex_id":400,"pop_20_29":1.0,"total_30min":7,"dominant_label":"Zachodniopomorski Uniwersytet Technologiczny","dominant_role":"politechnika","politechnika_30min":5,"uniwersytet_30min":0,"medyczny_30min":2},"geometry":{"type":"Polygon","coordinates":[[[14.553049,53.41779],[14.554981,53.420112],[14.559313,53.420274],[14.561713,53.418113],[14.559781,53.415791],[14.555449,53.41563],[14.553049,53.41779]]]}},{"type":"Feature","properties":{"hex_id":431,"pop_20_29":94.0,"total_30min":1,"dominant_label":"Zachodniopomorski Uniwersytet Technologiczny","dominant_role":"politechnika","politechnika_30min":1,"uniwersytet_30min":0,"medyczny_30min":0},"geometry":{"type":"Polygon","coordinates":[[[14.555096,53.460613],[14.55703,53.462935],[14.561366,53.463097],[14.563769,53.460936],[14.561835,53.458615],[14.557499,53.458453],[14.555096,53.460613]]]}},{"type":"Feature","properties":{"hex_id":432,"pop_20_29":290.0,"total_30min":2,"dominant_label":"Zachodniopomorski Uniwersytet Technologiczny","dominant_role":"politechnika","politechnika_30min":1,"uniwersytet_30min":1,"medyczny_30min":0},"geometry":{"type":"Polygon","coordinates":[[[14.555565,53.456131],[14.557499,53.458453],[14.561835,53.458615],[14.564237,53.456454],[14.562303,53.454132],[14.557968,53.453971],[14.555565,53.456131]]]}},{"type":"Feature","properties":{"hex_id":433,"pop_20_29":245.0,"total_30min":3,"dominant_label":"Zachodniopomorski Uniwersytet Technologiczny","dominant_role":"politechnika","politechnika_30min":2,"uniwersytet_30min":1,"medyczny_30min":0},"geometry":{"type":"Polygon","coordinates":[[[14.556034,53.451649],[14.557968,53.453971],[14.562303,53.454132],[14.564705,53.451972],[14.562771,53.44965],[14.558436,53.449489],[14.556034,53.451649]]]}},{"type":"Feature","properties":{"hex_id":434,"pop_20_29":425.0,"total_30min":3,"dominant_label":"Zachodniopomorski Uniwersytet Technologiczny","dominant_role":"politechnika","politechnika_30min":2,"uniwersytet_30min":1,"medyczny_30min":0},"geometry":{"type":"Polygon","coordinates":[[[14.556503,53.447167],[14.558436,53.449489],[14.562771,53.44965],[14.565173,53.44749],[14.563239,53.445168],[14.558905,53.445007],[14.556503,53.447167]]]}},{"type":"Feature","properties":{"hex_id":435,"pop_20_29":249.0,"total_30min":9,"dominant_label":"Uniwersytet Szczeciński","dominant_role":"uniwersytet","politechnika_30min":2,"uniwersytet_30min":5,"medyczny_30min":2},"geometry":{"type":"Polygon","coordinates":[[[14.556972,53.442685],[14.558905,53.445007],[14.563239,53.445168],[14.56564,53.443007],[14.563707,53.440686],[14.559373,53.440524],[14.556972,53.442685]]]}},{"type":"Feature","properties":{"hex_id":436,"pop_20_29":329.0,"total_30min":15,"dominant_label":"Uniwersytet Szczeciński","dominant_role":"uniwersytet","politechnika_30min":3,"uniwersytet_30min":10,"medyczny_30min":2},"geometry":{"type":"Polygon","coordinates":[[[14.55744,53.438202],[14.559373,53.440524],[14.563707,53.440686],[14.566108,53.438525],[14.564175,53.436203],[14.559841,53.436042],[14.55744,53.438202]]]}},{"type":"Feature","properties":{"hex_id":437,"pop_20_29":152.0,"total_30min":17,"dominant_label":"Uniwersytet Szczeciński","dominant_role":"uniwersytet","politechnika_30min":5,"uniwersytet_30min":10,"medyczny_30min":2},"geometry":{"type":"Polygon","coordinates":[[[14.557909,53.43372],[14.559841,53.436042],[14.564175,53.436203],[14.566575,53.434043],[14.564642,53.431721],[14.560309,53.43156],[14.557909,53.43372]]]}},{"type":"Feature","properties":{"hex_id":438,"pop_20_29":77.0,"total_30min":9,"dominant_label":"Uniwersytet Szczeciński","dominant_role":"uniwersytet","politechnika_30min":1,"uniwersytet_30min":6,"medyczny_30min":2},"geometry":{"type":"Polygon","coordinates":[[[14.558377,53.429238],[14.560309,53.43156],[14.564642,53.431721],[14.567043,53.429561],[14.56511,53.427239],[14.560777,53.427078],[14.558377,53.429238]]]}},{"type":"Feature","properties":{"hex_id":439,"pop_20_29":36.0,"total_30min":25,"dominant_label":"Uniwersytet Szczeciński","dominant_role":"uniwersytet","politechnika_30min":11,"uniwersytet_30min":12,"medyczny_30min":2},"geometry":{"type":"Polygon","coordinates":[[[14.558845,53.424756],[14.560777,53.427078],[14.56511,53.427239],[14.56751,53.425078],[14.565577,53.422757],[14.561245,53.422595],[14.558845,53.424756]]]}},{"type":"Feature","properties":{"hex_id":442,"pop_20_29":1.0,"total_30min":2,"dominant_label":"Pomorski Uniwersytet Medyczny","dominant_role":"medyczny","politechnika_30min":0,"uniwersytet_30min":0,"medyczny_30min":2},"geometry":{"type":"Polygon","coordinates":[[[14.560248,53.411309],[14.56218,53.413631],[14.566512,53.413792],[14.568911,53.411631],[14.566979,53.40931],[14.562648,53.409149],[14.560248,53.411309]]]}},{"type":"Feature","properties":{"hex_id":474,"pop_20_29":26.0,"total_30min":1,"dominant_label":"Zachodniopomorski Uniwersytet Technologiczny","dominant_role":"politechnika","politechnika_30min":1,"uniwersytet_30min":0,"medyczny_30min":0},"geometry":{"type":"Polygon","coordinates":[[[14.561366,53.463097],[14.5633,53.465419],[14.567637,53.46558],[14.570039,53.463419],[14.568105,53.461098],[14.563769,53.460936],[14.561366,53.463097]]]}},{"type":"Feature","properties":{"hex_id":475,"pop_20_29":98.0,"total_30min":1,"dominant_label":"Zachodniopomorski Uniwersytet Technologiczny","dominant_role":"politechnika","politechnika_30min":1,"uniwersytet_30min":0,"medyczny_30min":0},"geometry":{"type":"Polygon","coordinates":[[[14.561835,53.458615],[14.563769,53.460936],[14.568105,53.461098],[14.570507,53.458937],[14.568573,53.456615],[14.564237,53.456454],[14.561835,53.458615]]]}},{"type":"Feature","properties":{"hex_id":476,"pop_20_29":185.0,"total_30min":3,"dominant_label":"Zachodniopomorski Uniwersytet Technologiczny","dominant_role":"politechnika","politechnika_30min":2,"uniwersytet_30min":1,"medyczny_30min":0},"geometry":{"type":"Polygon","coordinates":[[[14.562303,53.454132],[14.564237,53.456454],[14.568573,53.456615],[14.570974,53.454455],[14.56904,53.452133],[14.564705,53.451972],[14.562303,53.454132]]]}},{"type":"Feature","properties":{"hex_id":477,"pop_20_29":214.0,"total_30min":1,"dominant_label":"Zachodniopomorski Uniwersytet Technologiczny","dominant_role":"politechnika","politechnika_30min":1,"uniwersytet_30min":0,"medyczny_30min":0},"geometry":{"type":"Polygon","coordinates":[[[14.562771,53.44965],[14.564705,53.451972],[14.56904,53.452133],[14.571441,53.449972],[14.569507,53.447651],[14.565173,53.44749],[14.562771,53.44965]]]}},{"type":"Feature","properties":{"hex_id":478,"pop_20_29":51.0,"total_30min":2,"dominant_label":"Zachodniopomorski Uniwersytet Technologiczny","dominant_role":"politechnika","politechnika_30min":2,"uniwersytet_30min":0,"medyczny_30min":0},"geometry":{"type":"Polygon","coordinates":[[[14.563239,53.445168],[14.565173,53.44749],[14.569507,53.447651],[14.571908,53.44549],[14.569975,53.443169],[14.56564,53.443007],[14.563239,53.445168]]]}},{"type":"Feature","properties":{"hex_id":479,"pop_20_29":525.0,"total_30min":13,"dominant_label":"Uniwersytet Szczeciński","dominant_role":"uniwersytet","politechnika_30min":3,"uniwersytet_30min":8,"medyczny_30min":2},"geometry":{"type":"Polygon","coordinates":[[[14.563707,53.440686],[14.56564,53.443007],[14.569975,53.443169],[14.572375,53.441008],[14.570442,53.438686],[14.566108,53.438525],[14.563707,53.440686]]]}},{"type":"Feature","properties":{"hex_id":480,"pop_20_29":493.0,"total_30min":30,"dominant_label":"Uniwersytet Szczeciński","dominant_role":"uniwersytet","politechnika_30min":13,"uniwersytet_30min":15,"medyczny_30min":2},"geometry":{"type":"Polygon","coordinates":[[[14.564175,53.436203],[14.566108,53.438525],[14.570442,53.438686],[14.572842,53.436526],[14.570909,53.434204],[14.566575,53.434043],[14.564175,53.436203]]]}},{"type":"Feature","properties":{"hex_id":481,"pop_20_29":131.0,"total_30min":6,"dominant_label":"Uniwersytet Szczeciński","dominant_role":"uniwersytet","politechnika_30min":0,"uniwersytet_30min":4,"medyczny_30min":2},"geometry":{"type":"Polygon","coordinates":[[[14.564642,53.431721],[14.566575,53.434043],[14.570909,53.434204],[14.573309,53.432043],[14.571376,53.429722],[14.567043,53.429561],[14.564642,53.431721]]]}},{"type":"Feature","properties":{"hex_id":485,"pop_20_29":20.0,"total_30min":10,"dominant_label":"Zachodniopomorski Uniwersytet Technologiczny","dominant_role":"politechnika","politechnika_30min":8,"uniwersytet_30min":0,"medyczny_30min":2},"geometry":{"type":"Polygon","coordinates":[[[14.566512,53.413792],[14.568444,53.416114],[14.572776,53.416275],[14.575175,53.414114],[14.573242,53.411792],[14.568911,53.411631],[14.566512,53.413792]]]}},{"type":"Feature","properties":{"hex_id":517,"pop_20_29":130.0,"total_30min":1,"dominant_label":"Zachodniopomorski Uniwersytet Technologiczny","dominant_role":"politechnika","politechnika_30min":1,"uniwersytet_30min":0,"medyczny_30min":0},"geometry":{"type":"Polygon","coordinates":[[[14.567637,53.46558],[14.569572,53.467902],[14.573909,53.468063],[14.576311,53.465902],[14.574376,53.46358],[14.570039,53.463419],[14.567637,53.46558]]]}},{"type":"Feature","properties":{"hex_id":518,"pop_20_29":87.0,"total_30min":1,"dominant_label":"Zachodniopomorski Uniwersytet Technologiczny","dominant_role":"politechnika","politechnika_30min":1,"uniwersytet_30min":0,"medyczny_30min":0},"geometry":{"type":"Polygon","coordinates":[[[14.568105,53.461098],[14.570039,53.463419],[14.574376,53.46358],[14.576778,53.46142],[14.574843,53.459098],[14.570507,53.458937],[14.568105,53.461098]]]}},{"type":"Feature","properties":{"hex_id":521,"pop_20_29":182.0,"total_30min":4,"dominant_label":"Pomorski Uniwersytet Medyczny","dominant_role":"medyczny","politechnika_30min":1,"uniwersytet_30min":1,"medyczny_30min":2},"geometry":{"type":"Polygon","coordinates":[[[14.569507,53.447651],[14.571441,53.449972],[14.575777,53.450133],[14.578177,53.447973],[14.576243,53.445651],[14.571908,53.44549],[14.569507,53.447651]]]}},{"type":"Feature","properties":{"hex_id":522,"pop_20_29":31.0,"total_30min":7,"dominant_label":"Uniwersytet Szczeciński","dominant_role":"uniwersytet","politechnika_30min":2,"uniwersytet_30min":3,"medyczny_30min":2},"geometry":{"type":"Polygon","coordinates":[[[14.569975,53.443169],[14.571908,53.44549],[14.576243,53.445651],[14.578644,53.44349],[14.57671,53.441169],[14.572375,53.441008],[14.569975,53.443169]]]}},{"type":"Feature","properties":{"hex_id":523,"pop_20_29":210.0,"total_30min":14,"dominant_label":"Uniwersytet Szczeciński","dominant_role":"uniwersytet","politechnika_30min":3,"uniwersytet_30min":9,"medyczny_30min":2},"geometry":{"type":"Polygon","coordinates":[[[14.570442,53.438686],[14.572375,53.441008],[14.57671,53.441169],[14.57911,53.439008],[14.577176,53.436686],[14.572842,53.436526],[14.570442,53.438686]]]}},{"type":"Feature","properties":{"hex_id":524,"pop_20_29":115.0,"total_30min":2,"dominant_label":"Pomorski Uniwersytet Medyczny","dominant_role":"medyczny","politechnika_30min":0,"uniwersytet_30min":0,"medyczny_30min":2},"geometry":{"type":"Polygon","coordinates":[[[14.570909,53.434204],[14.572842,53.436526],[14.577176,53.436686],[14.579576,53.434526],[14.577642,53.432204],[14.573309,53.432043],[14.570909,53.434204]]]}},{"type":"Feature","properties":{"hex_id":529,"pop_20_29":8.0,"total_30min":3,"dominant_label":"Pomorski Uniwersytet Medyczny","dominant_role":"medyczny","politechnika_30min":1,"uniwersytet_30min":0,"medyczny_30min":2},"geometry":{"type":"Polygon","coordinates":[[[14.573242,53.411792],[14.575175,53.414114],[14.579506,53.414275],[14.581905,53.412114],[14.579972,53.409792],[14.575641,53.409632],[14.573242,53.411792]]]}},{"type":"Feature","properties":{"hex_id":563,"pop_20_29":221.0,"total_30min":1,"dominant_label":"Zachodniopomorski Uniwersytet Technologiczny","dominant_role":"politechnika","politechnika_30min":1,"uniwersytet_30min":0,"medyczny_30min":0},"geometry":{"type":"Polygon","coordinates":[[[14.574843,53.459098],[14.576778,53.46142],[14.581114,53.46158],[14.583515,53.45942],[14.58158,53.457098],[14.577244,53.456937],[14.574843,53.459098]]]}},{"type":"Feature","properties":{"hex_id":565,"pop_20_29":2.0,"total_30min":1,"dominant_label":"Zachodniopomorski Uniwersytet Technologiczny","dominant_role":"politechnika","politechnika_30min":1,"uniwersytet_30min":0,"medyczny_30min":0},"geometry":{"type":"Polygon","coordinates":[[[14.575777,53.450133],[14.577711,53.452455],[14.582046,53.452616],[14.584447,53.450455],[14.582512,53.448133],[14.578177,53.447973],[14.575777,53.450133]]]}},{"type":"Feature","properties":{"hex_id":603,"pop_20_29":50.0,"total_30min":1,"dominant_label":"Zachodniopomorski Uniwersytet Technologiczny","dominant_role":"politechnika","politechnika_30min":1,"uniwersytet_30min":0,"medyczny_30min":0},"geometry":{"type":"Polygon","coordinates":[[[14.579248,53.47951],[14.581183,53.481831],[14.585522,53.481992],[14.587924,53.479831],[14.585988,53.47751],[14.58165,53.477349],[14.579248,53.47951]]]}},{"type":"Feature","properties":{"hex_id":608,"pop_20_29":94.0,"total_30min":1,"dominant_label":"Zachodniopomorski Uniwersytet Technologiczny","dominant_role":"politechnika","politechnika_30min":1,"uniwersytet_30min":0,"medyczny_30min":0},"geometry":{"type":"Polygon","coordinates":[[[14.58158,53.457098],[14.583515,53.45942],[14.587851,53.45958],[14.590252,53.457419],[14.588317,53.455098],[14.583981,53.454937],[14.58158,53.457098]]]}},{"type":"Feature","properties":{"hex_id":628,"pop_20_29":154.0,"total_30min":1,"dominant_label":"Uniwersytet Szczeciński","dominant_role":"uniwersytet","politechnika_30min":0,"uniwersytet_30min":1,"medyczny_30min":0},"geometry":{"type":"Polygon","coordinates":[[[14.59088,53.36745],[14.592811,53.369771],[14.597138,53.369931],[14.599533,53.36777],[14.597601,53.365449],[14.593275,53.365289],[14.59088,53.36745]]]}},{"type":"Feature","properties":{"hex_id":647,"pop_20_29":52.0,"total_30min":1,"dominant_label":"Zachodniopomorski Uniwersytet Technologiczny","dominant_role":"politechnika","politechnika_30min":1,"uniwersytet_30min":0,"medyczny_30min":0},"geometry":{"type":"Polygon","coordinates":[[[14.585988,53.47751],[14.587924,53.479831],[14.592262,53.479991],[14.594664,53.47783],[14.592728,53.475509],[14.58839,53.475349],[14.585988,53.47751]]]}},{"type":"Feature","properties":{"hex_id":648,"pop_20_29":68.0,"total_30min":1,"dominant_label":"Zachodniopomorski Uniwersytet Technologiczny","dominant_role":"politechnika","politechnika_30min":1,"uniwersytet_30min":0,"medyczny_30min":0},"geometry":{"type":"Polygon","coordinates":[[[14.586454,53.473027],[14.58839,53.475349],[14.592728,53.475509],[14.595129,53.473348],[14.593193,53.471027],[14.588856,53.470866],[14.586454,53.473027]]]}},{"type":"Feature","properties":{"hex_id":651,"pop_20_29":98.0,"total_30min":1,"dominant_label":"Zachodniopomorski Uniwersytet Technologiczny","dominant_role":"politechnika","politechnika_30min":1,"uniwersytet_30min":0,"medyczny_30min":0},"geometry":{"type":"Polygon","coordinates":[[[14.587851,53.45958],[14.589787,53.461901],[14.594123,53.462062],[14.596524,53.459901],[14.594588,53.457579],[14.590252,53.457419],[14.587851,53.45958]]]}},{"type":"Feature","properties":{"hex_id":664,"pop_20_29":3.0,"total_30min":3,"dominant_label":"Pomorski Uniwersytet Medyczny","dominant_role":"medyczny","politechnika_30min":1,"uniwersytet_30min":0,"medyczny_30min":2},"geometry":{"type":"Polygon","coordinates":[[[14.593894,53.401309],[14.595827,53.40363],[14.600157,53.40379],[14.602554,53.401628],[14.600621,53.399307],[14.596291,53.399147],[14.593894,53.401309]]]}},{"type":"Feature","properties":{"hex_id":671,"pop_20_29":14.0,"total_30min":1,"dominant_label":"Uniwersytet Szczeciński","dominant_role":"uniwersytet","politechnika_30min":0,"uniwersytet_30min":1,"medyczny_30min":0},"geometry":{"type":"Polygon","coordinates":[[[14.597138,53.369931],[14.59907,53.372252],[14.603398,53.372412],[14.605793,53.370251],[14.60386,53.36793],[14.599533,53.36777],[14.597138,53.369931]]]}},{"type":"Feature","properties":{"hex_id":909,"pop_20_29":8.0,"total_30min":2,"dominant_label":"Pomorski Uniwersytet Medyczny","dominant_role":"medyczny","politechnika_30min":0,"uniwersytet_30min":0,"medyczny_30min":2},"geometry":{"type":"Polygon","coordinates":[[[14.633788,53.393778],[14.635723,53.396098],[14.640053,53.396257],[14.642447,53.394095],[14.640512,53.391774],[14.636182,53.391616],[14.633788,53.393778]]]}}]}