{"type":"FeatureCollection","features":[{"type":"Feature","geometry":{"type":"Point","coordinates":[21.0033473,52.1922171]},"properties":{"university":"Politechnika Warszawska","name":"Wydział Inżynierii Materiałowej PW","role":"politechnika"}},{"type":"Feature","geometry":{"type":"Point","coordinates":[21.000555,52.2227607]},"properties":{"university":"Politechnika Warszawska","name":"Wydział Transportu Politechniki Warszawskiej","role":"politechnika"}},{"type":"Feature","geometry":{"type":"Point","coordinates":[21.0202641,52.2170262]},"properties":{"university":"Warszawski Uniwersytet Medyczny","name":"Warszawski Uniwersytet Medyczny","role":"medyczny"}},{"type":"Feature","geometry":{"type":"Point","coordinates":[21.004119,52.2233581]},"properties":{"university":"Politechnika Warszawska","name":"Politechnika Warszawska","role":"politechnika"}},{"type":"Feature","geometry":{"type":"Point","coordinates":[21.00163,52.2242362]},"properties":{"university":"Warszawski Uniwersytet Medyczny","name":"Warszawski Uniwersytet Medyczny","role":"medyczny"}},{"type":"Feature","geometry":{"type":"Point","coordinates":[21.0001276,52.2251334]},"properties":{"university":"Warszawski Uniwersytet Medyczny","name":"Szpital Dzieciątka Jezus - Warszawski Uniwersytet Medyczny","role":"medyczny"}},{"type":"Feature","geometry":{"type":"Point","coordinates":[21.015044,52.213801]},"properties":{"university":"Politechnika Warszawska","name":"Politechnika Warszawska","role":"politechnika"}},{"type":"Feature","geometry":{"type":"Point","coordinates":[20.9986276,52.2013192]},"properties":{"university":"Politechnika Warszawska","name":"Politechnika Warszawska","role":"politechnika"}},{"type":"Feature","geometry":{"type":"Point","coordinates":[21.0186264,52.2395418]},"properties":{"university":"Uniwersytet Warszawski","name":"Wydział Historii UW","role":"uniwersytet"}},{"type":"Feature","geometry":{"type":"Point","coordinates":[21.0058102,52.2224145]},"properties":{"university":"Politechnika Warszawska","name":"Gmach Technologii Chemicznej","role":"politechnika"}},{"type":"Feature","geometry":{"type":"Point","coordinates":[21.0079943,52.2223618]},"properties":{"university":"Politechnika Warszawska","name":"Nowa Kreślarnia","role":"politechnika"}},{"type":"Feature","geometry":{"type":"Point","coordinates":[21.0007641,52.2228554]},"properties":{"university":"Politechnika Warszawska","name":"Politechnika Warszawska","role":"politechnika"}},{"type":"Feature","geometry":{"type":"Point","coordinates":[21.0205462,52.2400506]},"properties":{"university":"Uniwersytet Warszawski","name":"Wydział Polonistyki UW","role":"uniwersytet"}},{"type":"Feature","geometry":{"type":"Point","coordinates":[21.0191001,52.2407283]},"properties":{"university":"Uniwersytet Warszawski","name":"Wydział Prawa i Administracji UW","role":"uniwersytet"}},{"type":"Feature","geometry":{"type":"Point","coordinates":[21.0195692,52.2400776]},"properties":{"university":"Uniwersytet Warszawski","name":"Wydział Kultur Azji i Afryki","role":"uniwersytet"}},{"type":"Feature","geometry":{"type":"Point","coordinates":[21.0199531,52.2395951]},"properties":{"university":"Uniwersytet Warszawski","name":"Wydział Archeologii UW","role":"uniwersytet"}},{"type":"Feature","geometry":{"type":"Point","coordinates":[21.0178528,52.2406371]},"properties":{"university":"Uniwersytet Warszawski","name":"Wydział Nauk Politycznych i Studiów Międzynarodowych","role":"uniwersytet"}},{"type":"Feature","geometry":{"type":"Point","coordinates":[21.017281,52.2401885]},"properties":{"university":"Uniwersytet Warszawski","name":"Wydział Geografii i Studiów Regionalnych UW","role":"uniwersytet"}},{"type":"Feature","geometry":{"type":"Point","coordinates":[21.0202151,52.1858396]},"properties":{"university":"Uniwersytet Warszawski","name":"Ośrodek Dydaktyczny \"Ksawerów\"","role":"uniwersytet"}},{"type":"Feature","geometry":{"type":"Point","coordinates":[21.0061927,52.2238651]},"properties":{"university":"Uniwersytet Warszawski","name":"","role":"uniwersytet"}},{"type":"Feature","geometry":{"type":"Point","coordinates":[21.0276688,52.2168765]},"properties":{"university":"Uniwersytet Warszawski","name":"Centrum Współpracy i Dialogu UW, Obserwatorium Astronomiczne UW, Ogród Botaniczny UW","role":"uniwersytet"}},{"type":"Feature","geometry":{"type":"Point","coordinates":[21.027572,52.2168925]},"properties":{"university":"Uniwersytet Warszawski","name":"Obserwatorium Astronomiczne","role":"uniwersytet"}},{"type":"Feature","geometry":{"type":"Point","coordinates":[20.9853845,52.2059282]},"properties":{"university":"Warszawski Uniwersytet Medyczny","name":"Warszawski Uniwersytet Medyczny","role":"medyczny"}},{"type":"Feature","geometry":{"type":"Point","coordinates":[20.9831019,52.2078353]},"properties":{"university":"Warszawski Uniwersytet Medyczny","name":"Warszawski Uniwersytet Medyczny","role":"medyczny"}},{"type":"Feature","geometry":{"type":"Point","coordinates":[20.9860322,52.2095619]},"properties":{"university":"Warszawski Uniwersytet Medyczny","name":"Wydział Farmaceutyczny","role":"medyczny"}},{"type":"Feature","geometry":{"type":"Point","coordinates":[20.9991214,52.2236922]},"properties":{"university":"Warszawski Uniwersytet Medyczny","name":"Warszawski Uniwersytet Medyczny","role":"medyczny"}},{"type":"Feature","geometry":{"type":"Point","coordinates":[20.9904376,52.2524032]},"properties":{"university":"Uniwersytet Warszawski","name":"","role":"uniwersytet"}},{"type":"Feature","geometry":{"type":"Point","coordinates":[21.0020058,52.20301]},"properties":{"university":"Politechnika Warszawska","name":"Politechnika Warszawska","role":"politechnika"}},{"type":"Feature","geometry":{"type":"Point","coordinates":[21.0281832,52.2168753]},"properties":{"university":"Uniwersytet Warszawski","name":"skrzydło wschodnie Obserwatorium Astronomicznego","role":"uniwersytet"}},{"type":"Feature","geometry":{"type":"Point","coordinates":[21.0270068,52.2167664]},"properties":{"university":"Uniwersytet Warszawski","name":"skrzydło zachodnie Obserwatorium Astronomicznego","role":"uniwersytet"}},{"type":"Feature","geometry":{"type":"Point","coordinates":[21.0102362,52.2115958]},"properties":{"university":"Politechnika Warszawska","name":"","role":"politechnika"}},{"type":"Feature","geometry":{"type":"Point","coordinates":[21.0231097,52.2418061]},"properties":{"university":"Uniwersytet Warszawski","name":"","role":"uniwersytet"}},{"type":"Feature","geometry":{"type":"Point","coordinates":[21.0243824,52.2432358]},"properties":{"university":"Uniwersytet Warszawski","name":"","role":"uniwersytet"}},{"type":"Feature","geometry":{"type":"Point","coordinates":[21.0022779,52.2042671]},"properties":{"university":"Politechnika Warszawska","name":"Wydział Samochodów i Maszyn Roboczych","role":"politechnika"}},{"type":"Feature","geometry":{"type":"Point","coordinates":[21.0178033,52.2402317]},"properties":{"university":"Uniwersytet Warszawski","name":"Centrum Nauczania Języków Obcych UW","role":"uniwersytet"}},{"type":"Feature","geometry":{"type":"Point","coordinates":[20.9428802,52.2442967]},"properties":{"university":"Warszawski Uniwersytet Medyczny","name":"Warszawski Uniwersytet Medyczny","role":"medyczny"}},{"type":"Feature","geometry":{"type":"Point","coordinates":[21.0080749,52.1534798]},"properties":{"university":"Politechnika Warszawska","name":"CEZAMAT","role":"politechnika"}},{"type":"Feature","geometry":{"type":"Point","coordinates":[21.004448,52.2556979]},"properties":{"university":"Politechnika Warszawska","name":"Zakład Technologii Poligraficznych Politechniki Warszawskiej","role":"politechnika"}},{"type":"Feature","geometry":{"type":"Point","coordinates":[21.021918,52.1923149]},"properties":{"university":"Uniwersytet Warszawski","name":"Interdysycplinarne Centrum Modelowania Matematycznego i Komputerowego Uniwersytet Warszawski (ICM)","role":"uniwersytet"}},{"type":"Feature","geometry":{"type":"Point","coordinates":[21.00604,52.2204238]},"properties":{"university":"Politechnika Warszawska","name":"Muzeum Politechniki Warszawskiej","role":"politechnika"}},{"type":"Feature","geometry":{"type":"Point","coordinates":[21.019101,52.2209671]},"properties":{"university":"Uniwersytet Warszawski","name":"","role":"uniwersytet"}},{"type":"Feature","geometry":{"type":"Point","coordinates":[21.0196731,52.2295264]},"properties":{"university":"Uniwersytet Warszawski","name":"","role":"uniwersytet"}},{"type":"Feature","geometry":{"type":"Point","coordinates":[21.0201687,52.2463986]},"properties":{"university":"Uniwersytet Warszawski","name":"","role":"uniwersytet"}},{"type":"Feature","geometry":{"type":"Point","coordinates":[21.0034707,52.246461]},"properties":{"university":"Uniwersytet Warszawski","name":"","role":"uniwersytet"}},{"type":"Feature","geometry":{"type":"Point","coordinates":[21.013089,52.2220714]},"properties":{"university":"Politechnika Warszawska","name":"Politechnika Warszawska","role":"politechnika"}},{"type":"Feature","geometry":{"type":"Point","coordinates":[21.0219251,52.1923101]},"properties":{"university":"Uniwersytet Warszawski","name":"Interdysycplinarne Centrum Modelowania Matematycznego i Komputerowego Uniwersytet Warszawski","role":"uniwersytet"}},{"type":"Feature","geometry":{"type":"Point","coordinates":[21.0285744,52.2169915]},"properties":{"university":"Uniwersytet Warszawski","name":"pawilon wschodni Obserwatorium Astronomicznego","role":"uniwersytet"}},{"type":"Feature","geometry":{"type":"Point","coordinates":[21.0265885,52.2168097]},"properties":{"university":"Uniwersytet Warszawski","name":"pawilon zachodni Obserwatorium Astronomicznego","role":"uniwersytet"}}]}