{
"type": "FeatureCollection",
"name": "gdansk_boundary",
"crs": { "type": "name", "properties": { "name": "urn:ogc:def:crs:OGC:1.3:CRS84" } },
"xy_coordinate_resolution": 1e-15,
"features": [
{ "type": "Feature", "properties": { "fid": 1, "id": 607, "left": 2051123.8763117353, "top": 7243618.1015540054, "right": 2051701.2265809251, "bottom": 7243118.1015540054, "row_index": 82, "col_index": 4 }, "geometry": { "type": "MultiPolygon", "coordinates": [ [ [ [ 18.454084618543803, 54.335051263651515 ], [ 18.456677831399318, 54.335051263651515 ], [ 18.457974437827076, 54.336360636822505 ], [ 18.456677831399318, 54.337669968296822 ], [ 18.457974437827076, 54.338979258075121 ], [ 18.460567650682595, 54.338979258075121 ], [ 18.461864257110353, 54.340288506158053 ], [ 18.460567650682595, 54.341597712546253 ], [ 18.461864257110353, 54.342906877240367 ], [ 18.464457469965875, 54.342906877240367 ], [ 18.465754076393633, 54.344216000241033 ], [ 18.464457469965875, 54.345525081548899 ], [ 18.465754076393633, 54.346834121164619 ], [ 18.464457469965875, 54.348143119088832 ], [ 18.465754076393633, 54.349452075322176 ], [ 18.464457469965875, 54.3507609898653 ], [ 18.461864257110353, 54.3507609898653 ], [ 18.460567650682595, 54.352069862718842 ], [ 18.461864257110353, 54.353378693883471 ], [ 18.460567650682595, 54.354687483359797 ], [ 18.457974437827076, 54.354687483359797 ], [ 18.456677831399318, 54.353378693883471 ], [ 18.454084618543803, 54.353378693883471 ], [ 18.452788012116041, 54.354687483359797 ], [ 18.450194799260522, 54.354687483359797 ], [ 18.448898192832765, 54.353378693883471 ], [ 18.446304979977249, 54.353378693883471 ], [ 18.445008373549488, 54.354687483359797 ], [ 18.442415160693972, 54.354687483359797 ], [ 18.441118554266211, 54.355996231148502 ], [ 18.438525341410692, 54.355996231148502 ], [ 18.437228734982934, 54.357304937250206 ], [ 18.438525341410692, 54.358613601665553 ], [ 18.441118554266211, 54.358613601665553 ], [ 18.442415160693972, 54.359922224395198 ], [ 18.441118554266211, 54.361230805439789 ], [ 18.442415160693972, 54.362539344799956 ], [ 18.441118554266211, 54.363847842476368 ], [ 18.442415160693972, 54.365156298469643 ], [ 18.441118554266211, 54.366464712780441 ], [ 18.442415160693972, 54.367773085409411 ], [ 18.441118554266211, 54.369081416357197 ], [ 18.442415160693972, 54.37038970562444 ], [ 18.441118554266211, 54.371697953211786 ], [ 18.442415160693972, 54.373006159119882 ], [ 18.441118554266211, 54.374314323349374 ], [ 18.442415160693972, 54.375622445900916 ], [ 18.441118554266211, 54.376930526775141 ], [ 18.438525341410692, 54.376930526775141 ], [ 18.437228734982934, 54.378238565972694 ], [ 18.438525341410692, 54.37954656349423 ], [ 18.437228734982934, 54.380854519340396 ], [ 18.434635522127419, 54.380854519340396 ], [ 18.433338915699657, 54.382162433511837 ], [ 18.430745702844142, 54.382162433511837 ], [ 18.429449096416381, 54.383470306009187 ], [ 18.426855883560865, 54.383470306009187 ], [ 18.425559277133104, 54.384778136833106 ], [ 18.426855883560865, 54.386085925984247 ], [ 18.429449096416381, 54.386085925984247 ], [ 18.430745702844142, 54.387393673463237 ], [ 18.433338915699657, 54.387393673463237 ], [ 18.434635522127419, 54.388701379270735 ], [ 18.437228734982934, 54.388701379270735 ], [ 18.438525341410692, 54.390009043407389 ], [ 18.441118554266211, 54.390009043407389 ], [ 18.442415160693972, 54.391316665873838 ], [ 18.445008373549488, 54.391316665873838 ], [ 18.446304979977249, 54.392624246670728 ], [ 18.445008373549488, 54.393931785798721 ], [ 18.446304979977249, 54.395239283258448 ], [ 18.448898192832765, 54.395239283258448 ], [ 18.450194799260522, 54.396546739050557 ], [ 18.452788012116041, 54.396546739050557 ], [ 18.454084618543803, 54.397854153175707 ], [ 18.456677831399318, 54.397854153175707 ], [ 18.457974437827076, 54.399161525634533 ], [ 18.460567650682595, 54.399161525634533 ], [ 18.461864257110353, 54.400468856427686 ], [ 18.460567650682595, 54.401776145555814 ], [ 18.461864257110353, 54.403083393019564 ], [ 18.464457469965875, 54.403083393019564 ], [ 18.465754076393633, 54.404390598819589 ], [ 18.464457469965875, 54.405697762956528 ], [ 18.461864257110353, 54.405697762956528 ], [ 18.460567650682595, 54.407004885431036 ], [ 18.457974437827076, 54.407004885431036 ], [ 18.456677831399318, 54.405697762956528 ], [ 18.454084618543803, 54.405697762956528 ], [ 18.452788012116041, 54.407004885431036 ], [ 18.450194799260522, 54.407004885431036 ], [ 18.448898192832765, 54.405697762956528 ], [ 18.446304979977249, 54.405697762956528 ], [ 18.445008373549488, 54.407004885431036 ], [ 18.442415160693972, 54.407004885431036 ], [ 18.441118554266211, 54.408311966243744 ], [ 18.442415160693972, 54.409619005395321 ], [ 18.441118554266211, 54.410926002886406 ], [ 18.442415160693972, 54.412232958717645 ], [ 18.441118554266211, 54.413539872889686 ], [ 18.442415160693972, 54.414846745403175 ], [ 18.445008373549488, 54.414846745403175 ], [ 18.446304979977249, 54.416153576258765 ], [ 18.445008373549488, 54.41746036545711 ], [ 18.442415160693972, 54.41746036545711 ], [ 18.441118554266211, 54.418767112998836 ], [ 18.442415160693972, 54.420073818884624 ], [ 18.441118554266211, 54.421380483115087 ], [ 18.442415160693972, 54.422687105690898 ], [ 18.445008373549488, 54.422687105690898 ], [ 18.446304979977249, 54.423993686612704 ], [ 18.448898192832765, 54.423993686612704 ], [ 18.450194799260522, 54.425300225881145 ], [ 18.448898192832765, 54.426606723496867 ], [ 18.450194799260522, 54.427913179460518 ], [ 18.448898192832765, 54.429219593772764 ], [ 18.450194799260522, 54.430525966434232 ], [ 18.452788012116041, 54.430525966434232 ], [ 18.454084618543803, 54.431832297445581 ], [ 18.452788012116041, 54.433138586807459 ], [ 18.450194799260522, 54.433138586807459 ], [ 18.448898192832765, 54.434444834520519 ], [ 18.446304979977249, 54.434444834520519 ], [ 18.445008373549488, 54.435751040585409 ], [ 18.442415160693972, 54.435751040585409 ], [ 18.441118554266211, 54.437057205002766 ], [ 18.438525341410692, 54.437057205002766 ], [ 18.437228734982934, 54.43836332777326 ], [ 18.434635522127419, 54.43836332777326 ], [ 18.433338915699657, 54.439669408897515 ], [ 18.434635522127419, 54.440975448376207 ], [ 18.437228734982934, 54.440975448376207 ], [ 18.438525341410692, 54.439669408897515 ], [ 18.441118554266211, 54.439669408897515 ], [ 18.442415160693972, 54.440975448376207 ], [ 18.445008373549488, 54.440975448376207 ], [ 18.446304979977249, 54.442281446209961 ], [ 18.448898192832765, 54.442281446209961 ], [ 18.450194799260522, 54.443587402399444 ], [ 18.448898192832765, 54.44489331694529 ], [ 18.450194799260522, 54.446199189848159 ], [ 18.452788012116041, 54.446199189848159 ], [ 18.454084618543803, 54.447505021108711 ], [ 18.456677831399318, 54.447505021108711 ], [ 18.457974437827076, 54.446199189848159 ], [ 18.460567650682595, 54.446199189848159 ], [ 18.461864257110353, 54.44489331694529 ], [ 18.464457469965875, 54.44489331694529 ], [ 18.465754076393633, 54.443587402399444 ], [ 18.468347289249149, 54.443587402399444 ], [ 18.46964389567691, 54.442281446209961 ], [ 18.468347289249149, 54.440975448376207 ], [ 18.46964389567691, 54.439669408897515 ], [ 18.472237108532426, 54.439669408897515 ], [ 18.473533714960183, 54.43836332777326 ], [ 18.472237108532426, 54.437057205002766 ], [ 18.473533714960183, 54.435751040585409 ], [ 18.476126927815702, 54.435751040585409 ], [ 18.477423534243464, 54.434444834520519 ], [ 18.480016747098979, 54.434444834520519 ], [ 18.481313353526737, 54.435751040585409 ], [ 18.480016747098979, 54.437057205002766 ], [ 18.481313353526737, 54.43836332777326 ], [ 18.483906566382252, 54.43836332777326 ], [ 18.485203172810014, 54.439669408897515 ], [ 18.487796385665533, 54.439669408897515 ], [ 18.489092992093294, 54.43836332777326 ], [ 18.49168620494881, 54.43836332777326 ], [ 18.492982811376571, 54.437057205002766 ], [ 18.49168620494881, 54.435751040585409 ], [ 18.492982811376571, 54.434444834520519 ], [ 18.49168620494881, 54.433138586807459 ], [ 18.492982811376571, 54.431832297445581 ], [ 18.49168620494881, 54.430525966434232 ], [ 18.492982811376571, 54.429219593772764 ], [ 18.495576024232083, 54.429219593772764 ], [ 18.496872630659844, 54.430525966434232 ], [ 18.499465843515363, 54.430525966434232 ], [ 18.500762449943124, 54.429219593772764 ], [ 18.50335566279864, 54.429219593772764 ], [ 18.504652269226401, 54.427913179460518 ], [ 18.50335566279864, 54.426606723496867 ], [ 18.504652269226401, 54.425300225881145 ], [ 18.507245482081913, 54.425300225881145 ], [ 18.508542088509675, 54.423993686612704 ], [ 18.511135301365194, 54.423993686612704 ], [ 18.512431907792955, 54.422687105690898 ], [ 18.51502512064847, 54.422687105690898 ], [ 18.516321727076228, 54.421380483115087 ], [ 18.518914939931744, 54.421380483115087 ], [ 18.520211546359505, 54.422687105690898 ], [ 18.522804759215024, 54.422687105690898 ], [ 18.524101365642782, 54.423993686612704 ], [ 18.526694578498297, 54.423993686612704 ], [ 18.527991184926059, 54.425300225881145 ], [ 18.530584397781574, 54.425300225881145 ], [ 18.531881004209335, 54.423993686612704 ], [ 18.534474217064854, 54.423993686612704 ], [ 18.535770823492612, 54.422687105690898 ], [ 18.538364036348128, 54.422687105690898 ], [ 18.539660642775889, 54.423993686612704 ], [ 18.542253855631404, 54.423993686612704 ], [ 18.543550462059166, 54.422687105690898 ], [ 18.546143674914685, 54.422687105690898 ], [ 18.547440281342443, 54.423993686612704 ], [ 18.550033494197962, 54.423993686612704 ], [ 18.551330100625719, 54.422687105690898 ], [ 18.553923313481235, 54.422687105690898 ], [ 18.555219919908996, 54.421380483115087 ], [ 18.557813132764515, 54.421380483115087 ], [ 18.559109739192273, 54.422687105690898 ], [ 18.557813132764515, 54.423993686612704 ], [ 18.559109739192273, 54.425300225881145 ], [ 18.561702952047789, 54.425300225881145 ], [ 18.56299955847555, 54.423993686612704 ], [ 18.565592771331065, 54.423993686612704 ], [ 18.566889377758827, 54.425300225881145 ], [ 18.569482590614342, 54.425300225881145 ], [ 18.570779197042103, 54.426606723496867 ], [ 18.573372409897619, 54.426606723496867 ], [ 18.57466901632538, 54.425300225881145 ], [ 18.577262229180896, 54.425300225881145 ], [ 18.578558835608657, 54.426606723496867 ], [ 18.577262229180896, 54.427913179460518 ], [ 18.578558835608657, 54.429219593772764 ], [ 18.581152048464173, 54.429219593772764 ], [ 18.582448654891934, 54.427913179460518 ], [ 18.585041867747449, 54.427913179460518 ], [ 18.586338474175211, 54.429219593772764 ], [ 18.588931687030726, 54.429219593772764 ], [ 18.590228293458487, 54.430525966434232 ], [ 18.588931687030726, 54.431832297445581 ], [ 18.590228293458487, 54.433138586807459 ], [ 18.592821506314003, 54.433138586807459 ], [ 18.594118112741764, 54.434444834520519 ], [ 18.59671132559728, 54.434444834520519 ], [ 18.598007932025041, 54.433138586807459 ], [ 18.600601144880557, 54.433138586807459 ], [ 18.601897751308318, 54.434444834520519 ], [ 18.604490964163833, 54.434444834520519 ], [ 18.605787570591595, 54.435751040585409 ], [ 18.60838078344711, 54.435751040585409 ], [ 18.609677389874868, 54.437057205002766 ], [ 18.612270602730387, 54.437057205002766 ], [ 18.613567209158148, 54.43836332777326 ], [ 18.612270602730387, 54.439669408897515 ], [ 18.613567209158148, 54.440975448376207 ], [ 18.612270602730387, 54.442281446209961 ], [ 18.613567209158148, 54.443587402399444 ], [ 18.612270602730387, 54.44489331694529 ], [ 18.613567209158148, 54.446199189848159 ], [ 18.612270602730387, 54.447505021108711 ], [ 18.613567209158148, 54.448810810727572 ], [ 18.616160422013664, 54.448810810727572 ], [ 18.617457028441425, 54.447505021108711 ], [ 18.620050241296941, 54.447505021108711 ], [ 18.621346847724698, 54.446199189848159 ], [ 18.623940060580217, 54.446199189848159 ], [ 18.625236667007979, 54.44489331694529 ], [ 18.623940060580217, 54.443587402399444 ], [ 18.625236667007979, 54.442281446209961 ], [ 18.627829879863494, 54.442281446209961 ], [ 18.629126486291252, 54.440975448376207 ], [ 18.631719699146771, 54.440975448376207 ], [ 18.633016305574529, 54.439669408897515 ], [ 18.635609518430048, 54.439669408897515 ], [ 18.636906124857809, 54.43836332777326 ], [ 18.639499337713325, 54.43836332777326 ], [ 18.640795944141082, 54.439669408897515 ], [ 18.643389156996601, 54.439669408897515 ], [ 18.644685763424359, 54.43836332777326 ], [ 18.647278976279878, 54.43836332777326 ], [ 18.64857558270764, 54.437057205002766 ], [ 18.651168795563155, 54.437057205002766 ], [ 18.652465401990913, 54.435751040585409 ], [ 18.655058614846428, 54.435751040585409 ], [ 18.65635522127419, 54.437057205002766 ], [ 18.658948434129709, 54.437057205002766 ], [ 18.66024504055747, 54.435751040585409 ], [ 18.662838253412986, 54.435751040585409 ], [ 18.664134859840743, 54.434444834520519 ], [ 18.666728072696259, 54.434444834520519 ], [ 18.66802467912402, 54.435751040585409 ], [ 18.670617891979539, 54.435751040585409 ], [ 18.6719144984073, 54.434444834520519 ], [ 18.674507711262816, 54.434444834520519 ], [ 18.675804317690577, 54.433138586807459 ], [ 18.678397530546089, 54.433138586807459 ], [ 18.679694136973851, 54.434444834520519 ], [ 18.68228734982937, 54.434444834520519 ], [ 18.683583956257131, 54.435751040585409 ], [ 18.686177169112646, 54.435751040585409 ], [ 18.687473775540404, 54.434444834520519 ], [ 18.69006698839592, 54.434444834520519 ], [ 18.691363594823681, 54.433138586807459 ], [ 18.6939568076792, 54.433138586807459 ], [ 18.695253414106958, 54.431832297445581 ], [ 18.697846626962477, 54.431832297445581 ], [ 18.699143233390235, 54.430525966434232 ], [ 18.70173644624575, 54.430525966434232 ], [ 18.703033052673511, 54.429219593772764 ], [ 18.70173644624575, 54.427913179460518 ], [ 18.703033052673511, 54.426606723496867 ], [ 18.70562626552903, 54.426606723496867 ], [ 18.706922871956788, 54.425300225881145 ], [ 18.70562626552903, 54.423993686612704 ], [ 18.706922871956788, 54.422687105690898 ], [ 18.709516084812307, 54.422687105690898 ], [ 18.710812691240065, 54.421380483115087 ], [ 18.709516084812307, 54.420073818884624 ], [ 18.710812691240065, 54.418767112998836 ], [ 18.709516084812307, 54.41746036545711 ], [ 18.710812691240065, 54.416153576258765 ], [ 18.71340590409558, 54.416153576258765 ], [ 18.714702510523338, 54.414846745403175 ], [ 18.71340590409558, 54.413539872889686 ], [ 18.714702510523338, 54.412232958717645 ], [ 18.717295723378861, 54.412232958717645 ], [ 18.718592329806619, 54.410926002886406 ], [ 18.721185542662138, 54.410926002886406 ], [ 18.722482149089895, 54.409619005395321 ], [ 18.725075361945411, 54.409619005395321 ], [ 18.726371968373169, 54.408311966243744 ], [ 18.725075361945411, 54.407004885431036 ], [ 18.726371968373169, 54.405697762956528 ], [ 18.728965181228691, 54.405697762956528 ], [ 18.730261787656449, 54.404390598819589 ], [ 18.732855000511965, 54.404390598819589 ], [ 18.734151606939726, 54.403083393019564 ], [ 18.736744819795241, 54.403083393019564 ], [ 18.738041426222999, 54.401776145555814 ], [ 18.740634639078522, 54.401776145555814 ], [ 18.741931245506279, 54.400468856427686 ], [ 18.744524458361795, 54.400468856427686 ], [ 18.745821064789556, 54.399161525634533 ], [ 18.748414277645072, 54.399161525634533 ], [ 18.749710884072829, 54.397854153175707 ], [ 18.748414277645072, 54.396546739050557 ], [ 18.749710884072829, 54.395239283258448 ], [ 18.752304096928349, 54.395239283258448 ], [ 18.75360070335611, 54.393931785798721 ], [ 18.752304096928349, 54.392624246670728 ], [ 18.75360070335611, 54.391316665873838 ], [ 18.756193916211625, 54.391316665873838 ], [ 18.757490522639387, 54.390009043407389 ], [ 18.756193916211625, 54.388701379270735 ], [ 18.757490522639387, 54.387393673463237 ], [ 18.760083735494899, 54.387393673463237 ], [ 18.76138034192266, 54.386085925984247 ], [ 18.763973554778179, 54.386085925984247 ], [ 18.76527016120594, 54.387393673463237 ], [ 18.767863374061456, 54.387393673463237 ], [ 18.769159980489217, 54.386085925984247 ], [ 18.771753193344729, 54.386085925984247 ], [ 18.77304979977249, 54.387393673463237 ], [ 18.775643012628009, 54.387393673463237 ], [ 18.776939619055771, 54.386085925984247 ], [ 18.779532831911286, 54.386085925984247 ], [ 18.780829438339044, 54.384778136833106 ], [ 18.783422651194559, 54.384778136833106 ], [ 18.784719257622321, 54.386085925984247 ], [ 18.78731247047784, 54.386085925984247 ], [ 18.788609076905601, 54.384778136833106 ], [ 18.791202289761117, 54.384778136833106 ], [ 18.792498896188874, 54.383470306009187 ], [ 18.795092109044393, 54.383470306009187 ], [ 18.796388715472151, 54.382162433511837 ], [ 18.79898192832767, 54.382162433511837 ], [ 18.800278534755428, 54.380854519340396 ], [ 18.802871747610947, 54.380854519340396 ], [ 18.804168354038705, 54.37954656349423 ], [ 18.80676156689422, 54.37954656349423 ], [ 18.808058173321978, 54.380854519340396 ], [ 18.810651386177501, 54.380854519340396 ], [ 18.811947992605258, 54.37954656349423 ], [ 18.814541205460777, 54.37954656349423 ], [ 18.815837811888535, 54.378238565972694 ], [ 18.818431024744051, 54.378238565972694 ], [ 18.819727631171812, 54.376930526775141 ], [ 18.822320844027331, 54.376930526775141 ], [ 18.823617450455089, 54.378238565972694 ], [ 18.826210663310608, 54.378238565972694 ], [ 18.827507269738366, 54.376930526775141 ], [ 18.830100482593881, 54.376930526775141 ], [ 18.831397089021642, 54.375622445900916 ], [ 18.833990301877161, 54.375622445900916 ], [ 18.835286908304919, 54.374314323349374 ], [ 18.837880121160435, 54.374314323349374 ], [ 18.839176727588193, 54.373006159119882 ], [ 18.841769940443712, 54.373006159119882 ], [ 18.843066546871469, 54.374314323349374 ], [ 18.845659759726992, 54.374314323349374 ], [ 18.84695636615475, 54.373006159119882 ], [ 18.849549579010265, 54.373006159119882 ], [ 18.850846185438019, 54.374314323349374 ], [ 18.853439398293538, 54.374314323349374 ], [ 18.8547360047213, 54.373006159119882 ], [ 18.857329217576819, 54.373006159119882 ], [ 18.858625824004577, 54.374314323349374 ], [ 18.861219036860096, 54.374314323349374 ], [ 18.862515643287853, 54.373006159119882 ], [ 18.865108856143372, 54.373006159119882 ], [ 18.86640546257113, 54.374314323349374 ], [ 18.868998675426653, 54.374314323349374 ], [ 18.870295281854411, 54.373006159119882 ], [ 18.87288849470993, 54.373006159119882 ], [ 18.874185101137687, 54.371697953211786 ], [ 18.876778313993199, 54.371697953211786 ], [ 18.878074920420961, 54.373006159119882 ], [ 18.88066813327648, 54.373006159119882 ], [ 18.881964739704237, 54.371697953211786 ], [ 18.884557952559756, 54.371697953211786 ], [ 18.885854558987514, 54.37038970562444 ], [ 18.888447771843033, 54.37038970562444 ], [ 18.889744378270791, 54.371697953211786 ], [ 18.892337591126314, 54.371697953211786 ], [ 18.893634197554068, 54.37038970562444 ], [ 18.896227410409587, 54.37038970562444 ], [ 18.897524016837345, 54.369081416357197 ], [ 18.90011722969286, 54.369081416357197 ], [ 18.901413836120621, 54.37038970562444 ], [ 18.90400704897614, 54.37038970562444 ], [ 18.905303655403898, 54.369081416357197 ], [ 18.907896868259417, 54.369081416357197 ], [ 18.909193474687175, 54.367773085409411 ], [ 18.911786687542694, 54.367773085409411 ], [ 18.913083293970452, 54.369081416357197 ], [ 18.915676506825971, 54.369081416357197 ], [ 18.916973113253729, 54.367773085409411 ], [ 18.919566326109248, 54.367773085409411 ], [ 18.920862932537005, 54.366464712780441 ], [ 18.923456145392521, 54.366464712780441 ], [ 18.924752751820282, 54.367773085409411 ], [ 18.927345964675801, 54.367773085409411 ], [ 18.928642571103556, 54.366464712780441 ], [ 18.931235783959075, 54.366464712780441 ], [ 18.932532390386832, 54.367773085409411 ], [ 18.935125603242351, 54.367773085409411 ], [ 18.936422209670113, 54.366464712780441 ], [ 18.939015422525632, 54.366464712780441 ], [ 18.94031202895339, 54.365156298469643 ], [ 18.942905241808909, 54.365156298469643 ], [ 18.944201848236666, 54.363847842476368 ], [ 18.946795061092185, 54.363847842476368 ], [ 18.948091667519943, 54.362539344799956 ], [ 18.950684880375459, 54.362539344799956 ], [ 18.951981486803216, 54.361230805439789 ], [ 18.950684880375459, 54.359922224395198 ], [ 18.951981486803216, 54.358613601665553 ], [ 18.950684880375459, 54.357304937250206 ], [ 18.951981486803216, 54.355996231148502 ], [ 18.950684880375459, 54.354687483359797 ], [ 18.951981486803216, 54.353378693883471 ], [ 18.950684880375459, 54.352069862718842 ], [ 18.948091667519943, 54.352069862718842 ], [ 18.946795061092185, 54.3507609898653 ], [ 18.948091667519943, 54.349452075322176 ], [ 18.946795061092185, 54.348143119088832 ], [ 18.948091667519943, 54.346834121164619 ], [ 18.946795061092185, 54.345525081548899 ], [ 18.948091667519943, 54.344216000241033 ], [ 18.946795061092185, 54.342906877240367 ], [ 18.944201848236666, 54.342906877240367 ], [ 18.942905241808909, 54.341597712546253 ], [ 18.944201848236666, 54.340288506158053 ], [ 18.942905241808909, 54.338979258075121 ], [ 18.944201848236666, 54.337669968296822 ], [ 18.942905241808909, 54.336360636822505 ], [ 18.944201848236666, 54.335051263651515 ], [ 18.942905241808909, 54.33374184878322 ], [ 18.944201848236666, 54.33243239221698 ], [ 18.942905241808909, 54.331122893952141 ], [ 18.94031202895339, 54.331122893952141 ], [ 18.939015422525632, 54.329813353988065 ], [ 18.94031202895339, 54.328503772324105 ], [ 18.939015422525632, 54.32719414895962 ], [ 18.94031202895339, 54.325884483893965 ], [ 18.939015422525632, 54.324574777126493 ], [ 18.94031202895339, 54.323265028656564 ], [ 18.939015422525632, 54.321955238483547 ], [ 18.94031202895339, 54.320645406606779 ], [ 18.939015422525632, 54.319335533025622 ], [ 18.936422209670113, 54.319335533025622 ], [ 18.935125603242351, 54.318025617739437 ], [ 18.936422209670113, 54.316715660747576 ], [ 18.935125603242351, 54.315405662049393 ], [ 18.936422209670113, 54.314095621644256 ], [ 18.935125603242351, 54.312785539531518 ], [ 18.936422209670113, 54.311475415710539 ], [ 18.935125603242351, 54.31016525018066 ], [ 18.936422209670113, 54.308855042941261 ], [ 18.935125603242351, 54.307544793991681 ], [ 18.936422209670113, 54.306234503331289 ], [ 18.935125603242351, 54.304924170959438 ], [ 18.936422209670113, 54.303613796875489 ], [ 18.935125603242351, 54.302303381078787 ], [ 18.936422209670113, 54.3009929235687 ], [ 18.935125603242351, 54.299682424344596 ], [ 18.936422209670113, 54.298371883405814 ], [ 18.935125603242351, 54.297061300751729 ], [ 18.936422209670113, 54.295750676381672 ], [ 18.935125603242351, 54.294440010295027 ], [ 18.936422209670113, 54.293129302491153 ], [ 18.939015422525632, 54.293129302491153 ], [ 18.94031202895339, 54.291818552969389 ], [ 18.939015422525632, 54.290507761729096 ], [ 18.94031202895339, 54.289196928769655 ], [ 18.939015422525632, 54.2878860540904 ], [ 18.94031202895339, 54.286575137690697 ], [ 18.939015422525632, 54.285264179569907 ], [ 18.94031202895339, 54.283953179727384 ], [ 18.939015422525632, 54.282642138162494 ], [ 18.94031202895339, 54.281331054874585 ], [ 18.939015422525632, 54.280019929863023 ], [ 18.936422209670113, 54.280019929863023 ], [ 18.935125603242351, 54.278708763127163 ], [ 18.932532390386832, 54.278708763127163 ], [ 18.931235783959075, 54.280019929863023 ], [ 18.928642571103556, 54.280019929863023 ], [ 18.927345964675801, 54.281331054874585 ], [ 18.928642571103556, 54.282642138162494 ], [ 18.927345964675801, 54.283953179727384 ], [ 18.924752751820282, 54.283953179727384 ], [ 18.923456145392521, 54.285264179569907 ], [ 18.920862932537005, 54.285264179569907 ], [ 18.919566326109248, 54.286575137690697 ], [ 18.920862932537005, 54.2878860540904 ], [ 18.919566326109248, 54.289196928769655 ], [ 18.920862932537005, 54.290507761729096 ], [ 18.919566326109248, 54.291818552969389 ], [ 18.920862932537005, 54.293129302491153 ], [ 18.919566326109248, 54.294440010295027 ], [ 18.916973113253729, 54.294440010295027 ], [ 18.915676506825971, 54.295750676381672 ], [ 18.916973113253729, 54.297061300751729 ], [ 18.915676506825971, 54.298371883405814 ], [ 18.916973113253729, 54.299682424344596 ], [ 18.915676506825971, 54.3009929235687 ], [ 18.916973113253729, 54.302303381078787 ], [ 18.915676506825971, 54.303613796875489 ], [ 18.916973113253729, 54.304924170959438 ], [ 18.915676506825971, 54.306234503331289 ], [ 18.913083293970452, 54.306234503331289 ], [ 18.911786687542694, 54.307544793991681 ], [ 18.913083293970452, 54.308855042941261 ], [ 18.911786687542694, 54.31016525018066 ], [ 18.909193474687175, 54.31016525018066 ], [ 18.907896868259417, 54.311475415710539 ], [ 18.905303655403898, 54.311475415710539 ], [ 18.90400704897614, 54.312785539531518 ], [ 18.901413836120621, 54.312785539531518 ], [ 18.90011722969286, 54.314095621644256 ], [ 18.897524016837345, 54.314095621644256 ], [ 18.896227410409587, 54.312785539531518 ], [ 18.893634197554068, 54.312785539531518 ], [ 18.892337591126314, 54.311475415710539 ], [ 18.889744378270791, 54.311475415710539 ], [ 18.888447771843033, 54.312785539531518 ], [ 18.885854558987514, 54.312785539531518 ], [ 18.884557952559756, 54.311475415710539 ], [ 18.881964739704237, 54.311475415710539 ], [ 18.88066813327648, 54.31016525018066 ], [ 18.878074920420961, 54.31016525018066 ], [ 18.876778313993199, 54.308855042941261 ], [ 18.87418510113768, 54.308855042941261 ], [ 18.872888494709922, 54.31016525018066 ], [ 18.870295281854411, 54.31016525018066 ], [ 18.868998675426653, 54.311475415710539 ], [ 18.86640546257113, 54.311475415710539 ], [ 18.865108856143372, 54.312785539531518 ], [ 18.862515643287853, 54.312785539531518 ], [ 18.861219036860096, 54.314095621644256 ], [ 18.862515643287853, 54.315405662049393 ], [ 18.861219036860096, 54.316715660747576 ], [ 18.858625824004577, 54.316715660747576 ], [ 18.857329217576819, 54.318025617739437 ], [ 18.858625824004577, 54.319335533025622 ], [ 18.857329217576819, 54.320645406606779 ], [ 18.8547360047213, 54.320645406606779 ], [ 18.853439398293538, 54.321955238483547 ], [ 18.850846185438019, 54.321955238483547 ], [ 18.849549579010265, 54.323265028656564 ], [ 18.84695636615475, 54.323265028656564 ], [ 18.845659759726992, 54.324574777126493 ], [ 18.843066546871469, 54.324574777126493 ], [ 18.841769940443712, 54.325884483893965 ], [ 18.839176727588193, 54.325884483893965 ], [ 18.837880121160435, 54.32719414895962 ], [ 18.839176727588193, 54.328503772324105 ], [ 18.837880121160435, 54.329813353988065 ], [ 18.835286908304919, 54.329813353988065 ], [ 18.833990301877161, 54.331122893952141 ], [ 18.835286908304919, 54.33243239221698 ], [ 18.833990301877161, 54.33374184878322 ], [ 18.831397089021639, 54.33374184878322 ], [ 18.830100482593881, 54.335051263651515 ], [ 18.831397089021639, 54.336360636822505 ], [ 18.830100482593881, 54.337669968296822 ], [ 18.827507269738366, 54.337669968296822 ], [ 18.826210663310608, 54.338979258075121 ], [ 18.823617450455089, 54.338979258075121 ], [ 18.822320844027331, 54.340288506158053 ], [ 18.819727631171808, 54.340288506158053 ], [ 18.818431024744051, 54.341597712546253 ], [ 18.815837811888535, 54.341597712546253 ], [ 18.814541205460777, 54.342906877240367 ], [ 18.811947992605258, 54.342906877240367 ], [ 18.810651386177501, 54.344216000241033 ], [ 18.808058173321982, 54.344216000241033 ], [ 18.806761566894224, 54.342906877240367 ], [ 18.804168354038705, 54.342906877240367 ], [ 18.802871747610947, 54.344216000241033 ], [ 18.800278534755428, 54.344216000241033 ], [ 18.79898192832767, 54.345525081548899 ], [ 18.796388715472151, 54.345525081548899 ], [ 18.795092109044393, 54.344216000241033 ], [ 18.792498896188874, 54.344216000241033 ], [ 18.791202289761117, 54.342906877240367 ], [ 18.788609076905601, 54.342906877240367 ], [ 18.78731247047784, 54.341597712546253 ], [ 18.788609076905601, 54.340288506158053 ], [ 18.78731247047784, 54.338979258075121 ], [ 18.784719257622321, 54.338979258075121 ], [ 18.783422651194559, 54.340288506158053 ], [ 18.780829438339044, 54.340288506158053 ], [ 18.779532831911286, 54.338979258075121 ], [ 18.780829438339044, 54.337669968296822 ], [ 18.779532831911286, 54.336360636822505 ], [ 18.776939619055771, 54.336360636822505 ], [ 18.775643012628009, 54.335051263651515 ], [ 18.77304979977249, 54.335051263651515 ], [ 18.771753193344729, 54.336360636822505 ], [ 18.769159980489217, 54.336360636822505 ], [ 18.767863374061456, 54.335051263651515 ], [ 18.769159980489217, 54.33374184878322 ], [ 18.767863374061456, 54.33243239221698 ], [ 18.76527016120594, 54.33243239221698 ], [ 18.763973554778179, 54.331122893952141 ], [ 18.76138034192266, 54.331122893952141 ], [ 18.760083735494899, 54.33243239221698 ], [ 18.757490522639383, 54.33243239221698 ], [ 18.756193916211625, 54.33374184878322 ], [ 18.75360070335611, 54.33374184878322 ], [ 18.752304096928349, 54.335051263651515 ], [ 18.749710884072829, 54.335051263651515 ], [ 18.748414277645072, 54.336360636822505 ], [ 18.745821064789553, 54.336360636822505 ], [ 18.744524458361795, 54.337669968296822 ], [ 18.745821064789553, 54.338979258075121 ], [ 18.744524458361795, 54.340288506158053 ], [ 18.741931245506279, 54.340288506158053 ], [ 18.740634639078522, 54.338979258075121 ], [ 18.738041426222999, 54.338979258075121 ], [ 18.736744819795241, 54.337669968296822 ], [ 18.734151606939722, 54.337669968296822 ], [ 18.732855000511965, 54.338979258075121 ], [ 18.730261787656449, 54.338979258075121 ], [ 18.728965181228691, 54.337669968296822 ], [ 18.726371968373169, 54.337669968296822 ], [ 18.725075361945411, 54.336360636822505 ], [ 18.726371968373169, 54.335051263651515 ], [ 18.725075361945411, 54.33374184878322 ], [ 18.722482149089895, 54.33374184878322 ], [ 18.721185542662138, 54.33243239221698 ], [ 18.722482149089895, 54.331122893952141 ], [ 18.721185542662138, 54.329813353988065 ], [ 18.722482149089895, 54.328503772324105 ], [ 18.721185542662138, 54.32719414895962 ], [ 18.718592329806619, 54.32719414895962 ], [ 18.717295723378861, 54.325884483893965 ], [ 18.718592329806619, 54.324574777126493 ], [ 18.717295723378861, 54.323265028656564 ], [ 18.714702510523338, 54.323265028656564 ], [ 18.71340590409558, 54.321955238483547 ], [ 18.714702510523338, 54.320645406606779 ], [ 18.71340590409558, 54.319335533025622 ], [ 18.710812691240065, 54.319335533025622 ], [ 18.709516084812307, 54.318025617739437 ], [ 18.710812691240065, 54.316715660747576 ], [ 18.709516084812307, 54.315405662049393 ], [ 18.710812691240065, 54.314095621644256 ], [ 18.709516084812307, 54.312785539531518 ], [ 18.706922871956788, 54.312785539531518 ], [ 18.70562626552903, 54.311475415710539 ], [ 18.703033052673511, 54.311475415710539 ], [ 18.70173644624575, 54.312785539531518 ], [ 18.699143233390235, 54.312785539531518 ], [ 18.697846626962473, 54.314095621644256 ], [ 18.695253414106958, 54.314095621644256 ], [ 18.6939568076792, 54.312785539531518 ], [ 18.691363594823681, 54.312785539531518 ], [ 18.69006698839592, 54.311475415710539 ], [ 18.691363594823681, 54.31016525018066 ], [ 18.69006698839592, 54.308855042941261 ], [ 18.691363594823681, 54.307544793991681 ], [ 18.69006698839592, 54.306234503331289 ], [ 18.691363594823681, 54.304924170959438 ], [ 18.69006698839592, 54.303613796875489 ], [ 18.691363594823681, 54.302303381078787 ], [ 18.6939568076792, 54.302303381078787 ], [ 18.695253414106958, 54.3009929235687 ], [ 18.6939568076792, 54.299682424344596 ], [ 18.691363594823681, 54.299682424344596 ], [ 18.69006698839592, 54.298371883405814 ], [ 18.687473775540404, 54.298371883405814 ], [ 18.686177169112643, 54.299682424344596 ], [ 18.683583956257131, 54.299682424344596 ], [ 18.68228734982937, 54.298371883405814 ], [ 18.679694136973851, 54.298371883405814 ], [ 18.678397530546089, 54.297061300751729 ], [ 18.675804317690577, 54.297061300751729 ], [ 18.674507711262816, 54.295750676381672 ], [ 18.6719144984073, 54.295750676381672 ], [ 18.670617891979539, 54.294440010295027 ], [ 18.66802467912402, 54.294440010295027 ], [ 18.666728072696259, 54.293129302491153 ], [ 18.664134859840743, 54.293129302491153 ], [ 18.662838253412986, 54.294440010295027 ], [ 18.66024504055747, 54.294440010295027 ], [ 18.658948434129709, 54.293129302491153 ], [ 18.65635522127419, 54.293129302491153 ], [ 18.655058614846428, 54.291818552969389 ], [ 18.652465401990913, 54.291818552969389 ], [ 18.651168795563155, 54.290507761729096 ], [ 18.64857558270764, 54.290507761729096 ], [ 18.647278976279878, 54.289196928769655 ], [ 18.644685763424359, 54.289196928769655 ], [ 18.643389156996601, 54.2878860540904 ], [ 18.644685763424359, 54.286575137690697 ], [ 18.643389156996601, 54.285264179569907 ], [ 18.644685763424359, 54.283953179727384 ], [ 18.643389156996601, 54.282642138162494 ], [ 18.644685763424359, 54.281331054874585 ], [ 18.643389156996601, 54.280019929863023 ], [ 18.644685763424359, 54.278708763127163 ], [ 18.643389156996601, 54.277397554666372 ], [ 18.640795944141082, 54.277397554666372 ], [ 18.639499337713325, 54.276086304479996 ], [ 18.640795944141082, 54.27477501256741 ], [ 18.639499337713325, 54.273463678927961 ], [ 18.636906124857806, 54.273463678927961 ], [ 18.635609518430048, 54.27477501256741 ], [ 18.633016305574529, 54.27477501256741 ], [ 18.631719699146771, 54.273463678927961 ], [ 18.629126486291252, 54.273463678927961 ], [ 18.627829879863494, 54.27477501256741 ], [ 18.629126486291252, 54.276086304479996 ], [ 18.627829879863494, 54.277397554666372 ], [ 18.625236667007979, 54.277397554666372 ], [ 18.623940060580217, 54.276086304479996 ], [ 18.621346847724698, 54.276086304479996 ], [ 18.620050241296941, 54.277397554666372 ], [ 18.617457028441425, 54.277397554666372 ], [ 18.616160422013664, 54.276086304479996 ], [ 18.613567209158148, 54.276086304479996 ], [ 18.612270602730387, 54.277397554666372 ], [ 18.609677389874868, 54.277397554666372 ], [ 18.60838078344711, 54.276086304479996 ], [ 18.605787570591595, 54.276086304479996 ], [ 18.604490964163833, 54.277397554666372 ], [ 18.601897751308318, 54.277397554666372 ], [ 18.600601144880557, 54.278708763127163 ], [ 18.601897751308318, 54.280019929863023 ], [ 18.600601144880557, 54.281331054874585 ], [ 18.601897751308318, 54.282642138162494 ], [ 18.600601144880557, 54.283953179727384 ], [ 18.598007932025041, 54.283953179727384 ], [ 18.59671132559728, 54.285264179569907 ], [ 18.594118112741764, 54.285264179569907 ], [ 18.592821506314003, 54.286575137690697 ], [ 18.594118112741764, 54.2878860540904 ], [ 18.59671132559728, 54.2878860540904 ], [ 18.598007932025041, 54.286575137690697 ], [ 18.600601144880557, 54.286575137690697 ], [ 18.601897751308318, 54.2878860540904 ], [ 18.600601144880557, 54.289196928769655 ], [ 18.601897751308318, 54.290507761729096 ], [ 18.604490964163833, 54.290507761729096 ], [ 18.605787570591595, 54.291818552969389 ], [ 18.604490964163833, 54.293129302491153 ], [ 18.605787570591595, 54.294440010295027 ], [ 18.604490964163833, 54.295750676381672 ], [ 18.601897751308318, 54.295750676381672 ], [ 18.600601144880557, 54.297061300751729 ], [ 18.601897751308318, 54.298371883405814 ], [ 18.600601144880557, 54.299682424344596 ], [ 18.598007932025041, 54.299682424344596 ], [ 18.59671132559728, 54.3009929235687 ], [ 18.598007932025041, 54.302303381078787 ], [ 18.59671132559728, 54.303613796875489 ], [ 18.594118112741764, 54.303613796875489 ], [ 18.592821506314003, 54.304924170959438 ], [ 18.590228293458487, 54.304924170959438 ], [ 18.588931687030726, 54.303613796875489 ], [ 18.590228293458487, 54.302303381078787 ], [ 18.588931687030726, 54.3009929235687 ], [ 18.586338474175211, 54.3009929235687 ], [ 18.585041867747449, 54.299682424344596 ], [ 18.582448654891934, 54.299682424344596 ], [ 18.581152048464173, 54.3009929235687 ], [ 18.578558835608657, 54.3009929235687 ], [ 18.577262229180896, 54.302303381078787 ], [ 18.57466901632538, 54.302303381078787 ], [ 18.573372409897619, 54.303613796875489 ], [ 18.570779197042103, 54.303613796875489 ], [ 18.569482590614342, 54.304924170959438 ], [ 18.570779197042103, 54.306234503331289 ], [ 18.569482590614342, 54.307544793991681 ], [ 18.566889377758827, 54.307544793991681 ], [ 18.565592771331065, 54.308855042941261 ], [ 18.566889377758827, 54.31016525018066 ], [ 18.569482590614342, 54.31016525018066 ], [ 18.570779197042103, 54.311475415710539 ], [ 18.569482590614342, 54.312785539531518 ], [ 18.566889377758827, 54.312785539531518 ], [ 18.565592771331065, 54.314095621644256 ], [ 18.566889377758827, 54.315405662049393 ], [ 18.565592771331065, 54.316715660747576 ], [ 18.562999558475546, 54.316715660747576 ], [ 18.561702952047789, 54.318025617739437 ], [ 18.559109739192273, 54.318025617739437 ], [ 18.557813132764515, 54.316715660747576 ], [ 18.555219919908996, 54.316715660747576 ], [ 18.553923313481235, 54.315405662049393 ], [ 18.551330100625719, 54.315405662049393 ], [ 18.550033494197962, 54.314095621644256 ], [ 18.551330100625719, 54.312785539531518 ], [ 18.550033494197962, 54.311475415710539 ], [ 18.547440281342443, 54.311475415710539 ], [ 18.546143674914685, 54.31016525018066 ], [ 18.543550462059166, 54.31016525018066 ], [ 18.542253855631404, 54.311475415710539 ], [ 18.539660642775889, 54.311475415710539 ], [ 18.538364036348128, 54.312785539531518 ], [ 18.535770823492612, 54.312785539531518 ], [ 18.534474217064854, 54.314095621644256 ], [ 18.535770823492612, 54.315405662049393 ], [ 18.534474217064854, 54.316715660747576 ], [ 18.531881004209335, 54.316715660747576 ], [ 18.530584397781574, 54.318025617739437 ], [ 18.531881004209335, 54.319335533025622 ], [ 18.530584397781574, 54.320645406606779 ], [ 18.531881004209335, 54.321955238483547 ], [ 18.530584397781574, 54.323265028656564 ], [ 18.531881004209335, 54.324574777126493 ], [ 18.530584397781574, 54.325884483893965 ], [ 18.531881004209335, 54.32719414895962 ], [ 18.530584397781574, 54.328503772324105 ], [ 18.531881004209335, 54.329813353988065 ], [ 18.530584397781574, 54.331122893952141 ], [ 18.527991184926059, 54.331122893952141 ], [ 18.526694578498297, 54.33243239221698 ], [ 18.527991184926059, 54.33374184878322 ], [ 18.526694578498297, 54.335051263651515 ], [ 18.524101365642782, 54.335051263651515 ], [ 18.522804759215024, 54.33374184878322 ], [ 18.520211546359505, 54.33374184878322 ], [ 18.518914939931744, 54.33243239221698 ], [ 18.516321727076228, 54.33243239221698 ], [ 18.515025120648467, 54.33374184878322 ], [ 18.512431907792955, 54.33374184878322 ], [ 18.511135301365194, 54.33243239221698 ], [ 18.508542088509675, 54.33243239221698 ], [ 18.507245482081913, 54.33374184878322 ], [ 18.504652269226401, 54.33374184878322 ], [ 18.50335566279864, 54.33243239221698 ], [ 18.500762449943124, 54.33243239221698 ], [ 18.499465843515363, 54.331122893952141 ], [ 18.496872630659844, 54.331122893952141 ], [ 18.495576024232083, 54.329813353988065 ], [ 18.496872630659844, 54.328503772324105 ], [ 18.495576024232083, 54.32719414895962 ], [ 18.496872630659844, 54.325884483893965 ], [ 18.495576024232083, 54.324574777126493 ], [ 18.492982811376571, 54.324574777126493 ], [ 18.49168620494881, 54.323265028656564 ], [ 18.492982811376571, 54.321955238483547 ], [ 18.49168620494881, 54.320645406606779 ], [ 18.492982811376571, 54.319335533025622 ], [ 18.495576024232083, 54.319335533025622 ], [ 18.496872630659844, 54.318025617739437 ], [ 18.495576024232083, 54.316715660747576 ], [ 18.492982811376571, 54.316715660747576 ], [ 18.49168620494881, 54.315405662049393 ], [ 18.489092992093294, 54.315405662049393 ], [ 18.487796385665533, 54.316715660747576 ], [ 18.485203172810014, 54.316715660747576 ], [ 18.483906566382252, 54.318025617739437 ], [ 18.481313353526737, 54.318025617739437 ], [ 18.480016747098979, 54.319335533025622 ], [ 18.477423534243464, 54.319335533025622 ], [ 18.476126927815702, 54.320645406606779 ], [ 18.477423534243464, 54.321955238483547 ], [ 18.476126927815702, 54.323265028656564 ], [ 18.477423534243464, 54.324574777126493 ], [ 18.476126927815702, 54.325884483893965 ], [ 18.473533714960183, 54.325884483893965 ], [ 18.472237108532426, 54.324574777126493 ], [ 18.469643895676906, 54.324574777126493 ], [ 18.468347289249149, 54.325884483893965 ], [ 18.465754076393633, 54.325884483893965 ], [ 18.464457469965875, 54.32719414895962 ], [ 18.461864257110353, 54.32719414895962 ], [ 18.460567650682595, 54.328503772324105 ], [ 18.457974437827076, 54.328503772324105 ], [ 18.456677831399318, 54.329813353988065 ], [ 18.457974437827076, 54.331122893952141 ], [ 18.456677831399318, 54.33243239221698 ], [ 18.454084618543803, 54.33243239221698 ], [ 18.452788012116041, 54.33374184878322 ], [ 18.454084618543803, 54.335051263651515 ] ] ] ] } }
]
}
