{
"type": "FeatureCollection",
"name": "krakow_boundary",
"crs": { "type": "name", "properties": { "name": "urn:ogc:def:crs:OGC:1.3:CRS84" } },
"xy_coordinate_resolution": 1e-15,
"features": [
{ "type": "Feature", "properties": { "fid": 1, "id": 397, "left": 2202951.3964924794, "top": 6449043.8376548896, "right": 2203528.7467616689, "bottom": 6448543.8376548896, "row_index": 46, "col_index": 5 }, "geometry": { "type": "MultiPolygon", "coordinates": [ [ [ [ 19.80111855426621, 49.99288556674766 ], [ 19.798525341410691, 49.99288556674766 ], [ 19.797228734982937, 49.994329323518116 ], [ 19.794635522127418, 49.994329323518116 ], [ 19.79333891569966, 49.995773036942317 ], [ 19.794635522127418, 49.997216707020648 ], [ 19.79333891569966, 49.998660333753492 ], [ 19.794635522127418, 50.000103917141232 ], [ 19.79333891569966, 50.001547457184266 ], [ 19.794635522127418, 50.002990953882964 ], [ 19.79333891569966, 50.004434407237717 ], [ 19.794635522127418, 50.005877817248923 ], [ 19.79333891569966, 50.007321183916943 ], [ 19.790745702844138, 50.007321183916943 ], [ 19.78944909641638, 50.008764507242184 ], [ 19.790745702844138, 50.010207787225006 ], [ 19.78944909641638, 50.011651023865831 ], [ 19.790745702844138, 50.013094217165019 ], [ 19.78944909641638, 50.014537367122962 ], [ 19.790745702844138, 50.015980473740044 ], [ 19.79333891569966, 50.015980473740044 ], [ 19.794635522127418, 50.017423537016661 ], [ 19.797228734982937, 50.017423537016661 ], [ 19.798525341410691, 50.018866556953185 ], [ 19.797228734982937, 50.020309533550005 ], [ 19.798525341410691, 50.02175246680752 ], [ 19.797228734982937, 50.023195356726099 ], [ 19.798525341410691, 50.024638203306139 ], [ 19.80111855426621, 50.024638203306139 ], [ 19.802415160693968, 50.02608100654804 ], [ 19.805008373549491, 50.02608100654804 ], [ 19.806304979977249, 50.02752376645217 ], [ 19.808898192832764, 50.02752376645217 ], [ 19.810194799260522, 50.028966483018912 ], [ 19.812788012116041, 50.028966483018912 ], [ 19.814084618543795, 50.02752376645217 ], [ 19.812788012116041, 50.02608100654804 ], [ 19.814084618543795, 50.024638203306139 ], [ 19.816677831399318, 50.024638203306139 ], [ 19.817974437827075, 50.023195356726099 ], [ 19.820567650682595, 50.023195356726099 ], [ 19.821864257110352, 50.024638203306139 ], [ 19.824457469965871, 50.024638203306139 ], [ 19.825754076393629, 50.02608100654804 ], [ 19.824457469965871, 50.02752376645217 ], [ 19.825754076393629, 50.028966483018912 ], [ 19.824457469965871, 50.030409156248673 ], [ 19.821864257110352, 50.030409156248673 ], [ 19.820567650682595, 50.031851786141821 ], [ 19.817974437827075, 50.031851786141821 ], [ 19.816677831399318, 50.033294372698755 ], [ 19.814084618543795, 50.033294372698755 ], [ 19.812788012116041, 50.034736915919858 ], [ 19.810194799260522, 50.034736915919858 ], [ 19.808898192832764, 50.036179415805513 ], [ 19.810194799260522, 50.037621872356119 ], [ 19.808898192832764, 50.039064285572046 ], [ 19.810194799260522, 50.040506655453704 ], [ 19.808898192832764, 50.041948982001465 ], [ 19.810194799260522, 50.043391265215725 ], [ 19.808898192832764, 50.044833505096875 ], [ 19.810194799260522, 50.046275701645271 ], [ 19.812788012116041, 50.046275701645271 ], [ 19.814084618543795, 50.047717854861347 ], [ 19.812788012116041, 50.049159964745471 ], [ 19.814084618543795, 50.050602031298027 ], [ 19.816677831399318, 50.050602031298027 ], [ 19.817974437827075, 50.052044054519406 ], [ 19.816677831399318, 50.053486034410014 ], [ 19.817974437827075, 50.054927970970205 ], [ 19.816677831399318, 50.056369864200398 ], [ 19.814084618543795, 50.056369864200398 ], [ 19.812788012116041, 50.057811714100957 ], [ 19.810194799260522, 50.057811714100957 ], [ 19.808898192832764, 50.0592535206723 ], [ 19.806304979977249, 50.0592535206723 ], [ 19.805008373549491, 50.060695283914797 ], [ 19.802415160693968, 50.060695283914797 ], [ 19.80111855426621, 50.062137003828838 ], [ 19.802415160693968, 50.063578680414821 ], [ 19.80111855426621, 50.065020313673131 ], [ 19.802415160693968, 50.06646190360415 ], [ 19.80111855426621, 50.067903450208277 ], [ 19.798525341410691, 50.067903450208277 ], [ 19.797228734982937, 50.069344953485903 ], [ 19.798525341410691, 50.070786413437418 ], [ 19.80111855426621, 50.070786413437418 ], [ 19.802415160693968, 50.072227830063198 ], [ 19.805008373549491, 50.072227830063198 ], [ 19.806304979977249, 50.07366920336365 ], [ 19.805008373549491, 50.075110533339156 ], [ 19.806304979977249, 50.076551819990101 ], [ 19.805008373549491, 50.077993063316882 ], [ 19.806304979977249, 50.079434263319897 ], [ 19.808898192832764, 50.079434263319897 ], [ 19.810194799260522, 50.080875419999515 ], [ 19.812788012116041, 50.080875419999515 ], [ 19.814084618543795, 50.082316533356149 ], [ 19.816677831399318, 50.082316533356149 ], [ 19.817974437827075, 50.083757603390183 ], [ 19.820567650682595, 50.083757603390183 ], [ 19.821864257110352, 50.085198630101999 ], [ 19.824457469965871, 50.085198630101999 ], [ 19.825754076393629, 50.086639613491997 ], [ 19.824457469965871, 50.088080553560559 ], [ 19.825754076393629, 50.089521450308091 ], [ 19.828347289249152, 50.089521450308091 ], [ 19.829643895676909, 50.090962303734969 ], [ 19.832237108532425, 50.090962303734969 ], [ 19.833533714960179, 50.092403113841584 ], [ 19.836126927815698, 50.092403113841584 ], [ 19.837423534243456, 50.093843880628349 ], [ 19.840016747098979, 50.093843880628349 ], [ 19.841313353526736, 50.092403113841584 ], [ 19.843906566382255, 50.092403113841584 ], [ 19.845203172810013, 50.093843880628349 ], [ 19.847796385665532, 50.093843880628349 ], [ 19.84909299209329, 50.095284604095632 ], [ 19.851686204948813, 50.095284604095632 ], [ 19.85298281137657, 50.096725284243831 ], [ 19.855576024232089, 50.096725284243831 ], [ 19.856872630659844, 50.095284604095632 ], [ 19.859465843515359, 50.095284604095632 ], [ 19.860762449943117, 50.096725284243831 ], [ 19.863355662798639, 50.096725284243831 ], [ 19.864652269226397, 50.098165921073338 ], [ 19.863355662798639, 50.099606514584558 ], [ 19.860762449943117, 50.099606514584558 ], [ 19.859465843515359, 50.101047064777859 ], [ 19.860762449943117, 50.102487571653661 ], [ 19.859465843515359, 50.103928035212327 ], [ 19.860762449943117, 50.105368455454268 ], [ 19.859465843515359, 50.106808832379862 ], [ 19.860762449943117, 50.10824916598952 ], [ 19.863355662798639, 50.10824916598952 ], [ 19.864652269226397, 50.109689456283618 ], [ 19.867245482081916, 50.109689456283618 ], [ 19.868542088509674, 50.111129703262556 ], [ 19.871135301365193, 50.111129703262556 ], [ 19.872431907792951, 50.112569906926723 ], [ 19.875025120648473, 50.112569906926723 ], [ 19.876321727076228, 50.114010067276524 ], [ 19.875025120648473, 50.115450184312337 ], [ 19.876321727076228, 50.116890258034559 ], [ 19.875025120648473, 50.11833028844358 ], [ 19.876321727076228, 50.119770275539807 ], [ 19.878914939931747, 50.119770275539807 ], [ 19.880211546359504, 50.121210219323615 ], [ 19.878914939931747, 50.122650119795409 ], [ 19.880211546359504, 50.124089976955574 ], [ 19.882804759215023, 50.124089976955574 ], [ 19.884101365642781, 50.122650119795409 ], [ 19.8866945784983, 50.122650119795409 ], [ 19.887991184926058, 50.124089976955574 ], [ 19.890584397781577, 50.124089976955574 ], [ 19.891881004209331, 50.125529790804507 ], [ 19.890584397781577, 50.126969561342605 ], [ 19.891881004209331, 50.128409288570268 ], [ 19.89447421706485, 50.128409288570268 ], [ 19.895770823492608, 50.126969561342605 ], [ 19.898364036348131, 50.126969561342605 ], [ 19.899660642775888, 50.128409288570268 ], [ 19.902253855631407, 50.128409288570268 ], [ 19.903550462059165, 50.126969561342605 ], [ 19.902253855631407, 50.125529790804507 ], [ 19.903550462059165, 50.124089976955574 ], [ 19.906143674914684, 50.124089976955574 ], [ 19.907440281342442, 50.122650119795409 ], [ 19.906143674914684, 50.121210219323615 ], [ 19.907440281342442, 50.119770275539807 ], [ 19.910033494197961, 50.119770275539807 ], [ 19.911330100625715, 50.11833028844358 ], [ 19.910033494197961, 50.116890258034559 ], [ 19.911330100625715, 50.115450184312337 ], [ 19.913923313481234, 50.115450184312337 ], [ 19.915219919908992, 50.114010067276524 ], [ 19.913923313481234, 50.112569906926723 ], [ 19.915219919908992, 50.111129703262556 ], [ 19.913923313481234, 50.109689456283618 ], [ 19.915219919908992, 50.10824916598952 ], [ 19.913923313481234, 50.106808832379862 ], [ 19.915219919908992, 50.105368455454268 ], [ 19.917813132764511, 50.105368455454268 ], [ 19.919109739192269, 50.103928035212327 ], [ 19.921702952047792, 50.103928035212327 ], [ 19.922999558475549, 50.105368455454268 ], [ 19.925592771331068, 50.105368455454268 ], [ 19.926889377758826, 50.106808832379862 ], [ 19.925592771331068, 50.10824916598952 ], [ 19.922999558475549, 50.10824916598952 ], [ 19.921702952047792, 50.109689456283618 ], [ 19.922999558475549, 50.111129703262556 ], [ 19.921702952047792, 50.112569906926723 ], [ 19.922999558475549, 50.114010067276524 ], [ 19.921702952047792, 50.115450184312337 ], [ 19.922999558475549, 50.116890258034559 ], [ 19.925592771331068, 50.116890258034559 ], [ 19.926889377758826, 50.115450184312337 ], [ 19.929482590614338, 50.115450184312337 ], [ 19.930779197042099, 50.116890258034559 ], [ 19.933372409897618, 50.116890258034559 ], [ 19.934669016325376, 50.11833028844358 ], [ 19.937262229180895, 50.11833028844358 ], [ 19.938558835608653, 50.119770275539807 ], [ 19.941152048464172, 50.119770275539807 ], [ 19.94244865489193, 50.121210219323615 ], [ 19.945041867747452, 50.121210219323615 ], [ 19.94633847417521, 50.119770275539807 ], [ 19.948931687030729, 50.119770275539807 ], [ 19.950228293458483, 50.11833028844358 ], [ 19.948931687030729, 50.116890258034559 ], [ 19.950228293458483, 50.115450184312337 ], [ 19.952821506314002, 50.115450184312337 ], [ 19.95411811274176, 50.114010067276524 ], [ 19.956711325597279, 50.114010067276524 ], [ 19.958007932025037, 50.112569906926723 ], [ 19.960601144880556, 50.112569906926723 ], [ 19.961897751308314, 50.111129703262556 ], [ 19.964490964163833, 50.111129703262556 ], [ 19.965787570591591, 50.109689456283618 ], [ 19.968380783447113, 50.109689456283618 ], [ 19.969677389874867, 50.10824916598952 ], [ 19.972270602730386, 50.10824916598952 ], [ 19.973567209158144, 50.106808832379862 ], [ 19.976160422013663, 50.106808832379862 ], [ 19.977457028441421, 50.10824916598952 ], [ 19.980050241296944, 50.10824916598952 ], [ 19.981346847724701, 50.106808832379862 ], [ 19.983940060580217, 50.106808832379862 ], [ 19.985236667007971, 50.105368455454268 ], [ 19.98782987986349, 50.105368455454268 ], [ 19.989126486291251, 50.106808832379862 ], [ 19.99171969914677, 50.106808832379862 ], [ 19.993016305574528, 50.10824916598952 ], [ 19.995609518430047, 50.10824916598952 ], [ 19.996906124857805, 50.109689456283618 ], [ 19.999499337713324, 50.109689456283618 ], [ 20.000795944141082, 50.10824916598952 ], [ 20.003389156996601, 50.10824916598952 ], [ 20.004685763424355, 50.109689456283618 ], [ 20.007278976279874, 50.109689456283618 ], [ 20.008575582707632, 50.10824916598952 ], [ 20.011168795563151, 50.10824916598952 ], [ 20.012465401990912, 50.106808832379862 ], [ 20.015058614846431, 50.106808832379862 ], [ 20.016355221274189, 50.10824916598952 ], [ 20.018948434129708, 50.10824916598952 ], [ 20.020245040557466, 50.106808832379862 ], [ 20.022838253412985, 50.106808832379862 ], [ 20.024134859840743, 50.105368455454268 ], [ 20.026728072696258, 50.105368455454268 ], [ 20.028024679124016, 50.106808832379862 ], [ 20.030617891979535, 50.106808832379862 ], [ 20.031914498407293, 50.10824916598952 ], [ 20.030617891979535, 50.109689456283618 ], [ 20.031914498407293, 50.111129703262556 ], [ 20.034507711262812, 50.111129703262556 ], [ 20.035804317690573, 50.112569906926723 ], [ 20.034507711262812, 50.114010067276524 ], [ 20.035804317690573, 50.115450184312337 ], [ 20.038397530546092, 50.115450184312337 ], [ 20.03969413697385, 50.114010067276524 ], [ 20.042287349829369, 50.114010067276524 ], [ 20.043583956257127, 50.112569906926723 ], [ 20.046177169112646, 50.112569906926723 ], [ 20.047473775540404, 50.111129703262556 ], [ 20.050066988395919, 50.111129703262556 ], [ 20.051363594823677, 50.112569906926723 ], [ 20.050066988395919, 50.114010067276524 ], [ 20.051363594823677, 50.115450184312337 ], [ 20.053956807679196, 50.115450184312337 ], [ 20.055253414106954, 50.114010067276524 ], [ 20.057846626962473, 50.114010067276524 ], [ 20.059143233390234, 50.115450184312337 ], [ 20.061736446245753, 50.115450184312337 ], [ 20.063033052673507, 50.114010067276524 ], [ 20.065626265529026, 50.114010067276524 ], [ 20.066922871956784, 50.115450184312337 ], [ 20.069516084812303, 50.115450184312337 ], [ 20.070812691240064, 50.114010067276524 ], [ 20.07340590409558, 50.114010067276524 ], [ 20.074702510523338, 50.115450184312337 ], [ 20.077295723378857, 50.115450184312337 ], [ 20.078592329806614, 50.114010067276524 ], [ 20.081185542662134, 50.114010067276524 ], [ 20.082482149089891, 50.112569906926723 ], [ 20.08507536194541, 50.112569906926723 ], [ 20.086371968373168, 50.114010067276524 ], [ 20.088965181228687, 50.114010067276524 ], [ 20.090261787656445, 50.115450184312337 ], [ 20.092855000511964, 50.115450184312337 ], [ 20.094151606939725, 50.116890258034559 ], [ 20.092855000511964, 50.11833028844358 ], [ 20.094151606939725, 50.119770275539807 ], [ 20.096744819795244, 50.119770275539807 ], [ 20.098041426223002, 50.121210219323615 ], [ 20.100634639078521, 50.121210219323615 ], [ 20.101931245506279, 50.119770275539807 ], [ 20.104524458361794, 50.119770275539807 ], [ 20.105821064789552, 50.11833028844358 ], [ 20.108414277645071, 50.11833028844358 ], [ 20.109710884072829, 50.119770275539807 ], [ 20.112304096928348, 50.119770275539807 ], [ 20.113600703356106, 50.11833028844358 ], [ 20.116193916211625, 50.11833028844358 ], [ 20.117490522639386, 50.116890258034559 ], [ 20.120083735494905, 50.116890258034559 ], [ 20.121380341922659, 50.115450184312337 ], [ 20.123973554778178, 50.115450184312337 ], [ 20.125270161205936, 50.114010067276524 ], [ 20.123973554778178, 50.112569906926723 ], [ 20.125270161205936, 50.111129703262556 ], [ 20.123973554778178, 50.109689456283618 ], [ 20.125270161205936, 50.10824916598952 ], [ 20.127863374061455, 50.10824916598952 ], [ 20.129159980489213, 50.109689456283618 ], [ 20.131753193344732, 50.109689456283618 ], [ 20.13304979977249, 50.10824916598952 ], [ 20.135643012628009, 50.10824916598952 ], [ 20.136939619055767, 50.109689456283618 ], [ 20.139532831911286, 50.109689456283618 ], [ 20.140829438339043, 50.111129703262556 ], [ 20.143422651194562, 50.111129703262556 ], [ 20.14471925762232, 50.112569906926723 ], [ 20.143422651194562, 50.114010067276524 ], [ 20.14471925762232, 50.115450184312337 ], [ 20.147312470477836, 50.115450184312337 ], [ 20.148609076905593, 50.116890258034559 ], [ 20.151202289761116, 50.116890258034559 ], [ 20.152498896188874, 50.11833028844358 ], [ 20.151202289761116, 50.119770275539807 ], [ 20.152498896188874, 50.121210219323615 ], [ 20.155092109044393, 50.121210219323615 ], [ 20.156388715472147, 50.122650119795409 ], [ 20.158981928327666, 50.122650119795409 ], [ 20.160278534755424, 50.124089976955574 ], [ 20.162871747610946, 50.124089976955574 ], [ 20.164168354038704, 50.122650119795409 ], [ 20.166761566894223, 50.122650119795409 ], [ 20.168058173321981, 50.121210219323615 ], [ 20.170651386177497, 50.121210219323615 ], [ 20.171947992605254, 50.122650119795409 ], [ 20.174541205460777, 50.122650119795409 ], [ 20.175837811888531, 50.121210219323615 ], [ 20.17843102474405, 50.121210219323615 ], [ 20.179727631171808, 50.119770275539807 ], [ 20.182320844027327, 50.119770275539807 ], [ 20.183617450455085, 50.11833028844358 ], [ 20.186210663310607, 50.11833028844358 ], [ 20.187507269738365, 50.119770275539807 ], [ 20.190100482593884, 50.119770275539807 ], [ 20.191397089021642, 50.121210219323615 ], [ 20.193990301877161, 50.121210219323615 ], [ 20.195286908304919, 50.119770275539807 ], [ 20.197880121160434, 50.119770275539807 ], [ 20.199176727588192, 50.121210219323615 ], [ 20.201769940443711, 50.121210219323615 ], [ 20.203066546871469, 50.119770275539807 ], [ 20.205659759726988, 50.119770275539807 ], [ 20.206956366154746, 50.11833028844358 ], [ 20.209549579010268, 50.11833028844358 ], [ 20.210846185438026, 50.116890258034559 ], [ 20.209549579010268, 50.115450184312337 ], [ 20.210846185438026, 50.114010067276524 ], [ 20.209549579010268, 50.112569906926723 ], [ 20.206956366154746, 50.112569906926723 ], [ 20.205659759726988, 50.111129703262556 ], [ 20.203066546871469, 50.111129703262556 ], [ 20.201769940443711, 50.109689456283618 ], [ 20.203066546871469, 50.10824916598952 ], [ 20.201769940443711, 50.106808832379862 ], [ 20.199176727588195, 50.106808832379862 ], [ 20.197880121160438, 50.105368455454268 ], [ 20.195286908304919, 50.105368455454268 ], [ 20.193990301877161, 50.103928035212327 ], [ 20.195286908304919, 50.102487571653661 ], [ 20.193990301877161, 50.101047064777859 ], [ 20.195286908304919, 50.099606514584558 ], [ 20.193990301877161, 50.098165921073338 ], [ 20.195286908304919, 50.096725284243831 ], [ 20.193990301877161, 50.095284604095632 ], [ 20.195286908304919, 50.093843880628349 ], [ 20.193990301877161, 50.092403113841584 ], [ 20.195286908304919, 50.090962303734969 ], [ 20.193990301877161, 50.089521450308091 ], [ 20.195286908304919, 50.088080553560559 ], [ 20.193990301877161, 50.086639613491997 ], [ 20.191397089021642, 50.086639613491997 ], [ 20.190100482593884, 50.085198630101999 ], [ 20.191397089021642, 50.083757603390183 ], [ 20.193990301877161, 50.083757603390183 ], [ 20.195286908304919, 50.082316533356149 ], [ 20.193990301877161, 50.080875419999515 ], [ 20.195286908304919, 50.079434263319897 ], [ 20.197880121160438, 50.079434263319897 ], [ 20.199176727588195, 50.077993063316882 ], [ 20.197880121160438, 50.076551819990101 ], [ 20.199176727588195, 50.075110533339156 ], [ 20.201769940443711, 50.075110533339156 ], [ 20.203066546871469, 50.07366920336365 ], [ 20.201769940443711, 50.072227830063198 ], [ 20.199176727588192, 50.072227830063198 ], [ 20.197880121160434, 50.07366920336365 ], [ 20.195286908304919, 50.07366920336365 ], [ 20.193990301877161, 50.072227830063198 ], [ 20.195286908304919, 50.070786413437418 ], [ 20.197880121160438, 50.070786413437418 ], [ 20.199176727588195, 50.069344953485903 ], [ 20.201769940443711, 50.069344953485903 ], [ 20.203066546871469, 50.067903450208277 ], [ 20.205659759726988, 50.067903450208277 ], [ 20.206956366154746, 50.06646190360415 ], [ 20.209549579010268, 50.06646190360415 ], [ 20.210846185438026, 50.065020313673131 ], [ 20.209549579010268, 50.063578680414821 ], [ 20.210846185438026, 50.062137003828838 ], [ 20.213439398293545, 50.062137003828838 ], [ 20.214736004721303, 50.060695283914797 ], [ 20.213439398293545, 50.0592535206723 ], [ 20.214736004721303, 50.057811714100957 ], [ 20.217329217576822, 50.057811714100957 ], [ 20.218625824004576, 50.056369864200398 ], [ 20.217329217576822, 50.054927970970205 ], [ 20.218625824004576, 50.053486034410014 ], [ 20.217329217576822, 50.052044054519406 ], [ 20.218625824004576, 50.050602031298027 ], [ 20.217329217576822, 50.049159964745471 ], [ 20.214736004721303, 50.049159964745471 ], [ 20.213439398293545, 50.047717854861347 ], [ 20.214736004721303, 50.046275701645271 ], [ 20.213439398293545, 50.044833505096875 ], [ 20.210846185438026, 50.044833505096875 ], [ 20.209549579010268, 50.043391265215725 ], [ 20.206956366154746, 50.043391265215725 ], [ 20.205659759726988, 50.041948982001465 ], [ 20.203066546871469, 50.041948982001465 ], [ 20.201769940443711, 50.043391265215725 ], [ 20.199176727588192, 50.043391265215725 ], [ 20.197880121160434, 50.044833505096875 ], [ 20.195286908304919, 50.044833505096875 ], [ 20.193990301877161, 50.046275701645271 ], [ 20.191397089021642, 50.046275701645271 ], [ 20.190100482593884, 50.047717854861347 ], [ 20.187507269738365, 50.047717854861347 ], [ 20.186210663310607, 50.046275701645271 ], [ 20.183617450455085, 50.046275701645271 ], [ 20.182320844027327, 50.044833505096875 ], [ 20.179727631171808, 50.044833505096875 ], [ 20.17843102474405, 50.043391265215725 ], [ 20.175837811888531, 50.043391265215725 ], [ 20.174541205460777, 50.044833505096875 ], [ 20.171947992605258, 50.044833505096875 ], [ 20.1706513861775, 50.043391265215725 ], [ 20.168058173321981, 50.043391265215725 ], [ 20.166761566894223, 50.041948982001465 ], [ 20.164168354038704, 50.041948982001465 ], [ 20.162871747610946, 50.040506655453704 ], [ 20.160278534755424, 50.040506655453704 ], [ 20.158981928327666, 50.041948982001465 ], [ 20.156388715472147, 50.041948982001465 ], [ 20.155092109044393, 50.040506655453704 ], [ 20.152498896188874, 50.040506655453704 ], [ 20.151202289761116, 50.041948982001465 ], [ 20.148609076905593, 50.041948982001465 ], [ 20.147312470477836, 50.043391265215725 ], [ 20.14471925762232, 50.043391265215725 ], [ 20.143422651194562, 50.044833505096875 ], [ 20.140829438339043, 50.044833505096875 ], [ 20.139532831911286, 50.043391265215725 ], [ 20.136939619055767, 50.043391265215725 ], [ 20.135643012628009, 50.041948982001465 ], [ 20.13304979977249, 50.041948982001465 ], [ 20.131753193344732, 50.040506655453704 ], [ 20.13304979977249, 50.039064285572046 ], [ 20.131753193344732, 50.037621872356119 ], [ 20.129159980489213, 50.037621872356119 ], [ 20.127863374061455, 50.039064285572046 ], [ 20.125270161205936, 50.039064285572046 ], [ 20.123973554778178, 50.037621872356119 ], [ 20.121380341922659, 50.037621872356119 ], [ 20.120083735494905, 50.039064285572046 ], [ 20.117490522639386, 50.039064285572046 ], [ 20.116193916211625, 50.040506655453704 ], [ 20.113600703356106, 50.040506655453704 ], [ 20.112304096928348, 50.041948982001465 ], [ 20.109710884072829, 50.041948982001465 ], [ 20.108414277645071, 50.040506655453704 ], [ 20.105821064789552, 50.040506655453704 ], [ 20.104524458361794, 50.039064285572046 ], [ 20.101931245506279, 50.039064285572046 ], [ 20.100634639078521, 50.037621872356119 ], [ 20.101931245506279, 50.036179415805513 ], [ 20.100634639078521, 50.034736915919858 ], [ 20.098041426223002, 50.034736915919858 ], [ 20.096744819795244, 50.036179415805513 ], [ 20.094151606939725, 50.036179415805513 ], [ 20.092855000511964, 50.037621872356119 ], [ 20.090261787656445, 50.037621872356119 ], [ 20.088965181228687, 50.039064285572046 ], [ 20.090261787656445, 50.040506655453704 ], [ 20.088965181228687, 50.041948982001465 ], [ 20.086371968373168, 50.041948982001465 ], [ 20.08507536194541, 50.040506655453704 ], [ 20.086371968373168, 50.039064285572046 ], [ 20.08507536194541, 50.037621872356119 ], [ 20.086371968373168, 50.036179415805513 ], [ 20.08507536194541, 50.034736915919858 ], [ 20.082482149089891, 50.034736915919858 ], [ 20.081185542662134, 50.033294372698755 ], [ 20.078592329806614, 50.033294372698755 ], [ 20.077295723378857, 50.031851786141821 ], [ 20.074702510523341, 50.031851786141821 ], [ 20.073405904095583, 50.030409156248673 ], [ 20.074702510523341, 50.028966483018912 ], [ 20.073405904095583, 50.02752376645217 ], [ 20.070812691240064, 50.02752376645217 ], [ 20.069516084812303, 50.02608100654804 ], [ 20.070812691240064, 50.024638203306139 ], [ 20.069516084812303, 50.023195356726099 ], [ 20.070812691240064, 50.02175246680752 ], [ 20.069516084812303, 50.020309533550005 ], [ 20.070812691240064, 50.018866556953185 ], [ 20.069516084812303, 50.017423537016661 ], [ 20.070812691240064, 50.015980473740044 ], [ 20.069516084812303, 50.014537367122962 ], [ 20.070812691240064, 50.013094217165019 ], [ 20.069516084812303, 50.011651023865831 ], [ 20.070812691240064, 50.010207787225006 ], [ 20.069516084812303, 50.008764507242184 ], [ 20.066922871956784, 50.008764507242184 ], [ 20.065626265529026, 50.007321183916943 ], [ 20.066922871956784, 50.005877817248923 ], [ 20.065626265529026, 50.004434407237717 ], [ 20.063033052673507, 50.004434407237717 ], [ 20.061736446245753, 50.002990953882964 ], [ 20.059143233390234, 50.002990953882964 ], [ 20.057846626962473, 50.001547457184266 ], [ 20.055253414106954, 50.001547457184266 ], [ 20.053956807679196, 50.002990953882964 ], [ 20.05136359482368, 50.002990953882964 ], [ 20.050066988395923, 50.001547457184266 ], [ 20.05136359482368, 50.000103917141232 ], [ 20.050066988395923, 49.998660333753492 ], [ 20.047473775540404, 49.998660333753492 ], [ 20.046177169112646, 49.997216707020648 ], [ 20.043583956257127, 49.997216707020648 ], [ 20.042287349829369, 49.998660333753492 ], [ 20.03969413697385, 49.998660333753492 ], [ 20.038397530546092, 50.000103917141232 ], [ 20.035804317690573, 50.000103917141232 ], [ 20.034507711262812, 49.998660333753492 ], [ 20.031914498407293, 49.998660333753492 ], [ 20.030617891979535, 49.997216707020648 ], [ 20.028024679124016, 49.997216707020648 ], [ 20.026728072696258, 49.998660333753492 ], [ 20.024134859840743, 49.998660333753492 ], [ 20.022838253412985, 50.000103917141232 ], [ 20.024134859840743, 50.001547457184266 ], [ 20.022838253412985, 50.002990953882964 ], [ 20.020245040557466, 50.002990953882964 ], [ 20.018948434129708, 50.001547457184266 ], [ 20.016355221274189, 50.001547457184266 ], [ 20.015058614846431, 50.002990953882964 ], [ 20.012465401990912, 50.002990953882964 ], [ 20.011168795563151, 50.001547457184266 ], [ 20.008575582707632, 50.001547457184266 ], [ 20.007278976279874, 50.000103917141232 ], [ 20.004685763424362, 50.000103917141232 ], [ 20.003389156996604, 49.998660333753492 ], [ 20.004685763424362, 49.997216707020648 ], [ 20.007278976279874, 49.997216707020648 ], [ 20.008575582707632, 49.995773036942317 ], [ 20.011168795563151, 49.995773036942317 ], [ 20.012465401990912, 49.997216707020648 ], [ 20.015058614846431, 49.997216707020648 ], [ 20.016355221274189, 49.995773036942317 ], [ 20.015058614846431, 49.994329323518116 ], [ 20.016355221274189, 49.99288556674766 ], [ 20.015058614846431, 49.991441766630572 ], [ 20.016355221274189, 49.989997923166456 ], [ 20.018948434129708, 49.989997923166456 ], [ 20.020245040557466, 49.988554036354941 ], [ 20.018948434129708, 49.987110106195622 ], [ 20.020245040557466, 49.985666132688131 ], [ 20.018948434129708, 49.984222115832075 ], [ 20.016355221274189, 49.984222115832075 ], [ 20.015058614846431, 49.982778055627072 ], [ 20.016355221274189, 49.981333952072745 ], [ 20.015058614846431, 49.979889805168703 ], [ 20.012465401990912, 49.979889805168703 ], [ 20.011168795563151, 49.97844561491457 ], [ 20.012465401990912, 49.977001381309954 ], [ 20.011168795563151, 49.975557104354465 ], [ 20.012465401990912, 49.974112784047733 ], [ 20.011168795563151, 49.972668420389375 ], [ 20.008575582707632, 49.972668420389375 ], [ 20.007278976279874, 49.974112784047733 ], [ 20.004685763424362, 49.974112784047733 ], [ 20.003389156996604, 49.972668420389375 ], [ 20.000795944141082, 49.972668420389375 ], [ 19.999499337713324, 49.971224013379 ], [ 19.996906124857805, 49.971224013379 ], [ 19.995609518430047, 49.972668420389375 ], [ 19.993016305574528, 49.972668420389375 ], [ 19.99171969914677, 49.971224013379 ], [ 19.989126486291251, 49.971224013379 ], [ 19.98782987986349, 49.972668420389375 ], [ 19.985236667007971, 49.972668420389375 ], [ 19.983940060580217, 49.971224013379 ], [ 19.981346847724698, 49.971224013379 ], [ 19.98005024129694, 49.972668420389375 ], [ 19.981346847724698, 49.974112784047733 ], [ 19.98005024129694, 49.975557104354465 ], [ 19.981346847724698, 49.977001381309954 ], [ 19.98005024129694, 49.97844561491457 ], [ 19.977457028441421, 49.97844561491457 ], [ 19.976160422013663, 49.979889805168703 ], [ 19.973567209158144, 49.979889805168703 ], [ 19.972270602730386, 49.97844561491457 ], [ 19.969677389874867, 49.97844561491457 ], [ 19.968380783447113, 49.977001381309954 ], [ 19.969677389874867, 49.975557104354465 ], [ 19.968380783447113, 49.974112784047733 ], [ 19.969677389874867, 49.972668420389375 ], [ 19.968380783447113, 49.971224013379 ], [ 19.965787570591591, 49.971224013379 ], [ 19.964490964163833, 49.969779563016232 ], [ 19.965787570591591, 49.968335069300672 ], [ 19.964490964163833, 49.966890532231957 ], [ 19.961897751308314, 49.966890532231957 ], [ 19.960601144880556, 49.965445951809691 ], [ 19.958007932025037, 49.965445951809691 ], [ 19.956711325597279, 49.966890532231957 ], [ 19.95411811274176, 49.966890532231957 ], [ 19.952821506313999, 49.968335069300672 ], [ 19.950228293458483, 49.968335069300672 ], [ 19.948931687030729, 49.969779563016232 ], [ 19.94633847417521, 49.969779563016232 ], [ 19.945041867747452, 49.971224013379 ], [ 19.94244865489193, 49.971224013379 ], [ 19.941152048464172, 49.972668420389375 ], [ 19.938558835608653, 49.972668420389375 ], [ 19.937262229180895, 49.974112784047733 ], [ 19.934669016325376, 49.974112784047733 ], [ 19.933372409897618, 49.975557104354465 ], [ 19.930779197042099, 49.975557104354465 ], [ 19.929482590614338, 49.977001381309954 ], [ 19.926889377758826, 49.977001381309954 ], [ 19.925592771331068, 49.97844561491457 ], [ 19.922999558475549, 49.97844561491457 ], [ 19.921702952047792, 49.979889805168703 ], [ 19.919109739192269, 49.979889805168703 ], [ 19.917813132764511, 49.97844561491457 ], [ 19.915219919908992, 49.97844561491457 ], [ 19.913923313481234, 49.977001381309954 ], [ 19.911330100625715, 49.977001381309954 ], [ 19.910033494197961, 49.97844561491457 ], [ 19.911330100625715, 49.979889805168703 ], [ 19.910033494197961, 49.981333952072745 ], [ 19.907440281342442, 49.981333952072745 ], [ 19.906143674914684, 49.979889805168703 ], [ 19.903550462059165, 49.979889805168703 ], [ 19.902253855631407, 49.97844561491457 ], [ 19.899660642775888, 49.97844561491457 ], [ 19.898364036348131, 49.979889805168703 ], [ 19.895770823492608, 49.979889805168703 ], [ 19.89447421706485, 49.97844561491457 ], [ 19.891881004209331, 49.97844561491457 ], [ 19.890584397781577, 49.979889805168703 ], [ 19.887991184926058, 49.979889805168703 ], [ 19.8866945784983, 49.97844561491457 ], [ 19.887991184926058, 49.977001381309954 ], [ 19.8866945784983, 49.975557104354465 ], [ 19.884101365642781, 49.975557104354465 ], [ 19.882804759215023, 49.974112784047733 ], [ 19.884101365642781, 49.972668420389375 ], [ 19.882804759215023, 49.971224013379 ], [ 19.880211546359504, 49.971224013379 ], [ 19.878914939931747, 49.969779563016232 ], [ 19.876321727076228, 49.969779563016232 ], [ 19.875025120648473, 49.971224013379 ], [ 19.872431907792951, 49.971224013379 ], [ 19.871135301365193, 49.969779563016232 ], [ 19.868542088509674, 49.969779563016232 ], [ 19.867245482081916, 49.971224013379 ], [ 19.868542088509674, 49.972668420389375 ], [ 19.867245482081916, 49.974112784047733 ], [ 19.864652269226397, 49.974112784047733 ], [ 19.863355662798639, 49.972668420389375 ], [ 19.860762449943117, 49.972668420389375 ], [ 19.859465843515359, 49.974112784047733 ], [ 19.860762449943117, 49.975557104354465 ], [ 19.859465843515359, 49.977001381309954 ], [ 19.860762449943117, 49.97844561491457 ], [ 19.859465843515359, 49.979889805168703 ], [ 19.860762449943117, 49.981333952072745 ], [ 19.859465843515359, 49.982778055627072 ], [ 19.85687263065984, 49.982778055627072 ], [ 19.855576024232082, 49.984222115832075 ], [ 19.85298281137657, 49.984222115832075 ], [ 19.851686204948813, 49.982778055627072 ], [ 19.84909299209329, 49.982778055627072 ], [ 19.847796385665532, 49.984222115832075 ], [ 19.845203172810013, 49.984222115832075 ], [ 19.843906566382255, 49.985666132688131 ], [ 19.845203172810013, 49.987110106195622 ], [ 19.843906566382255, 49.988554036354941 ], [ 19.845203172810013, 49.989997923166456 ], [ 19.843906566382255, 49.991441766630572 ], [ 19.845203172810013, 49.99288556674766 ], [ 19.843906566382255, 49.994329323518116 ], [ 19.841313353526736, 49.994329323518116 ], [ 19.840016747098979, 49.99288556674766 ], [ 19.837423534243456, 49.99288556674766 ], [ 19.836126927815698, 49.994329323518116 ], [ 19.833533714960179, 49.994329323518116 ], [ 19.832237108532425, 49.995773036942317 ], [ 19.829643895676909, 49.995773036942317 ], [ 19.828347289249152, 49.994329323518116 ], [ 19.825754076393629, 49.994329323518116 ], [ 19.824457469965871, 49.995773036942317 ], [ 19.821864257110352, 49.995773036942317 ], [ 19.820567650682595, 49.994329323518116 ], [ 19.817974437827075, 49.994329323518116 ], [ 19.816677831399318, 49.99288556674766 ], [ 19.814084618543795, 49.99288556674766 ], [ 19.812788012116041, 49.991441766630572 ], [ 19.810194799260525, 49.991441766630572 ], [ 19.808898192832768, 49.989997923166456 ], [ 19.806304979977249, 49.989997923166456 ], [ 19.805008373549491, 49.991441766630572 ], [ 19.802415160693968, 49.991441766630572 ], [ 19.80111855426621, 49.99288556674766 ] ] ] ] } }
]
}
