{"type": "FeatureCollection", "name": "krakow_hex_h06_10", "crs": {"type": "name", "properties": {"name": "urn:ogc:def:crs:OGC:1.3:CRS84"}}, "xy_coordinate_resolution": 1e-15, "features": [{"type": "Feature", "properties": {"count": 1, "mean_min": 7.02}, "geometry": {"type": "Polygon", "coordinates": [[[19.8866945784983, 50.018866556953185], [19.887991184926058, 50.020309533550005], [19.890584397781577, 50.020309533550005], [19.89188100420933, 50.018866556953185], [19.890584397781577, 50.01742353701666], [19.887991184926058, 50.01742353701666], [19.8866945784983, 50.018866556953185]]]}}, {"type": "Feature", "properties": {"count": 2, "mean_min": 3.3}, "geometry": {"type": "Polygon", "coordinates": [[[19.89447421706485, 50.02175246680752], [19.895770823492608, 50.0231953567261], [19.89836403634813, 50.0231953567261], [19.89966064277589, 50.02175246680752], [19.89836403634813, 50.020309533550005], [19.895770823492608, 50.020309533550005], [19.89447421706485, 50.02175246680752]]]}}, {"type": "Feature", "properties": {"count": 1, "mean_min": 3.02}, "geometry": {"type": "Polygon", "coordinates": [[[19.89836403634813, 50.02608100654804], [19.89966064277589, 50.02752376645217], [19.902253855631407, 50.02752376645217], [19.903550462059165, 50.02608100654804], [19.902253855631407, 50.02463820330614], [19.89966064277589, 50.02463820330614], [19.89836403634813, 50.02608100654804]]]}}, {"type": "Feature", "properties": {"count": 1, "mean_min": 3.44}, "geometry": {"type": "Polygon", "coordinates": [[[19.89836403634813, 50.0231953567261], [19.89966064277589, 50.02463820330614], [19.902253855631407, 50.02463820330614], [19.903550462059165, 50.0231953567261], [19.902253855631407, 50.02175246680752], [19.89966064277589, 50.02175246680752], [19.89836403634813, 50.0231953567261]]]}}, {"type": "Feature", "properties": {"count": 1, "mean_min": 10.07}, "geometry": {"type": "Polygon", "coordinates": [[[19.902253855631407, 50.06213700382884], [19.903550462059165, 50.06357868041482], [19.906143674914684, 50.06357868041482], [19.907440281342442, 50.06213700382884], [19.906143674914684, 50.0606952839148], [19.903550462059165, 50.0606952839148], [19.902253855631407, 50.06213700382884]]]}}, {"type": "Feature", "properties": {"count": 2, "mean_min": 3.4}, "geometry": {"type": "Polygon", "coordinates": [[[19.902253855631407, 50.02752376645217], [19.903550462059165, 50.02896648301891], [19.906143674914684, 50.02896648301891], [19.907440281342442, 50.02752376645217], [19.906143674914684, 50.02608100654804], [19.903550462059165, 50.02608100654804], [19.902253855631407, 50.02752376645217]]]}}, {"type": "Feature", "properties": {"count": 1, "mean_min": 6.36}, "geometry": {"type": "Polygon", "coordinates": [[[19.90614367491468, 50.0606952839148], [19.90744028134244, 50.06213700382884], [19.91003349419796, 50.06213700382884], [19.911330100625715, 50.0606952839148], [19.91003349419796, 50.0592535206723], [19.90744028134244, 50.0592535206723], [19.90614367491468, 50.0606952839148]]]}}, {"type": "Feature", "properties": {"count": 1, "mean_min": 7.02}, "geometry": {"type": "Polygon", "coordinates": [[[19.91003349419796, 50.06213700382884], [19.911330100625715, 50.06357868041482], [19.913923313481234, 50.06357868041482], [19.915219919908992, 50.06213700382884], [19.913923313481234, 50.0606952839148], [19.911330100625715, 50.0606952839148], [19.91003349419796, 50.06213700382884]]]}}, {"type": "Feature", "properties": {"count": 1, "mean_min": 9.03}, "geometry": {"type": "Polygon", "coordinates": [[[19.91003349419796, 50.053486034410014], [19.911330100625715, 50.054927970970205], [19.913923313481234, 50.054927970970205], [19.915219919908992, 50.053486034410014], [19.913923313481234, 50.052044054519406], [19.911330100625715, 50.052044054519406], [19.91003349419796, 50.053486034410014]]]}}, {"type": "Feature", "properties": {"count": 2, "mean_min": 3.14}, "geometry": {"type": "Polygon", "coordinates": [[[19.91003349419796, 50.03040915624867], [19.911330100625715, 50.03185178614182], [19.913923313481234, 50.03185178614182], [19.915219919908992, 50.03040915624867], [19.913923313481234, 50.02896648301891], [19.911330100625715, 50.02896648301891], [19.91003349419796, 50.03040915624867]]]}}, {"type": "Feature", "properties": {"count": 2, "mean_min": 6.52}, "geometry": {"type": "Polygon", "coordinates": [[[19.913923313481234, 50.0606952839148], [19.915219919908992, 50.06213700382884], [19.91781313276451, 50.06213700382884], [19.91910973919227, 50.0606952839148], [19.91781313276451, 50.0592535206723], [19.915219919908992, 50.0592535206723], [19.913923313481234, 50.0606952839148]]]}}, {"type": "Feature", "properties": {"count": 2, "mean_min": 7.45}, "geometry": {"type": "Polygon", "coordinates": [[[19.913923313481234, 50.052044054519406], [19.915219919908992, 50.053486034410014], [19.91781313276451, 50.053486034410014], [19.91910973919227, 50.052044054519406], [19.91781313276451, 50.05060203129803], [19.915219919908992, 50.05060203129803], [19.913923313481234, 50.052044054519406]]]}}, {"type": "Feature", "properties": {"count": 2, "mean_min": 6.44}, "geometry": {"type": "Polygon", "coordinates": [[[19.91781313276451, 50.0592535206723], [19.91910973919227, 50.0606952839148], [19.92170295204779, 50.0606952839148], [19.92299955847555, 50.0592535206723], [19.92170295204779, 50.05781171410096], [19.91910973919227, 50.05781171410096], [19.91781313276451, 50.0592535206723]]]}}, {"type": "Feature", "properties": {"count": 2, "mean_min": 7.32}, "geometry": {"type": "Polygon", "coordinates": [[[19.91781313276451, 50.053486034410014], [19.91910973919227, 50.054927970970205], [19.92170295204779, 50.054927970970205], [19.92299955847555, 50.053486034410014], [19.92170295204779, 50.052044054519406], [19.91910973919227, 50.052044054519406], [19.91781313276451, 50.053486034410014]]]}}, {"type": "Feature", "properties": {"count": 2, "mean_min": 4.24}, "geometry": {"type": "Polygon", "coordinates": [[[19.91781313276451, 50.044833505096875], [19.91910973919227, 50.04627570164527], [19.92170295204779, 50.04627570164527], [19.92299955847555, 50.044833505096875], [19.92170295204779, 50.043391265215725], [19.91910973919227, 50.043391265215725], [19.91781313276451, 50.044833505096875]]]}}, {"type": "Feature", "properties": {"count": 1, "mean_min": 3.21}, "geometry": {"type": "Polygon", "coordinates": [[[19.91781313276451, 50.033294372698755], [19.91910973919227, 50.03473691591986], [19.92170295204779, 50.03473691591986], [19.92299955847555, 50.033294372698755], [19.92170295204779, 50.03185178614182], [19.91910973919227, 50.03185178614182], [19.91781313276451, 50.033294372698755]]]}}, {"type": "Feature", "properties": {"count": 1, "mean_min": 3.14}, "geometry": {"type": "Polygon", "coordinates": [[[19.91781313276451, 50.03040915624867], [19.91910973919227, 50.03185178614182], [19.92170295204779, 50.03185178614182], [19.92299955847555, 50.03040915624867], [19.92170295204779, 50.02896648301891], [19.91910973919227, 50.02896648301891], [19.91781313276451, 50.03040915624867]]]}}, {"type": "Feature", "properties": {"count": 2, "mean_min": 6.97}, "geometry": {"type": "Polygon", "coordinates": [[[19.92170295204779, 50.0606952839148], [19.92299955847555, 50.06213700382884], [19.92559277133107, 50.06213700382884], [19.926889377758826, 50.0606952839148], [19.92559277133107, 50.0592535206723], [19.92299955847555, 50.0592535206723], [19.92170295204779, 50.0606952839148]]]}}, {"type": "Feature", "properties": {"count": 2, "mean_min": 4.31}, "geometry": {"type": "Polygon", "coordinates": [[[19.92170295204779, 50.04627570164527], [19.92299955847555, 50.04771785486135], [19.92559277133107, 50.04771785486135], [19.926889377758826, 50.04627570164527], [19.92559277133107, 50.044833505096875], [19.92299955847555, 50.044833505096875], [19.92170295204779, 50.04627570164527]]]}}, {"type": "Feature", "properties": {"count": 2, "mean_min": 4.36}, "geometry": {"type": "Polygon", "coordinates": [[[19.92170295204779, 50.040506655453704], [19.92299955847555, 50.041948982001465], [19.92559277133107, 50.041948982001465], [19.926889377758826, 50.040506655453704], [19.92559277133107, 50.039064285572046], [19.92299955847555, 50.039064285572046], [19.92170295204779, 50.040506655453704]]]}}, {"type": "Feature", "properties": {"count": 2, "mean_min": 4.42}, "geometry": {"type": "Polygon", "coordinates": [[[19.92170295204779, 50.03473691591986], [19.92299955847555, 50.03617941580551], [19.92559277133107, 50.03617941580551], [19.926889377758826, 50.03473691591986], [19.92559277133107, 50.033294372698755], [19.92299955847555, 50.033294372698755], [19.92170295204779, 50.03473691591986]]]}}, {"type": "Feature", "properties": {"count": 2, "mean_min": 3.03}, "geometry": {"type": "Polygon", "coordinates": [[[19.92170295204779, 50.03185178614182], [19.92299955847555, 50.033294372698755], [19.92559277133107, 50.033294372698755], [19.926889377758826, 50.03185178614182], [19.92559277133107, 50.03040915624867], [19.92299955847555, 50.03040915624867], [19.92170295204779, 50.03185178614182]]]}}, {"type": "Feature", "properties": {"count": 2, "mean_min": 3.99}, "geometry": {"type": "Polygon", "coordinates": [[[19.92559277133107, 50.09384388062835], [19.926889377758826, 50.09528460409563], [19.929482590614345, 50.09528460409563], [19.930779197042103, 50.09384388062835], [19.929482590614345, 50.092403113841584], [19.926889377758826, 50.092403113841584], [19.92559277133107, 50.09384388062835]]]}}, {"type": "Feature", "properties": {"count": 2, "mean_min": 7.28}, "geometry": {"type": "Polygon", "coordinates": [[[19.92559277133107, 50.0563698642004], [19.926889377758826, 50.05781171410096], [19.929482590614345, 50.05781171410096], [19.930779197042103, 50.0563698642004], [19.929482590614345, 50.054927970970205], [19.926889377758826, 50.054927970970205], [19.92559277133107, 50.0563698642004]]]}}, {"type": "Feature", "properties": {"count": 2, "mean_min": 7.49}, "geometry": {"type": "Polygon", "coordinates": [[[19.92559277133107, 50.03040915624867], [19.926889377758826, 50.03185178614182], [19.929482590614345, 50.03185178614182], [19.930779197042103, 50.03040915624867], [19.929482590614345, 50.02896648301891], [19.926889377758826, 50.02896648301891], [19.92559277133107, 50.03040915624867]]]}}, {"type": "Feature", "properties": {"count": 4, "mean_min": 5.3}, "geometry": {"type": "Polygon", "coordinates": [[[19.92559277133107, 50.01598047374004], [19.926889377758826, 50.01742353701666], [19.929482590614345, 50.01742353701666], [19.930779197042103, 50.01598047374004], [19.929482590614345, 50.01453736712296], [19.926889377758826, 50.01453736712296], [19.92559277133107, 50.01598047374004]]]}}, {"type": "Feature", "properties": {"count": 1, "mean_min": 16.12}, "geometry": {"type": "Polygon", "coordinates": [[[19.92559277133107, 50.01309421716502], [19.926889377758826, 50.01453736712296], [19.929482590614345, 50.01453736712296], [19.930779197042103, 50.01309421716502], [19.929482590614345, 50.01165102386583], [19.926889377758826, 50.01165102386583], [19.92559277133107, 50.01309421716502]]]}}, {"type": "Feature", "properties": {"count": 3, "mean_min": 3.25}, "geometry": {"type": "Polygon", "coordinates": [[[19.929482590614338, 50.08952145030809], [19.9307791970421, 50.09096230373497], [19.93337240989762, 50.09096230373497], [19.934669016325376, 50.08952145030809], [19.93337240989762, 50.08808055356056], [19.9307791970421, 50.08808055356056], [19.929482590614338, 50.08952145030809]]]}}, {"type": "Feature", "properties": {"count": 2, "mean_min": 2.29}, "geometry": {"type": "Polygon", "coordinates": [[[19.929482590614338, 50.08375760339018], [19.9307791970421, 50.085198630102], [19.93337240989762, 50.085198630102], [19.934669016325376, 50.08375760339018], [19.93337240989762, 50.08231653335615], [19.9307791970421, 50.08231653335615], [19.929482590614338, 50.08375760339018]]]}}, {"type": "Feature", "properties": {"count": 2, "mean_min": 6.78}, "geometry": {"type": "Polygon", "coordinates": [[[19.929482590614338, 50.0606952839148], [19.9307791970421, 50.06213700382884], [19.93337240989762, 50.06213700382884], [19.934669016325376, 50.0606952839148], [19.93337240989762, 50.0592535206723], [19.9307791970421, 50.0592535206723], [19.929482590614338, 50.0606952839148]]]}}, {"type": "Feature", "properties": {"count": 2, "mean_min": 6.82}, "geometry": {"type": "Polygon", "coordinates": [[[19.929482590614338, 50.05781171410096], [19.9307791970421, 50.0592535206723], [19.93337240989762, 50.0592535206723], [19.934669016325376, 50.05781171410096], [19.93337240989762, 50.0563698642004], [19.9307791970421, 50.0563698642004], [19.929482590614338, 50.05781171410096]]]}}, {"type": "Feature", "properties": {"count": 2, "mean_min": 4.11}, "geometry": {"type": "Polygon", "coordinates": [[[19.929482590614338, 50.04915996474547], [19.9307791970421, 50.05060203129803], [19.93337240989762, 50.05060203129803], [19.934669016325376, 50.04915996474547], [19.93337240989762, 50.04771785486135], [19.9307791970421, 50.04771785486135], [19.929482590614338, 50.04915996474547]]]}}, {"type": "Feature", "properties": {"count": 2, "mean_min": 7.41}, "geometry": {"type": "Polygon", "coordinates": [[[19.929482590614338, 50.03185178614182], [19.9307791970421, 50.033294372698755], [19.93337240989762, 50.033294372698755], [19.934669016325376, 50.03185178614182], [19.93337240989762, 50.03040915624867], [19.9307791970421, 50.03040915624867], [19.929482590614338, 50.03185178614182]]]}}, {"type": "Feature", "properties": {"count": 2, "mean_min": 5.78}, "geometry": {"type": "Polygon", "coordinates": [[[19.929482590614338, 50.0231953567261], [19.9307791970421, 50.02463820330614], [19.93337240989762, 50.02463820330614], [19.934669016325376, 50.0231953567261], [19.93337240989762, 50.02175246680752], [19.9307791970421, 50.02175246680752], [19.929482590614338, 50.0231953567261]]]}}, {"type": "Feature", "properties": {"count": 2, "mean_min": 12.04}, "geometry": {"type": "Polygon", "coordinates": [[[19.929482590614338, 50.020309533550005], [19.9307791970421, 50.02175246680752], [19.93337240989762, 50.02175246680752], [19.934669016325376, 50.020309533550005], [19.93337240989762, 50.018866556953185], [19.9307791970421, 50.018866556953185], [19.929482590614338, 50.020309533550005]]]}}, {"type": "Feature", "properties": {"count": 2, "mean_min": 4.02}, "geometry": {"type": "Polygon", "coordinates": [[[19.93337240989762, 50.09384388062835], [19.934669016325376, 50.09528460409563], [19.937262229180895, 50.09528460409563], [19.938558835608653, 50.09384388062835], [19.937262229180895, 50.092403113841584], [19.934669016325376, 50.092403113841584], [19.93337240989762, 50.09384388062835]]]}}, {"type": "Feature", "properties": {"count": 2, "mean_min": 4.02}, "geometry": {"type": "Polygon", "coordinates": [[[19.93337240989762, 50.07366920336365], [19.934669016325376, 50.075110533339156], [19.937262229180895, 50.075110533339156], [19.938558835608653, 50.07366920336365], [19.937262229180895, 50.0722278300632], [19.934669016325376, 50.0722278300632], [19.93337240989762, 50.07366920336365]]]}}, {"type": "Feature", "properties": {"count": 2, "mean_min": 4.12}, "geometry": {"type": "Polygon", "coordinates": [[[19.93337240989762, 50.07078641343742], [19.934669016325376, 50.0722278300632], [19.937262229180895, 50.0722278300632], [19.938558835608653, 50.07078641343742], [19.937262229180895, 50.0693449534859], [19.934669016325376, 50.0693449534859], [19.93337240989762, 50.07078641343742]]]}}, {"type": "Feature", "properties": {"count": 3, "mean_min": 3.19}, "geometry": {"type": "Polygon", "coordinates": [[[19.93337240989762, 50.0592535206723], [19.934669016325376, 50.0606952839148], [19.937262229180895, 50.0606952839148], [19.938558835608653, 50.0592535206723], [19.937262229180895, 50.05781171410096], [19.934669016325376, 50.05781171410096], [19.93337240989762, 50.0592535206723]]]}}, {"type": "Feature", "properties": {"count": 1, "mean_min": 4.19}, "geometry": {"type": "Polygon", "coordinates": [[[19.93337240989762, 50.05060203129803], [19.934669016325376, 50.052044054519406], [19.937262229180895, 50.052044054519406], [19.938558835608653, 50.05060203129803], [19.937262229180895, 50.04915996474547], [19.934669016325376, 50.04915996474547], [19.93337240989762, 50.05060203129803]]]}}, {"type": "Feature", "properties": {"count": 4, "mean_min": 5.78}, "geometry": {"type": "Polygon", "coordinates": [[[19.93337240989762, 50.03040915624867], [19.934669016325376, 50.03185178614182], [19.937262229180895, 50.03185178614182], [19.938558835608653, 50.03040915624867], [19.937262229180895, 50.02896648301891], [19.934669016325376, 50.02896648301891], [19.93337240989762, 50.03040915624867]]]}}, {"type": "Feature", "properties": {"count": 1, "mean_min": 3.49}, "geometry": {"type": "Polygon", "coordinates": [[[19.93337240989762, 50.02463820330614], [19.934669016325376, 50.02608100654804], [19.937262229180895, 50.02608100654804], [19.938558835608653, 50.02463820330614], [19.937262229180895, 50.0231953567261], [19.934669016325376, 50.0231953567261], [19.93337240989762, 50.02463820330614]]]}}, {"type": "Feature", "properties": {"count": 2, "mean_min": 5.91}, "geometry": {"type": "Polygon", "coordinates": [[[19.93337240989762, 50.018866556953185], [19.934669016325376, 50.020309533550005], [19.937262229180895, 50.020309533550005], [19.938558835608653, 50.018866556953185], [19.937262229180895, 50.01742353701666], [19.934669016325376, 50.01742353701666], [19.93337240989762, 50.018866556953185]]]}}, {"type": "Feature", "properties": {"count": 1, "mean_min": 4.0}, "geometry": {"type": "Polygon", "coordinates": [[[19.937262229180895, 50.09528460409563], [19.938558835608653, 50.09672528424383], [19.941152048464172, 50.09672528424383], [19.94244865489193, 50.09528460409563], [19.941152048464172, 50.09384388062835], [19.938558835608653, 50.09384388062835], [19.937262229180895, 50.09528460409563]]]}}, {"type": "Feature", "properties": {"count": 2, "mean_min": 2.25}, "geometry": {"type": "Polygon", "coordinates": [[[19.937262229180895, 50.080875419999515], [19.938558835608653, 50.08231653335615], [19.941152048464172, 50.08231653335615], [19.94244865489193, 50.080875419999515], [19.941152048464172, 50.0794342633199], [19.938558835608653, 50.0794342633199], [19.937262229180895, 50.080875419999515]]]}}, {"type": "Feature", "properties": {"count": 3, "mean_min": 3.67}, "geometry": {"type": "Polygon", "coordinates": [[[19.937262229180895, 50.075110533339156], [19.938558835608653, 50.0765518199901], [19.941152048464172, 50.0765518199901], [19.94244865489193, 50.075110533339156], [19.941152048464172, 50.07366920336365], [19.938558835608653, 50.07366920336365], [19.937262229180895, 50.075110533339156]]]}}, {"type": "Feature", "properties": {"count": 2, "mean_min": 4.03}, "geometry": {"type": "Polygon", "coordinates": [[[19.937262229180895, 50.06646190360415], [19.938558835608653, 50.06790345020828], [19.941152048464172, 50.06790345020828], [19.94244865489193, 50.06646190360415], [19.941152048464172, 50.06502031367313], [19.938558835608653, 50.06502031367313], [19.937262229180895, 50.06646190360415]]]}}, {"type": "Feature", "properties": {"count": 2, "mean_min": 5.3}, "geometry": {"type": "Polygon", "coordinates": [[[19.937262229180895, 50.05781171410096], [19.938558835608653, 50.0592535206723], [19.941152048464172, 50.0592535206723], [19.94244865489193, 50.05781171410096], [19.941152048464172, 50.0563698642004], [19.938558835608653, 50.0563698642004], [19.937262229180895, 50.05781171410096]]]}}, {"type": "Feature", "properties": {"count": 2, "mean_min": 2.63}, "geometry": {"type": "Polygon", "coordinates": [[[19.937262229180895, 50.054927970970205], [19.938558835608653, 50.0563698642004], [19.941152048464172, 50.0563698642004], [19.94244865489193, 50.054927970970205], [19.941152048464172, 50.053486034410014], [19.938558835608653, 50.053486034410014], [19.937262229180895, 50.054927970970205]]]}}, {"type": "Feature", "properties": {"count": 4, "mean_min": 4.61}, "geometry": {"type": "Polygon", "coordinates": [[[19.937262229180895, 50.052044054519406], [19.938558835608653, 50.053486034410014], [19.941152048464172, 50.053486034410014], [19.94244865489193, 50.052044054519406], [19.941152048464172, 50.05060203129803], [19.938558835608653, 50.05060203129803], [19.937262229180895, 50.052044054519406]]]}}, {"type": "Feature", "properties": {"count": 1, "mean_min": 4.14}, "geometry": {"type": "Polygon", "coordinates": [[[19.937262229180895, 50.03762187235612], [19.938558835608653, 50.039064285572046], [19.941152048464172, 50.039064285572046], [19.94244865489193, 50.03762187235612], [19.941152048464172, 50.03617941580551], [19.938558835608653, 50.03617941580551], [19.937262229180895, 50.03762187235612]]]}}, {"type": "Feature", "properties": {"count": 2, "mean_min": 4.31}, "geometry": {"type": "Polygon", "coordinates": [[[19.937262229180895, 50.03473691591986], [19.938558835608653, 50.03617941580551], [19.941152048464172, 50.03617941580551], [19.94244865489193, 50.03473691591986], [19.941152048464172, 50.033294372698755], [19.938558835608653, 50.033294372698755], [19.937262229180895, 50.03473691591986]]]}}, {"type": "Feature", "properties": {"count": 1, "mean_min": 3.9}, "geometry": {"type": "Polygon", "coordinates": [[[19.937262229180895, 50.03185178614182], [19.938558835608653, 50.033294372698755], [19.941152048464172, 50.033294372698755], [19.94244865489193, 50.03185178614182], [19.941152048464172, 50.03040915624867], [19.938558835608653, 50.03040915624867], [19.937262229180895, 50.03185178614182]]]}}, {"type": "Feature", "properties": {"count": 1, "mean_min": 4.09}, "geometry": {"type": "Polygon", "coordinates": [[[19.941152048464172, 50.09672528424383], [19.94244865489193, 50.09816592107334], [19.945041867747452, 50.09816592107334], [19.94633847417521, 50.09672528424383], [19.945041867747452, 50.09528460409563], [19.94244865489193, 50.09528460409563], [19.941152048464172, 50.09672528424383]]]}}, {"type": "Feature", "properties": {"count": 4, "mean_min": 7.83}, "geometry": {"type": "Polygon", "coordinates": [[[19.941152048464172, 50.07078641343742], [19.94244865489193, 50.0722278300632], [19.945041867747452, 50.0722278300632], [19.94633847417521, 50.07078641343742], [19.945041867747452, 50.0693449534859], [19.94244865489193, 50.0693449534859], [19.941152048464172, 50.07078641343742]]]}}, {"type": "Feature", "properties": {"count": 2, "mean_min": 10.16}, "geometry": {"type": "Polygon", "coordinates": [[[19.941152048464172, 50.06790345020828], [19.94244865489193, 50.0693449534859], [19.945041867747452, 50.0693449534859], [19.94633847417521, 50.06790345020828], [19.945041867747452, 50.06646190360415], [19.94244865489193, 50.06646190360415], [19.941152048464172, 50.06790345020828]]]}}, {"type": "Feature", "properties": {"count": 4, "mean_min": 4.12}, "geometry": {"type": "Polygon", "coordinates": [[[19.941152048464172, 50.06502031367313], [19.94244865489193, 50.06646190360415], [19.945041867747452, 50.06646190360415], [19.94633847417521, 50.06502031367313], [19.945041867747452, 50.06357868041482], [19.94244865489193, 50.06357868041482], [19.941152048464172, 50.06502031367313]]]}}, {"type": "Feature", "properties": {"count": 3, "mean_min": 2.33}, "geometry": {"type": "Polygon", "coordinates": [[[19.941152048464172, 50.0592535206723], [19.94244865489193, 50.0606952839148], [19.945041867747452, 50.0606952839148], [19.94633847417521, 50.0592535206723], [19.945041867747452, 50.05781171410096], [19.94244865489193, 50.05781171410096], [19.941152048464172, 50.0592535206723]]]}}, {"type": "Feature", "properties": {"count": 2, "mean_min": 2.85}, "geometry": {"type": "Polygon", "coordinates": [[[19.941152048464172, 50.0563698642004], [19.94244865489193, 50.05781171410096], [19.945041867747452, 50.05781171410096], [19.94633847417521, 50.0563698642004], [19.945041867747452, 50.054927970970205], [19.94244865489193, 50.054927970970205], [19.941152048464172, 50.0563698642004]]]}}, {"type": "Feature", "properties": {"count": 1, "mean_min": 2.89}, "geometry": {"type": "Polygon", "coordinates": [[[19.941152048464172, 50.05060203129803], [19.94244865489193, 50.052044054519406], [19.945041867747452, 50.052044054519406], [19.94633847417521, 50.05060203129803], [19.945041867747452, 50.04915996474547], [19.94244865489193, 50.04915996474547], [19.941152048464172, 50.05060203129803]]]}}, {"type": "Feature", "properties": {"count": 2, "mean_min": 3.45}, "geometry": {"type": "Polygon", "coordinates": [[[19.941152048464172, 50.04771785486135], [19.94244865489193, 50.04915996474547], [19.945041867747452, 50.04915996474547], [19.94633847417521, 50.04771785486135], [19.945041867747452, 50.04627570164527], [19.94244865489193, 50.04627570164527], [19.941152048464172, 50.04771785486135]]]}}, {"type": "Feature", "properties": {"count": 2, "mean_min": 3.97}, "geometry": {"type": "Polygon", "coordinates": [[[19.941152048464172, 50.041948982001465], [19.94244865489193, 50.043391265215725], [19.945041867747452, 50.043391265215725], [19.94633847417521, 50.041948982001465], [19.945041867747452, 50.040506655453704], [19.94244865489193, 50.040506655453704], [19.941152048464172, 50.041948982001465]]]}}, {"type": "Feature", "properties": {"count": 2, "mean_min": 5.87}, "geometry": {"type": "Polygon", "coordinates": [[[19.941152048464172, 50.01598047374004], [19.94244865489193, 50.01742353701666], [19.945041867747452, 50.01742353701666], [19.94633847417521, 50.01598047374004], [19.945041867747452, 50.01453736712296], [19.94244865489193, 50.01453736712296], [19.941152048464172, 50.01598047374004]]]}}, {"type": "Feature", "properties": {"count": 2, "mean_min": 3.98}, "geometry": {"type": "Polygon", "coordinates": [[[19.945041867747452, 50.09528460409563], [19.94633847417521, 50.09672528424383], [19.94893168703073, 50.09672528424383], [19.950228293458483, 50.09528460409563], [19.94893168703073, 50.09384388062835], [19.94633847417521, 50.09384388062835], [19.945041867747452, 50.09528460409563]]]}}, {"type": "Feature", "properties": {"count": 2, "mean_min": 5.49}, "geometry": {"type": "Polygon", "coordinates": [[[19.945041867747452, 50.0693449534859], [19.94633847417521, 50.07078641343742], [19.94893168703073, 50.07078641343742], [19.950228293458483, 50.0693449534859], [19.94893168703073, 50.06790345020828], [19.94633847417521, 50.06790345020828], [19.945041867747452, 50.0693449534859]]]}}, {"type": "Feature", "properties": {"count": 1, "mean_min": 5.06}, "geometry": {"type": "Polygon", "coordinates": [[[19.945041867747452, 50.054927970970205], [19.94633847417521, 50.0563698642004], [19.94893168703073, 50.0563698642004], [19.950228293458483, 50.054927970970205], [19.94893168703073, 50.053486034410014], [19.94633847417521, 50.053486034410014], [19.945041867747452, 50.054927970970205]]]}}, {"type": "Feature", "properties": {"count": 1, "mean_min": 5.42}, "geometry": {"type": "Polygon", "coordinates": [[[19.945041867747452, 50.052044054519406], [19.94633847417521, 50.053486034410014], [19.94893168703073, 50.053486034410014], [19.950228293458483, 50.052044054519406], [19.94893168703073, 50.05060203129803], [19.94633847417521, 50.05060203129803], [19.945041867747452, 50.052044054519406]]]}}, {"type": "Feature", "properties": {"count": 3, "mean_min": 4.36}, "geometry": {"type": "Polygon", "coordinates": [[[19.945041867747452, 50.043391265215725], [19.94633847417521, 50.044833505096875], [19.94893168703073, 50.044833505096875], [19.950228293458483, 50.043391265215725], [19.94893168703073, 50.041948982001465], [19.94633847417521, 50.041948982001465], [19.945041867747452, 50.043391265215725]]]}}, {"type": "Feature", "properties": {"count": 2, "mean_min": 11.71}, "geometry": {"type": "Polygon", "coordinates": [[[19.945041867747452, 50.01453736712296], [19.94633847417521, 50.01598047374004], [19.94893168703073, 50.01598047374004], [19.950228293458483, 50.01453736712296], [19.94893168703073, 50.01309421716502], [19.94633847417521, 50.01309421716502], [19.945041867747452, 50.01453736712296]]]}}, {"type": "Feature", "properties": {"count": 2, "mean_min": 19.79}, "geometry": {"type": "Polygon", "coordinates": [[[19.94893168703073, 50.06790345020828], [19.950228293458483, 50.0693449534859], [19.952821506314002, 50.0693449534859], [19.95411811274176, 50.06790345020828], [19.952821506314002, 50.06646190360415], [19.950228293458483, 50.06646190360415], [19.94893168703073, 50.06790345020828]]]}}, {"type": "Feature", "properties": {"count": 3, "mean_min": 7.49}, "geometry": {"type": "Polygon", "coordinates": [[[19.94893168703073, 50.06502031367313], [19.950228293458483, 50.06646190360415], [19.952821506314002, 50.06646190360415], [19.95411811274176, 50.06502031367313], [19.952821506314002, 50.06357868041482], [19.950228293458483, 50.06357868041482], [19.94893168703073, 50.06502031367313]]]}}, {"type": "Feature", "properties": {"count": 2, "mean_min": 5.12}, "geometry": {"type": "Polygon", "coordinates": [[[19.94893168703073, 50.05060203129803], [19.950228293458483, 50.052044054519406], [19.952821506314002, 50.052044054519406], [19.95411811274176, 50.05060203129803], [19.952821506314002, 50.04915996474547], [19.950228293458483, 50.04915996474547], [19.94893168703073, 50.05060203129803]]]}}, {"type": "Feature", "properties": {"count": 2, "mean_min": 8.68}, "geometry": {"type": "Polygon", "coordinates": [[[19.94893168703073, 50.01309421716502], [19.950228293458483, 50.01453736712296], [19.952821506314002, 50.01453736712296], [19.95411811274176, 50.01309421716502], [19.952821506314002, 50.01165102386583], [19.950228293458483, 50.01165102386583], [19.94893168703073, 50.01309421716502]]]}}, {"type": "Feature", "properties": {"count": 1, "mean_min": 3.99}, "geometry": {"type": "Polygon", "coordinates": [[[19.952821506314, 50.10104706477786], [19.95411811274176, 50.10248757165366], [19.95671132559728, 50.10248757165366], [19.958007932025037, 50.10104706477786], [19.95671132559728, 50.09960651458456], [19.95411811274176, 50.09960651458456], [19.952821506314, 50.10104706477786]]]}}, {"type": "Feature", "properties": {"count": 2, "mean_min": 4.04}, "geometry": {"type": "Polygon", "coordinates": [[[19.952821506314, 50.09816592107334], [19.95411811274176, 50.09960651458456], [19.95671132559728, 50.09960651458456], [19.958007932025037, 50.09816592107334], [19.95671132559728, 50.09672528424383], [19.95411811274176, 50.09672528424383], [19.952821506314, 50.09816592107334]]]}}, {"type": "Feature", "properties": {"count": 2, "mean_min": 3.98}, "geometry": {"type": "Polygon", "coordinates": [[[19.952821506314, 50.09528460409563], [19.95411811274176, 50.09672528424383], [19.95671132559728, 50.09672528424383], [19.958007932025037, 50.09528460409563], [19.95671132559728, 50.09384388062835], [19.95411811274176, 50.09384388062835], [19.952821506314, 50.09528460409563]]]}}, {"type": "Feature", "properties": {"count": 2, "mean_min": 20.05}, "geometry": {"type": "Polygon", "coordinates": [[[19.952821506314, 50.0722278300632], [19.95411811274176, 50.07366920336365], [19.95671132559728, 50.07366920336365], [19.958007932025037, 50.0722278300632], [19.95671132559728, 50.07078641343742], [19.95411811274176, 50.07078641343742], [19.952821506314, 50.0722278300632]]]}}, {"type": "Feature", "properties": {"count": 1, "mean_min": 19.69}, "geometry": {"type": "Polygon", "coordinates": [[[19.952821506314, 50.0693449534859], [19.95411811274176, 50.07078641343742], [19.95671132559728, 50.07078641343742], [19.958007932025037, 50.0693449534859], [19.95671132559728, 50.06790345020828], [19.95411811274176, 50.06790345020828], [19.952821506314, 50.0693449534859]]]}}, {"type": "Feature", "properties": {"count": 4, "mean_min": 4.3}, "geometry": {"type": "Polygon", "coordinates": [[[19.952821506314, 50.04627570164527], [19.95411811274176, 50.04771785486135], [19.95671132559728, 50.04771785486135], [19.958007932025037, 50.04627570164527], [19.95671132559728, 50.044833505096875], [19.95411811274176, 50.044833505096875], [19.952821506314, 50.04627570164527]]]}}, {"type": "Feature", "properties": {"count": 2, "mean_min": 3.58}, "geometry": {"type": "Polygon", "coordinates": [[[19.952821506314, 50.01165102386583], [19.95411811274176, 50.01309421716502], [19.95671132559728, 50.01309421716502], [19.958007932025037, 50.01165102386583], [19.95671132559728, 50.010207787225006], [19.95411811274176, 50.010207787225006], [19.952821506314, 50.01165102386583]]]}}, {"type": "Feature", "properties": {"count": 1, "mean_min": 4.01}, "geometry": {"type": "Polygon", "coordinates": [[[19.95671132559728, 50.10248757165366], [19.958007932025037, 50.10392803521233], [19.960601144880556, 50.10392803521233], [19.961897751308314, 50.10248757165366], [19.960601144880556, 50.10104706477786], [19.958007932025037, 50.10104706477786], [19.95671132559728, 50.10248757165366]]]}}, {"type": "Feature", "properties": {"count": 1, "mean_min": 19.08}, "geometry": {"type": "Polygon", "coordinates": [[[19.95671132559728, 50.07366920336365], [19.958007932025037, 50.075110533339156], [19.960601144880556, 50.075110533339156], [19.961897751308314, 50.07366920336365], [19.960601144880556, 50.0722278300632], [19.958007932025037, 50.0722278300632], [19.95671132559728, 50.07366920336365]]]}}, {"type": "Feature", "properties": {"count": 5, "mean_min": 2.84}, "geometry": {"type": "Polygon", "coordinates": [[[19.95671132559728, 50.06502031367313], [19.958007932025037, 50.06646190360415], [19.960601144880556, 50.06646190360415], [19.961897751308314, 50.06502031367313], [19.960601144880556, 50.06357868041482], [19.958007932025037, 50.06357868041482], [19.95671132559728, 50.06502031367313]]]}}, {"type": "Feature", "properties": {"count": 2, "mean_min": 3.05}, "geometry": {"type": "Polygon", "coordinates": [[[19.95671132559728, 50.0592535206723], [19.958007932025037, 50.0606952839148], [19.960601144880556, 50.0606952839148], [19.961897751308314, 50.0592535206723], [19.960601144880556, 50.05781171410096], [19.958007932025037, 50.05781171410096], [19.95671132559728, 50.0592535206723]]]}}, {"type": "Feature", "properties": {"count": 1, "mean_min": 3.32}, "geometry": {"type": "Polygon", "coordinates": [[[19.95671132559728, 50.0563698642004], [19.958007932025037, 50.05781171410096], [19.960601144880556, 50.05781171410096], [19.961897751308314, 50.0563698642004], [19.960601144880556, 50.054927970970205], [19.958007932025037, 50.054927970970205], [19.95671132559728, 50.0563698642004]]]}}, {"type": "Feature", "properties": {"count": 2, "mean_min": 2.71}, "geometry": {"type": "Polygon", "coordinates": [[[19.95671132559728, 50.041948982001465], [19.958007932025037, 50.043391265215725], [19.960601144880556, 50.043391265215725], [19.961897751308314, 50.041948982001465], [19.960601144880556, 50.040506655453704], [19.958007932025037, 50.040506655453704], [19.95671132559728, 50.041948982001465]]]}}, {"type": "Feature", "properties": {"count": 1, "mean_min": 9.18}, "geometry": {"type": "Polygon", "coordinates": [[[19.960601144880556, 50.10392803521233], [19.961897751308314, 50.10536845545427], [19.964490964163833, 50.10536845545427], [19.96578757059159, 50.10392803521233], [19.964490964163833, 50.10248757165366], [19.961897751308314, 50.10248757165366], [19.960601144880556, 50.10392803521233]]]}}, {"type": "Feature", "properties": {"count": 2, "mean_min": 4.98}, "geometry": {"type": "Polygon", "coordinates": [[[19.960601144880556, 50.05781171410096], [19.961897751308314, 50.0592535206723], [19.964490964163833, 50.0592535206723], [19.96578757059159, 50.05781171410096], [19.964490964163833, 50.0563698642004], [19.961897751308314, 50.0563698642004], [19.960601144880556, 50.05781171410096]]]}}, {"type": "Feature", "properties": {"count": 2, "mean_min": 2.68}, "geometry": {"type": "Polygon", "coordinates": [[[19.960601144880556, 50.04915996474547], [19.961897751308314, 50.05060203129803], [19.964490964163833, 50.05060203129803], [19.96578757059159, 50.04915996474547], [19.964490964163833, 50.04771785486135], [19.961897751308314, 50.04771785486135], [19.960601144880556, 50.04915996474547]]]}}, {"type": "Feature", "properties": {"count": 1, "mean_min": 2.77}, "geometry": {"type": "Polygon", "coordinates": [[[19.960601144880556, 50.03762187235612], [19.961897751308314, 50.039064285572046], [19.964490964163833, 50.039064285572046], [19.96578757059159, 50.03762187235612], [19.964490964163833, 50.03617941580551], [19.961897751308314, 50.03617941580551], [19.960601144880556, 50.03762187235612]]]}}, {"type": "Feature", "properties": {"count": 2, "mean_min": 3.46}, "geometry": {"type": "Polygon", "coordinates": [[[19.960601144880556, 50.01453736712296], [19.961897751308314, 50.01598047374004], [19.964490964163833, 50.01598047374004], [19.96578757059159, 50.01453736712296], [19.964490964163833, 50.01309421716502], [19.961897751308314, 50.01309421716502], [19.960601144880556, 50.01453736712296]]]}}, {"type": "Feature", "properties": {"count": 2, "mean_min": 4.87}, "geometry": {"type": "Polygon", "coordinates": [[[19.964490964163833, 50.0592535206723], [19.96578757059159, 50.0606952839148], [19.968380783447113, 50.0606952839148], [19.969677389874867, 50.0592535206723], [19.968380783447113, 50.05781171410096], [19.96578757059159, 50.05781171410096], [19.964490964163833, 50.0592535206723]]]}}, {"type": "Feature", "properties": {"count": 2, "mean_min": 2.61}, "geometry": {"type": "Polygon", "coordinates": [[[19.964490964163833, 50.04771785486135], [19.96578757059159, 50.04915996474547], [19.968380783447113, 50.04915996474547], [19.969677389874867, 50.04771785486135], [19.968380783447113, 50.04627570164527], [19.96578757059159, 50.04627570164527], [19.964490964163833, 50.04771785486135]]]}}, {"type": "Feature", "properties": {"count": 1, "mean_min": 2.42}, "geometry": {"type": "Polygon", "coordinates": [[[19.964490964163833, 50.039064285572046], [19.96578757059159, 50.040506655453704], [19.968380783447113, 50.040506655453704], [19.969677389874867, 50.039064285572046], [19.968380783447113, 50.03762187235612], [19.96578757059159, 50.03762187235612], [19.964490964163833, 50.039064285572046]]]}}, {"type": "Feature", "properties": {"count": 2, "mean_min": 2.1}, "geometry": {"type": "Polygon", "coordinates": [[[19.968380783447113, 50.06646190360415], [19.969677389874867, 50.06790345020828], [19.972270602730386, 50.06790345020828], [19.973567209158144, 50.06646190360415], [19.972270602730386, 50.06502031367313], [19.969677389874867, 50.06502031367313], [19.968380783447113, 50.06646190360415]]]}}, {"type": "Feature", "properties": {"count": 2, "mean_min": 5.01}, "geometry": {"type": "Polygon", "coordinates": [[[19.968380783447113, 50.0606952839148], [19.969677389874867, 50.06213700382884], [19.972270602730386, 50.06213700382884], [19.973567209158144, 50.0606952839148], [19.972270602730386, 50.0592535206723], [19.969677389874867, 50.0592535206723], [19.968380783447113, 50.0606952839148]]]}}, {"type": "Feature", "properties": {"count": 1, "mean_min": 2.69}, "geometry": {"type": "Polygon", "coordinates": [[[19.968380783447113, 50.03473691591986], [19.969677389874867, 50.03617941580551], [19.972270602730386, 50.03617941580551], [19.973567209158144, 50.03473691591986], [19.972270602730386, 50.033294372698755], [19.969677389874867, 50.033294372698755], [19.968380783447113, 50.03473691591986]]]}}, {"type": "Feature", "properties": {"count": 1, "mean_min": 2.91}, "geometry": {"type": "Polygon", "coordinates": [[[19.968380783447113, 50.03185178614182], [19.969677389874867, 50.033294372698755], [19.972270602730386, 50.033294372698755], [19.973567209158144, 50.03185178614182], [19.972270602730386, 50.03040915624867], [19.969677389874867, 50.03040915624867], [19.968380783447113, 50.03185178614182]]]}}, {"type": "Feature", "properties": {"count": 2, "mean_min": 3.56}, "geometry": {"type": "Polygon", "coordinates": [[[19.968380783447113, 50.01453736712296], [19.969677389874867, 50.01598047374004], [19.972270602730386, 50.01598047374004], [19.973567209158144, 50.01453736712296], [19.972270602730386, 50.01309421716502], [19.969677389874867, 50.01309421716502], [19.968380783447113, 50.01453736712296]]]}}, {"type": "Feature", "properties": {"count": 2, "mean_min": 4.92}, "geometry": {"type": "Polygon", "coordinates": [[[19.972270602730386, 50.0592535206723], [19.973567209158144, 50.0606952839148], [19.976160422013663, 50.0606952839148], [19.97745702844142, 50.0592535206723], [19.976160422013663, 50.05781171410096], [19.973567209158144, 50.05781171410096], [19.972270602730386, 50.0592535206723]]]}}, {"type": "Feature", "properties": {"count": 2, "mean_min": 2.59}, "geometry": {"type": "Polygon", "coordinates": [[[19.972270602730386, 50.044833505096875], [19.973567209158144, 50.04627570164527], [19.976160422013663, 50.04627570164527], [19.97745702844142, 50.044833505096875], [19.976160422013663, 50.043391265215725], [19.973567209158144, 50.043391265215725], [19.972270602730386, 50.044833505096875]]]}}, {"type": "Feature", "properties": {"count": 2, "mean_min": 2.25}, "geometry": {"type": "Polygon", "coordinates": [[[19.972270602730386, 50.033294372698755], [19.973567209158144, 50.03473691591986], [19.976160422013663, 50.03473691591986], [19.97745702844142, 50.033294372698755], [19.976160422013663, 50.03185178614182], [19.973567209158144, 50.03185178614182], [19.972270602730386, 50.033294372698755]]]}}, {"type": "Feature", "properties": {"count": 1, "mean_min": 1.8}, "geometry": {"type": "Polygon", "coordinates": [[[19.972270602730386, 50.02752376645217], [19.973567209158144, 50.02896648301891], [19.976160422013663, 50.02896648301891], [19.97745702844142, 50.02752376645217], [19.976160422013663, 50.02608100654804], [19.973567209158144, 50.02608100654804], [19.972270602730386, 50.02752376645217]]]}}, {"type": "Feature", "properties": {"count": 2, "mean_min": 2.04}, "geometry": {"type": "Polygon", "coordinates": [[[19.976160422013663, 50.06646190360415], [19.97745702844142, 50.06790345020828], [19.980050241296944, 50.06790345020828], [19.9813468477247, 50.06646190360415], [19.980050241296944, 50.06502031367313], [19.97745702844142, 50.06502031367313], [19.976160422013663, 50.06646190360415]]]}}, {"type": "Feature", "properties": {"count": 2, "mean_min": 4.85}, "geometry": {"type": "Polygon", "coordinates": [[[19.976160422013663, 50.0606952839148], [19.97745702844142, 50.06213700382884], [19.980050241296944, 50.06213700382884], [19.9813468477247, 50.0606952839148], [19.980050241296944, 50.0592535206723], [19.97745702844142, 50.0592535206723], [19.976160422013663, 50.0606952839148]]]}}, {"type": "Feature", "properties": {"count": 2, "mean_min": 2.54}, "geometry": {"type": "Polygon", "coordinates": [[[19.976160422013663, 50.040506655453704], [19.97745702844142, 50.041948982001465], [19.980050241296944, 50.041948982001465], [19.9813468477247, 50.040506655453704], [19.980050241296944, 50.039064285572046], [19.97745702844142, 50.039064285572046], [19.976160422013663, 50.040506655453704]]]}}, {"type": "Feature", "properties": {"count": 1, "mean_min": 1.96}, "geometry": {"type": "Polygon", "coordinates": [[[19.976160422013663, 50.02608100654804], [19.97745702844142, 50.02752376645217], [19.980050241296944, 50.02752376645217], [19.9813468477247, 50.02608100654804], [19.980050241296944, 50.02463820330614], [19.97745702844142, 50.02463820330614], [19.976160422013663, 50.02608100654804]]]}}, {"type": "Feature", "properties": {"count": 2, "mean_min": 3.55}, "geometry": {"type": "Polygon", "coordinates": [[[19.976160422013663, 50.0231953567261], [19.97745702844142, 50.02463820330614], [19.980050241296944, 50.02463820330614], [19.9813468477247, 50.0231953567261], [19.980050241296944, 50.02175246680752], [19.97745702844142, 50.02175246680752], [19.976160422013663, 50.0231953567261]]]}}, {"type": "Feature", "properties": {"count": 2, "mean_min": 3.67}, "geometry": {"type": "Polygon", "coordinates": [[[19.976160422013663, 50.01742353701666], [19.97745702844142, 50.018866556953185], [19.980050241296944, 50.018866556953185], [19.9813468477247, 50.01742353701666], [19.980050241296944, 50.01598047374004], [19.97745702844142, 50.01598047374004], [19.976160422013663, 50.01742353701666]]]}}, {"type": "Feature", "properties": {"count": 2, "mean_min": 2.15}, "geometry": {"type": "Polygon", "coordinates": [[[19.98005024129694, 50.07078641343742], [19.981346847724698, 50.0722278300632], [19.983940060580217, 50.0722278300632], [19.98523666700797, 50.07078641343742], [19.983940060580217, 50.0693449534859], [19.981346847724698, 50.0693449534859], [19.98005024129694, 50.07078641343742]]]}}, {"type": "Feature", "properties": {"count": 1, "mean_min": 2.08}, "geometry": {"type": "Polygon", "coordinates": [[[19.98005024129694, 50.041948982001465], [19.981346847724698, 50.043391265215725], [19.983940060580217, 50.043391265215725], [19.98523666700797, 50.041948982001465], [19.983940060580217, 50.040506655453704], [19.981346847724698, 50.040506655453704], [19.98005024129694, 50.041948982001465]]]}}, {"type": "Feature", "properties": {"count": 1, "mean_min": 2.36}, "geometry": {"type": "Polygon", "coordinates": [[[19.98005024129694, 50.039064285572046], [19.981346847724698, 50.040506655453704], [19.983940060580217, 50.040506655453704], [19.98523666700797, 50.039064285572046], [19.983940060580217, 50.03762187235612], [19.981346847724698, 50.03762187235612], [19.98005024129694, 50.039064285572046]]]}}, {"type": "Feature", "properties": {"count": 2, "mean_min": 3.8}, "geometry": {"type": "Polygon", "coordinates": [[[19.98005024129694, 50.02175246680752], [19.981346847724698, 50.0231953567261], [19.983940060580217, 50.0231953567261], [19.98523666700797, 50.02175246680752], [19.983940060580217, 50.020309533550005], [19.981346847724698, 50.020309533550005], [19.98005024129694, 50.02175246680752]]]}}, {"type": "Feature", "properties": {"count": 1, "mean_min": 20.93}, "geometry": {"type": "Polygon", "coordinates": [[[19.983940060580217, 50.0722278300632], [19.98523666700797, 50.07366920336365], [19.98782987986349, 50.07366920336365], [19.98912648629125, 50.0722278300632], [19.98782987986349, 50.07078641343742], [19.98523666700797, 50.07078641343742], [19.983940060580217, 50.0722278300632]]]}}, {"type": "Feature", "properties": {"count": 1, "mean_min": 4.2}, "geometry": {"type": "Polygon", "coordinates": [[[19.983940060580217, 50.040506655453704], [19.98523666700797, 50.041948982001465], [19.98782987986349, 50.041948982001465], [19.98912648629125, 50.040506655453704], [19.98782987986349, 50.039064285572046], [19.98523666700797, 50.039064285572046], [19.983940060580217, 50.040506655453704]]]}}, {"type": "Feature", "properties": {"count": 2, "mean_min": 3.91}, "geometry": {"type": "Polygon", "coordinates": [[[19.983940060580217, 50.020309533550005], [19.98523666700797, 50.02175246680752], [19.98782987986349, 50.02175246680752], [19.98912648629125, 50.020309533550005], [19.98782987986349, 50.018866556953185], [19.98523666700797, 50.018866556953185], [19.983940060580217, 50.020309533550005]]]}}, {"type": "Feature", "properties": {"count": 2, "mean_min": 2.31}, "geometry": {"type": "Polygon", "coordinates": [[[19.98782987986349, 50.07366920336365], [19.98912648629125, 50.075110533339156], [19.99171969914677, 50.075110533339156], [19.99301630557453, 50.07366920336365], [19.99171969914677, 50.0722278300632], [19.98912648629125, 50.0722278300632], [19.98782987986349, 50.07366920336365]]]}}, {"type": "Feature", "properties": {"count": 2, "mean_min": 5.0}, "geometry": {"type": "Polygon", "coordinates": [[[19.98782987986349, 50.06502031367313], [19.98912648629125, 50.06646190360415], [19.99171969914677, 50.06646190360415], [19.99301630557453, 50.06502031367313], [19.99171969914677, 50.06357868041482], [19.98912648629125, 50.06357868041482], [19.98782987986349, 50.06502031367313]]]}}, {"type": "Feature", "properties": {"count": 1, "mean_min": 5.02}, "geometry": {"type": "Polygon", "coordinates": [[[19.98782987986349, 50.041948982001465], [19.98912648629125, 50.043391265215725], [19.99171969914677, 50.043391265215725], [19.99301630557453, 50.041948982001465], [19.99171969914677, 50.040506655453704], [19.98912648629125, 50.040506655453704], [19.98782987986349, 50.041948982001465]]]}}, {"type": "Feature", "properties": {"count": 2, "mean_min": 3.86}, "geometry": {"type": "Polygon", "coordinates": [[[19.98782987986349, 50.018866556953185], [19.98912648629125, 50.020309533550005], [19.99171969914677, 50.020309533550005], [19.99301630557453, 50.018866556953185], [19.99171969914677, 50.01742353701666], [19.98912648629125, 50.01742353701666], [19.98782987986349, 50.018866556953185]]]}}, {"type": "Feature", "properties": {"count": 1, "mean_min": 87.74}, "geometry": {"type": "Polygon", "coordinates": [[[19.99171969914677, 50.09528460409563], [19.99301630557453, 50.09672528424383], [19.995609518430047, 50.09672528424383], [19.996906124857805, 50.09528460409563], [19.995609518430047, 50.09384388062835], [19.99301630557453, 50.09384388062835], [19.99171969914677, 50.09528460409563]]]}}, {"type": "Feature", "properties": {"count": 1, "mean_min": 4.45}, "geometry": {"type": "Polygon", "coordinates": [[[19.99171969914677, 50.040506655453704], [19.99301630557453, 50.041948982001465], [19.995609518430047, 50.041948982001465], [19.996906124857805, 50.040506655453704], [19.995609518430047, 50.039064285572046], [19.99301630557453, 50.039064285572046], [19.99171969914677, 50.040506655453704]]]}}, {"type": "Feature", "properties": {"count": 2, "mean_min": 10.51}, "geometry": {"type": "Polygon", "coordinates": [[[19.995609518430047, 50.09384388062835], [19.996906124857805, 50.09528460409563], [19.999499337713324, 50.09528460409563], [20.000795944141082, 50.09384388062835], [19.999499337713324, 50.092403113841584], [19.996906124857805, 50.092403113841584], [19.995609518430047, 50.09384388062835]]]}}, {"type": "Feature", "properties": {"count": 2, "mean_min": 2.35}, "geometry": {"type": "Polygon", "coordinates": [[[19.995609518430047, 50.07366920336365], [19.996906124857805, 50.075110533339156], [19.999499337713324, 50.075110533339156], [20.000795944141082, 50.07366920336365], [19.999499337713324, 50.0722278300632], [19.996906124857805, 50.0722278300632], [19.995609518430047, 50.07366920336365]]]}}, {"type": "Feature", "properties": {"count": 2, "mean_min": 5.07}, "geometry": {"type": "Polygon", "coordinates": [[[19.995609518430047, 50.06502031367313], [19.996906124857805, 50.06646190360415], [19.999499337713324, 50.06646190360415], [20.000795944141082, 50.06502031367313], [19.999499337713324, 50.06357868041482], [19.996906124857805, 50.06357868041482], [19.995609518430047, 50.06502031367313]]]}}, {"type": "Feature", "properties": {"count": 1, "mean_min": 3.67}, "geometry": {"type": "Polygon", "coordinates": [[[19.995609518430047, 50.01309421716502], [19.996906124857805, 50.01453736712296], [19.999499337713324, 50.01453736712296], [20.000795944141082, 50.01309421716502], [19.999499337713324, 50.01165102386583], [19.996906124857805, 50.01165102386583], [19.995609518430047, 50.01309421716502]]]}}, {"type": "Feature", "properties": {"count": 1, "mean_min": 15.65}, "geometry": {"type": "Polygon", "coordinates": [[[19.999499337713324, 50.040506655453704], [20.000795944141082, 50.041948982001465], [20.003389156996604, 50.041948982001465], [20.004685763424362, 50.040506655453704], [20.003389156996604, 50.039064285572046], [20.000795944141082, 50.039064285572046], [19.999499337713324, 50.040506655453704]]]}}, {"type": "Feature", "properties": {"count": 1, "mean_min": 4.2}, "geometry": {"type": "Polygon", "coordinates": [[[19.999499337713324, 50.01453736712296], [20.000795944141082, 50.01598047374004], [20.003389156996604, 50.01598047374004], [20.004685763424362, 50.01453736712296], [20.003389156996604, 50.01309421716502], [20.000795944141082, 50.01309421716502], [19.999499337713324, 50.01453736712296]]]}}, {"type": "Feature", "properties": {"count": 2, "mean_min": 10.42}, "geometry": {"type": "Polygon", "coordinates": [[[20.0033891569966, 50.09384388062835], [20.004685763424355, 50.09528460409563], [20.007278976279874, 50.09528460409563], [20.008575582707632, 50.09384388062835], [20.007278976279874, 50.092403113841584], [20.004685763424355, 50.092403113841584], [20.0033891569966, 50.09384388062835]]]}}, {"type": "Feature", "properties": {"count": 2, "mean_min": 2.22}, "geometry": {"type": "Polygon", "coordinates": [[[20.0033891569966, 50.07366920336365], [20.004685763424355, 50.075110533339156], [20.007278976279874, 50.075110533339156], [20.008575582707632, 50.07366920336365], [20.007278976279874, 50.0722278300632], [20.004685763424355, 50.0722278300632], [20.0033891569966, 50.07366920336365]]]}}, {"type": "Feature", "properties": {"count": 2, "mean_min": 5.14}, "geometry": {"type": "Polygon", "coordinates": [[[20.0033891569966, 50.06790345020828], [20.004685763424355, 50.0693449534859], [20.007278976279874, 50.0693449534859], [20.008575582707632, 50.06790345020828], [20.007278976279874, 50.06646190360415], [20.004685763424355, 50.06646190360415], [20.0033891569966, 50.06790345020828]]]}}, {"type": "Feature", "properties": {"count": 2, "mean_min": 4.01}, "geometry": {"type": "Polygon", "coordinates": [[[20.0033891569966, 50.01598047374004], [20.004685763424355, 50.01742353701666], [20.007278976279874, 50.01742353701666], [20.008575582707632, 50.01598047374004], [20.007278976279874, 50.01453736712296], [20.004685763424355, 50.01453736712296], [20.0033891569966, 50.01598047374004]]]}}, {"type": "Feature", "properties": {"count": 2, "mean_min": 11.88}, "geometry": {"type": "Polygon", "coordinates": [[[20.007278976279874, 50.09528460409563], [20.008575582707632, 50.09672528424383], [20.01116879556315, 50.09672528424383], [20.012465401990912, 50.09528460409563], [20.01116879556315, 50.09384388062835], [20.008575582707632, 50.09384388062835], [20.007278976279874, 50.09528460409563]]]}}, {"type": "Feature", "properties": {"count": 1, "mean_min": 2.23}, "geometry": {"type": "Polygon", "coordinates": [[[20.007278976279874, 50.075110533339156], [20.008575582707632, 50.0765518199901], [20.01116879556315, 50.0765518199901], [20.012465401990912, 50.075110533339156], [20.01116879556315, 50.07366920336365], [20.008575582707632, 50.07366920336365], [20.007278976279874, 50.075110533339156]]]}}, {"type": "Feature", "properties": {"count": 1, "mean_min": 5.01}, "geometry": {"type": "Polygon", "coordinates": [[[20.007278976279874, 50.0693449534859], [20.008575582707632, 50.07078641343742], [20.01116879556315, 50.07078641343742], [20.012465401990912, 50.0693449534859], [20.01116879556315, 50.06790345020828], [20.008575582707632, 50.06790345020828], [20.007278976279874, 50.0693449534859]]]}}, {"type": "Feature", "properties": {"count": 1, "mean_min": 11.02}, "geometry": {"type": "Polygon", "coordinates": [[[20.01116879556315, 50.10248757165366], [20.012465401990912, 50.10392803521233], [20.01505861484643, 50.10392803521233], [20.01635522127419, 50.10248757165366], [20.01505861484643, 50.10104706477786], [20.012465401990912, 50.10104706477786], [20.01116879556315, 50.10248757165366]]]}}, {"type": "Feature", "properties": {"count": 1, "mean_min": 6.03}, "geometry": {"type": "Polygon", "coordinates": [[[20.01116879556315, 50.09960651458456], [20.012465401990912, 50.10104706477786], [20.01505861484643, 50.10104706477786], [20.01635522127419, 50.09960651458456], [20.01505861484643, 50.09816592107334], [20.012465401990912, 50.09816592107334], [20.01116879556315, 50.09960651458456]]]}}, {"type": "Feature", "properties": {"count": 3, "mean_min": 6.49}, "geometry": {"type": "Polygon", "coordinates": [[[20.01116879556315, 50.09672528424383], [20.012465401990912, 50.09816592107334], [20.01505861484643, 50.09816592107334], [20.01635522127419, 50.09672528424383], [20.01505861484643, 50.09528460409563], [20.012465401990912, 50.09528460409563], [20.01116879556315, 50.09672528424383]]]}}, {"type": "Feature", "properties": {"count": 2, "mean_min": 2.17}, "geometry": {"type": "Polygon", "coordinates": [[[20.01116879556315, 50.07366920336365], [20.012465401990912, 50.075110533339156], [20.01505861484643, 50.075110533339156], [20.01635522127419, 50.07366920336365], [20.01505861484643, 50.0722278300632], [20.012465401990912, 50.0722278300632], [20.01116879556315, 50.07366920336365]]]}}, {"type": "Feature", "properties": {"count": 1, "mean_min": 5.37}, "geometry": {"type": "Polygon", "coordinates": [[[20.01116879556315, 50.07078641343742], [20.012465401990912, 50.0722278300632], [20.01505861484643, 50.0722278300632], [20.01635522127419, 50.07078641343742], [20.01505861484643, 50.0693449534859], [20.012465401990912, 50.0693449534859], [20.01116879556315, 50.07078641343742]]]}}, {"type": "Feature", "properties": {"count": 2, "mean_min": 4.07}, "geometry": {"type": "Polygon", "coordinates": [[[20.01116879556315, 50.01598047374004], [20.012465401990912, 50.01742353701666], [20.01505861484643, 50.01742353701666], [20.01635522127419, 50.01598047374004], [20.01505861484643, 50.01453736712296], [20.012465401990912, 50.01453736712296], [20.01116879556315, 50.01598047374004]]]}}, {"type": "Feature", "properties": {"count": 2, "mean_min": 3.87}, "geometry": {"type": "Polygon", "coordinates": [[[20.01505861484643, 50.092403113841584], [20.01635522127419, 50.09384388062835], [20.018948434129708, 50.09384388062835], [20.020245040557466, 50.092403113841584], [20.018948434129708, 50.09096230373497], [20.01635522127419, 50.09096230373497], [20.01505861484643, 50.092403113841584]]]}}, {"type": "Feature", "properties": {"count": 1, "mean_min": 3.02}, "geometry": {"type": "Polygon", "coordinates": [[[20.01505861484643, 50.075110533339156], [20.01635522127419, 50.0765518199901], [20.018948434129708, 50.0765518199901], [20.020245040557466, 50.075110533339156], [20.018948434129708, 50.07366920336365], [20.01635522127419, 50.07366920336365], [20.01505861484643, 50.075110533339156]]]}}, {"type": "Feature", "properties": {"count": 2, "mean_min": 4.3}, "geometry": {"type": "Polygon", "coordinates": [[[20.01505861484643, 50.0722278300632], [20.01635522127419, 50.07366920336365], [20.018948434129708, 50.07366920336365], [20.020245040557466, 50.0722278300632], [20.018948434129708, 50.07078641343742], [20.01635522127419, 50.07078641343742], [20.01505861484643, 50.0722278300632]]]}}, {"type": "Feature", "properties": {"count": 2, "mean_min": 3.93}, "geometry": {"type": "Polygon", "coordinates": [[[20.018948434129708, 50.09096230373497], [20.020245040557466, 50.092403113841584], [20.022838253412985, 50.092403113841584], [20.024134859840743, 50.09096230373497], [20.022838253412985, 50.08952145030809], [20.020245040557466, 50.08952145030809], [20.018948434129708, 50.09096230373497]]]}}, {"type": "Feature", "properties": {"count": 2, "mean_min": 3.02}, "geometry": {"type": "Polygon", "coordinates": [[[20.018948434129708, 50.085198630102], [20.020245040557466, 50.086639613492], [20.022838253412985, 50.086639613492], [20.024134859840743, 50.085198630102], [20.022838253412985, 50.08375760339018], [20.020245040557466, 50.08375760339018], [20.018948434129708, 50.085198630102]]]}}, {"type": "Feature", "properties": {"count": 2, "mean_min": 2.48}, "geometry": {"type": "Polygon", "coordinates": [[[20.018948434129708, 50.0765518199901], [20.020245040557466, 50.07799306331688], [20.022838253412985, 50.07799306331688], [20.024134859840743, 50.0765518199901], [20.022838253412985, 50.075110533339156], [20.020245040557466, 50.075110533339156], [20.018948434129708, 50.0765518199901]]]}}, {"type": "Feature", "properties": {"count": 2, "mean_min": 4.12}, "geometry": {"type": "Polygon", "coordinates": [[[20.018948434129708, 50.01598047374004], [20.020245040557466, 50.01742353701666], [20.022838253412985, 50.01742353701666], [20.024134859840743, 50.01598047374004], [20.022838253412985, 50.01453736712296], [20.020245040557466, 50.01453736712296], [20.018948434129708, 50.01598047374004]]]}}, {"type": "Feature", "properties": {"count": 1, "mean_min": 2.59}, "geometry": {"type": "Polygon", "coordinates": [[[20.022838253412985, 50.080875419999515], [20.024134859840743, 50.08231653335615], [20.026728072696265, 50.08231653335615], [20.02802467912402, 50.080875419999515], [20.026728072696265, 50.0794342633199], [20.024134859840743, 50.0794342633199], [20.022838253412985, 50.080875419999515]]]}}, {"type": "Feature", "properties": {"count": 1, "mean_min": 2.02}, "geometry": {"type": "Polygon", "coordinates": [[[20.022838253412985, 50.07799306331688], [20.024134859840743, 50.0794342633199], [20.026728072696265, 50.0794342633199], [20.02802467912402, 50.07799306331688], [20.026728072696265, 50.0765518199901], [20.024134859840743, 50.0765518199901], [20.022838253412985, 50.07799306331688]]]}}, {"type": "Feature", "properties": {"count": 2, "mean_min": 8.18}, "geometry": {"type": "Polygon", "coordinates": [[[20.026728072696258, 50.0794342633199], [20.028024679124016, 50.080875419999515], [20.030617891979535, 50.080875419999515], [20.031914498407293, 50.0794342633199], [20.030617891979535, 50.07799306331688], [20.028024679124016, 50.07799306331688], [20.026728072696258, 50.0794342633199]]]}}, {"type": "Feature", "properties": {"count": 2, "mean_min": 9.22}, "geometry": {"type": "Polygon", "coordinates": [[[20.026728072696258, 50.0765518199901], [20.028024679124016, 50.07799306331688], [20.030617891979535, 50.07799306331688], [20.031914498407293, 50.0765518199901], [20.030617891979535, 50.075110533339156], [20.028024679124016, 50.075110533339156], [20.026728072696258, 50.0765518199901]]]}}, {"type": "Feature", "properties": {"count": 1, "mean_min": 4.14}, "geometry": {"type": "Polygon", "coordinates": [[[20.026728072696258, 50.07366920336365], [20.028024679124016, 50.075110533339156], [20.030617891979535, 50.075110533339156], [20.031914498407293, 50.07366920336365], [20.030617891979535, 50.0722278300632], [20.028024679124016, 50.0722278300632], [20.026728072696258, 50.07366920336365]]]}}, {"type": "Feature", "properties": {"count": 1, "mean_min": 3.08}, "geometry": {"type": "Polygon", "coordinates": [[[20.026728072696258, 50.07078641343742], [20.028024679124016, 50.0722278300632], [20.030617891979535, 50.0722278300632], [20.031914498407293, 50.07078641343742], [20.030617891979535, 50.0693449534859], [20.028024679124016, 50.0693449534859], [20.026728072696258, 50.07078641343742]]]}}, {"type": "Feature", "properties": {"count": 2, "mean_min": 6.96}, "geometry": {"type": "Polygon", "coordinates": [[[20.030617891979535, 50.080875419999515], [20.031914498407293, 50.08231653335615], [20.034507711262812, 50.08231653335615], [20.035804317690573, 50.080875419999515], [20.034507711262812, 50.0794342633199], [20.031914498407293, 50.0794342633199], [20.030617891979535, 50.080875419999515]]]}}, {"type": "Feature", "properties": {"count": 2, "mean_min": 6.64}, "geometry": {"type": "Polygon", "coordinates": [[[20.034507711262812, 50.085198630102], [20.035804317690573, 50.086639613492], [20.038397530546092, 50.086639613492], [20.03969413697385, 50.085198630102], [20.038397530546092, 50.08375760339018], [20.035804317690573, 50.08375760339018], [20.034507711262812, 50.085198630102]]]}}, {"type": "Feature", "properties": {"count": 1, "mean_min": 9.1}, "geometry": {"type": "Polygon", "coordinates": [[[20.034507711262812, 50.07366920336365], [20.035804317690573, 50.075110533339156], [20.038397530546092, 50.075110533339156], [20.03969413697385, 50.07366920336365], [20.038397530546092, 50.0722278300632], [20.035804317690573, 50.0722278300632], [20.034507711262812, 50.07366920336365]]]}}, {"type": "Feature", "properties": {"count": 2, "mean_min": 6.75}, "geometry": {"type": "Polygon", "coordinates": [[[20.034507711262812, 50.07078641343742], [20.035804317690573, 50.0722278300632], [20.038397530546092, 50.0722278300632], [20.03969413697385, 50.07078641343742], [20.038397530546092, 50.0693449534859], [20.035804317690573, 50.0693449534859], [20.034507711262812, 50.07078641343742]]]}}, {"type": "Feature", "properties": {"count": 1, "mean_min": 2.71}, "geometry": {"type": "Polygon", "coordinates": [[[20.038397530546092, 50.0722278300632], [20.03969413697385, 50.07366920336365], [20.04228734982937, 50.07366920336365], [20.043583956257127, 50.0722278300632], [20.04228734982937, 50.07078641343742], [20.03969413697385, 50.07078641343742], [20.038397530546092, 50.0722278300632]]]}}, {"type": "Feature", "properties": {"count": 1, "mean_min": 2.77}, "geometry": {"type": "Polygon", "coordinates": [[[20.04228734982937, 50.07366920336365], [20.043583956257127, 50.075110533339156], [20.046177169112646, 50.075110533339156], [20.047473775540404, 50.07366920336365], [20.046177169112646, 50.0722278300632], [20.043583956257127, 50.0722278300632], [20.04228734982937, 50.07366920336365]]]}}, {"type": "Feature", "properties": {"count": 2, "mean_min": 9.82}, "geometry": {"type": "Polygon", "coordinates": [[[20.04228734982937, 50.07078641343742], [20.043583956257127, 50.0722278300632], [20.046177169112646, 50.0722278300632], [20.047473775540404, 50.07078641343742], [20.046177169112646, 50.0693449534859], [20.043583956257127, 50.0693449534859], [20.04228734982937, 50.07078641343742]]]}}, {"type": "Feature", "properties": {"count": 2, "mean_min": 6.54}, "geometry": {"type": "Polygon", "coordinates": [[[20.046177169112646, 50.086639613492], [20.047473775540404, 50.08808055356056], [20.050066988395923, 50.08808055356056], [20.05136359482368, 50.086639613492], [20.050066988395923, 50.085198630102], [20.047473775540404, 50.085198630102], [20.046177169112646, 50.086639613492]]]}}, {"type": "Feature", "properties": {"count": 1, "mean_min": 4.14}, "geometry": {"type": "Polygon", "coordinates": [[[20.046177169112646, 50.075110533339156], [20.047473775540404, 50.0765518199901], [20.050066988395923, 50.0765518199901], [20.05136359482368, 50.075110533339156], [20.050066988395923, 50.07366920336365], [20.047473775540404, 50.07366920336365], [20.046177169112646, 50.075110533339156]]]}}, {"type": "Feature", "properties": {"count": 2, "mean_min": 3.13}, "geometry": {"type": "Polygon", "coordinates": [[[20.05006698839592, 50.0765518199901], [20.051363594823677, 50.07799306331688], [20.053956807679196, 50.07799306331688], [20.055253414106954, 50.0765518199901], [20.053956807679196, 50.075110533339156], [20.051363594823677, 50.075110533339156], [20.05006698839592, 50.0765518199901]]]}}, {"type": "Feature", "properties": {"count": 2, "mean_min": 9.74}, "geometry": {"type": "Polygon", "coordinates": [[[20.05006698839592, 50.06790345020828], [20.051363594823677, 50.0693449534859], [20.053956807679196, 50.0693449534859], [20.055253414106954, 50.06790345020828], [20.053956807679196, 50.06646190360415], [20.051363594823677, 50.06646190360415], [20.05006698839592, 50.06790345020828]]]}}, {"type": "Feature", "properties": {"count": 1, "mean_min": 4.64}, "geometry": {"type": "Polygon", "coordinates": [[[20.053956807679196, 50.08952145030809], [20.055253414106954, 50.09096230373497], [20.057846626962473, 50.09096230373497], [20.059143233390234, 50.08952145030809], [20.057846626962473, 50.08808055356056], [20.055253414106954, 50.08808055356056], [20.053956807679196, 50.08952145030809]]]}}, {"type": "Feature", "properties": {"count": 3, "mean_min": 4.29}, "geometry": {"type": "Polygon", "coordinates": [[[20.057846626962473, 50.09096230373497], [20.059143233390234, 50.092403113841584], [20.061736446245753, 50.092403113841584], [20.063033052673507, 50.09096230373497], [20.061736446245753, 50.08952145030809], [20.059143233390234, 50.08952145030809], [20.057846626962473, 50.09096230373497]]]}}, {"type": "Feature", "properties": {"count": 2, "mean_min": 10.52}, "geometry": {"type": "Polygon", "coordinates": [[[20.057846626962473, 50.08808055356056], [20.059143233390234, 50.08952145030809], [20.061736446245753, 50.08952145030809], [20.063033052673507, 50.08808055356056], [20.061736446245753, 50.086639613492], [20.059143233390234, 50.086639613492], [20.057846626962473, 50.08808055356056]]]}}, {"type": "Feature", "properties": {"count": 2, "mean_min": 10.37}, "geometry": {"type": "Polygon", "coordinates": [[[20.057846626962473, 50.06790345020828], [20.059143233390234, 50.0693449534859], [20.061736446245753, 50.0693449534859], [20.063033052673507, 50.06790345020828], [20.061736446245753, 50.06646190360415], [20.059143233390234, 50.06646190360415], [20.057846626962473, 50.06790345020828]]]}}, {"type": "Feature", "properties": {"count": 1, "mean_min": 59.6}, "geometry": {"type": "Polygon", "coordinates": [[[20.061736446245753, 50.09528460409563], [20.063033052673507, 50.09672528424383], [20.065626265529026, 50.09672528424383], [20.066922871956784, 50.09528460409563], [20.065626265529026, 50.09384388062835], [20.063033052673507, 50.09384388062835], [20.061736446245753, 50.09528460409563]]]}}, {"type": "Feature", "properties": {"count": 2, "mean_min": 10.48}, "geometry": {"type": "Polygon", "coordinates": [[[20.061736446245753, 50.086639613492], [20.063033052673507, 50.08808055356056], [20.065626265529026, 50.08808055356056], [20.066922871956784, 50.086639613492], [20.065626265529026, 50.085198630102], [20.063033052673507, 50.085198630102], [20.061736446245753, 50.086639613492]]]}}, {"type": "Feature", "properties": {"count": 2, "mean_min": 10.58}, "geometry": {"type": "Polygon", "coordinates": [[[20.061736446245753, 50.08375760339018], [20.063033052673507, 50.085198630102], [20.065626265529026, 50.085198630102], [20.066922871956784, 50.08375760339018], [20.065626265529026, 50.08231653335615], [20.063033052673507, 50.08231653335615], [20.061736446245753, 50.08375760339018]]]}}, {"type": "Feature", "properties": {"count": 1, "mean_min": 10.13}, "geometry": {"type": "Polygon", "coordinates": [[[20.061736446245753, 50.080875419999515], [20.063033052673507, 50.08231653335615], [20.065626265529026, 50.08231653335615], [20.066922871956784, 50.080875419999515], [20.065626265529026, 50.0794342633199], [20.063033052673507, 50.0794342633199], [20.061736446245753, 50.080875419999515]]]}}, {"type": "Feature", "properties": {"count": 2, "mean_min": 5.81}, "geometry": {"type": "Polygon", "coordinates": [[[20.061736446245753, 50.07799306331688], [20.063033052673507, 50.0794342633199], [20.065626265529026, 50.0794342633199], [20.066922871956784, 50.07799306331688], [20.065626265529026, 50.0765518199901], [20.063033052673507, 50.0765518199901], [20.061736446245753, 50.07799306331688]]]}}, {"type": "Feature", "properties": {"count": 2, "mean_min": 18.66}, "geometry": {"type": "Polygon", "coordinates": [[[20.061736446245753, 50.06646190360415], [20.063033052673507, 50.06790345020828], [20.065626265529026, 50.06790345020828], [20.066922871956784, 50.06646190360415], [20.065626265529026, 50.06502031367313], [20.063033052673507, 50.06502031367313], [20.061736446245753, 50.06646190360415]]]}}, {"type": "Feature", "properties": {"count": 2, "mean_min": 20.31}, "geometry": {"type": "Polygon", "coordinates": [[[20.065626265529026, 50.07078641343742], [20.066922871956784, 50.0722278300632], [20.069516084812303, 50.0722278300632], [20.070812691240064, 50.07078641343742], [20.069516084812303, 50.0693449534859], [20.066922871956784, 50.0693449534859], [20.065626265529026, 50.07078641343742]]]}}, {"type": "Feature", "properties": {"count": 2, "mean_min": 7.45}, "geometry": {"type": "Polygon", "coordinates": [[[20.069516084812303, 50.06646190360415], [20.070812691240064, 50.06790345020828], [20.073405904095583, 50.06790345020828], [20.07470251052334, 50.06646190360415], [20.073405904095583, 50.06502031367313], [20.070812691240064, 50.06502031367313], [20.069516084812303, 50.06646190360415]]]}}, {"type": "Feature", "properties": {"count": 2, "mean_min": 7.68}, "geometry": {"type": "Polygon", "coordinates": [[[20.07340590409558, 50.06502031367313], [20.074702510523338, 50.06646190360415], [20.077295723378857, 50.06646190360415], [20.078592329806614, 50.06502031367313], [20.077295723378857, 50.06357868041482], [20.074702510523338, 50.06357868041482], [20.07340590409558, 50.06502031367313]]]}}, {"type": "Feature", "properties": {"count": 2, "mean_min": 7.11}, "geometry": {"type": "Polygon", "coordinates": [[[20.081185542662134, 50.06502031367313], [20.08248214908989, 50.06646190360415], [20.08507536194541, 50.06646190360415], [20.086371968373168, 50.06502031367313], [20.08507536194541, 50.06357868041482], [20.08248214908989, 50.06357868041482], [20.081185542662134, 50.06502031367313]]]}}, {"type": "Feature", "properties": {"count": 2, "mean_min": 7.19}, "geometry": {"type": "Polygon", "coordinates": [[[20.088965181228687, 50.06790345020828], [20.090261787656445, 50.0693449534859], [20.092855000511964, 50.0693449534859], [20.094151606939725, 50.06790345020828], [20.092855000511964, 50.06646190360415], [20.090261787656445, 50.06646190360415], [20.088965181228687, 50.06790345020828]]]}}, {"type": "Feature", "properties": {"count": 2, "mean_min": 7.02}, "geometry": {"type": "Polygon", "coordinates": [[[20.092855000511964, 50.0693449534859], [20.094151606939725, 50.07078641343742], [20.096744819795244, 50.07078641343742], [20.098041426223002, 50.0693449534859], [20.096744819795244, 50.06790345020828], [20.094151606939725, 50.06790345020828], [20.092855000511964, 50.0693449534859]]]}}, {"type": "Feature", "properties": {"count": 2, "mean_min": 7.13}, "geometry": {"type": "Polygon", "coordinates": [[[20.100634639078514, 50.0722278300632], [20.10193124550627, 50.07366920336365], [20.104524458361794, 50.07366920336365], [20.105821064789552, 50.0722278300632], [20.104524458361794, 50.07078641343742], [20.10193124550627, 50.07078641343742], [20.100634639078514, 50.0722278300632]]]}}, {"type": "Feature", "properties": {"count": 1, "mean_min": 35.64}, "geometry": {"type": "Polygon", "coordinates": [[[20.116193916211625, 50.0722278300632], [20.117490522639386, 50.07366920336365], [20.120083735494905, 50.07366920336365], [20.12138034192266, 50.0722278300632], [20.120083735494905, 50.07078641343742], [20.117490522639386, 50.07078641343742], [20.116193916211625, 50.0722278300632]]]}}]}