{
"type": "FeatureCollection",
"name": "lodz_boundary",
"crs": { "type": "name", "properties": { "name": "urn:ogc:def:crs:OGC:1.3:CRS84" } },
"xy_coordinate_resolution": 1e-15,
"features": [
{ "type": "Feature", "properties": { "fid": 1, "id": 382, "left": 2150631.235819641, "top": 6765903.8324246379, "right": 2151208.5860888306, "bottom": 6765403.8324246379, "row_index": 21, "col_index": 5 }, "geometry": { "type": "MultiPolygon", "coordinates": [ [ [ [ 19.3440846185438, 51.715817566789511 ], [ 19.342788012116042, 51.71720895121959 ], [ 19.340194799260523, 51.71720895121959 ], [ 19.338898192832765, 51.71860029284062 ], [ 19.340194799260523, 51.719991591653105 ], [ 19.338898192832765, 51.721382847657537 ], [ 19.340194799260523, 51.72277406085442 ], [ 19.342788012116042, 51.72277406085442 ], [ 19.3440846185438, 51.724165231244243 ], [ 19.342788012116042, 51.725556358827511 ], [ 19.340194799260527, 51.725556358827511 ], [ 19.338898192832772, 51.724165231244243 ], [ 19.33630497997725, 51.724165231244243 ], [ 19.335008373549492, 51.725556358827511 ], [ 19.33630497997725, 51.726947443604715 ], [ 19.335008373549492, 51.728338485576344 ], [ 19.332415160693973, 51.728338485576344 ], [ 19.331118554266215, 51.729729484742926 ], [ 19.332415160693973, 51.73112044110492 ], [ 19.331118554266215, 51.732511354662847 ], [ 19.332415160693973, 51.733902225417204 ], [ 19.335008373549492, 51.733902225417204 ], [ 19.33630497997725, 51.732511354662847 ], [ 19.338898192832765, 51.732511354662847 ], [ 19.340194799260523, 51.733902225417204 ], [ 19.338898192832765, 51.735293053368473 ], [ 19.340194799260523, 51.736683838517166 ], [ 19.338898192832765, 51.738074580863781 ], [ 19.33630497997725, 51.738074580863781 ], [ 19.335008373549492, 51.739465280408801 ], [ 19.33630497997725, 51.740855937152745 ], [ 19.338898192832765, 51.740855937152745 ], [ 19.340194799260523, 51.742246551096088 ], [ 19.342788012116042, 51.742246551096088 ], [ 19.3440846185438, 51.743637122239356 ], [ 19.346677831399319, 51.743637122239356 ], [ 19.34797443782708, 51.742246551096088 ], [ 19.350567650682599, 51.742246551096088 ], [ 19.351864257110357, 51.743637122239356 ], [ 19.354457469965876, 51.743637122239356 ], [ 19.355754076393634, 51.742246551096088 ], [ 19.358347289249153, 51.742246551096088 ], [ 19.359643895676911, 51.743637122239356 ], [ 19.36223710853243, 51.743637122239356 ], [ 19.363533714960187, 51.742246551096088 ], [ 19.366126927815703, 51.742246551096088 ], [ 19.367423534243461, 51.743637122239356 ], [ 19.366126927815703, 51.745027650583026 ], [ 19.367423534243461, 51.746418136127602 ], [ 19.366126927815703, 51.747808578873581 ], [ 19.367423534243461, 51.749198978821461 ], [ 19.366126927815703, 51.750589335971746 ], [ 19.367423534243461, 51.751979650324941 ], [ 19.37001674709898, 51.751979650324941 ], [ 19.371313353526741, 51.753369921881522 ], [ 19.37001674709898, 51.754760150641999 ], [ 19.367423534243461, 51.754760150641999 ], [ 19.366126927815703, 51.756150336606886 ], [ 19.363533714960184, 51.756150336606886 ], [ 19.362237108532426, 51.757540479776658 ], [ 19.359643895676911, 51.757540479776658 ], [ 19.358347289249153, 51.756150336606886 ], [ 19.355754076393634, 51.756150336606886 ], [ 19.354457469965876, 51.757540479776658 ], [ 19.351864257110357, 51.757540479776658 ], [ 19.350567650682599, 51.758930580151826 ], [ 19.351864257110357, 51.760320637732889 ], [ 19.350567650682599, 51.76171065252035 ], [ 19.34797443782708, 51.76171065252035 ], [ 19.346677831399319, 51.763100624514699 ], [ 19.3440846185438, 51.763100624514699 ], [ 19.342788012116042, 51.764490553716449 ], [ 19.340194799260523, 51.764490553716449 ], [ 19.338898192832765, 51.765880440126075 ], [ 19.33630497997725, 51.765880440126075 ], [ 19.335008373549492, 51.767270283744111 ], [ 19.33630497997725, 51.768660084571025 ], [ 19.335008373549492, 51.770049842607321 ], [ 19.33630497997725, 51.771439557853526 ], [ 19.335008373549492, 51.772829230310101 ], [ 19.33630497997725, 51.77421885997758 ], [ 19.338898192832765, 51.77421885997758 ], [ 19.340194799260523, 51.775608446856452 ], [ 19.338898192832765, 51.776997990947208 ], [ 19.340194799260523, 51.778387492250367 ], [ 19.338898192832765, 51.779776950766404 ], [ 19.33630497997725, 51.779776950766404 ], [ 19.335008373549492, 51.778387492250367 ], [ 19.332415160693973, 51.778387492250367 ], [ 19.331118554266215, 51.779776950766404 ], [ 19.332415160693973, 51.781166366495839 ], [ 19.335008373549492, 51.781166366495839 ], [ 19.33630497997725, 51.782555739439168 ], [ 19.335008373549492, 51.783945069596882 ], [ 19.33630497997725, 51.785334356969493 ], [ 19.338898192832765, 51.785334356969493 ], [ 19.340194799260523, 51.786723601557505 ], [ 19.342788012116042, 51.786723601557505 ], [ 19.3440846185438, 51.785334356969493 ], [ 19.346677831399319, 51.785334356969493 ], [ 19.34797443782708, 51.786723601557505 ], [ 19.350567650682599, 51.786723601557505 ], [ 19.351864257110357, 51.7881128033614 ], [ 19.350567650682599, 51.789501962381699 ], [ 19.351864257110357, 51.790891078618898 ], [ 19.354457469965876, 51.790891078618898 ], [ 19.355754076393634, 51.792280152073495 ], [ 19.354457469965876, 51.793669182745987 ], [ 19.351864257110357, 51.793669182745987 ], [ 19.350567650682599, 51.795058170636878 ], [ 19.34797443782708, 51.795058170636878 ], [ 19.346677831399319, 51.796447115746673 ], [ 19.3440846185438, 51.796447115746673 ], [ 19.342788012116042, 51.795058170636878 ], [ 19.340194799260527, 51.795058170636878 ], [ 19.338898192832772, 51.793669182745987 ], [ 19.33630497997725, 51.793669182745987 ], [ 19.335008373549492, 51.795058170636878 ], [ 19.332415160693973, 51.795058170636878 ], [ 19.331118554266215, 51.793669182745987 ], [ 19.328525341410696, 51.793669182745987 ], [ 19.327228734982938, 51.795058170636878 ], [ 19.328525341410696, 51.796447115746673 ], [ 19.327228734982938, 51.79783601807587 ], [ 19.328525341410696, 51.79922487762498 ], [ 19.327228734982938, 51.800613694394499 ], [ 19.324635522127419, 51.800613694394499 ], [ 19.323338915699658, 51.802002468384913 ], [ 19.320745702844139, 51.802002468384913 ], [ 19.319449096416381, 51.803391199596746 ], [ 19.320745702844139, 51.804779888030488 ], [ 19.319449096416381, 51.806168533686638 ], [ 19.320745702844139, 51.80755713656572 ], [ 19.319449096416381, 51.808945696668211 ], [ 19.320745702844139, 51.810334213994622 ], [ 19.323338915699658, 51.810334213994622 ], [ 19.324635522127419, 51.808945696668211 ], [ 19.327228734982938, 51.808945696668211 ], [ 19.328525341410696, 51.810334213994622 ], [ 19.331118554266215, 51.810334213994622 ], [ 19.332415160693973, 51.808945696668211 ], [ 19.335008373549492, 51.808945696668211 ], [ 19.33630497997725, 51.810334213994622 ], [ 19.335008373549492, 51.811722688545458 ], [ 19.33630497997725, 51.813111120321224 ], [ 19.338898192832765, 51.813111120321224 ], [ 19.340194799260523, 51.814499509322417 ], [ 19.338898192832765, 51.815887855549533 ], [ 19.33630497997725, 51.815887855549533 ], [ 19.335008373549492, 51.817276159003086 ], [ 19.33630497997725, 51.818664419683586 ], [ 19.335008373549492, 51.820052637591509 ], [ 19.33630497997725, 51.821440812727381 ], [ 19.338898192832765, 51.821440812727381 ], [ 19.340194799260523, 51.8228289450917 ], [ 19.338898192832765, 51.824217034684956 ], [ 19.340194799260523, 51.825605081507675 ], [ 19.338898192832765, 51.826993085560346 ], [ 19.340194799260523, 51.828381046843468 ], [ 19.338898192832765, 51.829768965357552 ], [ 19.340194799260523, 51.831156841103102 ], [ 19.342788012116042, 51.831156841103102 ], [ 19.3440846185438, 51.832544674080623 ], [ 19.346677831399319, 51.832544674080623 ], [ 19.34797443782708, 51.833932464290619 ], [ 19.346677831399319, 51.835320211733581 ], [ 19.34797443782708, 51.836707916410028 ], [ 19.346677831399319, 51.838095578320463 ], [ 19.34797443782708, 51.839483197465363 ], [ 19.350567650682599, 51.839483197465363 ], [ 19.351864257110357, 51.838095578320463 ], [ 19.354457469965876, 51.838095578320463 ], [ 19.355754076393634, 51.836707916410028 ], [ 19.358347289249153, 51.836707916410028 ], [ 19.359643895676911, 51.838095578320463 ], [ 19.36223710853243, 51.838095578320463 ], [ 19.363533714960187, 51.836707916410028 ], [ 19.366126927815703, 51.836707916410028 ], [ 19.367423534243461, 51.838095578320463 ], [ 19.37001674709898, 51.838095578320463 ], [ 19.371313353526741, 51.839483197465363 ], [ 19.37390656638226, 51.839483197465363 ], [ 19.375203172810014, 51.838095578320463 ], [ 19.377796385665533, 51.838095578320463 ], [ 19.379092992093291, 51.839483197465363 ], [ 19.38168620494881, 51.839483197465363 ], [ 19.382982811376571, 51.838095578320463 ], [ 19.38557602423209, 51.838095578320463 ], [ 19.386872630659848, 51.836707916410028 ], [ 19.38557602423209, 51.835320211733581 ], [ 19.386872630659848, 51.833932464290619 ], [ 19.38557602423209, 51.832544674080623 ], [ 19.386872630659848, 51.831156841103102 ], [ 19.38557602423209, 51.829768965357552 ], [ 19.386872630659848, 51.828381046843468 ], [ 19.389465843515364, 51.828381046843468 ], [ 19.390762449943118, 51.826993085560346 ], [ 19.393355662798641, 51.826993085560346 ], [ 19.394652269226398, 51.828381046843468 ], [ 19.397245482081917, 51.828381046843468 ], [ 19.398542088509675, 51.829768965357552 ], [ 19.401135301365194, 51.829768965357552 ], [ 19.402431907792952, 51.831156841103102 ], [ 19.405025120648471, 51.831156841103102 ], [ 19.406321727076232, 51.829768965357552 ], [ 19.408914939931751, 51.829768965357552 ], [ 19.410211546359509, 51.831156841103102 ], [ 19.412804759215028, 51.831156841103102 ], [ 19.414101365642786, 51.829768965357552 ], [ 19.416694578498301, 51.829768965357552 ], [ 19.417991184926059, 51.831156841103102 ], [ 19.420584397781578, 51.831156841103102 ], [ 19.421881004209336, 51.832544674080623 ], [ 19.424474217064855, 51.832544674080623 ], [ 19.425770823492613, 51.831156841103102 ], [ 19.428364036348132, 51.831156841103102 ], [ 19.429660642775893, 51.832544674080623 ], [ 19.432253855631412, 51.832544674080623 ], [ 19.433550462059166, 51.833932464290619 ], [ 19.436143674914682, 51.833932464290619 ], [ 19.43744028134244, 51.835320211733581 ], [ 19.440033494197962, 51.835320211733581 ], [ 19.44133010062572, 51.836707916410028 ], [ 19.443923313481239, 51.836707916410028 ], [ 19.445219919908997, 51.835320211733581 ], [ 19.447813132764516, 51.835320211733581 ], [ 19.449109739192274, 51.836707916410028 ], [ 19.451702952047793, 51.836707916410028 ], [ 19.45299955847555, 51.838095578320463 ], [ 19.451702952047793, 51.839483197465363 ], [ 19.45299955847555, 51.840870773845275 ], [ 19.451702952047793, 51.842258307460675 ], [ 19.45299955847555, 51.843645798312082 ], [ 19.451702952047793, 51.845033246399986 ], [ 19.449109739192274, 51.845033246399986 ], [ 19.447813132764516, 51.846420651724898 ], [ 19.445219919908997, 51.846420651724898 ], [ 19.443923313481239, 51.847808014287331 ], [ 19.445219919908997, 51.849195334087774 ], [ 19.443923313481239, 51.85058261112674 ], [ 19.445219919908997, 51.851969845404746 ], [ 19.447813132764516, 51.851969845404746 ], [ 19.449109739192274, 51.85058261112674 ], [ 19.451702952047793, 51.85058261112674 ], [ 19.45299955847555, 51.851969845404746 ], [ 19.455592771331069, 51.851969845404746 ], [ 19.456889377758827, 51.85058261112674 ], [ 19.459482590614343, 51.85058261112674 ], [ 19.4607791970421, 51.851969845404746 ], [ 19.463372409897623, 51.851969845404746 ], [ 19.464669016325381, 51.853357036922276 ], [ 19.4672622291809, 51.853357036922276 ], [ 19.468558835608654, 51.854744185679841 ], [ 19.471152048464173, 51.854744185679841 ], [ 19.472448654891931, 51.856131291677947 ], [ 19.475041867747453, 51.856131291677947 ], [ 19.476338474175211, 51.857518354917104 ], [ 19.47893168703073, 51.857518354917104 ], [ 19.480228293458488, 51.858905375397804 ], [ 19.482821506314004, 51.858905375397804 ], [ 19.484118112741761, 51.86029235312057 ], [ 19.486711325597284, 51.86029235312057 ], [ 19.488007932025038, 51.861679288085902 ], [ 19.490601144880557, 51.861679288085902 ], [ 19.491897751308315, 51.86029235312057 ], [ 19.494490964163834, 51.86029235312057 ], [ 19.495787570591592, 51.858905375397804 ], [ 19.498380783447114, 51.858905375397804 ], [ 19.499677389874872, 51.86029235312057 ], [ 19.502270602730391, 51.86029235312057 ], [ 19.503567209158149, 51.861679288085902 ], [ 19.506160422013668, 51.861679288085902 ], [ 19.507457028441426, 51.86029235312057 ], [ 19.510050241296945, 51.86029235312057 ], [ 19.511346847724703, 51.858905375397804 ], [ 19.510050241296945, 51.857518354917104 ], [ 19.511346847724703, 51.856131291677947 ], [ 19.510050241296945, 51.854744185679841 ], [ 19.511346847724703, 51.853357036922276 ], [ 19.513940060580218, 51.853357036922276 ], [ 19.515236667007976, 51.851969845404746 ], [ 19.517829879863495, 51.851969845404746 ], [ 19.519126486291253, 51.85058261112674 ], [ 19.521719699146775, 51.85058261112674 ], [ 19.523016305574533, 51.849195334087774 ], [ 19.525609518430052, 51.849195334087774 ], [ 19.52690612485781, 51.847808014287331 ], [ 19.529499337713329, 51.847808014287331 ], [ 19.530795944141083, 51.849195334087774 ], [ 19.533389156996606, 51.849195334087774 ], [ 19.534685763424363, 51.847808014287331 ], [ 19.537278976279879, 51.847808014287331 ], [ 19.538575582707637, 51.846420651724898 ], [ 19.541168795563156, 51.846420651724898 ], [ 19.542465401990913, 51.847808014287331 ], [ 19.545058614846436, 51.847808014287331 ], [ 19.54635522127419, 51.846420651724898 ], [ 19.548948434129709, 51.846420651724898 ], [ 19.550245040557467, 51.845033246399986 ], [ 19.552838253412986, 51.845033246399986 ], [ 19.554134859840744, 51.846420651724898 ], [ 19.552838253412986, 51.847808014287331 ], [ 19.554134859840744, 51.849195334087774 ], [ 19.556728072696266, 51.849195334087774 ], [ 19.558024679124024, 51.847808014287331 ], [ 19.56061789197954, 51.847808014287331 ], [ 19.561914498407294, 51.846420651724898 ], [ 19.564507711262813, 51.846420651724898 ], [ 19.565804317690571, 51.845033246399986 ], [ 19.568397530546093, 51.845033246399986 ], [ 19.569694136973851, 51.843645798312082 ], [ 19.568397530546093, 51.842258307460675 ], [ 19.569694136973851, 51.840870773845275 ], [ 19.568397530546093, 51.839483197465363 ], [ 19.569694136973851, 51.838095578320463 ], [ 19.568397530546093, 51.836707916410028 ], [ 19.565804317690571, 51.836707916410028 ], [ 19.564507711262813, 51.835320211733581 ], [ 19.561914498407294, 51.835320211733581 ], [ 19.56061789197954, 51.833932464290619 ], [ 19.558024679124024, 51.833932464290619 ], [ 19.556728072696266, 51.832544674080623 ], [ 19.558024679124024, 51.831156841103102 ], [ 19.556728072696266, 51.829768965357552 ], [ 19.554134859840744, 51.829768965357552 ], [ 19.552838253412986, 51.828381046843468 ], [ 19.550245040557467, 51.828381046843468 ], [ 19.548948434129709, 51.826993085560346 ], [ 19.550245040557467, 51.825605081507675 ], [ 19.552838253412986, 51.825605081507675 ], [ 19.554134859840744, 51.824217034684956 ], [ 19.552838253412986, 51.8228289450917 ], [ 19.550245040557467, 51.8228289450917 ], [ 19.548948434129709, 51.821440812727381 ], [ 19.550245040557467, 51.820052637591509 ], [ 19.548948434129709, 51.818664419683586 ], [ 19.550245040557467, 51.817276159003086 ], [ 19.552838253412986, 51.817276159003086 ], [ 19.554134859840744, 51.815887855549533 ], [ 19.552838253412986, 51.814499509322417 ], [ 19.554134859840744, 51.813111120321224 ], [ 19.556728072696266, 51.813111120321224 ], [ 19.558024679124024, 51.811722688545458 ], [ 19.56061789197954, 51.811722688545458 ], [ 19.561914498407294, 51.810334213994622 ], [ 19.564507711262813, 51.810334213994622 ], [ 19.565804317690571, 51.811722688545458 ], [ 19.568397530546093, 51.811722688545458 ], [ 19.569694136973851, 51.813111120321224 ], [ 19.568397530546093, 51.814499509322417 ], [ 19.569694136973851, 51.815887855549533 ], [ 19.57228734982937, 51.815887855549533 ], [ 19.573583956257128, 51.817276159003086 ], [ 19.576177169112647, 51.817276159003086 ], [ 19.577473775540405, 51.815887855549533 ], [ 19.580066988395924, 51.815887855549533 ], [ 19.581363594823678, 51.817276159003086 ], [ 19.583956807679197, 51.817276159003086 ], [ 19.585253414106955, 51.818664419683586 ], [ 19.587846626962474, 51.818664419683586 ], [ 19.589143233390232, 51.817276159003086 ], [ 19.591736446245754, 51.817276159003086 ], [ 19.593033052673512, 51.815887855549533 ], [ 19.595626265529031, 51.815887855549533 ], [ 19.596922871956789, 51.817276159003086 ], [ 19.599516084812308, 51.817276159003086 ], [ 19.600812691240066, 51.815887855549533 ], [ 19.603405904095588, 51.815887855549533 ], [ 19.604702510523342, 51.817276159003086 ], [ 19.607295723378861, 51.817276159003086 ], [ 19.608592329806619, 51.815887855549533 ], [ 19.611185542662135, 51.815887855549533 ], [ 19.612482149089892, 51.814499509322417 ], [ 19.615075361945415, 51.814499509322417 ], [ 19.616371968373173, 51.815887855549533 ], [ 19.618965181228692, 51.815887855549533 ], [ 19.62026178765645, 51.814499509322417 ], [ 19.618965181228692, 51.813111120321224 ], [ 19.616371968373173, 51.813111120321224 ], [ 19.615075361945415, 51.811722688545458 ], [ 19.616371968373173, 51.810334213994622 ], [ 19.615075361945415, 51.808945696668211 ], [ 19.616371968373173, 51.80755713656572 ], [ 19.615075361945415, 51.806168533686638 ], [ 19.616371968373173, 51.804779888030488 ], [ 19.618965181228692, 51.804779888030488 ], [ 19.62026178765645, 51.803391199596746 ], [ 19.618965181228692, 51.802002468384913 ], [ 19.62026178765645, 51.800613694394499 ], [ 19.618965181228692, 51.79922487762498 ], [ 19.62026178765645, 51.79783601807587 ], [ 19.618965181228692, 51.796447115746673 ], [ 19.62026178765645, 51.795058170636878 ], [ 19.622855000511969, 51.795058170636878 ], [ 19.624151606939723, 51.793669182745987 ], [ 19.622855000511969, 51.792280152073495 ], [ 19.62026178765645, 51.792280152073495 ], [ 19.618965181228692, 51.790891078618898 ], [ 19.62026178765645, 51.789501962381699 ], [ 19.618965181228692, 51.7881128033614 ], [ 19.62026178765645, 51.786723601557505 ], [ 19.618965181228692, 51.785334356969493 ], [ 19.62026178765645, 51.783945069596882 ], [ 19.618965181228692, 51.782555739439168 ], [ 19.616371968373173, 51.782555739439168 ], [ 19.615075361945415, 51.781166366495839 ], [ 19.616371968373173, 51.779776950766404 ], [ 19.615075361945415, 51.778387492250367 ], [ 19.616371968373173, 51.776997990947208 ], [ 19.615075361945415, 51.775608446856452 ], [ 19.616371968373173, 51.77421885997758 ], [ 19.618965181228692, 51.77421885997758 ], [ 19.62026178765645, 51.772829230310101 ], [ 19.622855000511969, 51.772829230310101 ], [ 19.624151606939723, 51.771439557853526 ], [ 19.622855000511969, 51.770049842607321 ], [ 19.624151606939723, 51.768660084571025 ], [ 19.626744819795245, 51.768660084571025 ], [ 19.628041426223003, 51.767270283744111 ], [ 19.626744819795245, 51.765880440126075 ], [ 19.624151606939723, 51.765880440126075 ], [ 19.622855000511969, 51.764490553716449 ], [ 19.62026178765645, 51.764490553716449 ], [ 19.618965181228692, 51.763100624514699 ], [ 19.62026178765645, 51.76171065252035 ], [ 19.622855000511969, 51.76171065252035 ], [ 19.624151606939723, 51.760320637732889 ], [ 19.626744819795245, 51.760320637732889 ], [ 19.628041426223003, 51.758930580151826 ], [ 19.626744819795245, 51.757540479776658 ], [ 19.628041426223003, 51.756150336606886 ], [ 19.630634639078519, 51.756150336606886 ], [ 19.631931245506276, 51.757540479776658 ], [ 19.634524458361795, 51.757540479776658 ], [ 19.635821064789553, 51.756150336606886 ], [ 19.638414277645076, 51.756150336606886 ], [ 19.63971088407283, 51.754760150641999 ], [ 19.642304096928349, 51.754760150641999 ], [ 19.643600703356107, 51.753369921881522 ], [ 19.642304096928349, 51.751979650324941 ], [ 19.63971088407283, 51.751979650324941 ], [ 19.638414277645076, 51.750589335971746 ], [ 19.635821064789553, 51.750589335971746 ], [ 19.634524458361795, 51.749198978821461 ], [ 19.63193124550628, 51.749198978821461 ], [ 19.630634639078522, 51.747808578873581 ], [ 19.63193124550628, 51.746418136127602 ], [ 19.630634639078522, 51.745027650583026 ], [ 19.63193124550628, 51.743637122239356 ], [ 19.630634639078522, 51.742246551096088 ], [ 19.63193124550628, 51.740855937152745 ], [ 19.630634639078522, 51.739465280408801 ], [ 19.63193124550628, 51.738074580863781 ], [ 19.630634639078522, 51.736683838517166 ], [ 19.63193124550628, 51.735293053368473 ], [ 19.630634639078522, 51.733902225417204 ], [ 19.63193124550628, 51.732511354662847 ], [ 19.630634639078522, 51.73112044110492 ], [ 19.63193124550628, 51.729729484742926 ], [ 19.630634639078522, 51.728338485576344 ], [ 19.63193124550628, 51.726947443604715 ], [ 19.630634639078522, 51.725556358827511 ], [ 19.63193124550628, 51.724165231244243 ], [ 19.630634639078522, 51.72277406085442 ], [ 19.63193124550628, 51.721382847657537 ], [ 19.630634639078522, 51.719991591653105 ], [ 19.628041426223003, 51.719991591653105 ], [ 19.626744819795245, 51.71860029284062 ], [ 19.628041426223003, 51.71720895121959 ], [ 19.626744819795245, 51.715817566789511 ], [ 19.624151606939723, 51.715817566789511 ], [ 19.622855000511969, 51.7144261395499 ], [ 19.624151606939723, 51.713034669500239 ], [ 19.622855000511969, 51.711643156640058 ], [ 19.62026178765645, 51.711643156640058 ], [ 19.618965181228692, 51.710251600968846 ], [ 19.62026178765645, 51.708860002486098 ], [ 19.618965181228692, 51.707468361191339 ], [ 19.616371968373173, 51.707468361191339 ], [ 19.615075361945415, 51.706076677084063 ], [ 19.616371968373173, 51.704684950163774 ], [ 19.615075361945415, 51.703293180429959 ], [ 19.612482149089892, 51.703293180429959 ], [ 19.611185542662135, 51.701901367882151 ], [ 19.612482149089892, 51.700509512519844 ], [ 19.611185542662135, 51.699117614342533 ], [ 19.612482149089892, 51.69772567334973 ], [ 19.611185542662135, 51.696333689540936 ], [ 19.608592329806616, 51.696333689540936 ], [ 19.607295723378858, 51.69772567334973 ], [ 19.604702510523342, 51.69772567334973 ], [ 19.603405904095588, 51.696333689540936 ], [ 19.600812691240066, 51.696333689540936 ], [ 19.599516084812308, 51.694941662915667 ], [ 19.596922871956789, 51.694941662915667 ], [ 19.595626265529031, 51.696333689540936 ], [ 19.593033052673512, 51.696333689540936 ], [ 19.591736446245754, 51.69772567334973 ], [ 19.589143233390232, 51.69772567334973 ], [ 19.587846626962474, 51.699117614342533 ], [ 19.589143233390232, 51.700509512519844 ], [ 19.587846626962474, 51.701901367882151 ], [ 19.585253414106955, 51.701901367882151 ], [ 19.583956807679197, 51.700509512519844 ], [ 19.581363594823678, 51.700509512519844 ], [ 19.580066988395924, 51.701901367882151 ], [ 19.577473775540405, 51.701901367882151 ], [ 19.576177169112647, 51.703293180429959 ], [ 19.573583956257128, 51.703293180429959 ], [ 19.57228734982937, 51.704684950163774 ], [ 19.569694136973851, 51.704684950163774 ], [ 19.568397530546093, 51.703293180429959 ], [ 19.565804317690571, 51.703293180429959 ], [ 19.564507711262813, 51.701901367882151 ], [ 19.565804317690571, 51.700509512519844 ], [ 19.564507711262813, 51.699117614342533 ], [ 19.565804317690571, 51.69772567334973 ], [ 19.564507711262813, 51.696333689540936 ], [ 19.561914498407294, 51.696333689540936 ], [ 19.56061789197954, 51.694941662915667 ], [ 19.558024679124021, 51.694941662915667 ], [ 19.556728072696263, 51.696333689540936 ], [ 19.554134859840744, 51.696333689540936 ], [ 19.552838253412986, 51.694941662915667 ], [ 19.550245040557467, 51.694941662915667 ], [ 19.548948434129709, 51.693549593473406 ], [ 19.54635522127419, 51.693549593473406 ], [ 19.545058614846436, 51.694941662915667 ], [ 19.542465401990913, 51.694941662915667 ], [ 19.541168795563156, 51.693549593473406 ], [ 19.538575582707637, 51.693549593473406 ], [ 19.537278976279879, 51.692157481213684 ], [ 19.534685763424363, 51.692157481213684 ], [ 19.533389156996606, 51.690765326135988 ], [ 19.534685763424363, 51.689373128239822 ], [ 19.533389156996606, 51.687980887524702 ], [ 19.530795944141083, 51.687980887524702 ], [ 19.529499337713329, 51.689373128239822 ], [ 19.52690612485781, 51.689373128239822 ], [ 19.525609518430052, 51.687980887524702 ], [ 19.523016305574533, 51.687980887524702 ], [ 19.521719699146775, 51.689373128239822 ], [ 19.519126486291253, 51.689373128239822 ], [ 19.517829879863495, 51.687980887524702 ], [ 19.515236667007976, 51.687980887524702 ], [ 19.513940060580218, 51.689373128239822 ], [ 19.515236667007976, 51.690765326135988 ], [ 19.513940060580218, 51.692157481213684 ], [ 19.511346847724699, 51.692157481213684 ], [ 19.510050241296941, 51.693549593473406 ], [ 19.511346847724699, 51.694941662915667 ], [ 19.510050241296941, 51.696333689540936 ], [ 19.507457028441426, 51.696333689540936 ], [ 19.506160422013668, 51.694941662915667 ], [ 19.503567209158149, 51.694941662915667 ], [ 19.502270602730391, 51.696333689540936 ], [ 19.499677389874872, 51.696333689540936 ], [ 19.498380783447114, 51.69772567334973 ], [ 19.495787570591592, 51.69772567334973 ], [ 19.494490964163834, 51.696333689540936 ], [ 19.491897751308315, 51.696333689540936 ], [ 19.490601144880557, 51.69772567334973 ], [ 19.488007932025038, 51.69772567334973 ], [ 19.486711325597284, 51.696333689540936 ], [ 19.484118112741765, 51.696333689540936 ], [ 19.482821506314007, 51.694941662915667 ], [ 19.480228293458488, 51.694941662915667 ], [ 19.47893168703073, 51.696333689540936 ], [ 19.476338474175211, 51.696333689540936 ], [ 19.475041867747453, 51.694941662915667 ], [ 19.472448654891931, 51.694941662915667 ], [ 19.471152048464173, 51.693549593473406 ], [ 19.472448654891931, 51.692157481213684 ], [ 19.471152048464173, 51.690765326135988 ], [ 19.472448654891931, 51.689373128239822 ], [ 19.471152048464173, 51.687980887524702 ], [ 19.468558835608654, 51.687980887524702 ], [ 19.4672622291809, 51.686588603990131 ], [ 19.464669016325381, 51.686588603990131 ], [ 19.463372409897623, 51.687980887524702 ], [ 19.460779197042104, 51.687980887524702 ], [ 19.459482590614346, 51.686588603990131 ], [ 19.456889377758827, 51.686588603990131 ], [ 19.455592771331069, 51.687980887524702 ], [ 19.45299955847555, 51.687980887524702 ], [ 19.451702952047793, 51.686588603990131 ], [ 19.449109739192274, 51.686588603990131 ], [ 19.447813132764516, 51.685196277635605 ], [ 19.445219919908997, 51.685196277635605 ], [ 19.443923313481239, 51.686588603990131 ], [ 19.44133010062572, 51.686588603990131 ], [ 19.440033494197962, 51.685196277635605 ], [ 19.43744028134244, 51.685196277635605 ], [ 19.436143674914682, 51.686588603990131 ], [ 19.433550462059166, 51.686588603990131 ], [ 19.432253855631412, 51.685196277635605 ], [ 19.429660642775893, 51.685196277635605 ], [ 19.428364036348132, 51.683803908460639 ], [ 19.425770823492613, 51.683803908460639 ], [ 19.424474217064855, 51.685196277635605 ], [ 19.421881004209336, 51.685196277635605 ], [ 19.420584397781578, 51.686588603990131 ], [ 19.417991184926059, 51.686588603990131 ], [ 19.416694578498301, 51.687980887524702 ], [ 19.417991184926059, 51.689373128239822 ], [ 19.416694578498301, 51.690765326135988 ], [ 19.417991184926059, 51.692157481213684 ], [ 19.416694578498301, 51.693549593473406 ], [ 19.414101365642786, 51.693549593473406 ], [ 19.412804759215028, 51.692157481213684 ], [ 19.410211546359509, 51.692157481213684 ], [ 19.408914939931751, 51.693549593473406 ], [ 19.406321727076232, 51.693549593473406 ], [ 19.405025120648471, 51.694941662915667 ], [ 19.402431907792952, 51.694941662915667 ], [ 19.401135301365194, 51.693549593473406 ], [ 19.402431907792952, 51.692157481213684 ], [ 19.401135301365194, 51.690765326135988 ], [ 19.398542088509675, 51.690765326135988 ], [ 19.397245482081917, 51.692157481213684 ], [ 19.394652269226398, 51.692157481213684 ], [ 19.393355662798641, 51.693549593473406 ], [ 19.390762449943118, 51.693549593473406 ], [ 19.389465843515364, 51.694941662915667 ], [ 19.386872630659848, 51.694941662915667 ], [ 19.38557602423209, 51.693549593473406 ], [ 19.382982811376571, 51.693549593473406 ], [ 19.38168620494881, 51.694941662915667 ], [ 19.379092992093291, 51.694941662915667 ], [ 19.377796385665533, 51.696333689540936 ], [ 19.375203172810014, 51.696333689540936 ], [ 19.37390656638226, 51.694941662915667 ], [ 19.371313353526741, 51.694941662915667 ], [ 19.37001674709898, 51.696333689540936 ], [ 19.367423534243461, 51.696333689540936 ], [ 19.366126927815703, 51.69772567334973 ], [ 19.363533714960187, 51.69772567334973 ], [ 19.36223710853243, 51.696333689540936 ], [ 19.359643895676911, 51.696333689540936 ], [ 19.358347289249153, 51.69772567334973 ], [ 19.355754076393634, 51.69772567334973 ], [ 19.354457469965876, 51.699117614342533 ], [ 19.355754076393634, 51.700509512519844 ], [ 19.354457469965876, 51.701901367882151 ], [ 19.351864257110357, 51.701901367882151 ], [ 19.350567650682599, 51.703293180429959 ], [ 19.351864257110357, 51.704684950163774 ], [ 19.350567650682599, 51.706076677084063 ], [ 19.351864257110357, 51.707468361191339 ], [ 19.350567650682599, 51.708860002486098 ], [ 19.34797443782708, 51.708860002486098 ], [ 19.346677831399319, 51.710251600968846 ], [ 19.34797443782708, 51.711643156640058 ], [ 19.346677831399319, 51.713034669500239 ], [ 19.3440846185438, 51.713034669500239 ], [ 19.342788012116042, 51.7144261395499 ], [ 19.3440846185438, 51.715817566789511 ] ] ] ] } }
]
}
