{
"type": "FeatureCollection",
"name": "warszawa_boundary",
"crs": { "type": "name", "properties": { "name": "urn:ogc:def:crs:OGC:1.3:CRS84" } },
"xy_coordinate_resolution": 1e-15,
"features": [
{ "type": "Feature", "properties": { "fid": 1, "id": 633, "left": 2320950.0567333493, "top": 6837201.984870703, "right": 2321527.4070025389, "bottom": 6836701.984870703, "row_index": 67, "col_index": 5 }, "geometry": { "type": "MultiPolygon", "coordinates": [ [ [ [ 20.87278801211604, 52.181181831386176 ], [ 20.870194799260528, 52.181181831386176 ], [ 20.868898192832766, 52.179804767884484 ], [ 20.866304979977247, 52.179804767884484 ], [ 20.86500837354949, 52.181181831386176 ], [ 20.866304979977247, 52.182558852250054 ], [ 20.86500837354949, 52.183935830476621 ], [ 20.866304979977247, 52.185312766066417 ], [ 20.86500837354949, 52.186689659019976 ], [ 20.862415160693971, 52.186689659019976 ], [ 20.861118554266213, 52.188066509337794 ], [ 20.858525341410694, 52.188066509337794 ], [ 20.857228734982936, 52.186689659019976 ], [ 20.854635522127413, 52.186689659019976 ], [ 20.853338915699656, 52.188066509337794 ], [ 20.854635522127413, 52.189443317020419 ], [ 20.853338915699656, 52.190820082068363 ], [ 20.854635522127413, 52.192196804482172 ], [ 20.853338915699656, 52.193573484262352 ], [ 20.850745702844137, 52.193573484262352 ], [ 20.849449096416382, 52.194950121409448 ], [ 20.850745702844137, 52.196326715923952 ], [ 20.849449096416382, 52.197703267806425 ], [ 20.850745702844137, 52.199079777057371 ], [ 20.849449096416382, 52.200456243677323 ], [ 20.850745702844137, 52.201832667666814 ], [ 20.849449096416382, 52.203209049026349 ], [ 20.850745702844137, 52.204585387756481 ], [ 20.853338915699656, 52.204585387756481 ], [ 20.854635522127413, 52.205961683857709 ], [ 20.853338915699656, 52.207337937330585 ], [ 20.854635522127413, 52.208714148175616 ], [ 20.857228734982936, 52.208714148175616 ], [ 20.858525341410694, 52.210090316393341 ], [ 20.861118554266213, 52.210090316393341 ], [ 20.862415160693971, 52.208714148175616 ], [ 20.86500837354949, 52.208714148175616 ], [ 20.866304979977247, 52.210090316393341 ], [ 20.868898192832763, 52.210090316393341 ], [ 20.870194799260521, 52.211466441984278 ], [ 20.868898192832763, 52.212842524948954 ], [ 20.870194799260521, 52.214218565287901 ], [ 20.868898192832763, 52.215594563001645 ], [ 20.870194799260521, 52.216970518090712 ], [ 20.87278801211604, 52.216970518090712 ], [ 20.874084618543797, 52.21834643055562 ], [ 20.87278801211604, 52.219722300396903 ], [ 20.874084618543797, 52.2210981276151 ], [ 20.87278801211604, 52.222473912210717 ], [ 20.874084618543797, 52.223849654184292 ], [ 20.87278801211604, 52.225225353536352 ], [ 20.870194799260521, 52.225225353536352 ], [ 20.868898192832763, 52.226601010267423 ], [ 20.870194799260521, 52.227976624378037 ], [ 20.868898192832763, 52.229352195868721 ], [ 20.870194799260521, 52.230727724739985 ], [ 20.87278801211604, 52.230727724739985 ], [ 20.874084618543797, 52.232103210992385 ], [ 20.876677831399316, 52.232103210992385 ], [ 20.877974437827074, 52.233478654626431 ], [ 20.880567650682597, 52.233478654626431 ], [ 20.881864257110355, 52.234854055642657 ], [ 20.884457469965874, 52.234854055642657 ], [ 20.885754076393631, 52.233478654626431 ], [ 20.88834728924915, 52.233478654626431 ], [ 20.889643895676908, 52.234854055642657 ], [ 20.88834728924915, 52.236229414041581 ], [ 20.889643895676908, 52.237604729823751 ], [ 20.88834728924915, 52.23898000298967 ], [ 20.889643895676908, 52.240355233539894 ], [ 20.892237108532424, 52.240355233539894 ], [ 20.893533714960181, 52.241730421474919 ], [ 20.892237108532424, 52.243105566795293 ], [ 20.889643895676908, 52.243105566795293 ], [ 20.88834728924915, 52.244480669501549 ], [ 20.885754076393631, 52.244480669501549 ], [ 20.884457469965874, 52.245855729594211 ], [ 20.881864257110355, 52.245855729594211 ], [ 20.880567650682597, 52.2472307470738 ], [ 20.877974437827074, 52.2472307470738 ], [ 20.876677831399316, 52.245855729594211 ], [ 20.874084618543797, 52.245855729594211 ], [ 20.87278801211604, 52.2472307470738 ], [ 20.870194799260521, 52.2472307470738 ], [ 20.868898192832763, 52.248605721940848 ], [ 20.866304979977247, 52.248605721940848 ], [ 20.86500837354949, 52.2472307470738 ], [ 20.862415160693971, 52.2472307470738 ], [ 20.861118554266213, 52.248605721940848 ], [ 20.862415160693971, 52.249980654195895 ], [ 20.861118554266213, 52.251355543839452 ], [ 20.862415160693971, 52.25273039087206 ], [ 20.86500837354949, 52.25273039087206 ], [ 20.866304979977247, 52.254105195294244 ], [ 20.86500837354949, 52.255479957106523 ], [ 20.866304979977247, 52.256854676309445 ], [ 20.868898192832763, 52.256854676309445 ], [ 20.870194799260521, 52.258229352903527 ], [ 20.868898192832763, 52.25960398688931 ], [ 20.870194799260521, 52.260978578267313 ], [ 20.87278801211604, 52.260978578267313 ], [ 20.874084618543797, 52.262353127038068 ], [ 20.87278801211604, 52.263727633202102 ], [ 20.874084618543797, 52.265102096759954 ], [ 20.876677831399316, 52.265102096759954 ], [ 20.877974437827074, 52.266476517712142 ], [ 20.876677831399316, 52.267850896059201 ], [ 20.877974437827074, 52.269225231801663 ], [ 20.876677831399316, 52.27059952494006 ], [ 20.877974437827074, 52.271973775474912 ], [ 20.876677831399316, 52.273347983406751 ], [ 20.877974437827074, 52.274722148736117 ], [ 20.876677831399316, 52.276096271463537 ], [ 20.877974437827074, 52.277470351589542 ], [ 20.876677831399316, 52.278844389114653 ], [ 20.874084618543797, 52.278844389114653 ], [ 20.87278801211604, 52.280218384039401 ], [ 20.874084618543797, 52.281592336364334 ], [ 20.87278801211604, 52.28296624608997 ], [ 20.874084618543797, 52.284340113216842 ], [ 20.87278801211604, 52.285713937745477 ], [ 20.874084618543797, 52.287087719676407 ], [ 20.87278801211604, 52.288461459010158 ], [ 20.874084618543797, 52.289835155747284 ], [ 20.87278801211604, 52.291208809888296 ], [ 20.874084618543797, 52.292582421433721 ], [ 20.87278801211604, 52.293955990384113 ], [ 20.874084618543797, 52.295329516739983 ], [ 20.87278801211604, 52.296703000501864 ], [ 20.874084618543797, 52.298076441670304 ], [ 20.87278801211604, 52.299449840245821 ], [ 20.874084618543797, 52.30082319622894 ], [ 20.87278801211604, 52.302196509620209 ], [ 20.874084618543797, 52.303569780420162 ], [ 20.876677831399316, 52.303569780420162 ], [ 20.877974437827074, 52.304943008629316 ], [ 20.876677831399316, 52.306316194248211 ], [ 20.877974437827074, 52.307689337277367 ], [ 20.876677831399316, 52.30906243771733 ], [ 20.877974437827074, 52.310435495568633 ], [ 20.876677831399316, 52.311808510831803 ], [ 20.874084618543797, 52.311808510831803 ], [ 20.87278801211604, 52.313181483507378 ], [ 20.874084618543797, 52.314554413595893 ], [ 20.87278801211604, 52.315927301097858 ], [ 20.874084618543797, 52.317300146013835 ], [ 20.876677831399316, 52.317300146013835 ], [ 20.877974437827074, 52.315927301097858 ], [ 20.880567650682597, 52.315927301097858 ], [ 20.881864257110355, 52.314554413595893 ], [ 20.884457469965874, 52.314554413595893 ], [ 20.885754076393631, 52.315927301097858 ], [ 20.88834728924915, 52.315927301097858 ], [ 20.889643895676908, 52.317300146013835 ], [ 20.88834728924915, 52.318672948344336 ], [ 20.889643895676908, 52.320045708089907 ], [ 20.892237108532424, 52.320045708089907 ], [ 20.893533714960181, 52.321418425251061 ], [ 20.892237108532424, 52.322791099828358 ], [ 20.893533714960181, 52.324163731822324 ], [ 20.8961269278157, 52.324163731822324 ], [ 20.897423534243458, 52.322791099828358 ], [ 20.900016747098977, 52.322791099828358 ], [ 20.901313353526735, 52.324163731822324 ], [ 20.903906566382258, 52.324163731822324 ], [ 20.905203172810015, 52.325536321233479 ], [ 20.907796385665534, 52.325536321233479 ], [ 20.909092992093289, 52.324163731822324 ], [ 20.911686204948808, 52.324163731822324 ], [ 20.912982811376565, 52.322791099828358 ], [ 20.915576024232085, 52.322791099828358 ], [ 20.916872630659842, 52.324163731822324 ], [ 20.919465843515361, 52.324163731822324 ], [ 20.920762449943119, 52.325536321233479 ], [ 20.919465843515361, 52.326908868062375 ], [ 20.920762449943119, 52.328281372309526 ], [ 20.923355662798638, 52.328281372309526 ], [ 20.924652269226392, 52.329653833975478 ], [ 20.923355662798638, 52.33102625306077 ], [ 20.924652269226392, 52.332398629565915 ], [ 20.923355662798638, 52.33377096349146 ], [ 20.924652269226392, 52.335143254837945 ], [ 20.923355662798638, 52.336515503605888 ], [ 20.924652269226392, 52.337887709795829 ], [ 20.923355662798638, 52.339259873408317 ], [ 20.924652269226392, 52.340631994443861 ], [ 20.923355662798638, 52.342004072903016 ], [ 20.920762449943119, 52.342004072903016 ], [ 20.919465843515361, 52.343376108786302 ], [ 20.920762449943119, 52.344748102094265 ], [ 20.919465843515361, 52.34612005282743 ], [ 20.916872630659842, 52.34612005282743 ], [ 20.915576024232085, 52.347491960986346 ], [ 20.916872630659842, 52.348863826571531 ], [ 20.915576024232085, 52.350235649583517 ], [ 20.912982811376565, 52.350235649583517 ], [ 20.911686204948808, 52.35160743002286 ], [ 20.909092992093289, 52.35160743002286 ], [ 20.907796385665534, 52.352979167890062 ], [ 20.909092992093289, 52.354350863185694 ], [ 20.911686204948808, 52.354350863185694 ], [ 20.912982811376565, 52.355722515910273 ], [ 20.915576024232085, 52.355722515910273 ], [ 20.916872630659842, 52.357094126064339 ], [ 20.919465843515361, 52.357094126064339 ], [ 20.920762449943119, 52.358465693648419 ], [ 20.919465843515361, 52.35983721866306 ], [ 20.920762449943119, 52.361208701108794 ], [ 20.923355662798638, 52.361208701108794 ], [ 20.924652269226392, 52.35983721866306 ], [ 20.927245482081918, 52.35983721866306 ], [ 20.928542088509673, 52.361208701108794 ], [ 20.931135301365192, 52.361208701108794 ], [ 20.932431907792949, 52.35983721866306 ], [ 20.935025120648469, 52.35983721866306 ], [ 20.936321727076226, 52.361208701108794 ], [ 20.935025120648469, 52.362580140986154 ], [ 20.932431907792949, 52.362580140986154 ], [ 20.931135301365192, 52.363951538295666 ], [ 20.932431907792949, 52.365322893037877 ], [ 20.935025120648469, 52.365322893037877 ], [ 20.936321727076226, 52.363951538295666 ], [ 20.938914939931749, 52.363951538295666 ], [ 20.940211546359507, 52.365322893037877 ], [ 20.938914939931749, 52.366694205213328 ], [ 20.940211546359507, 52.368065474822551 ], [ 20.942804759215022, 52.368065474822551 ], [ 20.944101365642776, 52.369436701866064 ], [ 20.946694578498295, 52.369436701866064 ], [ 20.947991184926053, 52.368065474822551 ], [ 20.950584397781576, 52.368065474822551 ], [ 20.951881004209334, 52.369436701866064 ], [ 20.954474217064853, 52.369436701866064 ], [ 20.95577082349261, 52.368065474822551 ], [ 20.958364036348129, 52.368065474822551 ], [ 20.959660642775887, 52.369436701866064 ], [ 20.96225385563141, 52.369436701866064 ], [ 20.963550462059168, 52.370807886344423 ], [ 20.966143674914687, 52.370807886344423 ], [ 20.967440281342441, 52.369436701866064 ], [ 20.970033494197956, 52.369436701866064 ], [ 20.971330100625714, 52.368065474822551 ], [ 20.970033494197956, 52.366694205213328 ], [ 20.971330100625714, 52.365322893037877 ], [ 20.970033494197956, 52.363951538295666 ], [ 20.971330100625714, 52.362580140986154 ], [ 20.973923313481237, 52.362580140986154 ], [ 20.975219919908994, 52.361208701108794 ], [ 20.977813132764513, 52.361208701108794 ], [ 20.979109739192271, 52.362580140986154 ], [ 20.98170295204779, 52.362580140986154 ], [ 20.982999558475548, 52.361208701108794 ], [ 20.985592771331071, 52.361208701108794 ], [ 20.986889377758825, 52.362580140986154 ], [ 20.98948259061434, 52.362580140986154 ], [ 20.990779197042098, 52.363951538295666 ], [ 20.993372409897617, 52.363951538295666 ], [ 20.994669016325375, 52.362580140986154 ], [ 20.997262229180897, 52.362580140986154 ], [ 20.998558835608655, 52.363951538295666 ], [ 21.001152048464174, 52.363951538295666 ], [ 21.002448654891928, 52.365322893037877 ], [ 21.005041867747448, 52.365322893037877 ], [ 21.006338474175205, 52.363951538295666 ], [ 21.008931687030728, 52.363951538295666 ], [ 21.010228293458486, 52.362580140986154 ], [ 21.008931687030728, 52.361208701108794 ], [ 21.010228293458486, 52.35983721866306 ], [ 21.008931687030728, 52.358465693648419 ], [ 21.010228293458486, 52.357094126064339 ], [ 21.012821506314001, 52.357094126064339 ], [ 21.014118112741759, 52.358465693648419 ], [ 21.016711325597278, 52.358465693648419 ], [ 21.018007932025036, 52.357094126064339 ], [ 21.020601144880558, 52.357094126064339 ], [ 21.021897751308313, 52.358465693648419 ], [ 21.020601144880558, 52.35983721866306 ], [ 21.021897751308313, 52.361208701108794 ], [ 21.020601144880558, 52.362580140986154 ], [ 21.021897751308313, 52.363951538295666 ], [ 21.024490964163832, 52.363951538295666 ], [ 21.025787570591589, 52.365322893037877 ], [ 21.028380783447108, 52.365322893037877 ], [ 21.029677389874866, 52.363951538295666 ], [ 21.032270602730389, 52.363951538295666 ], [ 21.033567209158146, 52.362580140986154 ], [ 21.036160422013666, 52.362580140986154 ], [ 21.037457028441423, 52.363951538295666 ], [ 21.040050241296935, 52.363951538295666 ], [ 21.041346847724697, 52.365322893037877 ], [ 21.043940060580216, 52.365322893037877 ], [ 21.045236667007973, 52.363951538295666 ], [ 21.047829879863492, 52.363951538295666 ], [ 21.04912648629125, 52.365322893037877 ], [ 21.051719699146769, 52.365322893037877 ], [ 21.053016305574527, 52.363951538295666 ], [ 21.05560951843005, 52.363951538295666 ], [ 21.056906124857807, 52.365322893037877 ], [ 21.059499337713326, 52.365322893037877 ], [ 21.060795944141084, 52.366694205213328 ], [ 21.063389156996596, 52.366694205213328 ], [ 21.064685763424357, 52.368065474822551 ], [ 21.067278976279876, 52.368065474822551 ], [ 21.068575582707634, 52.369436701866064 ], [ 21.071168795563153, 52.369436701866064 ], [ 21.072465401990911, 52.368065474822551 ], [ 21.07505861484643, 52.368065474822551 ], [ 21.076355221274188, 52.366694205213328 ], [ 21.07505861484643, 52.365322893037877 ], [ 21.076355221274188, 52.363951538295666 ], [ 21.07894843412971, 52.363951538295666 ], [ 21.080245040557465, 52.362580140986154 ], [ 21.07894843412971, 52.361208701108794 ], [ 21.080245040557465, 52.35983721866306 ], [ 21.07894843412971, 52.358465693648419 ], [ 21.080245040557465, 52.357094126064339 ], [ 21.07894843412971, 52.355722515910273 ], [ 21.080245040557465, 52.354350863185694 ], [ 21.082838253412984, 52.354350863185694 ], [ 21.084134859840741, 52.352979167890062 ], [ 21.082838253412984, 52.35160743002286 ], [ 21.084134859840741, 52.350235649583517 ], [ 21.08672807269626, 52.350235649583517 ], [ 21.088024679124018, 52.348863826571531 ], [ 21.08672807269626, 52.347491960986346 ], [ 21.088024679124018, 52.34612005282743 ], [ 21.08672807269626, 52.344748102094265 ], [ 21.088024679124018, 52.343376108786302 ], [ 21.08672807269626, 52.342004072903016 ], [ 21.084134859840741, 52.342004072903016 ], [ 21.082838253412984, 52.340631994443861 ], [ 21.084134859840741, 52.339259873408317 ], [ 21.08672807269626, 52.339259873408317 ], [ 21.088024679124018, 52.337887709795829 ], [ 21.08672807269626, 52.336515503605888 ], [ 21.088024679124018, 52.335143254837945 ], [ 21.08672807269626, 52.33377096349146 ], [ 21.088024679124018, 52.332398629565915 ], [ 21.08672807269626, 52.33102625306077 ], [ 21.088024679124018, 52.329653833975478 ], [ 21.090617891979537, 52.329653833975478 ], [ 21.091914498407295, 52.328281372309526 ], [ 21.090617891979537, 52.326908868062375 ], [ 21.091914498407295, 52.325536321233479 ], [ 21.090617891979537, 52.324163731822324 ], [ 21.091914498407295, 52.322791099828358 ], [ 21.090617891979537, 52.321418425251061 ], [ 21.088024679124018, 52.321418425251061 ], [ 21.086728072696257, 52.322791099828358 ], [ 21.084134859840741, 52.322791099828358 ], [ 21.082838253412984, 52.321418425251061 ], [ 21.080245040557465, 52.321418425251061 ], [ 21.07894843412971, 52.320045708089907 ], [ 21.080245040557465, 52.318672948344336 ], [ 21.082838253412984, 52.318672948344336 ], [ 21.084134859840741, 52.317300146013835 ], [ 21.082838253412984, 52.315927301097858 ], [ 21.084134859840741, 52.314554413595893 ], [ 21.082838253412984, 52.313181483507378 ], [ 21.084134859840741, 52.311808510831803 ], [ 21.082838253412984, 52.310435495568633 ], [ 21.084134859840741, 52.30906243771733 ], [ 21.08672807269626, 52.30906243771733 ], [ 21.088024679124018, 52.307689337277367 ], [ 21.08672807269626, 52.306316194248211 ], [ 21.088024679124018, 52.304943008629316 ], [ 21.08672807269626, 52.303569780420162 ], [ 21.088024679124018, 52.302196509620209 ], [ 21.08672807269626, 52.30082319622894 ], [ 21.088024679124018, 52.299449840245821 ], [ 21.08672807269626, 52.298076441670304 ], [ 21.088024679124018, 52.296703000501864 ], [ 21.090617891979537, 52.296703000501864 ], [ 21.091914498407295, 52.295329516739983 ], [ 21.090617891979537, 52.293955990384113 ], [ 21.091914498407295, 52.292582421433721 ], [ 21.094507711262814, 52.292582421433721 ], [ 21.095804317690572, 52.291208809888296 ], [ 21.094507711262814, 52.289835155747284 ], [ 21.095804317690572, 52.288461459010158 ], [ 21.098397530546091, 52.288461459010158 ], [ 21.099694136973849, 52.287087719676407 ], [ 21.102287349829368, 52.287087719676407 ], [ 21.103583956257125, 52.285713937745477 ], [ 21.102287349829368, 52.284340113216842 ], [ 21.103583956257125, 52.28296624608997 ], [ 21.102287349829368, 52.281592336364334 ], [ 21.103583956257125, 52.280218384039401 ], [ 21.106177169112645, 52.280218384039401 ], [ 21.107473775540402, 52.278844389114653 ], [ 21.106177169112645, 52.277470351589542 ], [ 21.107473775540402, 52.276096271463537 ], [ 21.110066988395918, 52.276096271463537 ], [ 21.111363594823679, 52.277470351589542 ], [ 21.113956807679198, 52.277470351589542 ], [ 21.115253414106952, 52.276096271463537 ], [ 21.117846626962471, 52.276096271463537 ], [ 21.119143233390229, 52.277470351589542 ], [ 21.121736446245748, 52.277470351589542 ], [ 21.12303305267351, 52.278844389114653 ], [ 21.125626265529029, 52.278844389114653 ], [ 21.126922871956786, 52.277470351589542 ], [ 21.129516084812305, 52.277470351589542 ], [ 21.130812691240063, 52.278844389114653 ], [ 21.133405904095579, 52.278844389114653 ], [ 21.134702510523336, 52.280218384039401 ], [ 21.137295723378855, 52.280218384039401 ], [ 21.138592329806613, 52.278844389114653 ], [ 21.141185542662132, 52.278844389114653 ], [ 21.14248214908989, 52.280218384039401 ], [ 21.145075361945409, 52.280218384039401 ], [ 21.14637196837317, 52.281592336364334 ], [ 21.148965181228689, 52.281592336364334 ], [ 21.150261787656447, 52.28296624608997 ], [ 21.152855000511966, 52.28296624608997 ], [ 21.154151606939724, 52.284340113216842 ], [ 21.156744819795243, 52.284340113216842 ], [ 21.158041426223001, 52.285713937745477 ], [ 21.160634639078516, 52.285713937745477 ], [ 21.161931245506274, 52.287087719676407 ], [ 21.160634639078516, 52.288461459010158 ], [ 21.161931245506274, 52.289835155747284 ], [ 21.160634639078516, 52.291208809888296 ], [ 21.161931245506274, 52.292582421433721 ], [ 21.164524458361793, 52.292582421433721 ], [ 21.165821064789551, 52.291208809888296 ], [ 21.16841427764507, 52.291208809888296 ], [ 21.169710884072831, 52.292582421433721 ], [ 21.17230409692835, 52.292582421433721 ], [ 21.173600703356104, 52.291208809888296 ], [ 21.17230409692835, 52.289835155747284 ], [ 21.173600703356104, 52.288461459010158 ], [ 21.17230409692835, 52.287087719676407 ], [ 21.173600703356104, 52.285713937745477 ], [ 21.17230409692835, 52.284340113216842 ], [ 21.173600703356104, 52.28296624608997 ], [ 21.17230409692835, 52.281592336364334 ], [ 21.173600703356104, 52.280218384039401 ], [ 21.17230409692835, 52.278844389114653 ], [ 21.173600703356104, 52.277470351589542 ], [ 21.17230409692835, 52.276096271463537 ], [ 21.173600703356104, 52.274722148736117 ], [ 21.176193916211624, 52.274722148736117 ], [ 21.177490522639381, 52.273347983406751 ], [ 21.1800837354949, 52.273347983406751 ], [ 21.181380341922662, 52.271973775474912 ], [ 21.183973554778181, 52.271973775474912 ], [ 21.185270161205938, 52.27059952494006 ], [ 21.183973554778181, 52.269225231801663 ], [ 21.185270161205938, 52.267850896059201 ], [ 21.187863374061454, 52.267850896059201 ], [ 21.189159980489212, 52.266476517712142 ], [ 21.187863374061454, 52.265102096759954 ], [ 21.189159980489212, 52.263727633202102 ], [ 21.187863374061454, 52.262353127038068 ], [ 21.189159980489212, 52.260978578267313 ], [ 21.187863374061454, 52.25960398688931 ], [ 21.185270161205938, 52.25960398688931 ], [ 21.183973554778181, 52.258229352903527 ], [ 21.185270161205938, 52.256854676309445 ], [ 21.187863374061454, 52.256854676309445 ], [ 21.189159980489212, 52.258229352903527 ], [ 21.191753193344731, 52.258229352903527 ], [ 21.193049799772488, 52.256854676309445 ], [ 21.195643012628008, 52.256854676309445 ], [ 21.196939619055765, 52.258229352903527 ], [ 21.199532831911284, 52.258229352903527 ], [ 21.200829438339042, 52.25960398688931 ], [ 21.203422651194561, 52.25960398688931 ], [ 21.204719257622322, 52.258229352903527 ], [ 21.207312470477838, 52.258229352903527 ], [ 21.208609076905592, 52.25960398688931 ], [ 21.211202289761111, 52.25960398688931 ], [ 21.212498896188869, 52.260978578267313 ], [ 21.215092109044392, 52.260978578267313 ], [ 21.216388715472149, 52.25960398688931 ], [ 21.218981928327668, 52.25960398688931 ], [ 21.220278534755426, 52.260978578267313 ], [ 21.222871747610945, 52.260978578267313 ], [ 21.224168354038703, 52.262353127038068 ], [ 21.226761566894222, 52.262353127038068 ], [ 21.228058173321983, 52.260978578267313 ], [ 21.230651386177495, 52.260978578267313 ], [ 21.231947992605253, 52.262353127038068 ], [ 21.234541205460772, 52.262353127038068 ], [ 21.23583781188853, 52.263727633202102 ], [ 21.238431024744052, 52.263727633202102 ], [ 21.23972763117181, 52.262353127038068 ], [ 21.242320844027329, 52.262353127038068 ], [ 21.243617450455087, 52.263727633202102 ], [ 21.246210663310606, 52.263727633202102 ], [ 21.247507269738364, 52.265102096759954 ], [ 21.250100482593883, 52.265102096759954 ], [ 21.251397089021641, 52.263727633202102 ], [ 21.25399030187716, 52.263727633202102 ], [ 21.255286908304917, 52.262353127038068 ], [ 21.25399030187716, 52.260978578267313 ], [ 21.255286908304917, 52.25960398688931 ], [ 21.25399030187716, 52.258229352903527 ], [ 21.255286908304917, 52.256854676309445 ], [ 21.25399030187716, 52.255479957106523 ], [ 21.255286908304917, 52.254105195294244 ], [ 21.257880121160436, 52.254105195294244 ], [ 21.259176727588194, 52.25273039087206 ], [ 21.257880121160436, 52.251355543839452 ], [ 21.259176727588194, 52.249980654195895 ], [ 21.257880121160436, 52.248605721940848 ], [ 21.255286908304917, 52.248605721940848 ], [ 21.25399030187716, 52.2472307470738 ], [ 21.255286908304917, 52.245855729594211 ], [ 21.25399030187716, 52.244480669501549 ], [ 21.251397089021641, 52.244480669501549 ], [ 21.250100482593883, 52.243105566795293 ], [ 21.247507269738364, 52.243105566795293 ], [ 21.246210663310606, 52.244480669501549 ], [ 21.243617450455087, 52.244480669501549 ], [ 21.242320844027329, 52.243105566795293 ], [ 21.243617450455087, 52.241730421474919 ], [ 21.242320844027329, 52.240355233539894 ], [ 21.243617450455087, 52.23898000298967 ], [ 21.242320844027329, 52.237604729823751 ], [ 21.243617450455087, 52.236229414041581 ], [ 21.246210663310606, 52.236229414041581 ], [ 21.247507269738364, 52.237604729823751 ], [ 21.250100482593883, 52.237604729823751 ], [ 21.251397089021641, 52.23898000298967 ], [ 21.25399030187716, 52.23898000298967 ], [ 21.255286908304917, 52.240355233539894 ], [ 21.257880121160436, 52.240355233539894 ], [ 21.259176727588194, 52.23898000298967 ], [ 21.257880121160436, 52.237604729823751 ], [ 21.259176727588194, 52.236229414041581 ], [ 21.257880121160436, 52.234854055642657 ], [ 21.255286908304917, 52.234854055642657 ], [ 21.25399030187716, 52.233478654626431 ], [ 21.255286908304917, 52.232103210992385 ], [ 21.25399030187716, 52.230727724739985 ], [ 21.255286908304917, 52.229352195868721 ], [ 21.25399030187716, 52.227976624378037 ], [ 21.251397089021641, 52.227976624378037 ], [ 21.250100482593883, 52.226601010267423 ], [ 21.251397089021641, 52.225225353536352 ], [ 21.250100482593883, 52.223849654184292 ], [ 21.251397089021641, 52.222473912210717 ], [ 21.25399030187716, 52.222473912210717 ], [ 21.255286908304917, 52.2210981276151 ], [ 21.25399030187716, 52.219722300396903 ], [ 21.255286908304917, 52.21834643055562 ], [ 21.257880121160436, 52.21834643055562 ], [ 21.259176727588194, 52.216970518090712 ], [ 21.257880121160436, 52.215594563001645 ], [ 21.259176727588194, 52.214218565287901 ], [ 21.261769940443713, 52.214218565287901 ], [ 21.263066546871471, 52.212842524948954 ], [ 21.261769940443713, 52.211466441984278 ], [ 21.263066546871471, 52.210090316393341 ], [ 21.261769940443713, 52.208714148175616 ], [ 21.259176727588194, 52.208714148175616 ], [ 21.257880121160436, 52.207337937330585 ], [ 21.255286908304917, 52.207337937330585 ], [ 21.25399030187716, 52.205961683857709 ], [ 21.251397089021641, 52.205961683857709 ], [ 21.250100482593883, 52.204585387756481 ], [ 21.251397089021641, 52.203209049026349 ], [ 21.25399030187716, 52.203209049026349 ], [ 21.255286908304917, 52.201832667666814 ], [ 21.25399030187716, 52.200456243677323 ], [ 21.251397089021641, 52.200456243677323 ], [ 21.250100482593883, 52.199079777057371 ], [ 21.247507269738364, 52.199079777057371 ], [ 21.246210663310606, 52.197703267806425 ], [ 21.243617450455087, 52.197703267806425 ], [ 21.242320844027329, 52.196326715923952 ], [ 21.243617450455087, 52.194950121409448 ], [ 21.246210663310606, 52.194950121409448 ], [ 21.247507269738364, 52.193573484262352 ], [ 21.250100482593883, 52.193573484262352 ], [ 21.251397089021641, 52.192196804482172 ], [ 21.25399030187716, 52.192196804482172 ], [ 21.255286908304917, 52.190820082068363 ], [ 21.257880121160436, 52.190820082068363 ], [ 21.259176727588194, 52.189443317020419 ], [ 21.261769940443713, 52.189443317020419 ], [ 21.263066546871471, 52.188066509337794 ], [ 21.26565975972699, 52.188066509337794 ], [ 21.266956366154748, 52.186689659019976 ], [ 21.26565975972699, 52.185312766066417 ], [ 21.266956366154748, 52.183935830476621 ], [ 21.26565975972699, 52.182558852250054 ], [ 21.263066546871471, 52.182558852250054 ], [ 21.261769940443713, 52.181181831386176 ], [ 21.263066546871471, 52.179804767884484 ], [ 21.26565975972699, 52.179804767884484 ], [ 21.266956366154748, 52.178427661744443 ], [ 21.269549579010267, 52.178427661744443 ], [ 21.270846185438021, 52.177050512965529 ], [ 21.269549579010267, 52.175673321547208 ], [ 21.270846185438021, 52.174296087488976 ], [ 21.273439398293544, 52.174296087488976 ], [ 21.274736004721301, 52.172918810790293 ], [ 21.273439398293544, 52.171541491450647 ], [ 21.274736004721301, 52.170164129469498 ], [ 21.273439398293544, 52.168786724846328 ], [ 21.274736004721301, 52.167409277580617 ], [ 21.273439398293544, 52.166031787671841 ], [ 21.270846185438021, 52.166031787671841 ], [ 21.269549579010267, 52.167409277580617 ], [ 21.266956366154748, 52.167409277580617 ], [ 21.26565975972699, 52.166031787671841 ], [ 21.263066546871471, 52.166031787671841 ], [ 21.261769940443713, 52.164654255119473 ], [ 21.263066546871471, 52.16327667992298 ], [ 21.261769940443713, 52.161899062081858 ], [ 21.263066546871471, 52.160521401595574 ], [ 21.261769940443713, 52.159143698463602 ], [ 21.259176727588194, 52.159143698463602 ], [ 21.257880121160436, 52.157765952685423 ], [ 21.259176727588194, 52.156388164260512 ], [ 21.261769940443713, 52.156388164260512 ], [ 21.263066546871471, 52.155010333188336 ], [ 21.26565975972699, 52.155010333188336 ], [ 21.266956366154748, 52.153632459468383 ], [ 21.26565975972699, 52.152254543100135 ], [ 21.263066546871471, 52.152254543100135 ], [ 21.261769940443713, 52.150876584083051 ], [ 21.263066546871471, 52.149498582416619 ], [ 21.261769940443713, 52.148120538100322 ], [ 21.259176727588194, 52.148120538100322 ], [ 21.257880121160436, 52.146742451133619 ], [ 21.255286908304917, 52.146742451133619 ], [ 21.25399030187716, 52.145364321516013 ], [ 21.251397089021641, 52.145364321516013 ], [ 21.250100482593883, 52.146742451133619 ], [ 21.251397089021641, 52.148120538100322 ], [ 21.250100482593883, 52.149498582416619 ], [ 21.247507269738364, 52.149498582416619 ], [ 21.246210663310606, 52.150876584083051 ], [ 21.247507269738364, 52.152254543100135 ], [ 21.246210663310606, 52.153632459468383 ], [ 21.243617450455087, 52.153632459468383 ], [ 21.242320844027329, 52.155010333188336 ], [ 21.23972763117181, 52.155010333188336 ], [ 21.238431024744052, 52.156388164260512 ], [ 21.23583781188853, 52.156388164260512 ], [ 21.234541205460772, 52.157765952685423 ], [ 21.23194799260526, 52.157765952685423 ], [ 21.230651386177502, 52.156388164260512 ], [ 21.228058173321983, 52.156388164260512 ], [ 21.226761566894222, 52.155010333188336 ], [ 21.224168354038703, 52.155010333188336 ], [ 21.222871747610945, 52.153632459468383 ], [ 21.220278534755426, 52.153632459468383 ], [ 21.218981928327668, 52.152254543100135 ], [ 21.216388715472149, 52.152254543100135 ], [ 21.215092109044392, 52.150876584083051 ], [ 21.212498896188869, 52.150876584083051 ], [ 21.211202289761111, 52.149498582416619 ], [ 21.208609076905592, 52.149498582416619 ], [ 21.207312470477838, 52.150876584083051 ], [ 21.204719257622322, 52.150876584083051 ], [ 21.203422651194561, 52.149498582416619 ], [ 21.200829438339042, 52.149498582416619 ], [ 21.199532831911284, 52.148120538100322 ], [ 21.196939619055765, 52.148120538100322 ], [ 21.195643012628008, 52.149498582416619 ], [ 21.193049799772488, 52.149498582416619 ], [ 21.191753193344731, 52.148120538100322 ], [ 21.189159980489212, 52.148120538100322 ], [ 21.187863374061454, 52.149498582416619 ], [ 21.185270161205938, 52.149498582416619 ], [ 21.183973554778181, 52.148120538100322 ], [ 21.181380341922662, 52.148120538100322 ], [ 21.1800837354949, 52.146742451133619 ], [ 21.177490522639381, 52.146742451133619 ], [ 21.176193916211624, 52.145364321516013 ], [ 21.173600703356104, 52.145364321516013 ], [ 21.17230409692835, 52.143986149246956 ], [ 21.169710884072831, 52.143986149246956 ], [ 21.16841427764507, 52.142607934325937 ], [ 21.165821064789551, 52.142607934325937 ], [ 21.164524458361793, 52.143986149246956 ], [ 21.161931245506278, 52.143986149246956 ], [ 21.16063463907852, 52.142607934325937 ], [ 21.158041426223001, 52.142607934325937 ], [ 21.156744819795243, 52.141229676752431 ], [ 21.158041426223001, 52.139851376525925 ], [ 21.156744819795243, 52.13847303364588 ], [ 21.154151606939724, 52.13847303364588 ], [ 21.152855000511966, 52.137094648111791 ], [ 21.150261787656447, 52.137094648111791 ], [ 21.148965181228689, 52.135716219923118 ], [ 21.14637196837317, 52.135716219923118 ], [ 21.145075361945409, 52.134337749079357 ], [ 21.14637196837317, 52.132959235579968 ], [ 21.145075361945409, 52.131580679424445 ], [ 21.14248214908989, 52.131580679424445 ], [ 21.141185542662132, 52.130202080612257 ], [ 21.138592329806613, 52.130202080612257 ], [ 21.137295723378855, 52.128823439142884 ], [ 21.138592329806613, 52.127444755015809 ], [ 21.137295723378855, 52.126066028230504 ], [ 21.138592329806613, 52.124687258786452 ], [ 21.137295723378855, 52.123308446683126 ], [ 21.13470251052334, 52.123308446683126 ], [ 21.133405904095582, 52.121929591920015 ], [ 21.130812691240063, 52.121929591920015 ], [ 21.129516084812305, 52.123308446683126 ], [ 21.126922871956786, 52.123308446683126 ], [ 21.125626265529029, 52.121929591920015 ], [ 21.126922871956786, 52.120550694496579 ], [ 21.125626265529029, 52.119171754412314 ], [ 21.12303305267351, 52.119171754412314 ], [ 21.121736446245748, 52.117792771666693 ], [ 21.119143233390229, 52.117792771666693 ], [ 21.117846626962471, 52.116413746259191 ], [ 21.115253414106952, 52.116413746259191 ], [ 21.113956807679198, 52.115034678189296 ], [ 21.111363594823679, 52.115034678189296 ], [ 21.110066988395921, 52.113655567456483 ], [ 21.111363594823679, 52.112276414060226 ], [ 21.110066988395921, 52.110897218000012 ], [ 21.107473775540402, 52.110897218000012 ], [ 21.106177169112645, 52.109517979275317 ], [ 21.103583956257125, 52.109517979275317 ], [ 21.102287349829368, 52.108138697885622 ], [ 21.103583956257125, 52.106759373830407 ], [ 21.106177169112645, 52.106759373830407 ], [ 21.107473775540402, 52.105380007109147 ], [ 21.106177169112645, 52.104000597721331 ], [ 21.103583956257125, 52.104000597721331 ], [ 21.102287349829368, 52.102621145666419 ], [ 21.099694136973849, 52.102621145666419 ], [ 21.098397530546091, 52.104000597721331 ], [ 21.095804317690572, 52.104000597721331 ], [ 21.094507711262814, 52.102621145666419 ], [ 21.091914498407295, 52.102621145666419 ], [ 21.090617891979537, 52.101241650943919 ], [ 21.088024679124018, 52.101241650943919 ], [ 21.08672807269626, 52.099862113553279 ], [ 21.084134859840741, 52.099862113553279 ], [ 21.082838253412984, 52.098482533494007 ], [ 21.084134859840741, 52.097102910765571 ], [ 21.082838253412984, 52.095723245367459 ], [ 21.080245040557465, 52.095723245367459 ], [ 21.07894843412971, 52.097102910765571 ], [ 21.076355221274188, 52.097102910765571 ], [ 21.07505861484643, 52.098482533494007 ], [ 21.072465401990911, 52.098482533494007 ], [ 21.071168795563153, 52.099862113553279 ], [ 21.068575582707634, 52.099862113553279 ], [ 21.067278976279876, 52.101241650943919 ], [ 21.064685763424357, 52.101241650943919 ], [ 21.063389156996596, 52.102621145666419 ], [ 21.060795944141084, 52.102621145666419 ], [ 21.059499337713326, 52.104000597721331 ], [ 21.056906124857807, 52.104000597721331 ], [ 21.05560951843005, 52.105380007109147 ], [ 21.053016305574527, 52.105380007109147 ], [ 21.051719699146769, 52.106759373830407 ], [ 21.04912648629125, 52.106759373830407 ], [ 21.047829879863492, 52.108138697885622 ], [ 21.04912648629125, 52.109517979275317 ], [ 21.047829879863492, 52.110897218000012 ], [ 21.045236667007973, 52.110897218000012 ], [ 21.043940060580216, 52.109517979275317 ], [ 21.0413468477247, 52.109517979275317 ], [ 21.040050241296942, 52.108138697885622 ], [ 21.037457028441423, 52.108138697885622 ], [ 21.036160422013666, 52.106759373830407 ], [ 21.037457028441423, 52.105380007109147 ], [ 21.036160422013666, 52.104000597721331 ], [ 21.033567209158146, 52.104000597721331 ], [ 21.032270602730389, 52.105380007109147 ], [ 21.029677389874866, 52.105380007109147 ], [ 21.028380783447108, 52.104000597721331 ], [ 21.025787570591589, 52.104000597721331 ], [ 21.024490964163832, 52.105380007109147 ], [ 21.021897751308313, 52.105380007109147 ], [ 21.020601144880558, 52.104000597721331 ], [ 21.021897751308313, 52.102621145666419 ], [ 21.020601144880558, 52.101241650943919 ], [ 21.018007932025036, 52.101241650943919 ], [ 21.016711325597278, 52.102621145666419 ], [ 21.014118112741762, 52.102621145666419 ], [ 21.012821506314005, 52.101241650943919 ], [ 21.010228293458486, 52.101241650943919 ], [ 21.008931687030728, 52.102621145666419 ], [ 21.006338474175205, 52.102621145666419 ], [ 21.005041867747448, 52.101241650943919 ], [ 21.002448654891928, 52.101241650943919 ], [ 21.001152048464174, 52.102621145666419 ], [ 20.998558835608655, 52.102621145666419 ], [ 20.997262229180897, 52.101241650943919 ], [ 20.994669016325375, 52.101241650943919 ], [ 20.993372409897617, 52.102621145666419 ], [ 20.990779197042102, 52.102621145666419 ], [ 20.989482590614344, 52.101241650943919 ], [ 20.986889377758825, 52.101241650943919 ], [ 20.985592771331071, 52.102621145666419 ], [ 20.986889377758825, 52.104000597721331 ], [ 20.985592771331071, 52.105380007109147 ], [ 20.982999558475548, 52.105380007109147 ], [ 20.98170295204779, 52.106759373830407 ], [ 20.982999558475548, 52.108138697885622 ], [ 20.98170295204779, 52.109517979275317 ], [ 20.982999558475548, 52.110897218000012 ], [ 20.98170295204779, 52.112276414060226 ], [ 20.982999558475548, 52.113655567456483 ], [ 20.98170295204779, 52.115034678189296 ], [ 20.982999558475548, 52.116413746259191 ], [ 20.98170295204779, 52.117792771666693 ], [ 20.982999558475548, 52.119171754412314 ], [ 20.98170295204779, 52.120550694496579 ], [ 20.982999558475548, 52.121929591920015 ], [ 20.98170295204779, 52.123308446683126 ], [ 20.979109739192271, 52.123308446683126 ], [ 20.977813132764513, 52.124687258786452 ], [ 20.979109739192271, 52.126066028230504 ], [ 20.977813132764513, 52.127444755015809 ], [ 20.979109739192271, 52.128823439142884 ], [ 20.977813132764513, 52.130202080612257 ], [ 20.979109739192271, 52.131580679424445 ], [ 20.977813132764513, 52.132959235579968 ], [ 20.979109739192271, 52.134337749079357 ], [ 20.977813132764513, 52.135716219923118 ], [ 20.979109739192271, 52.137094648111791 ], [ 20.98170295204779, 52.137094648111791 ], [ 20.982999558475548, 52.13847303364588 ], [ 20.98170295204779, 52.139851376525925 ], [ 20.979109739192271, 52.139851376525925 ], [ 20.977813132764513, 52.141229676752431 ], [ 20.975219919908994, 52.141229676752431 ], [ 20.973923313481237, 52.142607934325937 ], [ 20.971330100625714, 52.142607934325937 ], [ 20.970033494197956, 52.143986149246956 ], [ 20.967440281342437, 52.143986149246956 ], [ 20.966143674914679, 52.145364321516013 ], [ 20.963550462059168, 52.145364321516013 ], [ 20.96225385563141, 52.146742451133619 ], [ 20.959660642775887, 52.146742451133619 ], [ 20.958364036348129, 52.148120538100322 ], [ 20.95577082349261, 52.148120538100322 ], [ 20.954474217064853, 52.149498582416619 ], [ 20.95577082349261, 52.150876584083051 ], [ 20.954474217064853, 52.152254543100135 ], [ 20.951881004209334, 52.152254543100135 ], [ 20.950584397781576, 52.153632459468383 ], [ 20.951881004209334, 52.155010333188336 ], [ 20.950584397781576, 52.156388164260512 ], [ 20.947991184926053, 52.156388164260512 ], [ 20.946694578498295, 52.155010333188336 ], [ 20.944101365642776, 52.155010333188336 ], [ 20.942804759215022, 52.156388164260512 ], [ 20.940211546359507, 52.156388164260512 ], [ 20.938914939931749, 52.157765952685423 ], [ 20.936321727076226, 52.157765952685423 ], [ 20.935025120648469, 52.159143698463602 ], [ 20.932431907792949, 52.159143698463602 ], [ 20.931135301365192, 52.160521401595574 ], [ 20.928542088509673, 52.160521401595574 ], [ 20.927245482081918, 52.161899062081858 ], [ 20.928542088509673, 52.16327667992298 ], [ 20.927245482081918, 52.164654255119473 ], [ 20.924652269226392, 52.164654255119473 ], [ 20.923355662798638, 52.166031787671841 ], [ 20.924652269226392, 52.167409277580617 ], [ 20.923355662798638, 52.168786724846328 ], [ 20.920762449943119, 52.168786724846328 ], [ 20.919465843515361, 52.170164129469498 ], [ 20.916872630659842, 52.170164129469498 ], [ 20.915576024232085, 52.171541491450647 ], [ 20.916872630659842, 52.172918810790293 ], [ 20.915576024232085, 52.174296087488976 ], [ 20.916872630659842, 52.175673321547208 ], [ 20.915576024232085, 52.177050512965529 ], [ 20.912982811376565, 52.177050512965529 ], [ 20.911686204948808, 52.178427661744443 ], [ 20.909092992093289, 52.178427661744443 ], [ 20.907796385665534, 52.179804767884484 ], [ 20.909092992093289, 52.181181831386176 ], [ 20.907796385665534, 52.182558852250054 ], [ 20.905203172810015, 52.182558852250054 ], [ 20.903906566382258, 52.183935830476621 ], [ 20.901313353526735, 52.183935830476621 ], [ 20.900016747098977, 52.182558852250054 ], [ 20.901313353526735, 52.181181831386176 ], [ 20.900016747098977, 52.179804767884484 ], [ 20.897423534243458, 52.179804767884484 ], [ 20.8961269278157, 52.181181831386176 ], [ 20.893533714960185, 52.181181831386176 ], [ 20.892237108532427, 52.179804767884484 ], [ 20.889643895676908, 52.179804767884484 ], [ 20.88834728924915, 52.181181831386176 ], [ 20.885754076393631, 52.181181831386176 ], [ 20.884457469965874, 52.179804767884484 ], [ 20.881864257110355, 52.179804767884484 ], [ 20.880567650682597, 52.181181831386176 ], [ 20.877974437827074, 52.181181831386176 ], [ 20.876677831399316, 52.179804767884484 ], [ 20.874084618543797, 52.179804767884484 ], [ 20.87278801211604, 52.181181831386176 ] ] ] ] } }
]
}
