{"type":"FeatureCollection","name":"krakow_hex_boundary","crs":{"type":"name","properties":{"name":"urn:ogc:def:crs:OGC:1.3:CRS84"}},"features":[{"type":"Feature","properties":{"name":"krakow"},"geometry":{"type":"Polygon","coordinates":[[[19.791949,49.994203],[19.791949,49.994203],[19.794,49.996438],[19.794,49.996438],[19.794,49.996438],[19.794,49.996438],[19.794,49.996438],[19.794,49.996438],[19.794,49.996438],[19.794,49.996438],[19.794,49.996438],[19.794,49.996438],[19.794,49.996438],[19.794,49.996438],[19.792023,49.998701],[19.792023,49.998701],[19.792023,49.998701],[19.794074,50.000936],[19.794074,50.000936],[19.794074,50.000936],[19.794074,50.000936],[19.794074,50.000936],[19.794074,50.000936],[19.794074,50.000936],[19.794074,50.000936],[19.794074,50.000936],[19.794074,50.000936],[19.794074,50.000936],[19.794074,50.000936],[19.792097,50.003199],[19.792097,50.003199],[19.792097,50.003199],[19.794148,50.005434],[19.794148,50.005434],[19.794148,50.005434],[19.794148,50.005434],[19.794148,50.005434],[19.794148,50.005434],[19.794148,50.005434],[19.794148,50.005434],[19.794148,50.005434],[19.794148,50.005434],[19.794148,50.005434],[19.794148,50.005434],[19.792171,50.007697],[19.792171,50.007697],[19.792171,50.007697],[19.794222,50.009932],[19.794222,50.009932],[19.794222,50.009932],[19.794222,50.009932],[19.794222,50.009932],[19.794222,50.009932],[19.794222,50.009932],[19.794222,50.009932],[19.794222,50.009932],[19.794222,50.009932],[19.794222,50.009932],[19.794222,50.009932],[19.792245,50.012195],[19.792245,50.012195],[19.792245,50.012195],[19.794296,50.01443],[19.794296,50.01443],[19.794296,50.01443],[19.794296,50.01443],[19.794296,50.01443],[19.794296,50.01443],[19.794296,50.01443],[19.794296,50.01443],[19.794296,50.01443],[19.794296,50.01443],[19.794296,50.01443],[19.794296,50.01443],[19.792318,50.016693],[19.792318,50.016693],[19.792318,50.016693],[19.794371,50.018928],[19.794371,50.018928],[19.794371,50.018928],[19.798401,50.0189],[19.798401,50.0189],[19.798401,50.0189],[19.798401,50.0189],[19.798401,50.0189],[19.798401,50.0189],[19.798401,50.0189],[19.798401,50.0189],[19.798401,50.0189],[19.798401,50.0189],[19.798401,50.0189],[19.798401,50.0189],[19.800454,50.021135],[19.800454,50.021135],[19.800454,50.021135],[19.800454,50.021135],[19.800454,50.021135],[19.800454,50.021135],[19.800454,50.021135],[19.800454,50.021135],[19.800454,50.021135],[19.800454,50.021135],[19.800454,50.021135],[19.800454,50.021135],[19.798476,50.023398],[19.798476,50.023398],[19.798476,50.023398],[19.800528,50.025633],[19.800528,50.025633],[19.800528,50.025633],[19.804559,50.025605],[19.804559,50.025605],[19.804559,50.025605],[19.804559,50.025605],[19.804559,50.025605],[19.804559,50.025605],[19.804559,50.025605],[19.804559,50.025605],[19.804559,50.025605],[19.804559,50.025605],[19.804559,50.025605],[19.804559,50.025605],[19.806612,50.02784],[19.806612,50.02784],[19.806613,50.02784],[19.810644,50.027812],[19.810644,50.027812],[19.810644,50.027812],[19.812621,50.025549],[19.812621,50.025549],[19.812621,50.025549],[19.812621,50.025549],[19.812621,50.025549],[19.812621,50.025549],[19.812621,50.025549],[19.812621,50.025549],[19.812621,50.025549],[19.812621,50.025549],[19.812621,50.025549],[19.812621,50.025549],[19.816652,50.025521],[19.816652,50.025521],[19.816652,50.025521],[19.818629,50.023258],[19.818629,50.023258],[19.818629,50.023258],[19.818629,50.023258],[19.818629,50.023258],[19.818629,50.023258],[19.818629,50.023258],[19.818629,50.023258],[19.818629,50.023258],[19.818629,50.023258],[19.81863,50.023258],[19.81863,50.023258],[19.82266,50.023229],[19.82266,50.023229],[19.82266,50.023229],[19.82266,50.023229],[19.82266,50.023229],[19.82266,50.023229],[19.82266,50.023229],[19.82266,50.023229],[19.82266,50.023229],[19.82266,50.023229],[19.82266,50.023229],[19.82266,50.023229],[19.824714,50.025464],[19.824714,50.025464],[19.824714,50.025464],[19.824714,50.025464],[19.824714,50.025464],[19.824714,50.025464],[19.824714,50.025464],[19.824714,50.025464],[19.824714,50.025464],[19.824714,50.025464],[19.824714,50.025464],[19.824714,50.025464],[19.822737,50.027727],[19.822737,50.027727],[19.822737,50.027727],[19.822737,50.027727],[19.822737,50.027727],[19.822737,50.027727],[19.822737,50.027727],[19.822737,50.027727],[19.822737,50.027727],[19.822737,50.027727],[19.822737,50.027727],[19.822737,50.027727],[19.818706,50.027756],[19.818706,50.027756],[19.818706,50.027756],[19.816729,50.030019],[19.816728,50.030019],[19.816728,50.030019],[19.816728,50.030019],[19.816728,50.030019],[19.816728,50.030019],[19.816728,50.030019],[19.816728,50.030019],[19.816728,50.030019],[19.816728,50.030019],[19.816728,50.030019],[19.816728,50.030019],[19.812697,50.030047],[19.812697,50.030047],[19.812697,50.030047],[19.810719,50.03231],[19.810719,50.03231],[19.810719,50.03231],[19.812773,50.034545],[19.812773,50.034545],[19.812773,50.034545],[19.812773,50.034545],[19.812773,50.034545],[19.812773,50.034545],[19.812773,50.034545],[19.812773,50.034545],[19.812773,50.034545],[19.812773,50.034545],[19.812773,50.034545],[19.812773,50.034545],[19.810795,50.036808],[19.810795,50.036808],[19.810795,50.036808],[19.810795,50.036808],[19.810795,50.036808],[19.810795,50.036808],[19.810795,50.036808],[19.810795,50.036808],[19.810795,50.036808],[19.810795,50.036808],[19.810795,50.036808],[19.810795,50.036808],[19.806763,50.036836],[19.806763,50.036836],[19.806763,50.036836],[19.804785,50.039099],[19.804785,50.039099],[19.804785,50.039099],[19.806839,50.041334],[19.806839,50.041334],[19.806839,50.041334],[19.806839,50.041334],[19.806839,50.041334],[19.806839,50.041334],[19.806839,50.041334],[19.806839,50.041334],[19.806839,50.041334],[19.806839,50.041334],[19.806839,50.041334],[19.806839,50.041334],[19.80486,50.043597],[19.80486,50.043597],[19.80486,50.043597],[19.806914,50.045832],[19.806914,50.045832],[19.806914,50.045832],[19.810947,50.045804],[19.810947,50.045804],[19.810947,50.045804],[19.810947,50.045804],[19.810947,50.045804],[19.810947,50.045804],[19.810947,50.045804],[19.810947,50.045804],[19.810947,50.045804],[19.810947,50.045804],[19.810947,50.045804],[19.810947,50.045804],[19.813001,50.048039],[19.813001,50.048039],[19.813001,50.048039],[19.813001,50.048039],[19.813001,50.048039],[19.813001,50.048039],[19.813001,50.048039],[19.813001,50.048039],[19.813001,50.048039],[19.813001,50.048039],[19.813001,50.048039],[19.813001,50.048039],[19.811022,50.050302],[19.811022,50.050302],[19.811022,50.050302],[19.813077,50.052537],[19.813077,50.052537],[19.813077,50.052537],[19.81711,50.052508],[19.81711,50.052508],[19.81711,50.052508],[19.81711,50.052508],[19.81711,50.052508],[19.81711,50.052508],[19.81711,50.052508],[19.81711,50.052508],[19.81711,50.052508],[19.81711,50.052508],[19.81711,50.052508],[19.81711,50.052508],[19.819165,50.054743],[19.819165,50.054743],[19.819165,50.054743],[19.819165,50.054743],[19.819165,50.054743],[19.819165,50.054743],[19.819165,50.054743],[19.819165,50.054743],[19.819165,50.054743],[19.819165,50.054743],[19.819165,50.054743],[19.819165,50.054743],[19.817187,50.057006],[19.817187,50.057006],[19.817187,50.057006],[19.817187,50.057006],[19.817187,50.057006],[19.817187,50.057006],[19.817187,50.057006],[19.817186,50.057006],[19.817186,50.057006],[19.817186,50.057006],[19.817186,50.057006],[19.817186,50.057006],[19.813153,50.057034],[19.813153,50.057034],[19.813153,50.057034],[19.813153,50.057034],[19.813153,50.057034],[19.813153,50.057034],[19.813153,50.057034],[19.813153,50.057034],[19.813153,50.057034],[19.813153,50.057034],[19.813153,50.057034],[19.813153,50.057034],[19.811098,50.0548],[19.811098,50.0548],[19.811098,50.0548],[19.807065,50.054828],[19.807065,50.054828],[19.807065,50.054828],[19.805086,50.057091],[19.805086,50.057091],[19.805086,50.057091],[19.80714,50.059326],[19.80714,50.059326],[19.80714,50.059326],[19.80714,50.059326],[19.80714,50.059326],[19.80714,50.059326],[19.80714,50.059326],[19.80714,50.059326],[19.80714,50.059326],[19.80714,50.059326],[19.80714,50.059326],[19.80714,50.059326],[19.805161,50.061589],[19.805161,50.061589],[19.805161,50.061589],[19.805161,50.061589],[19.805161,50.061589],[19.805161,50.061589],[19.805161,50.061589],[19.805161,50.061589],[19.805161,50.061589],[19.805161,50.061589],[19.805161,50.061589],[19.805161,50.061589],[19.801127,50.061617],[19.801127,50.061617],[19.801127,50.061617],[19.799147,50.063879],[19.799147,50.063879],[19.799147,50.063879],[19.801202,50.066114],[19.801202,50.066114],[19.801202,50.066114],[19.801202,50.066114],[19.801202,50.066114],[19.801202,50.066114],[19.801202,50.066114],[19.801202,50.066114],[19.801202,50.066114],[19.801202,50.066114],[19.801202,50.066114],[19.801202,50.066114],[19.799222,50.068377],[19.799222,50.068377],[19.799222,50.068377],[19.801277,50.070612],[19.801277,50.070612],[19.801277,50.070612],[19.801277,50.070612],[19.801277,50.070612],[19.801277,50.070612],[19.801277,50.070612],[19.801277,50.070612],[19.801277,50.070612],[19.801277,50.070612],[19.801277,50.070612],[19.801277,50.070612],[19.799297,50.072875],[19.799297,50.072875],[19.799297,50.072875],[19.801352,50.07511],[19.801352,50.07511],[19.801352,50.07511],[19.805387,50.075082],[19.805387,50.075082],[19.805387,50.075082],[19.805387,50.075082],[19.805387,50.075082],[19.805387,50.075082],[19.805387,50.075082],[19.805387,50.075082],[19.805387,50.075082],[19.805387,50.075082],[19.805387,50.075082],[19.805387,50.075082],[19.807442,50.077317],[19.807442,50.077317],[19.807442,50.077317],[19.807442,50.077317],[19.807442,50.077317],[19.807442,50.077317],[19.807442,50.077317],[19.807442,50.077317],[19.807442,50.077317],[19.807442,50.077317],[19.807442,50.077317],[19.807442,50.077317],[19.805462,50.07958],[19.805462,50.07958],[19.805462,50.07958],[19.807518,50.081815],[19.807518,50.081815],[19.807518,50.081815],[19.811553,50.081787],[19.811553,50.081787],[19.811553,50.081787],[19.811553,50.081787],[19.811554,50.081787],[19.811554,50.081787],[19.811554,50.081787],[19.811554,50.081787],[19.811554,50.081787],[19.811554,50.081787],[19.811554,50.081787],[19.811554,50.081787],[19.813609,50.084022],[19.813609,50.084022],[19.813609,50.084022],[19.817645,50.083993],[19.817645,50.083993],[19.817645,50.083993],[19.817645,50.083993],[19.817645,50.083993],[19.817645,50.083993],[19.817645,50.083993],[19.817645,50.083993],[19.817645,50.083993],[19.817645,50.083993],[19.817645,50.083993],[19.817645,50.083993],[19.819702,50.086228],[19.819702,50.086228],[19.819702,50.086228],[19.823737,50.086199],[19.823737,50.086199],[19.823738,50.086199],[19.823738,50.086199],[19.823738,50.086199],[19.823738,50.086199],[19.823738,50.086199],[19.823738,50.086199],[19.823738,50.086199],[19.823738,50.086199],[19.823738,50.086199],[19.823738,50.0862],[19.825794,50.088434],[19.825794,50.088434],[19.825794,50.088434],[19.82983,50.088405],[19.82983,50.088405],[19.82983,50.088405],[19.82983,50.088405],[19.82983,50.088405],[19.82983,50.088405],[19.82983,50.088405],[19.82983,50.088405],[19.82983,50.088405],[19.82983,50.088405],[19.82983,50.088405],[19.82983,50.088405],[19.831887,50.09064],[19.831887,50.09064],[19.831887,50.09064],[19.835924,50.090611],[19.835924,50.090611],[19.835924,50.090611],[19.835924,50.090611],[19.835924,50.090611],[19.835924,50.090611],[19.835924,50.090611],[19.835924,50.090611],[19.835924,50.090611],[19.835924,50.090611],[19.835924,50.090611],[19.835924,50.090611],[19.837981,50.092845],[19.837981,50.092845],[19.837981,50.092845],[19.842018,50.092816],[19.842018,50.092816],[19.842018,50.092816],[19.842018,50.092816],[19.842018,50.092816],[19.842018,50.092816],[19.842018,50.092816],[19.842018,50.092816],[19.842018,50.092816],[19.842018,50.092816],[19.842018,50.092816],[19.842018,50.092816],[19.844076,50.09505],[19.844076,50.09505],[19.844076,50.09505],[19.848112,50.095021],[19.848112,50.095021],[19.848112,50.095021],[19.848112,50.095021],[19.848112,50.095021],[19.848112,50.095021],[19.848112,50.095021],[19.848112,50.095021],[19.848112,50.095021],[19.848112,50.095021],[19.848112,50.095021],[19.848112,50.095021],[19.85017,50.097255],[19.85017,50.097255],[19.85017,50.097255],[19.854207,50.097225],[19.854207,50.097225],[19.854207,50.097225],[19.856186,50.094962],[19.856186,50.094962],[19.856186,50.094962],[19.856186,50.094962],[19.856186,50.094961],[19.856186,50.094961],[19.856186,50.094961],[19.856186,50.094961],[19.856186,50.094961],[19.856186,50.094961],[19.856186,50.094961],[19.856186,50.094961],[19.860222,50.094932],[19.860222,50.094932],[19.860222,50.094932],[19.860222,50.094932],[19.860222,50.094932],[19.860222,50.094932],[19.860222,50.094932],[19.860222,50.094932],[19.860222,50.094932],[19.860222,50.094932],[19.860222,50.094932],[19.860222,50.094932],[19.862281,50.097166],[19.862281,50.097166],[19.862281,50.097166],[19.862281,50.097166],[19.862281,50.097166],[19.862281,50.097166],[19.862281,50.097166],[19.862281,50.097166],[19.862281,50.097166],[19.862281,50.097166],[19.862281,50.097166],[19.862281,50.097166],[19.860303,50.099429],[19.860303,50.099429],[19.860303,50.099429],[19.862362,50.101663],[19.862362,50.101663],[19.862362,50.101663],[19.862362,50.101663],[19.862362,50.101663],[19.862362,50.101663],[19.862362,50.101663],[19.862362,50.101663],[19.862362,50.101663],[19.862362,50.101663],[19.862362,50.101663],[19.862362,50.101663],[19.860384,50.103927],[19.860384,50.103927],[19.860384,50.103927],[19.860384,50.103927],[19.860384,50.103927],[19.860384,50.103927],[19.860384,50.103927],[19.860384,50.103927],[19.860384,50.103927],[19.860384,50.103927],[19.860383,50.103927],[19.860383,50.103927],[19.856346,50.103957],[19.856346,50.103957],[19.856346,50.103957],[19.854367,50.106221],[19.854367,50.106221],[19.854367,50.106221],[19.856426,50.108455],[19.856426,50.108455],[19.856426,50.108455],[19.860464,50.108425],[19.860464,50.108425],[19.860464,50.108425],[19.860464,50.108425],[19.860464,50.108425],[19.860464,50.108425],[19.860464,50.108425],[19.860464,50.108425],[19.860464,50.108425],[19.860464,50.108425],[19.860464,50.108425],[19.860464,50.108425],[19.862523,50.110659],[19.862523,50.110659],[19.862523,50.110659],[19.866561,50.110629],[19.866561,50.110629],[19.866561,50.110629],[19.866561,50.110629],[19.866561,50.110629],[19.866561,50.110629],[19.866561,50.110629],[19.866561,50.110629],[19.866562,50.110629],[19.866562,50.110629],[19.866562,50.110629],[19.866562,50.110629],[19.868621,50.112863],[19.868621,50.112863],[19.868621,50.112863],[19.872659,50.112832],[19.872659,50.112832],[19.872659,50.112832],[19.872659,50.112832],[19.872659,50.112832],[19.872659,50.112832],[19.872659,50.112832],[19.872659,50.112832],[19.872659,50.112832],[19.872659,50.112832],[19.872659,50.112832],[19.872659,50.112832],[19.874719,50.115066],[19.874719,50.115066],[19.874719,50.115066],[19.874719,50.115066],[19.874719,50.115066],[19.874719,50.115066],[19.874719,50.115066],[19.874719,50.115066],[19.874719,50.115066],[19.874719,50.115066],[19.874719,50.115066],[19.874719,50.115066],[19.872741,50.11733],[19.872741,50.11733],[19.872741,50.11733],[19.874801,50.119564],[19.874801,50.119564],[19.874801,50.119564],[19.87884,50.119533],[19.87884,50.119533],[19.87884,50.119533],[19.87884,50.119533],[19.87884,50.119533],[19.87884,50.119533],[19.87884,50.119533],[19.87884,50.119533],[19.87884,50.119533],[19.87884,50.119533],[19.87884,50.119533],[19.87884,50.119533],[19.880901,50.121767],[19.880901,50.121767],[19.880901,50.121767],[19.880901,50.121767],[19.880901,50.121767],[19.880901,50.121767],[19.880901,50.121767],[19.880901,50.121767],[19.880901,50.121767],[19.880901,50.121767],[19.880901,50.121767],[19.880901,50.121767],[19.878923,50.124031],[19.878923,50.124031],[19.878923,50.124031],[19.880983,50.126265],[19.880983,50.126265],[19.880983,50.126265],[19.885023,50.126234],[19.885023,50.126234],[19.885023,50.126234],[19.887001,50.12397],[19.887001,50.12397],[19.887001,50.12397],[19.887001,50.12397],[19.887001,50.12397],[19.887001,50.12397],[19.887001,50.12397],[19.887001,50.12397],[19.887001,50.12397],[19.887001,50.12397],[19.887001,50.12397],[19.887001,50.12397],[19.89104,50.123939],[19.89104,50.123939],[19.89104,50.123939],[19.89104,50.123939],[19.89104,50.123939],[19.89104,50.123939],[19.89104,50.123939],[19.89104,50.123939],[19.89104,50.123939],[19.89104,50.123939],[19.89104,50.123939],[19.89104,50.123939],[19.893101,50.126172],[19.893101,50.126172],[19.893101,50.126172],[19.897141,50.126141],[19.897141,50.126141],[19.897141,50.126141],[19.899118,50.123876],[19.899118,50.123876],[19.899118,50.123876],[19.899118,50.123876],[19.899118,50.123876],[19.899118,50.123876],[19.899118,50.123876],[19.899118,50.123876],[19.899118,50.123876],[19.899118,50.123876],[19.899118,50.123876],[19.899118,50.123876],[19.903157,50.123845],[19.903157,50.123845],[19.903157,50.123845],[19.903157,50.123845],[19.903157,50.123845],[19.903157,50.123845],[19.903157,50.123845],[19.903157,50.123845],[19.903157,50.123845],[19.903157,50.123845],[19.903157,50.123845],[19.903157,50.123845],[19.905219,50.126078],[19.905219,50.126078],[19.905219,50.126078],[19.909258,50.126047],[19.909258,50.126047],[19.909258,50.126047],[19.911235,50.123782],[19.911235,50.123782],[19.911235,50.123782],[19.909173,50.121549],[19.909173,50.121549],[19.909173,50.121549],[19.909173,50.121549],[19.909173,50.121549],[19.909173,50.121549],[19.909173,50.121549],[19.909173,50.121549],[19.909173,50.121549],[19.909173,50.121549],[19.909173,50.121549],[19.909173,50.121549],[19.91115,50.119284],[19.91115,50.119284],[19.91115,50.119284],[19.909088,50.117051],[19.909088,50.117051],[19.909088,50.117051],[19.909088,50.117051],[19.909088,50.117051],[19.909088,50.117051],[19.909088,50.117051],[19.909088,50.117051],[19.909088,50.117051],[19.909088,50.117051],[19.909088,50.117051],[19.909088,50.117051],[19.911065,50.114787],[19.911065,50.114787],[19.911065,50.114787],[19.911065,50.114787],[19.911065,50.114787],[19.911065,50.114787],[19.911065,50.114787],[19.911065,50.114787],[19.911065,50.114787],[19.911065,50.114787],[19.911065,50.114787],[19.911065,50.114787],[19.915103,50.114755],[19.915103,50.114755],[19.915103,50.114755],[19.917079,50.11249],[19.917079,50.11249],[19.917079,50.11249],[19.915017,50.110257],[19.915017,50.110257],[19.915017,50.110257],[19.915017,50.110257],[19.915017,50.110257],[19.915017,50.110257],[19.915017,50.110257],[19.915017,50.110257],[19.915017,50.110257],[19.915017,50.110257],[19.915017,50.110257],[19.915017,50.110257],[19.916993,50.107992],[19.916993,50.107992],[19.916993,50.107992],[19.914932,50.105759],[19.914932,50.105759],[19.914932,50.105759],[19.914932,50.105759],[19.914932,50.105759],[19.914932,50.105759],[19.914932,50.105759],[19.914932,50.105759],[19.914932,50.105759],[19.914932,50.105759],[19.914932,50.105759],[19.914932,50.105759],[19.916907,50.103495],[19.916907,50.103495],[19.916907,50.103495],[19.916907,50.103495],[19.916907,50.103495],[19.916907,50.103495],[19.916907,50.103495],[19.916907,50.103495],[19.916907,50.103495],[19.916907,50.103495],[19.916907,50.103495],[19.916907,50.103495],[19.920945,50.103463],[19.920945,50.103463],[19.920945,50.103463],[19.920945,50.103463],[19.920945,50.103463],[19.920945,50.103463],[19.920945,50.103463],[19.920945,50.103463],[19.920945,50.103463],[19.920945,50.103463],[19.920945,50.103463],[19.920945,50.103463],[19.923007,50.105695],[19.923007,50.105695],[19.923007,50.105695],[19.923007,50.105695],[19.923007,50.105695],[19.923007,50.105695],[19.923007,50.105695],[19.923007,50.105695],[19.923007,50.105695],[19.923007,50.105695],[19.923007,50.105695],[19.923007,50.105696],[19.921031,50.10796],[19.921031,50.10796],[19.921031,50.10796],[19.923093,50.110193],[19.923093,50.110193],[19.923093,50.110193],[19.923093,50.110193],[19.923093,50.110193],[19.923093,50.110193],[19.923093,50.110193],[19.923093,50.110193],[19.923093,50.110193],[19.923093,50.110193],[19.923093,50.110193],[19.923093,50.110193],[19.921117,50.112458],[19.921117,50.112458],[19.921117,50.112458],[19.92318,50.114691],[19.92318,50.114691],[19.92318,50.114691],[19.927218,50.114659],[19.927218,50.114659],[19.927218,50.114659],[19.927218,50.114659],[19.927218,50.114659],[19.927218,50.114659],[19.927218,50.114659],[19.927218,50.114659],[19.927218,50.114659],[19.927218,50.114659],[19.927218,50.114659],[19.927218,50.114659],[19.929281,50.116891],[19.929281,50.116891],[19.929281,50.116891],[19.933319,50.116859],[19.933319,50.116859],[19.933319,50.116859],[19.933319,50.116859],[19.933319,50.116859],[19.933319,50.116859],[19.933319,50.116859],[19.933319,50.116859],[19.933319,50.116859],[19.933319,50.116859],[19.933319,50.116859],[19.933319,50.116859],[19.935382,50.119092],[19.935382,50.119092],[19.935382,50.119092],[19.939421,50.119059],[19.939421,50.119059],[19.939421,50.119059],[19.939421,50.119059],[19.939421,50.119059],[19.939421,50.119059],[19.939421,50.119059],[19.939421,50.119059],[19.939421,50.119059],[19.939421,50.119059],[19.939421,50.119059],[19.939421,50.119059],[19.941484,50.121291],[19.941484,50.121291],[19.941484,50.121291],[19.945523,50.121259],[19.945523,50.121259],[19.945523,50.121259],[19.945523,50.121259],[19.945523,50.121259],[19.945523,50.121259],[19.945523,50.121259],[19.945523,50.121259],[19.945523,50.121259],[19.945523,50.121259],[19.945523,50.121259],[19.945523,50.121259],[19.947587,50.123491],[19.947587,50.123491],[19.947587,50.123491],[19.951626,50.123458],[19.951626,50.123458],[19.951626,50.123458],[19.953601,50.121193],[19.953601,50.121193],[19.953601,50.121193],[19.951537,50.11896],[19.951537,50.11896],[19.951537,50.11896],[19.951537,50.11896],[19.951537,50.11896],[19.951537,50.11896],[19.951537,50.11896],[19.951537,50.11896],[19.951537,50.11896],[19.951537,50.11896],[19.951537,50.11896],[19.951537,50.11896],[19.953511,50.116695],[19.953511,50.116695],[19.953511,50.116695],[19.953511,50.116695],[19.953511,50.116695],[19.953511,50.116695],[19.953511,50.116695],[19.953511,50.116695],[19.953511,50.116695],[19.953511,50.116695],[19.953511,50.116695],[19.953511,50.116695],[19.95755,50.116662],[19.95755,50.116662],[19.95755,50.116662],[19.959524,50.114396],[19.959524,50.114396],[19.959524,50.114396],[19.959524,50.114396],[19.959524,50.114396],[19.959524,50.114396],[19.959524,50.114396],[19.959524,50.114396],[19.959524,50.114396],[19.959524,50.114396],[19.959524,50.114396],[19.959524,50.114396],[19.963562,50.114363],[19.963562,50.114363],[19.963562,50.114363],[19.965536,50.112097],[19.965536,50.112097],[19.965536,50.112097],[19.965536,50.112097],[19.965536,50.112097],[19.965536,50.112097],[19.965536,50.112097],[19.965536,50.112097],[19.965536,50.112097],[19.965536,50.112097],[19.965536,50.112097],[19.965536,50.112097],[19.969574,50.112064],[19.969574,50.112064],[19.969574,50.112064],[19.971548,50.109798],[19.971548,50.109798],[19.971548,50.109798],[19.971548,50.109798],[19.971548,50.109798],[19.971548,50.109798],[19.971548,50.109798],[19.971548,50.109798],[19.971548,50.109798],[19.971548,50.109798],[19.971548,50.109798],[19.971548,50.109798],[19.975586,50.109764],[19.975586,50.109764],[19.975586,50.109764],[19.977559,50.107498],[19.977559,50.107498],[19.977559,50.107498],[19.977559,50.107498],[19.977559,50.107498],[19.977559,50.107498],[19.977559,50.107498],[19.977559,50.107498],[19.977559,50.107498],[19.977559,50.107498],[19.977559,50.107498],[19.977559,50.107498],[19.981596,50.107464],[19.981596,50.107464],[19.981596,50.107464],[19.981596,50.107464],[19.981596,50.107464],[19.981596,50.107464],[19.981596,50.107464],[19.981596,50.107464],[19.981596,50.107464],[19.981596,50.107464],[19.981596,50.107464],[19.981596,50.107464],[19.983661,50.109696],[19.983661,50.109696],[19.983661,50.109696],[19.987699,50.109662],[19.987699,50.109662],[19.987699,50.109662],[19.989671,50.107396],[19.989671,50.107396],[19.989672,50.107396],[19.989672,50.107396],[19.989672,50.107396],[19.989672,50.107396],[19.989672,50.107396],[19.989672,50.107396],[19.989672,50.107396],[19.989672,50.107396],[19.989672,50.107396],[19.989672,50.107396],[19.993709,50.107361],[19.993709,50.107361],[19.993709,50.107361],[19.993709,50.107361],[19.993709,50.107361],[19.993709,50.107361],[19.993709,50.107361],[19.993709,50.107361],[19.993709,50.107361],[19.993709,50.107361],[19.993709,50.107361],[19.993709,50.107361],[19.995775,50.109593],[19.995775,50.109593],[19.995775,50.109593],[19.999812,50.109558],[19.999812,50.109558],[19.999812,50.109558],[20.001784,50.107292],[20.001784,50.107292],[20.001784,50.107292],[20.001784,50.107292],[20.001784,50.107292],[20.001784,50.107292],[20.001784,50.107292],[20.001784,50.107292],[20.001784,50.107292],[20.001784,50.107292],[20.001784,50.107292],[20.001784,50.107292],[20.005822,50.107257],[20.005822,50.107257],[20.005822,50.107257],[20.005822,50.107257],[20.005822,50.107257],[20.005822,50.107257],[20.005822,50.107257],[20.005822,50.107257],[20.005822,50.107257],[20.005822,50.107257],[20.005822,50.107257],[20.005822,50.107257],[20.007888,50.109488],[20.007888,50.109488],[20.007888,50.109488],[20.011926,50.109453],[20.011926,50.109453],[20.011926,50.109453],[20.013897,50.107187],[20.013897,50.107187],[20.013897,50.107187],[20.013897,50.107187],[20.013897,50.107187],[20.013897,50.107187],[20.013897,50.107187],[20.013897,50.107187],[20.013897,50.107187],[20.013897,50.107187],[20.013897,50.107187],[20.013897,50.107187],[20.017935,50.107151],[20.017935,50.107151],[20.017935,50.107151],[20.017935,50.107151],[20.017935,50.107151],[20.017935,50.107151],[20.017935,50.107151],[20.017935,50.107151],[20.017935,50.107151],[20.017935,50.107151],[20.017935,50.107151],[20.017935,50.107151],[20.020001,50.109382],[20.020001,50.109382],[20.020001,50.109382],[20.024039,50.109347],[20.024039,50.109347],[20.024039,50.109347],[20.02601,50.10708],[20.02601,50.10708],[20.02601,50.10708],[20.02601,50.10708],[20.02601,50.10708],[20.02601,50.10708],[20.02601,50.10708],[20.02601,50.10708],[20.02601,50.10708],[20.02601,50.10708],[20.02601,50.10708],[20.02601,50.10708],[20.030047,50.107044],[20.030047,50.107044],[20.030047,50.107044],[20.030047,50.107044],[20.030047,50.107044],[20.030047,50.107044],[20.030047,50.107044],[20.030047,50.107044],[20.030047,50.107044],[20.030047,50.107044],[20.030047,50.107044],[20.030047,50.107044],[20.032114,50.109275],[20.032114,50.109275],[20.032114,50.109275],[20.032114,50.109275],[20.032114,50.109275],[20.032114,50.109275],[20.032114,50.109275],[20.032114,50.109275],[20.032114,50.109275],[20.032114,50.109275],[20.032114,50.109275],[20.032114,50.109275],[20.030144,50.111542],[20.030144,50.111542],[20.030144,50.111542],[20.032211,50.113773],[20.032211,50.113773],[20.032211,50.113773],[20.036249,50.113737],[20.036249,50.113737],[20.036249,50.113737],[20.036249,50.113737],[20.036249,50.113737],[20.036249,50.113737],[20.036249,50.113737],[20.036249,50.113737],[20.036249,50.113737],[20.036249,50.113737],[20.036249,50.113737],[20.036249,50.113737],[20.038317,50.115968],[20.038317,50.115968],[20.038317,50.115968],[20.042355,50.115931],[20.042355,50.115931],[20.042355,50.115931],[20.044325,50.113664],[20.044325,50.113664],[20.044325,50.113664],[20.044325,50.113664],[20.044325,50.113664],[20.044325,50.113664],[20.044325,50.113664],[20.044325,50.113664],[20.044325,50.113664],[20.044325,50.113664],[20.044325,50.113664],[20.044325,50.113664],[20.048363,50.113628],[20.048363,50.113628],[20.048363,50.113628],[20.048363,50.113628],[20.048363,50.113628],[20.048363,50.113628],[20.048363,50.113628],[20.048363,50.113628],[20.048363,50.113628],[20.048363,50.113628],[20.048363,50.113628],[20.048363,50.113628],[20.050432,50.115859],[20.050432,50.115859],[20.050432,50.115859],[20.05447,50.115822],[20.05447,50.115822],[20.05447,50.115822],[20.05447,50.115822],[20.05447,50.115822],[20.05447,50.115822],[20.05447,50.115822],[20.05447,50.115822],[20.05447,50.115822],[20.05447,50.115822],[20.05447,50.115822],[20.05447,50.115822],[20.056538,50.118052],[20.056538,50.118052],[20.056538,50.118052],[20.060577,50.118016],[20.060577,50.118016],[20.060577,50.118016],[20.062546,50.115748],[20.062546,50.115748],[20.062546,50.115748],[20.062546,50.115748],[20.062546,50.115748],[20.062546,50.115748],[20.062546,50.115748],[20.062546,50.115748],[20.062546,50.115748],[20.062546,50.115748],[20.062546,50.115748],[20.062546,50.115748],[20.066584,50.115711],[20.066584,50.115711],[20.066584,50.115711],[20.066584,50.115711],[20.066584,50.115711],[20.066584,50.115711],[20.066584,50.115711],[20.066584,50.115711],[20.066584,50.115711],[20.066585,50.115711],[20.066585,50.115711],[20.066585,50.115711],[20.068654,50.117941],[20.068654,50.117941],[20.068654,50.117941],[20.072692,50.117904],[20.072692,50.117904],[20.072692,50.117904],[20.074661,50.115637],[20.074661,50.115637],[20.074661,50.115637],[20.074661,50.115637],[20.074661,50.115637],[20.074661,50.115637],[20.074661,50.115637],[20.074661,50.115637],[20.074661,50.115637],[20.074661,50.115637],[20.074661,50.115637],[20.074661,50.115637],[20.078699,50.115599],[20.078699,50.115599],[20.078699,50.115599],[20.080668,50.113332],[20.080668,50.113332],[20.080668,50.113332],[20.080668,50.113332],[20.080668,50.113332],[20.080668,50.113332],[20.080668,50.113332],[20.080668,50.113332],[20.080668,50.113332],[20.080668,50.113332],[20.080668,50.113332],[20.080668,50.113332],[20.084705,50.113294],[20.084705,50.113294],[20.084705,50.113294],[20.084706,50.113294],[20.084706,50.113294],[20.084706,50.113294],[20.084706,50.113294],[20.084706,50.113294],[20.084706,50.113294],[20.084706,50.113294],[20.084706,50.113294],[20.084706,50.113294],[20.086775,50.115524],[20.086775,50.115524],[20.086775,50.115524],[20.090814,50.115486],[20.090814,50.115486],[20.090814,50.115486],[20.090814,50.115486],[20.090814,50.115486],[20.090814,50.115486],[20.090814,50.115486],[20.090814,50.115486],[20.090814,50.115486],[20.090814,50.115486],[20.090814,50.115486],[20.090814,50.115486],[20.092884,50.117716],[20.092884,50.117716],[20.092884,50.117716],[20.092884,50.117716],[20.092884,50.117716],[20.092884,50.117716],[20.092884,50.117716],[20.092884,50.117716],[20.092884,50.117716],[20.092884,50.117716],[20.092884,50.117716],[20.092884,50.117716],[20.090916,50.119984],[20.090916,50.119984],[20.090916,50.119984],[20.092986,50.122213],[20.092986,50.122213],[20.092986,50.122213],[20.097025,50.122175],[20.097025,50.122175],[20.097025,50.122175],[20.098993,50.119908],[20.098993,50.119908],[20.098993,50.119908],[20.098993,50.119908],[20.098993,50.119908],[20.098993,50.119908],[20.098993,50.119908],[20.098993,50.119908],[20.098993,50.119908],[20.098993,50.119908],[20.098993,50.119908],[20.098993,50.119908],[20.103031,50.119869],[20.103031,50.119869],[20.103031,50.119869],[20.104999,50.117601],[20.104999,50.117601],[20.104999,50.117601],[20.104999,50.117601],[20.104999,50.117601],[20.104999,50.117601],[20.104999,50.117601],[20.104999,50.117601],[20.104999,50.117601],[20.104999,50.117601],[20.104999,50.117601],[20.104999,50.117601],[20.109037,50.117563],[20.109037,50.117563],[20.109037,50.117563],[20.109037,50.117563],[20.109037,50.117563],[20.109037,50.117563],[20.109037,50.117563],[20.109037,50.117563],[20.109037,50.117563],[20.109037,50.117563],[20.109037,50.117563],[20.109037,50.117563],[20.111108,50.119792],[20.111108,50.119792],[20.111108,50.119792],[20.115147,50.119753],[20.115147,50.119753],[20.115147,50.119753],[20.117114,50.117485],[20.117114,50.117485],[20.117114,50.117485],[20.117114,50.117485],[20.117114,50.117485],[20.117114,50.117485],[20.117114,50.117485],[20.117114,50.117485],[20.117114,50.117485],[20.117114,50.117485],[20.117114,50.117485],[20.117114,50.117485],[20.121152,50.117446],[20.121152,50.117446],[20.121152,50.117446],[20.123119,50.115178],[20.123119,50.115178],[20.123119,50.115178],[20.121047,50.112949],[20.121047,50.112949],[20.121047,50.112949],[20.121047,50.112949],[20.121047,50.112949],[20.121047,50.112949],[20.121047,50.112949],[20.121047,50.112949],[20.121047,50.112949],[20.121047,50.112949],[20.121047,50.112949],[20.121047,50.112949],[20.123013,50.110681],[20.123013,50.110681],[20.123013,50.110681],[20.123013,50.110681],[20.123013,50.110681],[20.123013,50.110681],[20.123013,50.110681],[20.123013,50.110681],[20.123013,50.110681],[20.123013,50.110681],[20.123013,50.110681],[20.123014,50.110681],[20.127051,50.110642],[20.127051,50.110642],[20.127051,50.110642],[20.129017,50.108373],[20.129017,50.108373],[20.129017,50.108373],[20.129017,50.108373],[20.129017,50.108373],[20.129017,50.108373],[20.129017,50.108373],[20.129017,50.108373],[20.129017,50.108373],[20.129017,50.108373],[20.129017,50.108373],[20.129017,50.108373],[20.133055,50.108334],[20.133055,50.108334],[20.133055,50.108334],[20.133055,50.108334],[20.133055,50.108334],[20.133055,50.108334],[20.133055,50.108334],[20.133055,50.108334],[20.133055,50.108334],[20.133055,50.108334],[20.133055,50.108334],[20.133055,50.108334],[20.135127,50.110563],[20.135127,50.110563],[20.135127,50.110563],[20.139164,50.110523],[20.139164,50.110523],[20.139164,50.110523],[20.139164,50.110523],[20.139164,50.110523],[20.139164,50.110523],[20.139164,50.110523],[20.139164,50.110523],[20.139164,50.110523],[20.139164,50.110523],[20.139164,50.110523],[20.139164,50.110523],[20.141236,50.112752],[20.141236,50.112752],[20.141236,50.112752],[20.145274,50.112713],[20.145274,50.112713],[20.145274,50.112713],[20.145274,50.112713],[20.145274,50.112713],[20.145274,50.112713],[20.145274,50.112713],[20.145274,50.112713],[20.145274,50.112713],[20.145274,50.112713],[20.145274,50.112713],[20.145274,50.112713],[20.147347,50.114941],[20.147347,50.114941],[20.147347,50.114941],[20.147347,50.114941],[20.147347,50.114941],[20.147347,50.114941],[20.147347,50.114941],[20.147347,50.114941],[20.147347,50.114941],[20.147347,50.114941],[20.147347,50.114941],[20.147347,50.114941],[20.145382,50.11721],[20.145382,50.11721],[20.145382,50.11721],[20.147455,50.119439],[20.147455,50.119439],[20.147455,50.119439],[20.151493,50.119399],[20.151493,50.119399],[20.151493,50.119399],[20.151493,50.119399],[20.151493,50.119399],[20.151493,50.119399],[20.151493,50.119399],[20.151493,50.119399],[20.151493,50.119399],[20.151493,50.119399],[20.151493,50.119399],[20.151493,50.119399],[20.153566,50.121627],[20.153566,50.121627],[20.153566,50.121627],[20.157605,50.121587],[20.157605,50.121587],[20.157605,50.121587],[20.157605,50.121587],[20.157605,50.121587],[20.157605,50.121587],[20.157605,50.121587],[20.157605,50.121587],[20.157605,50.121587],[20.157605,50.121587],[20.157605,50.121587],[20.157605,50.121587],[20.159678,50.123816],[20.159678,50.123816],[20.159678,50.123816],[20.163717,50.123775],[20.163717,50.123775],[20.163717,50.123775],[20.165682,50.121506],[20.165682,50.121506],[20.165682,50.121506],[20.165682,50.121506],[20.165682,50.121506],[20.165682,50.121506],[20.165682,50.121506],[20.165682,50.121506],[20.165682,50.121506],[20.165682,50.121506],[20.165682,50.121506],[20.165682,50.121506],[20.16972,50.121466],[20.16972,50.121466],[20.16972,50.121466],[20.16972,50.121466],[20.16972,50.121466],[20.16972,50.121466],[20.16972,50.121466],[20.16972,50.121466],[20.16972,50.121466],[20.16972,50.121466],[20.16972,50.121466],[20.169721,50.121466],[20.171795,50.123694],[20.171795,50.123694],[20.171795,50.123694],[20.175833,50.123653],[20.175833,50.123653],[20.175833,50.123653],[20.177798,50.121384],[20.177798,50.121384],[20.177798,50.121384],[20.177798,50.121384],[20.177798,50.121384],[20.177798,50.121384],[20.177798,50.121384],[20.177798,50.121384],[20.177798,50.121384],[20.177798,50.121384],[20.177798,50.121384],[20.177798,50.121384],[20.181836,50.121343],[20.181836,50.121343],[20.181836,50.121343],[20.1838,50.119074],[20.1838,50.119074],[20.1838,50.119074],[20.1838,50.119074],[20.1838,50.119074],[20.1838,50.119074],[20.1838,50.119074],[20.1838,50.119074],[20.1838,50.119074],[20.1838,50.119074],[20.1838,50.119074],[20.1838,50.119074],[20.187838,50.119033],[20.187838,50.119033],[20.187838,50.119033],[20.187838,50.119033],[20.187838,50.119033],[20.187838,50.119033],[20.187838,50.119033],[20.187838,50.119033],[20.187838,50.119033],[20.187838,50.119033],[20.187838,50.119033],[20.187838,50.119033],[20.189913,50.121261],[20.189913,50.121261],[20.189913,50.121261],[20.193952,50.121219],[20.193952,50.121219],[20.193952,50.121219],[20.193952,50.121219],[20.193952,50.121219],[20.193952,50.121219],[20.193952,50.121219],[20.193952,50.121219],[20.193952,50.121219],[20.193952,50.121219],[20.193952,50.121219],[20.193952,50.121219],[20.196027,50.123447],[20.196027,50.123447],[20.196027,50.123447],[20.200066,50.123405],[20.200066,50.123405],[20.200066,50.123405],[20.202029,50.121136],[20.202029,50.121136],[20.202029,50.121136],[20.202029,50.121136],[20.202029,50.121136],[20.202029,50.121136],[20.202029,50.121136],[20.202029,50.121136],[20.202029,50.121136],[20.202029,50.121136],[20.202029,50.121136],[20.202029,50.121136],[20.206067,50.121094],[20.206067,50.121094],[20.206067,50.121094],[20.20803,50.118824],[20.20803,50.118824],[20.20803,50.118824],[20.20803,50.118824],[20.20803,50.118824],[20.20803,50.118824],[20.20803,50.118824],[20.20803,50.118824],[20.20803,50.118824],[20.20803,50.118824],[20.20803,50.118824],[20.20803,50.118824],[20.212068,50.118782],[20.212068,50.118782],[20.212068,50.118782],[20.21403,50.116512],[20.21403,50.116512],[20.21403,50.116512],[20.211954,50.114285],[20.211954,50.114285],[20.211954,50.114285],[20.207917,50.114327],[20.207917,50.114327],[20.207917,50.114327],[20.207917,50.114327],[20.207917,50.114327],[20.207917,50.114327],[20.207917,50.114327],[20.207917,50.114327],[20.207917,50.114327],[20.207917,50.114327],[20.207917,50.114327],[20.207917,50.114327],[20.205841,50.112099],[20.205841,50.112099],[20.205841,50.112099],[20.205841,50.112099],[20.205841,50.112099],[20.205841,50.112099],[20.205841,50.112099],[20.205841,50.112099],[20.205841,50.112099],[20.205841,50.112099],[20.205841,50.112099],[20.205841,50.112099],[20.207803,50.10983],[20.207803,50.10983],[20.207803,50.10983],[20.205728,50.107602],[20.205728,50.107602],[20.205728,50.107602],[20.201691,50.107644],[20.201691,50.107644],[20.201691,50.107644],[20.201691,50.107644],[20.201691,50.107644],[20.201691,50.107644],[20.201691,50.107644],[20.201691,50.107644],[20.201691,50.107644],[20.201691,50.107644],[20.201691,50.107644],[20.201691,50.107644],[20.199616,50.105416],[20.199616,50.105416],[20.199616,50.105416],[20.195579,50.105458],[20.195579,50.105458],[20.195579,50.105458],[20.195579,50.105458],[20.195579,50.105458],[20.195579,50.105458],[20.195579,50.105458],[20.195579,50.105458],[20.195579,50.105458],[20.195579,50.105458],[20.195579,50.105458],[20.195579,50.105458],[20.193504,50.10323],[20.193504,50.10323],[20.193504,50.10323],[20.193504,50.10323],[20.193504,50.10323],[20.193504,50.10323],[20.193504,50.10323],[20.193504,50.10323],[20.193504,50.10323],[20.193504,50.10323],[20.193504,50.10323],[20.193504,50.10323],[20.195467,50.10096],[20.195467,50.10096],[20.195467,50.10096],[20.193393,50.098733],[20.193393,50.098733],[20.193393,50.098733],[20.193393,50.098733],[20.193393,50.098733],[20.193393,50.098733],[20.193393,50.098733],[20.193393,50.098733],[20.193393,50.098733],[20.193393,50.098733],[20.193393,50.098732],[20.193393,50.098732],[20.195355,50.096463],[20.195355,50.096463],[20.195355,50.096463],[20.193281,50.094235],[20.193281,50.094235],[20.193281,50.094235],[20.193281,50.094235],[20.193281,50.094235],[20.193281,50.094235],[20.193281,50.094235],[20.193281,50.094235],[20.193281,50.094235],[20.193281,50.094235],[20.193281,50.094235],[20.193281,50.094235],[20.195243,50.091966],[20.195243,50.091966],[20.195243,50.091966],[20.193169,50.089738],[20.193169,50.089738],[20.193169,50.089738],[20.193169,50.089738],[20.193169,50.089738],[20.193169,50.089738],[20.193169,50.089738],[20.193169,50.089738],[20.193169,50.089738],[20.193169,50.089738],[20.193169,50.089738],[20.193169,50.089738],[20.195131,50.087468],[20.195131,50.087468],[20.195131,50.087468],[20.193058,50.085241],[20.193058,50.085241],[20.193058,50.085241],[20.193058,50.085241],[20.193058,50.085241],[20.193058,50.085241],[20.193058,50.085241],[20.193058,50.085241],[20.193058,50.085241],[20.193058,50.085241],[20.193058,50.085241],[20.193058,50.085241],[20.195019,50.082971],[20.195019,50.082971],[20.195019,50.082971],[20.192946,50.080743],[20.192946,50.080743],[20.192946,50.080743],[20.192946,50.080743],[20.192946,50.080743],[20.192946,50.080743],[20.192946,50.080743],[20.192946,50.080743],[20.192946,50.080743],[20.192946,50.080743],[20.192946,50.080743],[20.192946,50.080743],[20.194908,50.078474],[20.194908,50.078474],[20.194908,50.078474],[20.194908,50.078474],[20.194908,50.078474],[20.194908,50.078474],[20.194908,50.078474],[20.194908,50.078474],[20.194908,50.078474],[20.194908,50.078474],[20.194908,50.078474],[20.194908,50.078474],[20.198942,50.078432],[20.198942,50.078432],[20.198942,50.078432],[20.200904,50.076163],[20.200904,50.076163],[20.200904,50.076163],[20.200904,50.076163],[20.200904,50.076163],[20.200904,50.076163],[20.200904,50.076163],[20.200904,50.076163],[20.200904,50.076163],[20.200904,50.076163],[20.200904,50.076163],[20.200904,50.076163],[20.204938,50.076121],[20.204938,50.076121],[20.204938,50.076121],[20.206899,50.073851],[20.206899,50.073851],[20.206899,50.073851],[20.204826,50.071624],[20.204826,50.071624],[20.204826,50.071624],[20.200791,50.071665],[20.200791,50.071665],[20.200791,50.071665],[20.200791,50.071665],[20.200791,50.071665],[20.200791,50.071665],[20.200791,50.071665],[20.200791,50.071665],[20.200791,50.071665],[20.200791,50.071665],[20.200791,50.071665],[20.200791,50.071665],[20.198718,50.069438],[20.198718,50.069438],[20.198718,50.069438],[20.198718,50.069438],[20.198718,50.069438],[20.198718,50.069438],[20.198718,50.069438],[20.198718,50.069438],[20.198718,50.069437],[20.198718,50.069437],[20.198718,50.069437],[20.198718,50.069437],[20.200679,50.067168],[20.200679,50.067168],[20.200679,50.067168],[20.200679,50.067168],[20.200679,50.067168],[20.200679,50.067168],[20.200679,50.067168],[20.200679,50.067168],[20.200679,50.067168],[20.200679,50.067168],[20.200679,50.067168],[20.200679,50.067168],[20.204713,50.067126],[20.204713,50.067126],[20.204713,50.067126],[20.206674,50.064857],[20.206674,50.064857],[20.206674,50.064857],[20.206674,50.064857],[20.206674,50.064857],[20.206674,50.064857],[20.206674,50.064857],[20.206674,50.064857],[20.206674,50.064857],[20.206674,50.064857],[20.206674,50.064857],[20.206674,50.064857],[20.210707,50.064815],[20.210707,50.064815],[20.210707,50.064815],[20.212667,50.062545],[20.212667,50.062545],[20.212667,50.062545],[20.210594,50.060317],[20.210594,50.060317],[20.210594,50.060317],[20.210594,50.060317],[20.210594,50.060317],[20.210594,50.060317],[20.210594,50.060317],[20.210594,50.060317],[20.210594,50.060317],[20.210594,50.060317],[20.210594,50.060317],[20.210594,50.060317],[20.212554,50.058048],[20.212554,50.058048],[20.212554,50.058048],[20.212554,50.058048],[20.212554,50.058048],[20.212554,50.058048],[20.212554,50.058048],[20.212554,50.058048],[20.212554,50.058048],[20.212554,50.058048],[20.212554,50.058048],[20.212554,50.058048],[20.216587,50.058005],[20.216587,50.058005],[20.216587,50.058005],[20.218547,50.055736],[20.218547,50.055736],[20.218547,50.055736],[20.218547,50.055736],[20.218547,50.055736],[20.218547,50.055736],[20.218547,50.055736],[20.218547,50.055736],[20.218547,50.055736],[20.218547,50.055736],[20.218547,50.055736],[20.218547,50.055736],[20.22258,50.055693],[20.22258,50.055693],[20.22258,50.055693],[20.224539,50.053423],[20.224539,50.053423],[20.224539,50.053423],[20.222466,50.051196],[20.222466,50.051196],[20.222466,50.051196],[20.218433,50.051238],[20.218433,50.051238],[20.218433,50.051238],[20.218433,50.051238],[20.218433,50.051238],[20.218433,50.051238],[20.218433,50.051238],[20.218433,50.051238],[20.218433,50.051238],[20.218433,50.051238],[20.218433,50.051238],[20.218433,50.051238],[20.21636,50.049011],[20.21636,50.049011],[20.21636,50.049011],[20.21636,50.049011],[20.21636,50.049011],[20.21636,50.049011],[20.21636,50.049011],[20.21636,50.049011],[20.21636,50.049011],[20.21636,50.049011],[20.21636,50.049011],[20.21636,50.049011],[20.218319,50.046741],[20.218319,50.046741],[20.218319,50.046741],[20.216246,50.044513],[20.216246,50.044513],[20.216246,50.044513],[20.212214,50.044556],[20.212214,50.044556],[20.212214,50.044556],[20.212214,50.044556],[20.212214,50.044556],[20.212214,50.044556],[20.212214,50.044556],[20.212214,50.044556],[20.212214,50.044556],[20.212214,50.044556],[20.212214,50.044556],[20.212214,50.044556],[20.210142,50.042328],[20.210142,50.042328],[20.210142,50.042328],[20.20611,50.04237],[20.20611,50.04237],[20.20611,50.04237],[20.20611,50.04237],[20.20611,50.04237],[20.20611,50.04237],[20.20611,50.04237],[20.20611,50.04237],[20.20611,50.04237],[20.20611,50.04237],[20.20611,50.04237],[20.20611,50.04237],[20.204038,50.040142],[20.204038,50.040142],[20.204038,50.040142],[20.200006,50.040184],[20.200006,50.040184],[20.200006,50.040184],[20.198046,50.042453],[20.198046,50.042453],[20.198046,50.042453],[20.198046,50.042453],[20.198046,50.042453],[20.198046,50.042453],[20.198046,50.042453],[20.198046,50.042453],[20.198046,50.042453],[20.198046,50.042453],[20.198046,50.042453],[20.198046,50.042453],[20.194014,50.042495],[20.194014,50.042495],[20.194014,50.042495],[20.192054,50.044764],[20.192054,50.044764],[20.192054,50.044764],[20.192054,50.044764],[20.192054,50.044764],[20.192054,50.044764],[20.192054,50.044764],[20.192054,50.044764],[20.192054,50.044764],[20.192054,50.044764],[20.192054,50.044764],[20.192054,50.044764],[20.188022,50.044806],[20.188022,50.044806],[20.188022,50.044806],[20.186061,50.047075],[20.186061,50.047075],[20.186061,50.047075],[20.186061,50.047075],[20.186061,50.047075],[20.186061,50.047075],[20.186061,50.047075],[20.186061,50.047075],[20.186061,50.047075],[20.186061,50.047075],[20.186061,50.047075],[20.186061,50.047075],[20.182029,50.047116],[20.182029,50.047116],[20.182029,50.047116],[20.182029,50.047116],[20.182029,50.047116],[20.182029,50.047116],[20.182029,50.047116],[20.182029,50.047116],[20.182029,50.047116],[20.182029,50.047116],[20.182029,50.047116],[20.182029,50.047116],[20.179958,50.044888],[20.179958,50.044888],[20.179958,50.044888],[20.175926,50.044929],[20.175925,50.044929],[20.175925,50.044929],[20.175925,50.044929],[20.175925,50.044929],[20.175925,50.044929],[20.175925,50.044929],[20.175925,50.044929],[20.175925,50.044929],[20.175925,50.044929],[20.175925,50.044929],[20.175925,50.044929],[20.173855,50.042701],[20.173855,50.042701],[20.173855,50.042701],[20.169823,50.042741],[20.169823,50.042741],[20.169823,50.042741],[20.169823,50.042741],[20.169823,50.042741],[20.169823,50.042741],[20.169823,50.042741],[20.169823,50.042741],[20.169823,50.042741],[20.169823,50.042741],[20.169823,50.042741],[20.169823,50.042741],[20.167752,50.040513],[20.167752,50.040513],[20.167752,50.040513],[20.16372,50.040553],[20.16372,50.040553],[20.16372,50.040553],[20.16372,50.040553],[20.16372,50.040553],[20.16372,50.040553],[20.16372,50.040553],[20.16372,50.040553],[20.16372,50.040553],[20.16372,50.040553],[20.16372,50.040553],[20.16372,50.040553],[20.16165,50.038325],[20.16165,50.038325],[20.16165,50.038325],[20.157619,50.038365],[20.157619,50.038365],[20.157619,50.038365],[20.155657,50.040634],[20.155657,50.040634],[20.155657,50.040634],[20.155657,50.040634],[20.155657,50.040634],[20.155657,50.040634],[20.155657,50.040634],[20.155657,50.040634],[20.155657,50.040634],[20.155657,50.040634],[20.155657,50.040634],[20.155657,50.040634],[20.151625,50.040674],[20.151625,50.040674],[20.151625,50.040674],[20.149663,50.042943],[20.149663,50.042943],[20.149663,50.042943],[20.149663,50.042943],[20.149663,50.042943],[20.149663,50.042943],[20.149663,50.042943],[20.149663,50.042943],[20.149663,50.042943],[20.149663,50.042943],[20.149663,50.042943],[20.149663,50.042943],[20.145631,50.042983],[20.145631,50.042983],[20.145631,50.042983],[20.143668,50.045251],[20.143668,50.045251],[20.143668,50.045251],[20.143668,50.045251],[20.143668,50.045251],[20.143668,50.045251],[20.143668,50.045251],[20.143668,50.045251],[20.143668,50.045251],[20.143668,50.045251],[20.143668,50.045251],[20.143668,50.045251],[20.139636,50.045291],[20.139636,50.045291],[20.139636,50.045291],[20.139636,50.045291],[20.139636,50.045291],[20.139636,50.045291],[20.139636,50.045291],[20.139636,50.045291],[20.139636,50.045291],[20.139636,50.045291],[20.139636,50.045291],[20.139636,50.045291],[20.137567,50.043062],[20.137567,50.043062],[20.137567,50.043062],[20.133535,50.043101],[20.133535,50.043101],[20.133535,50.043101],[20.133535,50.043101],[20.133535,50.043101],[20.133535,50.043101],[20.133535,50.043101],[20.133535,50.043101],[20.133535,50.043101],[20.133535,50.043101],[20.133535,50.043101],[20.133535,50.043101],[20.131466,50.040872],[20.131466,50.040872],[20.131466,50.040872],[20.131466,50.040872],[20.131466,50.040872],[20.131466,50.040872],[20.131466,50.040872],[20.131466,50.040872],[20.131466,50.040872],[20.131466,50.040872],[20.131466,50.040872],[20.131466,50.040872],[20.133429,50.038604],[20.133429,50.038604],[20.133429,50.038604],[20.13136,50.036375],[20.13136,50.036375],[20.13136,50.036375],[20.127329,50.036414],[20.127329,50.036414],[20.127329,50.036414],[20.125366,50.038682],[20.125366,50.038682],[20.125365,50.038682],[20.125365,50.038682],[20.125365,50.038682],[20.125365,50.038682],[20.125365,50.038682],[20.125365,50.038682],[20.125365,50.038682],[20.125365,50.038682],[20.125365,50.038682],[20.125365,50.038682],[20.121334,50.038722],[20.121334,50.038722],[20.121334,50.038722],[20.11937,50.04099],[20.11937,50.04099],[20.11937,50.04099],[20.11937,50.04099],[20.11937,50.04099],[20.11937,50.04099],[20.11937,50.04099],[20.11937,50.04099],[20.11937,50.04099],[20.11937,50.04099],[20.11937,50.04099],[20.11937,50.04099],[20.115338,50.041029],[20.115338,50.041029],[20.115338,50.041029],[20.115338,50.041029],[20.115338,50.041029],[20.115338,50.041029],[20.115338,50.041029],[20.115338,50.041029],[20.115338,50.041029],[20.115338,50.041029],[20.115338,50.041028],[20.115338,50.041028],[20.11327,50.038799],[20.11327,50.038799],[20.11327,50.038799],[20.109239,50.038838],[20.109239,50.038838],[20.109239,50.038838],[20.107275,50.041106],[20.107275,50.041106],[20.107275,50.041106],[20.107275,50.041106],[20.107275,50.041106],[20.107275,50.041106],[20.107275,50.041106],[20.107275,50.041106],[20.107275,50.041106],[20.107275,50.041106],[20.107275,50.041106],[20.107275,50.041106],[20.103243,50.041144],[20.103243,50.041144],[20.103243,50.041144],[20.103243,50.041144],[20.103243,50.041144],[20.103243,50.041144],[20.103243,50.041144],[20.103243,50.041144],[20.103243,50.041144],[20.103243,50.041144],[20.103243,50.041144],[20.103243,50.041144],[20.101175,50.038915],[20.101175,50.038915],[20.101175,50.038915],[20.101175,50.038915],[20.101175,50.038915],[20.101175,50.038915],[20.101175,50.038915],[20.101175,50.038915],[20.101175,50.038915],[20.101175,50.038915],[20.101175,50.038915],[20.101175,50.038914],[20.10314,50.036647],[20.10314,50.036647],[20.10314,50.036647],[20.101072,50.034417],[20.101072,50.034417],[20.101072,50.034417],[20.097041,50.034455],[20.097041,50.034455],[20.097041,50.034455],[20.095077,50.036723],[20.095077,50.036723],[20.095077,50.036723],[20.095077,50.036723],[20.095077,50.036723],[20.095077,50.036723],[20.095077,50.036723],[20.095077,50.036723],[20.095077,50.036723],[20.095076,50.036723],[20.095076,50.036723],[20.095076,50.036723],[20.091045,50.036761],[20.091045,50.036761],[20.091045,50.036761],[20.08908,50.039029],[20.08908,50.039029],[20.08908,50.039029],[20.08908,50.039029],[20.08908,50.039029],[20.08908,50.039029],[20.08908,50.039029],[20.08908,50.039029],[20.08908,50.039029],[20.08908,50.039029],[20.08908,50.039029],[20.08908,50.039029],[20.085048,50.039066],[20.085048,50.039066],[20.085048,50.039066],[20.085048,50.039066],[20.085048,50.039066],[20.085048,50.039066],[20.085048,50.039066],[20.085048,50.039066],[20.085048,50.039066],[20.085048,50.039066],[20.085048,50.039066],[20.085048,50.039066],[20.082982,50.036837],[20.082982,50.036837],[20.082982,50.036837],[20.082982,50.036837],[20.082982,50.036837],[20.082982,50.036837],[20.082982,50.036837],[20.082982,50.036836],[20.082982,50.036836],[20.082982,50.036836],[20.082982,50.036836],[20.082982,50.036836],[20.084947,50.034569],[20.084947,50.034569],[20.084947,50.034569],[20.082881,50.032339],[20.082881,50.032339],[20.082881,50.032339],[20.07885,50.032377],[20.07885,50.032377],[20.07885,50.032377],[20.07885,50.032377],[20.07885,50.032377],[20.07885,50.032376],[20.07885,50.032376],[20.07885,50.032376],[20.078849,50.032376],[20.078849,50.032376],[20.078849,50.032376],[20.078849,50.032376],[20.076784,50.030146],[20.076784,50.030146],[20.076784,50.030146],[20.072753,50.030184],[20.072753,50.030184],[20.072753,50.030184],[20.072753,50.030184],[20.072753,50.030184],[20.072753,50.030184],[20.072753,50.030184],[20.072753,50.030184],[20.072753,50.030184],[20.072753,50.030184],[20.072753,50.030184],[20.072753,50.030184],[20.070687,50.027954],[20.070687,50.027954],[20.070687,50.027954],[20.070687,50.027954],[20.070687,50.027954],[20.070687,50.027954],[20.070687,50.027954],[20.070687,50.027954],[20.070687,50.027954],[20.070687,50.027954],[20.070687,50.027954],[20.070687,50.027954],[20.072652,50.025686],[20.072652,50.025686],[20.072652,50.025686],[20.070587,50.023456],[20.070587,50.023456],[20.070587,50.023456],[20.070587,50.023456],[20.070587,50.023456],[20.070587,50.023456],[20.070587,50.023456],[20.070587,50.023456],[20.070587,50.023456],[20.070587,50.023456],[20.070587,50.023456],[20.070587,50.023456],[20.072552,50.021189],[20.072552,50.021189],[20.072552,50.021189],[20.070487,50.018959],[20.070487,50.018959],[20.070487,50.018958],[20.070487,50.018958],[20.070487,50.018958],[20.070487,50.018958],[20.070487,50.018958],[20.070487,50.018958],[20.070487,50.018958],[20.070487,50.018958],[20.070487,50.018958],[20.070487,50.018958],[20.072452,50.016691],[20.072452,50.016691],[20.072452,50.016691],[20.070387,50.014461],[20.070387,50.014461],[20.070387,50.014461],[20.070387,50.014461],[20.070387,50.014461],[20.070387,50.014461],[20.070387,50.014461],[20.070387,50.014461],[20.070387,50.014461],[20.070387,50.014461],[20.070387,50.014461],[20.070387,50.014461],[20.072352,50.012194],[20.072352,50.012193],[20.072352,50.012193],[20.070287,50.009963],[20.070287,50.009963],[20.070287,50.009963],[20.070287,50.009963],[20.070287,50.009963],[20.070287,50.009963],[20.070287,50.009963],[20.070287,50.009963],[20.070287,50.009963],[20.070287,50.009963],[20.070287,50.009963],[20.070287,50.009963],[20.072252,50.007696],[20.072252,50.007696],[20.072252,50.007696],[20.070187,50.005466],[20.070187,50.005466],[20.070187,50.005466],[20.066159,50.005503],[20.066159,50.005503],[20.066158,50.005503],[20.066158,50.005503],[20.066158,50.005503],[20.066158,50.005503],[20.066158,50.005503],[20.066158,50.005503],[20.066158,50.005503],[20.066158,50.005503],[20.066158,50.005503],[20.066158,50.005503],[20.064094,50.003273],[20.064094,50.003273],[20.064094,50.003273],[20.060066,50.003309],[20.060066,50.003309],[20.060066,50.003309],[20.060066,50.003309],[20.060066,50.003309],[20.060066,50.003309],[20.060066,50.003309],[20.060066,50.003309],[20.060065,50.003309],[20.060065,50.003309],[20.060065,50.003309],[20.060065,50.003309],[20.058002,50.001079],[20.058002,50.001079],[20.058002,50.001079],[20.053973,50.001116],[20.053973,50.001116],[20.053973,50.001116],[20.053973,50.001116],[20.053973,50.001116],[20.053973,50.001116],[20.053973,50.001116],[20.053973,50.001116],[20.053973,50.001116],[20.053973,50.001116],[20.053973,50.001116],[20.053973,50.001116],[20.05191,49.998885],[20.05191,49.998885],[20.05191,49.998885],[20.047881,49.998922],[20.047881,49.998922],[20.047881,49.998922],[20.047881,49.998922],[20.047881,49.998922],[20.047881,49.998922],[20.047881,49.998922],[20.047881,49.998922],[20.047881,49.998922],[20.047881,49.998922],[20.047881,49.998922],[20.047881,49.998922],[20.045818,49.996691],[20.045818,49.996691],[20.045818,49.996691],[20.04179,49.996727],[20.04179,49.996727],[20.04179,49.996727],[20.039824,49.998994],[20.039824,49.998994],[20.039824,49.998994],[20.039824,49.998994],[20.039824,49.998994],[20.039824,49.998994],[20.039824,49.998994],[20.039824,49.998994],[20.039824,49.998994],[20.039824,49.998994],[20.039824,49.998994],[20.039824,49.998994],[20.035796,49.99903],[20.035796,49.99903],[20.035796,49.99903],[20.035796,49.99903],[20.035796,49.99903],[20.035796,49.99903],[20.035796,49.99903],[20.035796,49.99903],[20.035796,49.99903],[20.035796,49.99903],[20.035796,49.99903],[20.035796,49.99903],[20.033733,49.996799],[20.033733,49.996799],[20.033733,49.996799],[20.029705,49.996835],[20.029705,49.996835],[20.029705,49.996835],[20.027739,49.999102],[20.027739,49.999102],[20.027739,49.999102],[20.027739,49.999102],[20.027739,49.999102],[20.027739,49.999102],[20.027739,49.999102],[20.027739,49.999102],[20.027739,49.999102],[20.027739,49.999102],[20.027739,49.999102],[20.027739,49.999102],[20.02371,49.999137],[20.02371,49.999137],[20.02371,49.999137],[20.021744,50.001404],[20.021744,50.001404],[20.021744,50.001404],[20.021744,50.001404],[20.021744,50.001404],[20.021744,50.001404],[20.021744,50.001404],[20.021744,50.001404],[20.021744,50.001404],[20.021744,50.001404],[20.021744,50.001404],[20.021744,50.001404],[20.017715,50.001439],[20.017715,50.001439],[20.017715,50.001439],[20.017715,50.001439],[20.017715,50.001439],[20.017715,50.001439],[20.017715,50.001439],[20.017715,50.001439],[20.017715,50.001439],[20.017715,50.001439],[20.017715,50.001439],[20.017715,50.001439],[20.015654,49.999208],[20.015654,49.999208],[20.015654,49.999208],[20.015653,49.999208],[20.015653,49.999208],[20.015653,49.999208],[20.015653,49.999208],[20.015653,49.999208],[20.015653,49.999208],[20.015654,49.999208],[20.015654,49.999208],[20.015654,49.999208],[20.01762,49.996942],[20.01762,49.996942],[20.01762,49.996942],[20.015559,49.994711],[20.015559,49.994711],[20.015559,49.994711],[20.015559,49.994711],[20.015559,49.994711],[20.015559,49.99471],[20.015559,49.99471],[20.015559,49.99471],[20.015559,49.99471],[20.015559,49.99471],[20.015559,49.99471],[20.015559,49.99471],[20.017525,49.992444],[20.017525,49.992444],[20.017525,49.992444],[20.015464,49.990213],[20.015464,49.990213],[20.015464,49.990213],[20.015464,49.990213],[20.015464,49.990213],[20.015464,49.990213],[20.015464,49.990213],[20.015464,49.990213],[20.015464,49.990213],[20.015464,49.990213],[20.015464,49.990213],[20.015464,49.990213],[20.01743,49.987946],[20.01743,49.987946],[20.01743,49.987946],[20.01743,49.987946],[20.01743,49.987946],[20.01743,49.987946],[20.01743,49.987946],[20.01743,49.987946],[20.01743,49.987946],[20.01743,49.987946],[20.017431,49.987946],[20.017431,49.987946],[20.021458,49.987911],[20.021458,49.987911],[20.021458,49.987911],[20.023424,49.985644],[20.023424,49.985644],[20.023424,49.985644],[20.021363,49.983413],[20.021363,49.983413],[20.021363,49.983413],[20.017336,49.983449],[20.017336,49.983449],[20.017336,49.983449],[20.017336,49.983449],[20.017336,49.983449],[20.017336,49.983449],[20.017336,49.983449],[20.017336,49.983449],[20.017336,49.983449],[20.017336,49.983449],[20.017336,49.983449],[20.017336,49.983449],[20.015275,49.981217],[20.015275,49.981217],[20.015275,49.981217],[20.015275,49.981217],[20.015275,49.981217],[20.015275,49.981217],[20.015275,49.981217],[20.015275,49.981217],[20.015275,49.981217],[20.015275,49.981217],[20.015275,49.981217],[20.015275,49.981217],[20.017241,49.978951],[20.017241,49.978951],[20.017241,49.978951],[20.01518,49.97672],[20.01518,49.97672],[20.01518,49.97672],[20.011153,49.976755],[20.011153,49.976755],[20.011153,49.976755],[20.011153,49.976755],[20.011153,49.976755],[20.011153,49.976755],[20.011153,49.976755],[20.011153,49.976755],[20.011153,49.976755],[20.011153,49.976755],[20.011153,49.976755],[20.011153,49.976755],[20.009093,49.974524],[20.009093,49.974524],[20.009093,49.974524],[20.005067,49.974559],[20.005067,49.974559],[20.005067,49.974559],[20.005067,49.974559],[20.005067,49.974559],[20.005067,49.974559],[20.005067,49.974559],[20.005067,49.974559],[20.005067,49.974559],[20.005066,49.974559],[20.005066,49.974559],[20.005066,49.974559],[20.003007,49.972327],[20.003007,49.972327],[20.003007,49.972327],[19.99898,49.972362],[19.99898,49.972362],[19.99898,49.972362],[19.99898,49.972362],[19.99898,49.972362],[19.99898,49.972362],[19.99898,49.972362],[19.99898,49.972362],[19.99898,49.972362],[19.99898,49.972362],[19.99898,49.972362],[19.99898,49.972362],[19.996921,49.97013],[19.996921,49.97013],[19.996921,49.97013],[19.992895,49.970165],[19.992895,49.970165],[19.992895,49.970165],[19.990928,49.972431],[19.990928,49.972431],[19.990928,49.972431],[19.990928,49.972431],[19.990928,49.972431],[19.990928,49.972431],[19.990928,49.972431],[19.990928,49.972431],[19.990928,49.972431],[19.990928,49.972431],[19.990928,49.972431],[19.990928,49.972431],[19.986901,49.972465],[19.986901,49.972465],[19.986901,49.972465],[19.986901,49.972465],[19.986901,49.972465],[19.986901,49.972465],[19.986901,49.972465],[19.986901,49.972465],[19.986901,49.972465],[19.986901,49.972465],[19.986901,49.972465],[19.986901,49.972465],[19.984842,49.970234],[19.984842,49.970234],[19.984842,49.970234],[19.980816,49.970268],[19.980816,49.970268],[19.980816,49.970268],[19.978849,49.972534],[19.978849,49.972534],[19.978849,49.972534],[19.980908,49.974765],[19.980908,49.974765],[19.980908,49.974765],[19.980908,49.974765],[19.980908,49.974765],[19.980908,49.974765],[19.980908,49.974765],[19.980908,49.974765],[19.980908,49.974765],[19.980908,49.974765],[19.980908,49.974765],[19.980908,49.974765],[19.97894,49.977031],[19.97894,49.977031],[19.97894,49.977031],[19.97894,49.977031],[19.97894,49.977031],[19.97894,49.977031],[19.97894,49.977031],[19.97894,49.977031],[19.97894,49.977031],[19.97894,49.977031],[19.97894,49.977031],[19.97894,49.977031],[19.974913,49.977065],[19.974913,49.977065],[19.974913,49.977065],[19.972945,49.979331],[19.972945,49.979331],[19.972945,49.979331],[19.972945,49.979331],[19.972945,49.979331],[19.972945,49.979331],[19.972945,49.979331],[19.972945,49.979331],[19.972945,49.979331],[19.972945,49.979331],[19.972945,49.979331],[19.972945,49.979331],[19.968918,49.979365],[19.968918,49.979365],[19.968918,49.979365],[19.968918,49.979365],[19.968918,49.979365],[19.968918,49.979365],[19.968918,49.979365],[19.968918,49.979365],[19.968918,49.979365],[19.968918,49.979365],[19.968918,49.979365],[19.968918,49.979365],[19.96686,49.977133],[19.96686,49.977133],[19.96686,49.977133],[19.96686,49.977133],[19.96686,49.977133],[19.96686,49.977133],[19.96686,49.977133],[19.96686,49.977133],[19.96686,49.977133],[19.96686,49.977133],[19.96686,49.977133],[19.96686,49.977133],[19.968828,49.974867],[19.968828,49.974867],[19.968828,49.974867],[19.96677,49.972635],[19.96677,49.972635],[19.96677,49.972635],[19.96677,49.972635],[19.96677,49.972635],[19.96677,49.972635],[19.96677,49.972635],[19.96677,49.972635],[19.96677,49.972635],[19.96677,49.972635],[19.96677,49.972635],[19.96677,49.972635],[19.968738,49.970369],[19.968738,49.970369],[19.968738,49.970369],[19.96668,49.968137],[19.96668,49.968137],[19.96668,49.968137],[19.962654,49.968171],[19.962654,49.968171],[19.962654,49.968171],[19.962654,49.968171],[19.962654,49.968171],[19.962654,49.968171],[19.962654,49.968171],[19.962654,49.96817],[19.962654,49.96817],[19.962654,49.96817],[19.962654,49.96817],[19.962654,49.96817],[19.960596,49.965938],[19.960596,49.965938],[19.960596,49.965938],[19.95657,49.965972],[19.95657,49.965972],[19.95657,49.965972],[19.954602,49.968237],[19.954602,49.968237],[19.954602,49.968237],[19.954602,49.968237],[19.954602,49.968237],[19.954602,49.968237],[19.954602,49.968237],[19.954602,49.968237],[19.954602,49.968237],[19.954602,49.968237],[19.954602,49.968237],[19.954602,49.968237],[19.950576,49.96827],[19.950576,49.96827],[19.950576,49.96827],[19.948607,49.970535],[19.948607,49.970535],[19.948607,49.970535],[19.948607,49.970535],[19.948607,49.970535],[19.948607,49.970535],[19.948607,49.970535],[19.948607,49.970535],[19.948607,49.970535],[19.948607,49.970535],[19.948607,49.970535],[19.948607,49.970535],[19.944581,49.970568],[19.944581,49.970568],[19.944581,49.970568],[19.942611,49.972834],[19.942611,49.972834],[19.942611,49.972834],[19.942611,49.972834],[19.942611,49.972834],[19.942611,49.972834],[19.942611,49.972834],[19.942611,49.972834],[19.942611,49.972834],[19.942611,49.972834],[19.942611,49.972834],[19.942611,49.972834],[19.938585,49.972866],[19.938585,49.972866],[19.938585,49.972866],[19.938585,49.972866],[19.938585,49.972866],[19.938585,49.972866],[19.938585,49.972866],[19.938585,49.972866],[19.938585,49.972866],[19.938585,49.972866],[19.938585,49.972866],[19.938585,49.972866],[19.936528,49.970634],[19.936528,49.970634],[19.936528,49.970634],[19.932502,49.970666],[19.932502,49.970666],[19.932502,49.970666],[19.930532,49.972931],[19.930532,49.972931],[19.930532,49.972931],[19.932589,49.975164],[19.932589,49.975164],[19.932589,49.975164],[19.932589,49.975164],[19.932589,49.975164],[19.932589,49.975164],[19.932589,49.975164],[19.932589,49.975164],[19.932589,49.975164],[19.932589,49.975164],[19.932589,49.975164],[19.932589,49.975164],[19.930619,49.977429],[19.930619,49.977429],[19.930619,49.977429],[19.930619,49.977429],[19.930619,49.977429],[19.930619,49.977429],[19.930619,49.977429],[19.930619,49.977429],[19.930619,49.977429],[19.930619,49.977429],[19.930619,49.977429],[19.930619,49.977429],[19.926592,49.977461],[19.926592,49.977461],[19.926592,49.977461],[19.924622,49.979726],[19.924622,49.979726],[19.924622,49.979726],[19.924622,49.979726],[19.924622,49.979726],[19.924622,49.979726],[19.924622,49.979726],[19.924622,49.979726],[19.924622,49.979726],[19.924622,49.979726],[19.924622,49.979726],[19.924622,49.979726],[19.920595,49.979758],[19.920595,49.979758],[19.920595,49.979758],[19.920595,49.979758],[19.920595,49.979758],[19.920595,49.979758],[19.920595,49.979758],[19.920595,49.979758],[19.920595,49.979758],[19.920595,49.979758],[19.920595,49.979758],[19.920595,49.979758],[19.918539,49.977525],[19.918539,49.977525],[19.918539,49.977525],[19.914512,49.977557],[19.914512,49.977557],[19.914512,49.977557],[19.912541,49.979822],[19.912541,49.979822],[19.912541,49.979822],[19.912541,49.979822],[19.912541,49.979822],[19.912541,49.979822],[19.912541,49.979822],[19.912541,49.979822],[19.912541,49.979822],[19.912541,49.979822],[19.912541,49.979822],[19.912541,49.979822],[19.908514,49.979853],[19.908514,49.979853],[19.908514,49.979853],[19.908514,49.979853],[19.908514,49.979853],[19.908514,49.979853],[19.908514,49.979853],[19.908514,49.979853],[19.908514,49.979853],[19.908514,49.979853],[19.908514,49.979853],[19.908514,49.979853],[19.906458,49.97762],[19.906458,49.97762],[19.906458,49.97762],[19.902431,49.977652],[19.902431,49.977652],[19.902431,49.977652],[19.90046,49.979916],[19.90046,49.979916],[19.90046,49.979916],[19.90046,49.979916],[19.90046,49.979916],[19.90046,49.979916],[19.90046,49.979916],[19.90046,49.979916],[19.90046,49.979916],[19.90046,49.979916],[19.90046,49.979916],[19.90046,49.979916],[19.896433,49.979947],[19.896433,49.979947],[19.896433,49.979947],[19.896433,49.979947],[19.896433,49.979947],[19.896433,49.979947],[19.896433,49.979947],[19.896433,49.979947],[19.896433,49.979947],[19.896433,49.979947],[19.896433,49.979947],[19.896433,49.979947],[19.894378,49.977714],[19.894378,49.977714],[19.894378,49.977714],[19.890351,49.977745],[19.890351,49.977745],[19.890351,49.977745],[19.890351,49.977745],[19.890351,49.977745],[19.890351,49.977745],[19.890351,49.977745],[19.890351,49.977745],[19.890351,49.977745],[19.890351,49.977745],[19.890351,49.977745],[19.890351,49.977745],[19.888296,49.975511],[19.888296,49.975511],[19.888296,49.975511],[19.884269,49.975542],[19.884269,49.975542],[19.884269,49.975542],[19.884269,49.975542],[19.884269,49.975542],[19.884269,49.975542],[19.884269,49.975542],[19.884269,49.975542],[19.884269,49.975542],[19.884269,49.975542],[19.884269,49.975542],[19.884269,49.975542],[19.882215,49.973309],[19.882215,49.973309],[19.882215,49.973309],[19.882215,49.973309],[19.882215,49.973309],[19.882215,49.973309],[19.882215,49.973309],[19.882215,49.973309],[19.882215,49.973309],[19.882215,49.973309],[19.882215,49.973309],[19.882215,49.973309],[19.884187,49.971044],[19.884187,49.971044],[19.884187,49.971044],[19.882132,49.968811],[19.882132,49.968811],[19.882132,49.968811],[19.878106,49.968841],[19.878106,49.968841],[19.878106,49.968841],[19.876134,49.971105],[19.876134,49.971105],[19.876134,49.971105],[19.876134,49.971105],[19.876134,49.971105],[19.876134,49.971105],[19.876134,49.971105],[19.876134,49.971105],[19.876134,49.971105],[19.876134,49.971105],[19.876134,49.971105],[19.876134,49.971105],[19.872108,49.971136],[19.872108,49.971136],[19.872108,49.971136],[19.872108,49.971136],[19.872108,49.971136],[19.872108,49.971136],[19.872108,49.971136],[19.872108,49.971136],[19.872108,49.971136],[19.872108,49.971136],[19.872108,49.971136],[19.872108,49.971136],[19.870054,49.968902],[19.870054,49.968902],[19.870054,49.968902],[19.866028,49.968932],[19.866028,49.968932],[19.866028,49.968932],[19.864055,49.971196],[19.864055,49.971196],[19.864055,49.971196],[19.864055,49.971196],[19.864055,49.971196],[19.864055,49.971196],[19.864055,49.971196],[19.864055,49.971196],[19.864055,49.971196],[19.864055,49.971196],[19.864055,49.971196],[19.864055,49.971196],[19.860029,49.971226],[19.860029,49.971226],[19.860029,49.971226],[19.858056,49.97349],[19.858056,49.97349],[19.858056,49.97349],[19.860109,49.975724],[19.860109,49.975724],[19.860109,49.975724],[19.860109,49.975724],[19.860109,49.975724],[19.860109,49.975724],[19.860109,49.975724],[19.860109,49.975724],[19.860109,49.975724],[19.860109,49.975724],[19.860109,49.975724],[19.860109,49.975724],[19.858136,49.977988],[19.858136,49.977988],[19.858136,49.977988],[19.860189,49.980222],[19.860189,49.980222],[19.860189,49.980222],[19.860189,49.980222],[19.860189,49.980222],[19.860189,49.980222],[19.860189,49.980222],[19.860189,49.980222],[19.860189,49.980222],[19.860189,49.980222],[19.860189,49.980222],[19.860189,49.980222],[19.858216,49.982486],[19.858216,49.982486],[19.858216,49.982486],[19.858216,49.982486],[19.858216,49.982486],[19.858216,49.982486],[19.858215,49.982486],[19.858215,49.982486],[19.858215,49.982486],[19.858215,49.982486],[19.858215,49.982486],[19.858215,49.982486],[19.854188,49.982515],[19.854188,49.982515],[19.854188,49.982515],[19.852214,49.984779],[19.852214,49.984779],[19.852214,49.984779],[19.852214,49.984779],[19.852214,49.984779],[19.852214,49.984779],[19.852214,49.984779],[19.852214,49.984779],[19.852214,49.984779],[19.852214,49.984779],[19.852214,49.984779],[19.852214,49.984779],[19.848187,49.984809],[19.848187,49.984809],[19.848187,49.984809],[19.846213,49.987072],[19.846213,49.987072],[19.846213,49.987072],[19.848266,49.989306],[19.848266,49.989306],[19.848266,49.989306],[19.848266,49.989306],[19.848266,49.989307],[19.848266,49.989307],[19.848266,49.989307],[19.848266,49.989307],[19.848266,49.989307],[19.848266,49.989307],[19.848266,49.989307],[19.848266,49.989307],[19.846291,49.99157],[19.846291,49.99157],[19.846291,49.99157],[19.846291,49.99157],[19.846291,49.99157],[19.846291,49.99157],[19.846291,49.99157],[19.846291,49.99157],[19.846291,49.99157],[19.846291,49.99157],[19.846291,49.99157],[19.846291,49.99157],[19.842263,49.991599],[19.842263,49.991599],[19.842263,49.991599],[19.840289,49.993863],[19.840289,49.993863],[19.840289,49.993863],[19.840289,49.993863],[19.840289,49.993863],[19.840289,49.993863],[19.840288,49.993863],[19.840288,49.993863],[19.840288,49.993863],[19.840288,49.993863],[19.840288,49.993863],[19.840288,49.993863],[19.83626,49.993892],[19.83626,49.993892],[19.83626,49.993892],[19.83626,49.993892],[19.83626,49.993892],[19.83626,49.993892],[19.83626,49.993892],[19.83626,49.993892],[19.83626,49.993892],[19.83626,49.993892],[19.83626,49.993892],[19.83626,49.993892],[19.834207,49.991658],[19.834207,49.991658],[19.834207,49.991658],[19.830179,49.991687],[19.830179,49.991687],[19.830179,49.991687],[19.828204,49.99395],[19.828204,49.99395],[19.828204,49.99395],[19.828204,49.99395],[19.828204,49.99395],[19.828204,49.99395],[19.828204,49.99395],[19.828204,49.99395],[19.828204,49.99395],[19.828204,49.99395],[19.828204,49.99395],[19.828204,49.99395],[19.824175,49.993979],[19.824175,49.993979],[19.824175,49.993979],[19.8222,49.996242],[19.8222,49.996242],[19.8222,49.996242],[19.8222,49.996242],[19.8222,49.996242],[19.8222,49.996242],[19.8222,49.996242],[19.8222,49.996242],[19.8222,49.996242],[19.8222,49.996242],[19.8222,49.996242],[19.8222,49.996242],[19.818171,49.99627],[19.818171,49.99627],[19.818171,49.99627],[19.818171,49.99627],[19.818171,49.99627],[19.818171,49.99627],[19.818171,49.99627],[19.818171,49.99627],[19.818171,49.99627],[19.818171,49.99627],[19.818171,49.99627],[19.818171,49.99627],[19.816119,49.994036],[19.816119,49.994036],[19.816119,49.994036],[19.812091,49.994064],[19.812091,49.994064],[19.812091,49.994064],[19.812091,49.994064],[19.812091,49.994064],[19.812091,49.994064],[19.812091,49.994064],[19.81209,49.994064],[19.81209,49.994064],[19.81209,49.994064],[19.81209,49.994064],[19.81209,49.994064],[19.810039,49.991829],[19.810039,49.991829],[19.810039,49.991829],[19.806011,49.991857],[19.806011,49.991857],[19.80601,49.991857],[19.80601,49.991857],[19.80601,49.991857],[19.80601,49.991857],[19.80601,49.991857],[19.80601,49.991857],[19.80601,49.991857],[19.80601,49.991857],[19.80601,49.991857],[19.80601,49.991857],[19.803959,49.989622],[19.803959,49.989622],[19.803959,49.989622],[19.799931,49.98965],[19.799931,49.98965],[19.799931,49.98965],[19.797954,49.991913],[19.797954,49.991913],[19.797954,49.991913],[19.797954,49.991913],[19.797954,49.991913],[19.797954,49.991913],[19.797954,49.991913],[19.797954,49.991913],[19.797954,49.991913],[19.797954,49.991913],[19.797954,49.991913],[19.797954,49.991913],[19.793926,49.99194],[19.793926,49.99194],[19.793926,49.99194],[19.791949,49.994203],[19.791949,49.994203]],[[20.009564,49.997012],[20.009564,49.997012],[20.009564,49.997012],[20.009564,49.997012],[20.009564,49.997012],[20.009564,49.997012],[20.009564,49.997012],[20.009564,49.997012],[20.009564,49.997012],[20.009564,49.997012],[20.009564,49.997012],[20.009564,49.997012],[20.011625,49.999243],[20.011625,49.999243],[20.011625,49.999243],[20.011625,49.999243],[20.011625,49.999243],[20.011625,49.999243],[20.011625,49.999243],[20.011625,49.999243],[20.011625,49.999243],[20.011625,49.999243],[20.011625,49.999243],[20.011625,49.999243],[20.009658,50.00151],[20.009658,50.00151],[20.009658,50.00151],[20.009658,50.00151],[20.009658,50.00151],[20.009658,50.00151],[20.009658,50.00151],[20.009658,50.00151],[20.009658,50.00151],[20.009658,50.00151],[20.009658,50.00151],[20.009658,50.00151],[20.005629,50.001545],[20.005629,50.001545],[20.005629,50.001545],[20.005629,50.001545],[20.005629,50.001545],[20.005629,50.001545],[20.005629,50.001545],[20.005629,50.001545],[20.005629,50.001545],[20.005629,50.001545],[20.005629,50.001545],[20.005629,50.001545],[20.003568,49.999313],[20.003568,49.999313],[20.003568,49.999313],[20.003568,49.999313],[20.003568,49.999313],[20.003568,49.999313],[20.003568,49.999313],[20.003568,49.999313],[20.003568,49.999313],[20.003568,49.999313],[20.003568,49.999313],[20.003568,49.999313],[20.005535,49.997047],[20.005535,49.997047],[20.005535,49.997047],[20.005535,49.997047],[20.005535,49.997047],[20.005535,49.997047],[20.005535,49.997047],[20.005535,49.997047],[20.005535,49.997047],[20.005535,49.997047],[20.005535,49.997047],[20.005535,49.997047],[20.009564,49.997012]]]}}]}