{"type":"FeatureCollection","name":"poznan_hex_boundary","crs":{"type":"name","properties":{"name":"urn:ogc:def:crs:OGC:1.3:CRS84"}},"features":[{"type":"Feature","properties":{"name":"poznan"},"geometry":{"type":"Polygon","coordinates":[[[16.731895,52.457772],[16.731895,52.457772],[16.733903,52.460059],[16.733903,52.460059],[16.733903,52.460059],[16.733903,52.460059],[16.733903,52.460059],[16.733903,52.460059],[16.733903,52.460059],[16.733903,52.460059],[16.733903,52.460059],[16.733903,52.460059],[16.733903,52.460059],[16.733903,52.460059],[16.731664,52.462265],[16.731664,52.462265],[16.731664,52.462265],[16.733672,52.464552],[16.733672,52.464552],[16.733672,52.464552],[16.733672,52.464552],[16.733672,52.464552],[16.733672,52.464552],[16.733672,52.464552],[16.733672,52.464552],[16.733672,52.464552],[16.733672,52.464552],[16.733672,52.464552],[16.733672,52.464552],[16.731433,52.466758],[16.731433,52.466758],[16.731433,52.466758],[16.733441,52.469045],[16.733441,52.469045],[16.733441,52.469045],[16.737689,52.469126],[16.737689,52.469126],[16.737689,52.469126],[16.737689,52.469126],[16.737689,52.469126],[16.737689,52.469126],[16.737689,52.469126],[16.737689,52.469126],[16.737689,52.469126],[16.737689,52.469126],[16.737689,52.469126],[16.737689,52.469126],[16.739697,52.471413],[16.739697,52.471413],[16.739697,52.471413],[16.743945,52.471495],[16.743945,52.471495],[16.743945,52.471495],[16.743945,52.471495],[16.743945,52.471495],[16.743945,52.471495],[16.743945,52.471495],[16.743945,52.471495],[16.743945,52.471495],[16.743945,52.471495],[16.743945,52.471495],[16.743945,52.471495],[16.745954,52.473782],[16.745954,52.473782],[16.745954,52.473782],[16.750202,52.473862],[16.750202,52.473862],[16.750202,52.473862],[16.750202,52.473862],[16.750202,52.473862],[16.750202,52.473862],[16.750202,52.473862],[16.750202,52.473862],[16.750202,52.473863],[16.750202,52.473863],[16.750202,52.473863],[16.750202,52.473863],[16.752212,52.476149],[16.752212,52.476149],[16.752212,52.476149],[16.75646,52.47623],[16.75646,52.47623],[16.75646,52.47623],[16.75646,52.47623],[16.75646,52.47623],[16.75646,52.47623],[16.75646,52.47623],[16.75646,52.47623],[16.75646,52.47623],[16.75646,52.47623],[16.75646,52.47623],[16.75646,52.47623],[16.75847,52.478517],[16.75847,52.478517],[16.75847,52.478517],[16.762718,52.478597],[16.762718,52.478597],[16.762718,52.478597],[16.762718,52.478597],[16.762718,52.478597],[16.762718,52.478597],[16.762718,52.478597],[16.762718,52.478597],[16.762718,52.478597],[16.762718,52.478597],[16.762718,52.478597],[16.762718,52.478597],[16.764729,52.480884],[16.764729,52.480884],[16.764729,52.480884],[16.768977,52.480964],[16.768977,52.480964],[16.768977,52.480964],[16.768977,52.480964],[16.768977,52.480964],[16.768977,52.480964],[16.768977,52.480964],[16.768977,52.480964],[16.768977,52.480964],[16.768977,52.480964],[16.768977,52.480964],[16.768977,52.480964],[16.770988,52.483251],[16.770988,52.483251],[16.770988,52.483251],[16.775237,52.483331],[16.775237,52.483331],[16.775237,52.483331],[16.775237,52.483331],[16.775237,52.483331],[16.775237,52.483331],[16.775237,52.483331],[16.775237,52.483331],[16.775237,52.483331],[16.775237,52.483331],[16.775237,52.483331],[16.775237,52.483331],[16.777248,52.485617],[16.777248,52.485617],[16.777248,52.485617],[16.781498,52.485697],[16.781498,52.485697],[16.781498,52.485697],[16.783735,52.48349],[16.783735,52.48349],[16.783735,52.48349],[16.783735,52.48349],[16.783735,52.48349],[16.783735,52.48349],[16.783735,52.48349],[16.783735,52.48349],[16.783735,52.48349],[16.783735,52.48349],[16.783735,52.48349],[16.783735,52.48349],[16.787984,52.48357],[16.787984,52.48357],[16.787984,52.48357],[16.790221,52.481363],[16.790221,52.481363],[16.790221,52.481363],[16.790221,52.481363],[16.790221,52.481363],[16.790221,52.481363],[16.790221,52.481363],[16.790221,52.481363],[16.790221,52.481363],[16.790221,52.481363],[16.790221,52.481363],[16.790221,52.481363],[16.79447,52.481442],[16.79447,52.481442],[16.79447,52.481442],[16.79447,52.481442],[16.79447,52.481442],[16.79447,52.481442],[16.79447,52.481442],[16.79447,52.481442],[16.79447,52.481442],[16.79447,52.481442],[16.79447,52.481442],[16.79447,52.481442],[16.796482,52.483729],[16.796482,52.483729],[16.796482,52.483729],[16.800731,52.483808],[16.800731,52.483808],[16.800731,52.483808],[16.802968,52.481601],[16.802968,52.481601],[16.802968,52.481601],[16.802968,52.481601],[16.802968,52.481601],[16.802968,52.481601],[16.802968,52.481601],[16.802968,52.481601],[16.802968,52.481601],[16.802968,52.481601],[16.802968,52.481601],[16.802968,52.481601],[16.807217,52.481679],[16.807217,52.481679],[16.807217,52.481679],[16.809453,52.479472],[16.809453,52.479472],[16.809453,52.479472],[16.809453,52.479472],[16.809453,52.479472],[16.809453,52.479472],[16.809453,52.479472],[16.809453,52.479472],[16.809453,52.479472],[16.809453,52.479472],[16.809453,52.479472],[16.809453,52.479472],[16.813702,52.479551],[16.813702,52.479551],[16.813702,52.479551],[16.815937,52.477344],[16.815937,52.477344],[16.815937,52.477344],[16.815937,52.477344],[16.815937,52.477344],[16.815937,52.477344],[16.815937,52.477344],[16.815937,52.477344],[16.815937,52.477344],[16.815937,52.477344],[16.815937,52.477344],[16.815937,52.477344],[16.820186,52.477422],[16.820186,52.477422],[16.820186,52.477422],[16.822421,52.475214],[16.822421,52.475214],[16.822421,52.475214],[16.820408,52.472929],[16.820408,52.472929],[16.820408,52.472929],[16.820408,52.472929],[16.820408,52.472929],[16.820408,52.472929],[16.820408,52.472929],[16.820408,52.472929],[16.820408,52.472929],[16.820408,52.472929],[16.820408,52.472929],[16.820408,52.472929],[16.822643,52.470721],[16.822643,52.470721],[16.822643,52.470721],[16.822643,52.470721],[16.822643,52.470721],[16.822643,52.470721],[16.822643,52.470721],[16.822643,52.470721],[16.822643,52.470721],[16.822643,52.470721],[16.822643,52.470721],[16.822643,52.470721],[16.826891,52.470799],[16.826891,52.470799],[16.826891,52.470799],[16.826891,52.470799],[16.826891,52.470799],[16.826891,52.470799],[16.826891,52.470799],[16.826891,52.470799],[16.826891,52.470799],[16.826891,52.470799],[16.826891,52.470799],[16.826891,52.470799],[16.828904,52.473085],[16.828904,52.473085],[16.828904,52.473085],[16.833152,52.473163],[16.833152,52.473163],[16.833152,52.473163],[16.833152,52.473163],[16.833152,52.473163],[16.833152,52.473163],[16.833152,52.473163],[16.833152,52.473163],[16.833152,52.473163],[16.833152,52.473163],[16.833153,52.473163],[16.833153,52.473163],[16.835166,52.475448],[16.835166,52.475448],[16.835166,52.475448],[16.839415,52.475526],[16.839415,52.475526],[16.839415,52.475526],[16.839415,52.475526],[16.839415,52.475526],[16.839415,52.475526],[16.839415,52.475526],[16.839415,52.475526],[16.839415,52.475526],[16.839415,52.475526],[16.839415,52.475526],[16.839415,52.475526],[16.841429,52.477812],[16.841429,52.477812],[16.841429,52.477812],[16.845677,52.477889],[16.845678,52.477889],[16.845678,52.477889],[16.845678,52.477889],[16.845678,52.477889],[16.845678,52.477889],[16.845678,52.477889],[16.845678,52.477889],[16.845678,52.477889],[16.845678,52.477889],[16.845678,52.477889],[16.845678,52.477889],[16.847692,52.480174],[16.847692,52.480174],[16.847692,52.480174],[16.851941,52.480252],[16.851941,52.480252],[16.851941,52.480252],[16.854175,52.478044],[16.854175,52.478044],[16.854175,52.478044],[16.854175,52.478044],[16.854175,52.478044],[16.854175,52.478044],[16.854175,52.478044],[16.854175,52.478044],[16.854175,52.478044],[16.854175,52.478044],[16.854175,52.478044],[16.854175,52.478044],[16.858424,52.478121],[16.858424,52.478121],[16.858424,52.478121],[16.860657,52.475912],[16.860657,52.475912],[16.860657,52.475912],[16.858642,52.473627],[16.858642,52.473627],[16.858642,52.473627],[16.858642,52.473627],[16.858642,52.473627],[16.858642,52.473627],[16.858642,52.473627],[16.858642,52.473627],[16.858642,52.473627],[16.858642,52.473627],[16.858642,52.473627],[16.858642,52.473627],[16.860875,52.471419],[16.860875,52.471419],[16.860875,52.471419],[16.85886,52.469134],[16.85886,52.469134],[16.85886,52.469134],[16.85886,52.469134],[16.85886,52.469134],[16.85886,52.469134],[16.85886,52.469134],[16.85886,52.469134],[16.85886,52.469134],[16.85886,52.469134],[16.85886,52.469134],[16.85886,52.469134],[16.861093,52.466926],[16.861093,52.466926],[16.861093,52.466926],[16.861093,52.466926],[16.861093,52.466926],[16.861093,52.466926],[16.861093,52.466926],[16.861093,52.466926],[16.861093,52.466926],[16.861093,52.466926],[16.861093,52.466926],[16.861093,52.466926],[16.865341,52.467002],[16.865341,52.467002],[16.865341,52.467002],[16.865341,52.467002],[16.865341,52.467002],[16.865341,52.467002],[16.865341,52.467002],[16.865341,52.467002],[16.865341,52.467002],[16.865341,52.467002],[16.865341,52.467002],[16.865341,52.467002],[16.867356,52.469287],[16.867356,52.469287],[16.867356,52.469287],[16.871604,52.469364],[16.871604,52.469364],[16.871604,52.469364],[16.873836,52.467156],[16.873836,52.467156],[16.873836,52.467156],[16.873836,52.467156],[16.873836,52.467156],[16.873836,52.467156],[16.873836,52.467156],[16.873836,52.467156],[16.873836,52.467156],[16.873836,52.467156],[16.873836,52.467156],[16.873836,52.467156],[16.878084,52.467232],[16.878084,52.467232],[16.878084,52.467232],[16.878084,52.467232],[16.878084,52.467232],[16.878084,52.467232],[16.878084,52.467232],[16.878084,52.467232],[16.878084,52.467232],[16.878084,52.467232],[16.878084,52.467232],[16.878084,52.467232],[16.8801,52.469517],[16.8801,52.469517],[16.8801,52.469517],[16.884348,52.469593],[16.884348,52.469593],[16.884348,52.469593],[16.886579,52.467384],[16.886579,52.467384],[16.886579,52.467384],[16.886579,52.467384],[16.886579,52.467384],[16.886579,52.467384],[16.886579,52.467384],[16.886579,52.467384],[16.886579,52.467384],[16.886579,52.467384],[16.886579,52.467384],[16.886579,52.467384],[16.890827,52.46746],[16.890827,52.46746],[16.890827,52.46746],[16.890827,52.46746],[16.890827,52.46746],[16.890827,52.46746],[16.890827,52.46746],[16.890827,52.46746],[16.890827,52.46746],[16.890827,52.46746],[16.890827,52.46746],[16.890827,52.46746],[16.892844,52.469744],[16.892844,52.469744],[16.892844,52.469744],[16.892844,52.469744],[16.892844,52.469744],[16.892844,52.469744],[16.892844,52.469744],[16.892844,52.469744],[16.892844,52.469744],[16.892844,52.469744],[16.892844,52.469744],[16.892844,52.469744],[16.890612,52.471953],[16.890612,52.471953],[16.890612,52.471953],[16.892629,52.474238],[16.892629,52.474238],[16.892629,52.474238],[16.892629,52.474238],[16.892629,52.474238],[16.892629,52.474238],[16.892629,52.474238],[16.892629,52.474238],[16.892629,52.474238],[16.892629,52.474238],[16.892629,52.474238],[16.892629,52.474238],[16.890397,52.476447],[16.890397,52.476447],[16.890397,52.476447],[16.890397,52.476447],[16.890397,52.476447],[16.890397,52.476447],[16.890397,52.476447],[16.890397,52.476447],[16.890397,52.476447],[16.890397,52.476447],[16.890397,52.476447],[16.890397,52.476447],[16.886149,52.476371],[16.886149,52.476371],[16.886149,52.476371],[16.883916,52.478579],[16.883916,52.478579],[16.883916,52.478579],[16.885933,52.480864],[16.885933,52.480864],[16.885933,52.480864],[16.885933,52.480864],[16.885933,52.480864],[16.885933,52.480864],[16.885933,52.480864],[16.885933,52.480864],[16.885933,52.480864],[16.885933,52.480864],[16.885933,52.480864],[16.885933,52.480864],[16.883701,52.483073],[16.883701,52.483073],[16.883701,52.483073],[16.885718,52.485358],[16.885718,52.485358],[16.885718,52.485358],[16.885718,52.485358],[16.885718,52.485358],[16.885718,52.485358],[16.885718,52.485358],[16.885718,52.485358],[16.885718,52.485358],[16.885718,52.485358],[16.885718,52.485358],[16.885718,52.485358],[16.883485,52.487566],[16.883485,52.487566],[16.883485,52.487566],[16.885502,52.489851],[16.885502,52.489851],[16.885502,52.489851],[16.885502,52.489851],[16.885502,52.489851],[16.885502,52.489851],[16.885502,52.489851],[16.885502,52.489851],[16.885502,52.489851],[16.885502,52.489851],[16.885502,52.489851],[16.885502,52.489851],[16.883269,52.49206],[16.883269,52.49206],[16.883269,52.49206],[16.885286,52.494344],[16.885286,52.494344],[16.885286,52.494344],[16.885286,52.494344],[16.885286,52.494344],[16.885286,52.494344],[16.885286,52.494344],[16.885286,52.494344],[16.885286,52.494344],[16.885286,52.494344],[16.885286,52.494344],[16.885286,52.494344],[16.883053,52.496553],[16.883053,52.496553],[16.883053,52.496553],[16.885071,52.498838],[16.885071,52.498838],[16.885071,52.498838],[16.889321,52.498914],[16.889321,52.498914],[16.889321,52.498914],[16.889321,52.498914],[16.889321,52.498914],[16.889322,52.498914],[16.889322,52.498914],[16.889322,52.498914],[16.889322,52.498914],[16.889322,52.498914],[16.889322,52.498914],[16.889322,52.498914],[16.891339,52.501198],[16.891339,52.501198],[16.891339,52.501198],[16.89559,52.501274],[16.89559,52.501274],[16.89559,52.501274],[16.897823,52.499065],[16.897823,52.499065],[16.897823,52.499065],[16.897823,52.499065],[16.897823,52.499065],[16.897823,52.499065],[16.897823,52.499065],[16.897823,52.499065],[16.897823,52.499065],[16.897823,52.499065],[16.897823,52.499065],[16.897823,52.499065],[16.902074,52.499141],[16.902074,52.499141],[16.902074,52.499141],[16.902074,52.499141],[16.902074,52.499141],[16.902074,52.499141],[16.902074,52.499141],[16.902074,52.499141],[16.902074,52.499141],[16.902074,52.499141],[16.902074,52.499141],[16.902074,52.499141],[16.904093,52.501425],[16.904093,52.501425],[16.904093,52.501425],[16.908344,52.5015],[16.908344,52.5015],[16.908344,52.5015],[16.910576,52.499291],[16.910576,52.499291],[16.910576,52.499291],[16.910576,52.499291],[16.910576,52.499291],[16.910576,52.499291],[16.910576,52.499291],[16.910576,52.499291],[16.910576,52.499291],[16.910576,52.499291],[16.910576,52.499291],[16.910576,52.499291],[16.914827,52.499366],[16.914827,52.499366],[16.914827,52.499366],[16.917058,52.497157],[16.917058,52.497157],[16.917058,52.497157],[16.917058,52.497157],[16.917058,52.497157],[16.917058,52.497157],[16.917058,52.497157],[16.917058,52.497157],[16.917059,52.497157],[16.917059,52.497157],[16.917059,52.497157],[16.917059,52.497157],[16.921309,52.497231],[16.921309,52.497231],[16.921309,52.497231],[16.921309,52.497232],[16.921309,52.497232],[16.921309,52.497232],[16.921309,52.497232],[16.921309,52.497232],[16.921309,52.497232],[16.921309,52.497232],[16.921309,52.497232],[16.921309,52.497232],[16.923329,52.499516],[16.923329,52.499516],[16.923329,52.499516],[16.923329,52.499516],[16.923329,52.499516],[16.923329,52.499516],[16.923329,52.499516],[16.923329,52.499516],[16.923329,52.499516],[16.923329,52.499516],[16.923329,52.499516],[16.923329,52.499516],[16.921097,52.501725],[16.921097,52.501725],[16.921097,52.501725],[16.923117,52.504009],[16.923117,52.504009],[16.923117,52.504009],[16.927368,52.504084],[16.927368,52.504084],[16.927368,52.504084],[16.9296,52.501874],[16.9296,52.501874],[16.9296,52.501874],[16.9296,52.501874],[16.9296,52.501874],[16.9296,52.501874],[16.9296,52.501874],[16.9296,52.501874],[16.9296,52.501874],[16.9296,52.501874],[16.9296,52.501874],[16.9296,52.501874],[16.933851,52.501948],[16.933851,52.501948],[16.933851,52.501948],[16.933851,52.501948],[16.933851,52.501948],[16.933851,52.501948],[16.933851,52.501948],[16.933851,52.501948],[16.933851,52.501948],[16.933851,52.501948],[16.933851,52.501948],[16.933851,52.501948],[16.935871,52.504232],[16.935871,52.504232],[16.935871,52.504232],[16.940123,52.504306],[16.940123,52.504306],[16.940123,52.504306],[16.940123,52.504306],[16.940123,52.504306],[16.940123,52.504306],[16.940123,52.504306],[16.940123,52.504306],[16.940123,52.504306],[16.940123,52.504306],[16.940123,52.504306],[16.940123,52.504306],[16.942143,52.50659],[16.942143,52.50659],[16.942143,52.50659],[16.946395,52.506664],[16.946395,52.506664],[16.946395,52.506664],[16.946395,52.506664],[16.946395,52.506664],[16.946395,52.506664],[16.946395,52.506664],[16.946395,52.506664],[16.946395,52.506664],[16.946395,52.506664],[16.946395,52.506664],[16.946395,52.506664],[16.948416,52.508948],[16.948416,52.508948],[16.948416,52.508948],[16.952668,52.509021],[16.952668,52.509021],[16.952668,52.509021],[16.954899,52.506811],[16.954899,52.506811],[16.954899,52.506811],[16.954899,52.506811],[16.954899,52.506811],[16.954899,52.506811],[16.954899,52.506811],[16.954899,52.506811],[16.954899,52.506811],[16.954899,52.506811],[16.954899,52.506811],[16.954899,52.506811],[16.95915,52.506885],[16.95915,52.506885],[16.95915,52.506885],[16.95915,52.506885],[16.95915,52.506885],[16.95915,52.506885],[16.95915,52.506885],[16.95915,52.506885],[16.95915,52.506885],[16.95915,52.506885],[16.95915,52.506885],[16.95915,52.506885],[16.961172,52.509168],[16.961172,52.509168],[16.961172,52.509168],[16.965424,52.509241],[16.965424,52.509241],[16.965424,52.509241],[16.967654,52.507031],[16.967654,52.507031],[16.967654,52.507031],[16.967654,52.507031],[16.967654,52.507031],[16.967654,52.507031],[16.967654,52.507031],[16.967654,52.507031],[16.967654,52.507031],[16.967654,52.507031],[16.967654,52.507031],[16.967654,52.507031],[16.971906,52.507104],[16.971906,52.507104],[16.971906,52.507104],[16.974135,52.504894],[16.974135,52.504894],[16.974135,52.504894],[16.972113,52.502611],[16.972113,52.502611],[16.972113,52.502611],[16.972113,52.502611],[16.972113,52.502611],[16.972113,52.502611],[16.972113,52.502611],[16.972113,52.502611],[16.972113,52.502611],[16.972113,52.502611],[16.972113,52.502611],[16.972113,52.502611],[16.974342,52.5004],[16.974342,52.5004],[16.974342,52.5004],[16.974342,52.5004],[16.974342,52.5004],[16.974342,52.5004],[16.974342,52.5004],[16.974342,52.5004],[16.974342,52.5004],[16.974342,52.5004],[16.974342,52.5004],[16.974342,52.5004],[16.978593,52.500473],[16.978593,52.500473],[16.978593,52.500473],[16.980821,52.498262],[16.980821,52.498262],[16.980821,52.498262],[16.978799,52.495979],[16.978799,52.495979],[16.978799,52.495979],[16.978799,52.495979],[16.978799,52.495979],[16.978799,52.495979],[16.978799,52.495979],[16.978799,52.495979],[16.978799,52.495979],[16.978799,52.495979],[16.978799,52.495979],[16.978799,52.495979],[16.981027,52.493769],[16.981027,52.493769],[16.981027,52.493769],[16.979005,52.491486],[16.979005,52.491486],[16.979005,52.491486],[16.979005,52.491486],[16.979005,52.491486],[16.979005,52.491486],[16.979005,52.491486],[16.979005,52.491486],[16.979005,52.491486],[16.979005,52.491486],[16.979005,52.491486],[16.979005,52.491486],[16.981233,52.489275],[16.981233,52.489275],[16.981233,52.489275],[16.979211,52.486992],[16.979211,52.486992],[16.979211,52.486992],[16.974961,52.486919],[16.974961,52.486919],[16.974961,52.486919],[16.974961,52.486919],[16.974961,52.486919],[16.974961,52.486919],[16.974961,52.486919],[16.974961,52.486919],[16.974961,52.486919],[16.974961,52.486919],[16.974961,52.486919],[16.974961,52.486919],[16.97294,52.484636],[16.97294,52.484636],[16.97294,52.484636],[16.97294,52.484636],[16.97294,52.484636],[16.97294,52.484636],[16.97294,52.484636],[16.97294,52.484636],[16.97294,52.484636],[16.97294,52.484636],[16.97294,52.484636],[16.97294,52.484636],[16.975168,52.482426],[16.975168,52.482426],[16.975168,52.482426],[16.973146,52.480142],[16.973146,52.480142],[16.973146,52.480142],[16.973146,52.480142],[16.973146,52.480142],[16.973146,52.480142],[16.973146,52.480142],[16.973146,52.480142],[16.973146,52.480142],[16.973146,52.480142],[16.973146,52.480142],[16.973146,52.480142],[16.975374,52.477932],[16.975374,52.477932],[16.975374,52.477932],[16.973353,52.475649],[16.973353,52.475649],[16.973353,52.475649],[16.973353,52.475649],[16.973353,52.475649],[16.973353,52.475649],[16.973353,52.475649],[16.973353,52.475649],[16.973353,52.475649],[16.973353,52.475649],[16.973353,52.475649],[16.973353,52.475649],[16.97558,52.473438],[16.97558,52.473438],[16.97558,52.473438],[16.97558,52.473438],[16.97558,52.473438],[16.97558,52.473438],[16.97558,52.473438],[16.97558,52.473438],[16.97558,52.473438],[16.97558,52.473438],[16.97558,52.473438],[16.97558,52.473438],[16.979829,52.473511],[16.979829,52.473511],[16.979829,52.473511],[16.982056,52.4713],[16.982056,52.4713],[16.982056,52.4713],[16.980035,52.469017],[16.980035,52.469017],[16.980035,52.469017],[16.980035,52.469017],[16.980035,52.469017],[16.980035,52.469017],[16.980035,52.469017],[16.980035,52.469017],[16.980035,52.469017],[16.980035,52.469017],[16.980035,52.469017],[16.980035,52.469017],[16.982262,52.466807],[16.982262,52.466807],[16.982262,52.466807],[16.980241,52.464524],[16.980241,52.464524],[16.980241,52.464524],[16.980241,52.464524],[16.980241,52.464524],[16.980241,52.464524],[16.980241,52.464524],[16.980241,52.464524],[16.980241,52.464524],[16.980241,52.464524],[16.980241,52.464524],[16.980241,52.464524],[16.982467,52.462313],[16.982467,52.462313],[16.982467,52.462313],[16.980446,52.46003],[16.980446,52.46003],[16.980446,52.46003],[16.980446,52.46003],[16.980446,52.46003],[16.980446,52.46003],[16.980446,52.46003],[16.980446,52.46003],[16.980446,52.46003],[16.980446,52.46003],[16.980446,52.46003],[16.980446,52.46003],[16.982673,52.457819],[16.982673,52.457819],[16.982673,52.457819],[16.980652,52.455536],[16.980652,52.455536],[16.980652,52.455536],[16.976405,52.455464],[16.976405,52.455464],[16.976405,52.455464],[16.976405,52.455464],[16.976405,52.455464],[16.976405,52.455464],[16.976405,52.455464],[16.976405,52.455464],[16.976405,52.455464],[16.976405,52.455464],[16.976405,52.455464],[16.976405,52.455464],[16.974385,52.45318],[16.974385,52.45318],[16.974385,52.45318],[16.974385,52.45318],[16.974385,52.45318],[16.974385,52.45318],[16.974385,52.45318],[16.974385,52.45318],[16.974385,52.45318],[16.974385,52.45318],[16.974385,52.45318],[16.974385,52.45318],[16.976611,52.45097],[16.976611,52.45097],[16.976611,52.45097],[16.974591,52.448687],[16.974591,52.448687],[16.974591,52.448687],[16.974591,52.448687],[16.974591,52.448687],[16.974591,52.448687],[16.974591,52.448687],[16.974591,52.448687],[16.974591,52.448687],[16.974591,52.448687],[16.974591,52.448687],[16.974591,52.448687],[16.976817,52.446476],[16.976817,52.446476],[16.976817,52.446476],[16.976817,52.446476],[16.976817,52.446476],[16.976817,52.446476],[16.976817,52.446476],[16.976817,52.446476],[16.976817,52.446476],[16.976817,52.446476],[16.976817,52.446476],[16.976817,52.446476],[16.981063,52.446549],[16.981063,52.446549],[16.981063,52.446549],[16.983289,52.444338],[16.983289,52.444338],[16.983289,52.444338],[16.983289,52.444338],[16.983289,52.444338],[16.983289,52.444338],[16.983289,52.444338],[16.983289,52.444338],[16.983289,52.444338],[16.983289,52.444338],[16.983289,52.444338],[16.983289,52.444338],[16.987535,52.444411],[16.987535,52.444411],[16.987535,52.444411],[16.98976,52.4422],[16.98976,52.4422],[16.98976,52.4422],[16.98976,52.4422],[16.98976,52.4422],[16.98976,52.4422],[16.98976,52.4422],[16.98976,52.4422],[16.98976,52.4422],[16.98976,52.4422],[16.98976,52.4422],[16.98976,52.4422],[16.994005,52.442272],[16.994005,52.442272],[16.994005,52.442272],[16.99623,52.440061],[16.99623,52.440061],[16.99623,52.440061],[16.99623,52.440061],[16.99623,52.440061],[16.99623,52.440061],[16.99623,52.440061],[16.99623,52.440061],[16.99623,52.440061],[16.99623,52.440061],[16.99623,52.440061],[16.99623,52.440061],[17.000476,52.440133],[17.000476,52.440133],[17.000476,52.440133],[17.000476,52.440133],[17.000476,52.440133],[17.000476,52.440133],[17.000476,52.440133],[17.000476,52.440133],[17.000476,52.440133],[17.000476,52.440133],[17.000476,52.440133],[17.000476,52.440133],[17.002497,52.442416],[17.002497,52.442416],[17.002497,52.442416],[17.002497,52.442416],[17.002497,52.442416],[17.002497,52.442416],[17.002497,52.442416],[17.002497,52.442416],[17.002497,52.442416],[17.002497,52.442416],[17.002497,52.442416],[17.002497,52.442416],[17.000272,52.444627],[17.000272,52.444627],[17.000272,52.444627],[17.002293,52.446909],[17.002293,52.446909],[17.002293,52.446909],[17.006539,52.446981],[17.00654,52.446981],[17.00654,52.446981],[17.00654,52.446981],[17.00654,52.446981],[17.00654,52.446981],[17.00654,52.446981],[17.00654,52.446981],[17.00654,52.446981],[17.00654,52.446981],[17.00654,52.446981],[17.00654,52.446981],[17.008561,52.449264],[17.008561,52.449264],[17.008561,52.449264],[17.012808,52.449335],[17.012808,52.449335],[17.012808,52.449335],[17.012808,52.449335],[17.012808,52.449335],[17.012808,52.449335],[17.012808,52.449335],[17.012808,52.449335],[17.012808,52.449335],[17.012808,52.449335],[17.012808,52.449335],[17.012808,52.449335],[17.01483,52.451618],[17.01483,52.451618],[17.01483,52.451618],[17.019076,52.451689],[17.019076,52.451689],[17.019076,52.451689],[17.0213,52.449478],[17.0213,52.449478],[17.0213,52.449478],[17.0213,52.449478],[17.0213,52.449478],[17.0213,52.449478],[17.0213,52.449478],[17.0213,52.449478],[17.0213,52.449478],[17.0213,52.449478],[17.0213,52.449478],[17.0213,52.449478],[17.025547,52.449549],[17.025547,52.449549],[17.025547,52.449549],[17.02777,52.447337],[17.02777,52.447337],[17.02777,52.447337],[17.025748,52.445055],[17.025748,52.445055],[17.025748,52.445055],[17.025748,52.445055],[17.025748,52.445055],[17.025748,52.445055],[17.025748,52.445055],[17.025748,52.445055],[17.025748,52.445055],[17.025748,52.445055],[17.025748,52.445055],[17.025748,52.445055],[17.027971,52.442843],[17.027971,52.442843],[17.027971,52.442843],[17.025949,52.440561],[17.025949,52.440561],[17.025949,52.440561],[17.025949,52.440561],[17.025949,52.440561],[17.025949,52.440561],[17.025949,52.440561],[17.025949,52.440561],[17.025949,52.440561],[17.025949,52.440561],[17.025949,52.440561],[17.025949,52.440561],[17.028172,52.43835],[17.028172,52.43835],[17.028172,52.43835],[17.02615,52.436067],[17.02615,52.436067],[17.02615,52.436067],[17.021905,52.435996],[17.021905,52.435996],[17.021905,52.435996],[17.021905,52.435996],[17.021905,52.435996],[17.021905,52.435996],[17.021905,52.435996],[17.021905,52.435996],[17.021905,52.435996],[17.021905,52.435996],[17.021905,52.435996],[17.021905,52.435996],[17.019883,52.433714],[17.019883,52.433714],[17.019883,52.433714],[17.015638,52.433643],[17.015638,52.433643],[17.015638,52.433643],[17.015638,52.433643],[17.015638,52.433643],[17.015638,52.433643],[17.015638,52.433643],[17.015638,52.433643],[17.015638,52.433643],[17.015638,52.433643],[17.015638,52.433643],[17.015638,52.433643],[17.013617,52.43136],[17.013617,52.43136],[17.013617,52.43136],[17.013617,52.43136],[17.013617,52.43136],[17.013617,52.43136],[17.013617,52.43136],[17.013617,52.43136],[17.013617,52.43136],[17.013617,52.43136],[17.013617,52.43136],[17.013617,52.43136],[17.01584,52.429149],[17.01584,52.429149],[17.01584,52.429149],[17.01584,52.429149],[17.01584,52.429149],[17.01584,52.429149],[17.01584,52.429149],[17.01584,52.429149],[17.01584,52.429149],[17.01584,52.429149],[17.01584,52.429149],[17.01584,52.429149],[17.020084,52.42922],[17.020084,52.42922],[17.020084,52.42922],[17.020084,52.42922],[17.020084,52.42922],[17.020084,52.42922],[17.020084,52.42922],[17.020084,52.42922],[17.020084,52.42922],[17.020084,52.42922],[17.020084,52.42922],[17.020084,52.42922],[17.022106,52.431502],[17.022106,52.431502],[17.022106,52.431502],[17.02635,52.431573],[17.02635,52.431573],[17.02635,52.431573],[17.02635,52.431573],[17.02635,52.431573],[17.02635,52.431573],[17.026351,52.431573],[17.026351,52.431573],[17.026351,52.431573],[17.026351,52.431573],[17.026351,52.431573],[17.026351,52.431573],[17.028373,52.433856],[17.028373,52.433856],[17.028373,52.433856],[17.032617,52.433926],[17.032617,52.433926],[17.032617,52.433926],[17.03484,52.431715],[17.03484,52.431715],[17.03484,52.431715],[17.03484,52.431715],[17.03484,52.431715],[17.03484,52.431715],[17.03484,52.431715],[17.03484,52.431715],[17.03484,52.431715],[17.03484,52.431715],[17.03484,52.431715],[17.03484,52.431715],[17.039085,52.431785],[17.039085,52.431785],[17.039085,52.431785],[17.041307,52.429574],[17.041307,52.429574],[17.041307,52.429574],[17.041307,52.429574],[17.041307,52.429574],[17.041307,52.429574],[17.041307,52.429574],[17.041307,52.429574],[17.041307,52.429574],[17.041307,52.429574],[17.041307,52.429574],[17.041307,52.429574],[17.045551,52.429644],[17.045551,52.429644],[17.045551,52.429644],[17.047773,52.427432],[17.047773,52.427432],[17.047773,52.427432],[17.047773,52.427432],[17.047773,52.427432],[17.047773,52.427432],[17.047773,52.427432],[17.047773,52.427432],[17.047773,52.427432],[17.047773,52.427432],[17.047773,52.427432],[17.047773,52.427432],[17.052017,52.427502],[17.052017,52.427502],[17.052017,52.427502],[17.054238,52.42529],[17.054238,52.42529],[17.054238,52.42529],[17.054238,52.42529],[17.054238,52.42529],[17.054238,52.42529],[17.054238,52.42529],[17.054238,52.42529],[17.054238,52.42529],[17.054238,52.42529],[17.054238,52.42529],[17.054238,52.42529],[17.058482,52.42536],[17.058482,52.42536],[17.058482,52.42536],[17.058483,52.42536],[17.058483,52.42536],[17.058483,52.42536],[17.058483,52.42536],[17.058483,52.42536],[17.058483,52.42536],[17.058483,52.42536],[17.058483,52.42536],[17.058483,52.42536],[17.060506,52.427642],[17.060506,52.427642],[17.060506,52.427642],[17.06475,52.427711],[17.06475,52.427711],[17.06475,52.427711],[17.06475,52.427711],[17.06475,52.427711],[17.06475,52.427711],[17.06475,52.427711],[17.06475,52.427711],[17.06475,52.427711],[17.06475,52.427711],[17.06475,52.427711],[17.06475,52.427711],[17.066774,52.429993],[17.066774,52.429993],[17.066774,52.429993],[17.071019,52.430062],[17.071019,52.430062],[17.071019,52.430062],[17.073239,52.42785],[17.073239,52.42785],[17.073239,52.42785],[17.073239,52.42785],[17.073239,52.42785],[17.073239,52.42785],[17.073239,52.42785],[17.073239,52.42785],[17.073239,52.42785],[17.073239,52.42785],[17.073239,52.42785],[17.073239,52.42785],[17.077484,52.427919],[17.077484,52.427919],[17.077484,52.427919],[17.079704,52.425706],[17.079704,52.425706],[17.079704,52.425706],[17.077679,52.423425],[17.077679,52.423425],[17.077679,52.423425],[17.073435,52.423356],[17.073435,52.423356],[17.073435,52.423356],[17.073435,52.423356],[17.073435,52.423356],[17.073435,52.423356],[17.073435,52.423356],[17.073435,52.423356],[17.073435,52.423356],[17.073435,52.423356],[17.073435,52.423356],[17.073435,52.423356],[17.071411,52.421074],[17.071411,52.421074],[17.071411,52.421074],[17.071411,52.421074],[17.071411,52.421074],[17.071411,52.421074],[17.071411,52.421074],[17.071411,52.421074],[17.071411,52.421074],[17.071411,52.421074],[17.071411,52.421074],[17.071411,52.421074],[17.073631,52.418862],[17.073631,52.418862],[17.073631,52.418862],[17.071608,52.41658],[17.071607,52.41658],[17.071607,52.41658],[17.067364,52.416511],[17.067364,52.416511],[17.067364,52.416511],[17.067364,52.416511],[17.067364,52.416511],[17.067364,52.416511],[17.067364,52.416511],[17.067364,52.416511],[17.067364,52.416511],[17.067364,52.416511],[17.067364,52.416511],[17.067364,52.416511],[17.065341,52.414229],[17.065341,52.414229],[17.065341,52.414229],[17.065341,52.414229],[17.065341,52.414229],[17.065341,52.414229],[17.065341,52.414229],[17.065341,52.414229],[17.065341,52.414229],[17.065341,52.414229],[17.065341,52.414229],[17.065341,52.414229],[17.067561,52.412017],[17.067561,52.412017],[17.067561,52.412017],[17.065538,52.409735],[17.065538,52.409735],[17.065538,52.409735],[17.061295,52.409666],[17.061295,52.409666],[17.061295,52.409666],[17.059075,52.411878],[17.059075,52.411878],[17.059075,52.411878],[17.059075,52.411878],[17.059075,52.411878],[17.059075,52.411878],[17.059075,52.411878],[17.059075,52.411878],[17.059075,52.411878],[17.059075,52.411878],[17.059075,52.411878],[17.059075,52.411878],[17.054832,52.411808],[17.054832,52.411808],[17.054832,52.411808],[17.054832,52.411808],[17.054832,52.411808],[17.054832,52.411808],[17.054832,52.411808],[17.054832,52.411808],[17.054832,52.411808],[17.054832,52.411808],[17.054832,52.411808],[17.054832,52.411808],[17.05281,52.409526],[17.05281,52.409526],[17.05281,52.409526],[17.05281,52.409526],[17.05281,52.409526],[17.05281,52.409526],[17.05281,52.409526],[17.05281,52.409526],[17.05281,52.409526],[17.05281,52.409526],[17.05281,52.409526],[17.05281,52.409526],[17.05503,52.407314],[17.05503,52.407314],[17.05503,52.407314],[17.053007,52.405032],[17.053007,52.405032],[17.053007,52.405032],[17.048765,52.404962],[17.048765,52.404962],[17.048765,52.404962],[17.048765,52.404962],[17.048765,52.404962],[17.048765,52.404962],[17.048765,52.404962],[17.048765,52.404962],[17.048765,52.404962],[17.048765,52.404962],[17.048765,52.404962],[17.048765,52.404962],[17.046743,52.402681],[17.046743,52.402681],[17.046743,52.402681],[17.046743,52.40268],[17.046743,52.40268],[17.046743,52.40268],[17.046743,52.40268],[17.046743,52.40268],[17.046743,52.40268],[17.046743,52.40268],[17.046743,52.40268],[17.046743,52.40268],[17.048964,52.400469],[17.048964,52.400469],[17.048964,52.400469],[17.046942,52.398187],[17.046942,52.398187],[17.046942,52.398187],[17.046942,52.398187],[17.046942,52.398187],[17.046942,52.398187],[17.046942,52.398187],[17.046942,52.398187],[17.046942,52.398187],[17.046942,52.398187],[17.046942,52.398187],[17.046942,52.398187],[17.049162,52.395975],[17.049162,52.395975],[17.049162,52.395975],[17.049162,52.395975],[17.049162,52.395975],[17.049162,52.395975],[17.049162,52.395975],[17.049162,52.395975],[17.049162,52.395975],[17.049162,52.395975],[17.049162,52.395975],[17.049162,52.395975],[17.053403,52.396045],[17.053403,52.396045],[17.053403,52.396045],[17.055623,52.393833],[17.055623,52.393833],[17.055623,52.393833],[17.053601,52.391551],[17.053601,52.391551],[17.053601,52.391551],[17.053601,52.391551],[17.053601,52.391551],[17.053601,52.391551],[17.053601,52.391551],[17.053601,52.391551],[17.053601,52.391551],[17.053601,52.391551],[17.053601,52.391551],[17.053601,52.391551],[17.05582,52.389339],[17.05582,52.389339],[17.05582,52.389339],[17.053799,52.387057],[17.053799,52.387057],[17.053799,52.387057],[17.053799,52.387057],[17.053799,52.387057],[17.053799,52.387057],[17.053799,52.387057],[17.053799,52.387057],[17.053799,52.387057],[17.053799,52.387057],[17.053799,52.387057],[17.053799,52.387057],[17.056018,52.384845],[17.056018,52.384845],[17.056018,52.384845],[17.053996,52.382563],[17.053996,52.382563],[17.053996,52.382563],[17.053996,52.382563],[17.053996,52.382563],[17.053996,52.382563],[17.053996,52.382563],[17.053996,52.382563],[17.053996,52.382563],[17.053996,52.382563],[17.053996,52.382563],[17.053996,52.382563],[17.056215,52.380351],[17.056215,52.380351],[17.056215,52.380351],[17.054194,52.378069],[17.054194,52.378069],[17.054194,52.378069],[17.054194,52.378069],[17.054194,52.378069],[17.054194,52.378069],[17.054194,52.378069],[17.054194,52.378069],[17.054194,52.378069],[17.054194,52.378069],[17.054194,52.378069],[17.054194,52.378069],[17.056412,52.375857],[17.056412,52.375857],[17.056412,52.375857],[17.056412,52.375857],[17.056412,52.375857],[17.056412,52.375857],[17.056413,52.375857],[17.056413,52.375857],[17.056413,52.375857],[17.056413,52.375857],[17.056413,52.375857],[17.056413,52.375857],[17.060652,52.375926],[17.060652,52.375926],[17.060652,52.375926],[17.06287,52.373714],[17.06287,52.373714],[17.06287,52.373714],[17.060849,52.371432],[17.060849,52.371432],[17.060849,52.371432],[17.060849,52.371432],[17.060849,52.371432],[17.060849,52.371432],[17.060849,52.371432],[17.060849,52.371432],[17.060849,52.371432],[17.060849,52.371432],[17.060849,52.371432],[17.060849,52.371432],[17.063067,52.36922],[17.063067,52.36922],[17.063067,52.36922],[17.061046,52.366939],[17.061046,52.366939],[17.061046,52.366939],[17.061046,52.366938],[17.061046,52.366938],[17.061046,52.366938],[17.061046,52.366938],[17.061046,52.366938],[17.061046,52.366938],[17.061046,52.366938],[17.061046,52.366938],[17.061046,52.366938],[17.063263,52.364726],[17.063263,52.364726],[17.063263,52.364726],[17.061243,52.362445],[17.061243,52.362445],[17.061243,52.362445],[17.061243,52.362445],[17.061243,52.362445],[17.061243,52.362445],[17.061243,52.362444],[17.061243,52.362444],[17.061243,52.362444],[17.061243,52.362444],[17.061243,52.362444],[17.061243,52.362444],[17.06346,52.360232],[17.06346,52.360232],[17.06346,52.360232],[17.061439,52.357951],[17.061439,52.357951],[17.061439,52.357951],[17.061439,52.357951],[17.061439,52.357951],[17.061439,52.357951],[17.061439,52.357951],[17.061439,52.357951],[17.061439,52.357951],[17.061439,52.35795],[17.061439,52.35795],[17.061439,52.35795],[17.063656,52.355738],[17.063656,52.355738],[17.063656,52.355738],[17.061636,52.353457],[17.061636,52.353457],[17.061636,52.353457],[17.057399,52.353387],[17.057399,52.353387],[17.057399,52.353387],[17.057399,52.353387],[17.057399,52.353387],[17.057399,52.353387],[17.057399,52.353387],[17.057399,52.353387],[17.057399,52.353387],[17.057399,52.353387],[17.057399,52.353387],[17.057399,52.353387],[17.055379,52.351105],[17.055379,52.351105],[17.055379,52.351105],[17.055379,52.351105],[17.055379,52.351105],[17.055379,52.351105],[17.055379,52.351105],[17.055379,52.351105],[17.055379,52.351105],[17.055379,52.351105],[17.055379,52.351105],[17.055379,52.351105],[17.057596,52.348893],[17.057596,52.348893],[17.057596,52.348893],[17.055576,52.346611],[17.055576,52.346611],[17.055576,52.346611],[17.055576,52.346611],[17.055576,52.346611],[17.055576,52.346611],[17.055576,52.346611],[17.055576,52.346611],[17.055576,52.346611],[17.055576,52.346611],[17.055576,52.346611],[17.055576,52.346611],[17.057793,52.344399],[17.057793,52.344399],[17.057793,52.344399],[17.055773,52.342117],[17.055773,52.342117],[17.055773,52.342117],[17.051537,52.342047],[17.051537,52.342047],[17.051537,52.342047],[17.051537,52.342047],[17.051537,52.342047],[17.051537,52.342047],[17.051537,52.342047],[17.051537,52.342047],[17.051537,52.342047],[17.051537,52.342047],[17.051537,52.342047],[17.051537,52.342047],[17.049518,52.339765],[17.049518,52.339765],[17.049518,52.339765],[17.049518,52.339765],[17.049518,52.339765],[17.049518,52.339765],[17.049518,52.339765],[17.049518,52.339765],[17.049518,52.339765],[17.049518,52.339765],[17.049518,52.339765],[17.049518,52.339765],[17.051735,52.337553],[17.051735,52.337553],[17.051735,52.337553],[17.049716,52.335271],[17.049716,52.335271],[17.049716,52.335271],[17.04548,52.335201],[17.04548,52.335201],[17.04548,52.335201],[17.04548,52.335201],[17.04548,52.335201],[17.04548,52.335201],[17.04548,52.335201],[17.04548,52.335201],[17.04548,52.335201],[17.04548,52.335201],[17.04548,52.335201],[17.04548,52.335201],[17.043461,52.332919],[17.043461,52.332919],[17.043461,52.332919],[17.043461,52.332919],[17.043461,52.332919],[17.043461,52.332919],[17.043461,52.332919],[17.043461,52.332919],[17.043461,52.332919],[17.043461,52.332919],[17.043461,52.332919],[17.043461,52.332919],[17.045678,52.330707],[17.045678,52.330707],[17.045678,52.330707],[17.04366,52.328425],[17.04366,52.328425],[17.04366,52.328425],[17.039425,52.328355],[17.039425,52.328355],[17.039425,52.328355],[17.039425,52.328355],[17.039425,52.328355],[17.039425,52.328355],[17.039425,52.328355],[17.039425,52.328355],[17.039425,52.328355],[17.039425,52.328355],[17.039425,52.328355],[17.039425,52.328355],[17.037407,52.326073],[17.037407,52.326073],[17.037407,52.326073],[17.033172,52.326003],[17.033172,52.326003],[17.033172,52.326003],[17.030955,52.328214],[17.030955,52.328214],[17.030955,52.328214],[17.030955,52.328214],[17.030955,52.328214],[17.030955,52.328214],[17.030955,52.328214],[17.030955,52.328214],[17.030955,52.328214],[17.030955,52.328214],[17.030955,52.328214],[17.030955,52.328214],[17.02672,52.328144],[17.02672,52.328144],[17.02672,52.328144],[17.024503,52.330355],[17.024503,52.330355],[17.024503,52.330355],[17.024503,52.330355],[17.024503,52.330355],[17.024503,52.330355],[17.024503,52.330355],[17.024503,52.330355],[17.024503,52.330355],[17.024503,52.330355],[17.024503,52.330355],[17.024503,52.330355],[17.020268,52.330284],[17.020268,52.330284],[17.020268,52.330284],[17.01805,52.332496],[17.01805,52.332496],[17.01805,52.332496],[17.01805,52.332496],[17.01805,52.332496],[17.01805,52.332496],[17.01805,52.332496],[17.01805,52.332496],[17.01805,52.332496],[17.01805,52.332496],[17.01805,52.332496],[17.01805,52.332496],[17.013815,52.332425],[17.013815,52.332425],[17.013815,52.332425],[17.013815,52.332425],[17.013815,52.332425],[17.013815,52.332425],[17.013815,52.332425],[17.013815,52.332425],[17.013815,52.332425],[17.013815,52.332425],[17.013815,52.332425],[17.013815,52.332425],[17.011798,52.330142],[17.011798,52.330142],[17.011798,52.330142],[17.007563,52.330071],[17.007563,52.330071],[17.007563,52.330071],[17.007563,52.330071],[17.007563,52.330071],[17.007563,52.330071],[17.007563,52.330071],[17.007563,52.330071],[17.007563,52.330071],[17.007563,52.330071],[17.007563,52.330071],[17.007563,52.330071],[17.005547,52.327788],[17.005547,52.327788],[17.005547,52.327788],[17.001312,52.327716],[17.001312,52.327716],[17.001312,52.327716],[16.999093,52.329927],[16.999093,52.329927],[16.999093,52.329927],[16.999093,52.329927],[16.999093,52.329927],[16.999093,52.329927],[16.999093,52.329927],[16.999093,52.329927],[16.999093,52.329927],[16.999093,52.329927],[16.999093,52.329927],[16.999093,52.329927],[16.994858,52.329856],[16.994858,52.329856],[16.994858,52.329856],[16.994858,52.329856],[16.994858,52.329856],[16.994858,52.329856],[16.994858,52.329856],[16.994858,52.329856],[16.994858,52.329856],[16.994858,52.329856],[16.994858,52.329856],[16.994858,52.329856],[16.992843,52.327573],[16.992843,52.327573],[16.992843,52.327573],[16.992843,52.327573],[16.992843,52.327573],[16.992843,52.327573],[16.992843,52.327573],[16.992843,52.327573],[16.992843,52.327573],[16.992843,52.327573],[16.992843,52.327573],[16.992843,52.327573],[16.995062,52.325362],[16.995062,52.325362],[16.995062,52.325362],[16.993046,52.323079],[16.993046,52.323079],[16.993046,52.323079],[16.993046,52.323079],[16.993046,52.323079],[16.993046,52.323079],[16.993046,52.323079],[16.993046,52.323079],[16.993046,52.323079],[16.993046,52.323079],[16.993046,52.323079],[16.993046,52.323079],[16.995265,52.320868],[16.995265,52.320868],[16.995265,52.320868],[16.995265,52.320868],[16.995265,52.320868],[16.995265,52.320868],[16.995265,52.320868],[16.995265,52.320868],[16.995265,52.320868],[16.995265,52.320868],[16.995265,52.320868],[16.995265,52.320868],[16.999499,52.32094],[16.999499,52.32094],[16.999499,52.32094],[17.001717,52.318729],[17.001717,52.318729],[17.001717,52.318729],[16.999702,52.316446],[16.999702,52.316446],[16.999702,52.316446],[16.999702,52.316446],[16.999702,52.316446],[16.999702,52.316446],[16.999702,52.316446],[16.999702,52.316446],[16.999702,52.316446],[16.999702,52.316446],[16.999702,52.316446],[16.999702,52.316446],[17.00192,52.314235],[17.00192,52.314235],[17.00192,52.314235],[17.00192,52.314235],[17.00192,52.314235],[17.00192,52.314235],[17.00192,52.314235],[17.00192,52.314235],[17.00192,52.314235],[17.00192,52.314235],[17.00192,52.314235],[17.00192,52.314235],[17.006153,52.314306],[17.006153,52.314306],[17.006153,52.314306],[17.008371,52.312095],[17.008371,52.312095],[17.008371,52.312095],[17.006355,52.309813],[17.006355,52.309813],[17.006355,52.309813],[17.002122,52.309741],[17.002122,52.309741],[17.002122,52.309741],[17.002122,52.309741],[17.002122,52.309741],[17.002122,52.309741],[17.002122,52.309741],[17.002122,52.309741],[17.002122,52.309741],[17.002122,52.309741],[17.002122,52.309741],[17.002122,52.309741],[17.000107,52.307458],[17.000107,52.307458],[17.000107,52.307458],[17.000107,52.307458],[17.000107,52.307458],[17.000107,52.307458],[17.000107,52.307458],[17.000107,52.307458],[17.000107,52.307458],[17.000107,52.307458],[17.000107,52.307458],[17.000107,52.307458],[17.002324,52.305247],[17.002324,52.305247],[17.002324,52.305247],[17.000309,52.302964],[17.000309,52.302964],[17.000309,52.302964],[17.000309,52.302964],[17.000309,52.302964],[17.000309,52.302964],[17.000309,52.302964],[17.000309,52.302964],[17.000309,52.302964],[17.000309,52.302964],[17.000309,52.302964],[17.000309,52.302964],[17.002527,52.300753],[17.002527,52.300753],[17.002527,52.300753],[17.000512,52.298471],[17.000512,52.298471],[17.000512,52.298471],[17.000512,52.298471],[17.000512,52.298471],[17.000512,52.298471],[17.000512,52.298471],[17.000512,52.29847],[17.000512,52.29847],[17.000512,52.29847],[17.000512,52.29847],[17.000512,52.29847],[17.002729,52.296259],[17.002729,52.296259],[17.002729,52.296259],[17.002729,52.296259],[17.002729,52.296259],[17.002729,52.296259],[17.002729,52.296259],[17.002729,52.296259],[17.002729,52.296259],[17.002729,52.296259],[17.002729,52.296259],[17.002729,52.296259],[17.006961,52.296331],[17.006961,52.296331],[17.006961,52.296331],[17.009177,52.29412],[17.009177,52.29412],[17.009177,52.29412],[17.007162,52.291837],[17.007162,52.291837],[17.007162,52.291837],[17.002931,52.291766],[17.002931,52.291766],[17.002931,52.291766],[17.002931,52.291766],[17.002931,52.291766],[17.002931,52.291766],[17.002931,52.291766],[17.002931,52.291766],[17.002931,52.291765],[17.002931,52.291765],[17.002931,52.291765],[17.002931,52.291765],[17.000917,52.289483],[17.000917,52.289483],[17.000917,52.289483],[16.996686,52.289411],[16.996686,52.289411],[16.996686,52.289411],[16.994469,52.291622],[16.994469,52.291622],[16.994469,52.291622],[16.994469,52.291622],[16.994469,52.291622],[16.994469,52.291622],[16.994469,52.291622],[16.994469,52.291622],[16.994469,52.291622],[16.994469,52.291622],[16.994469,52.291622],[16.994469,52.291622],[16.990237,52.29155],[16.990237,52.29155],[16.990237,52.29155],[16.98802,52.293761],[16.98802,52.293761],[16.98802,52.293761],[16.98802,52.293761],[16.98802,52.293761],[16.98802,52.293761],[16.98802,52.293761],[16.98802,52.293761],[16.98802,52.293761],[16.98802,52.293761],[16.98802,52.293761],[16.98802,52.293761],[16.983789,52.293689],[16.983789,52.293689],[16.983789,52.293689],[16.981571,52.2959],[16.981571,52.2959],[16.981571,52.2959],[16.981571,52.2959],[16.981571,52.2959],[16.981571,52.2959],[16.981571,52.2959],[16.981571,52.2959],[16.981571,52.2959],[16.981571,52.2959],[16.981571,52.2959],[16.981571,52.2959],[16.977339,52.295827],[16.977339,52.295827],[16.977339,52.295827],[16.975121,52.298038],[16.975121,52.298038],[16.975121,52.298038],[16.977134,52.300321],[16.977134,52.300321],[16.977134,52.300321],[16.977134,52.300321],[16.977134,52.300321],[16.977134,52.300321],[16.977134,52.300321],[16.977134,52.300321],[16.977134,52.300321],[16.977134,52.300321],[16.977134,52.300321],[16.977134,52.300321],[16.974916,52.302532],[16.974916,52.302532],[16.974916,52.302532],[16.974916,52.302532],[16.974916,52.302532],[16.974916,52.302532],[16.974916,52.302532],[16.974916,52.302532],[16.974916,52.302532],[16.974916,52.302532],[16.974916,52.302532],[16.974916,52.302532],[16.970684,52.302459],[16.970684,52.302459],[16.970684,52.302459],[16.968465,52.304669],[16.968465,52.304669],[16.968465,52.304669],[16.968465,52.304669],[16.968465,52.304669],[16.968465,52.304669],[16.968465,52.304669],[16.968465,52.304669],[16.968465,52.304669],[16.968465,52.304669],[16.968464,52.304669],[16.968464,52.304669],[16.964232,52.304596],[16.964232,52.304596],[16.964232,52.304596],[16.962013,52.306807],[16.962013,52.306807],[16.962013,52.306807],[16.962013,52.306807],[16.962013,52.306807],[16.962013,52.306807],[16.962013,52.306807],[16.962013,52.306807],[16.962013,52.306807],[16.962013,52.306807],[16.962013,52.306807],[16.962013,52.306807],[16.95778,52.306734],[16.95778,52.306734],[16.95778,52.306734],[16.95556,52.308944],[16.95556,52.308944],[16.95556,52.308944],[16.95556,52.308944],[16.95556,52.308944],[16.95556,52.308944],[16.95556,52.308944],[16.95556,52.308944],[16.95556,52.308944],[16.95556,52.308944],[16.95556,52.308944],[16.95556,52.308944],[16.951328,52.308871],[16.951328,52.308871],[16.951328,52.308871],[16.951328,52.308871],[16.951328,52.308871],[16.951328,52.308871],[16.951328,52.308871],[16.951328,52.308871],[16.951328,52.308871],[16.951328,52.308871],[16.951328,52.308871],[16.951328,52.308871],[16.949315,52.306587],[16.949315,52.306587],[16.949315,52.306587],[16.945083,52.306513],[16.945083,52.306513],[16.945083,52.306513],[16.942862,52.308723],[16.942862,52.308723],[16.942862,52.308723],[16.944874,52.311007],[16.944874,52.311007],[16.944874,52.311007],[16.944874,52.311007],[16.944874,52.311007],[16.944874,52.311007],[16.944874,52.311007],[16.944874,52.311007],[16.944874,52.311007],[16.944874,52.311007],[16.944874,52.311007],[16.944874,52.311007],[16.942654,52.313217],[16.942654,52.313217],[16.942654,52.313217],[16.942654,52.313217],[16.942654,52.313217],[16.942654,52.313217],[16.942654,52.313217],[16.942654,52.313217],[16.942654,52.313217],[16.942654,52.313217],[16.942654,52.313217],[16.942654,52.313217],[16.938421,52.313143],[16.938421,52.313143],[16.938421,52.313143],[16.9362,52.315353],[16.936199,52.315353],[16.936199,52.315353],[16.936199,52.315353],[16.936199,52.315353],[16.936199,52.315353],[16.936199,52.315353],[16.936199,52.315353],[16.936199,52.315353],[16.936199,52.315353],[16.936199,52.315353],[16.936199,52.315353],[16.931966,52.315279],[16.931966,52.315279],[16.931966,52.315279],[16.929745,52.317489],[16.929745,52.317489],[16.929745,52.317489],[16.929745,52.317489],[16.929745,52.317489],[16.929745,52.317489],[16.929745,52.317489],[16.929745,52.317489],[16.929745,52.317489],[16.929745,52.317489],[16.929745,52.317489],[16.929745,52.317489],[16.925511,52.317415],[16.925511,52.317415],[16.925511,52.317415],[16.923289,52.319624],[16.923289,52.319624],[16.923289,52.319624],[16.923289,52.319624],[16.923289,52.319624],[16.923289,52.319624],[16.923289,52.319624],[16.923289,52.319624],[16.923289,52.319624],[16.923289,52.319624],[16.923289,52.319624],[16.923289,52.319624],[16.919055,52.31955],[16.919055,52.31955],[16.919055,52.31955],[16.916833,52.321759],[16.916833,52.321759],[16.916833,52.321759],[16.918844,52.324043],[16.918844,52.324043],[16.918844,52.324043],[16.918844,52.324043],[16.918844,52.324043],[16.918844,52.324043],[16.918844,52.324043],[16.918844,52.324043],[16.918844,52.324043],[16.918844,52.324043],[16.918844,52.324043],[16.918844,52.324043],[16.916622,52.326253],[16.916622,52.326253],[16.916622,52.326253],[16.918634,52.328537],[16.918634,52.328537],[16.918634,52.328537],[16.918634,52.328537],[16.918634,52.328537],[16.918634,52.328537],[16.918634,52.328537],[16.918634,52.328537],[16.918634,52.328537],[16.918634,52.328537],[16.918634,52.328537],[16.918634,52.328537],[16.916411,52.330746],[16.916411,52.330746],[16.916411,52.330746],[16.916411,52.330746],[16.916411,52.330746],[16.916411,52.330746],[16.916411,52.330746],[16.916411,52.330746],[16.916411,52.330746],[16.916411,52.330746],[16.916411,52.330746],[16.916411,52.330746],[16.912176,52.330672],[16.912176,52.330672],[16.912176,52.330672],[16.909953,52.332881],[16.909953,52.332881],[16.909953,52.332881],[16.909953,52.332881],[16.909953,52.332881],[16.909953,52.332881],[16.909953,52.332881],[16.909953,52.332881],[16.909953,52.332881],[16.909953,52.332881],[16.909953,52.332881],[16.909953,52.332881],[16.905718,52.332806],[16.905718,52.332806],[16.905718,52.332806],[16.903494,52.335015],[16.903494,52.335015],[16.903494,52.335015],[16.903494,52.335015],[16.903494,52.335015],[16.903494,52.335015],[16.903494,52.335015],[16.903494,52.335015],[16.903494,52.335015],[16.903494,52.335015],[16.903494,52.335015],[16.903494,52.335015],[16.899259,52.33494],[16.899259,52.33494],[16.899259,52.33494],[16.897035,52.337149],[16.897035,52.337149],[16.897035,52.337149],[16.899046,52.339433],[16.899046,52.339433],[16.899046,52.339433],[16.899046,52.339433],[16.899046,52.339433],[16.899046,52.339433],[16.899046,52.339433],[16.899046,52.339433],[16.899046,52.339433],[16.899046,52.339433],[16.899046,52.339433],[16.899046,52.339433],[16.896821,52.341642],[16.896821,52.341642],[16.896821,52.341642],[16.898833,52.343927],[16.898833,52.343927],[16.898833,52.343927],[16.898833,52.343927],[16.898833,52.343927],[16.898833,52.343927],[16.898833,52.343927],[16.898833,52.343927],[16.898833,52.343927],[16.898833,52.343927],[16.898833,52.343927],[16.898833,52.343927],[16.896608,52.346136],[16.896608,52.346136],[16.896608,52.346136],[16.89862,52.34842],[16.89862,52.34842],[16.89862,52.34842],[16.89862,52.34842],[16.89862,52.34842],[16.89862,52.34842],[16.89862,52.34842],[16.89862,52.34842],[16.89862,52.34842],[16.89862,52.34842],[16.89862,52.34842],[16.89862,52.34842],[16.896395,52.350629],[16.896395,52.350629],[16.896395,52.350629],[16.898406,52.352914],[16.898406,52.352914],[16.898406,52.352914],[16.898406,52.352914],[16.898406,52.352914],[16.898406,52.352914],[16.898406,52.352914],[16.898406,52.352914],[16.898406,52.352914],[16.898406,52.352914],[16.898406,52.352914],[16.898406,52.352914],[16.896181,52.355123],[16.896181,52.355123],[16.896181,52.355123],[16.896181,52.355123],[16.896181,52.355123],[16.896181,52.355123],[16.896181,52.355123],[16.896181,52.355123],[16.896181,52.355123],[16.896181,52.355123],[16.896181,52.355123],[16.896181,52.355123],[16.891944,52.355047],[16.891944,52.355047],[16.891944,52.355047],[16.891944,52.355047],[16.891944,52.355047],[16.891944,52.355047],[16.891944,52.355047],[16.891944,52.355047],[16.891944,52.355047],[16.891944,52.355047],[16.891944,52.355047],[16.891944,52.355047],[16.889933,52.352763],[16.889933,52.352763],[16.889933,52.352763],[16.885696,52.352687],[16.885696,52.352687],[16.885696,52.352687],[16.88347,52.354896],[16.88347,52.354896],[16.88347,52.354896],[16.88347,52.354896],[16.88347,52.354896],[16.88347,52.354896],[16.88347,52.354896],[16.88347,52.354896],[16.88347,52.354896],[16.88347,52.354896],[16.88347,52.354896],[16.88347,52.354896],[16.879233,52.35482],[16.879233,52.35482],[16.879233,52.35482],[16.879233,52.35482],[16.879233,52.35482],[16.879233,52.35482],[16.879233,52.35482],[16.879233,52.35482],[16.879233,52.35482],[16.879233,52.35482],[16.879233,52.35482],[16.879233,52.35482],[16.877223,52.352535],[16.877223,52.352535],[16.877223,52.352535],[16.872986,52.352459],[16.872986,52.352459],[16.872986,52.352459],[16.870759,52.354667],[16.870759,52.354667],[16.870759,52.354667],[16.870759,52.354667],[16.870759,52.354667],[16.870759,52.354667],[16.870759,52.354667],[16.870759,52.354667],[16.870759,52.354667],[16.870759,52.354667],[16.870759,52.354667],[16.870759,52.354667],[16.866523,52.354591],[16.866523,52.354591],[16.866523,52.354591],[16.866523,52.354591],[16.866523,52.354591],[16.866523,52.354591],[16.866523,52.354591],[16.866523,52.354591],[16.866523,52.354591],[16.866523,52.354591],[16.866523,52.354591],[16.866522,52.354591],[16.864512,52.352306],[16.864512,52.352306],[16.864512,52.352306],[16.860276,52.352229],[16.860276,52.352229],[16.860276,52.352229],[16.860276,52.352229],[16.860276,52.352229],[16.860276,52.352229],[16.860276,52.352229],[16.860276,52.352229],[16.860276,52.352229],[16.860276,52.352229],[16.860276,52.352229],[16.860276,52.352229],[16.858266,52.349944],[16.858266,52.349944],[16.858266,52.349944],[16.85403,52.349867],[16.85403,52.349867],[16.85403,52.349867],[16.85403,52.349867],[16.85403,52.349867],[16.85403,52.349867],[16.85403,52.349867],[16.85403,52.349867],[16.85403,52.349867],[16.85403,52.349867],[16.85403,52.349867],[16.85403,52.349867],[16.85202,52.347582],[16.85202,52.347582],[16.85202,52.347582],[16.847784,52.347505],[16.847784,52.347505],[16.847784,52.347505],[16.847784,52.347505],[16.847784,52.347505],[16.847784,52.347505],[16.847784,52.347505],[16.847784,52.347505],[16.847784,52.347505],[16.847784,52.347505],[16.847784,52.347505],[16.847784,52.347505],[16.845775,52.34522],[16.845775,52.34522],[16.845775,52.34522],[16.845775,52.34522],[16.845775,52.34522],[16.845775,52.34522],[16.845775,52.34522],[16.845775,52.34522],[16.845775,52.34522],[16.845775,52.34522],[16.845775,52.34522],[16.845775,52.34522],[16.848003,52.343012],[16.848003,52.343012],[16.848003,52.343012],[16.845994,52.340726],[16.845994,52.340726],[16.845994,52.340726],[16.841758,52.340649],[16.841758,52.340649],[16.841758,52.340649],[16.839531,52.342857],[16.839531,52.342857],[16.839531,52.342857],[16.839531,52.342857],[16.839531,52.342857],[16.839531,52.342857],[16.839531,52.342857],[16.839531,52.342857],[16.839531,52.342857],[16.839531,52.342857],[16.839531,52.342857],[16.839531,52.342857],[16.835295,52.342779],[16.835295,52.342779],[16.835295,52.342779],[16.833068,52.344987],[16.833068,52.344987],[16.833068,52.344987],[16.835076,52.347273],[16.835076,52.347273],[16.835076,52.347273],[16.835076,52.347273],[16.835076,52.347273],[16.835076,52.347273],[16.835076,52.347273],[16.835076,52.347273],[16.835076,52.347273],[16.835076,52.347273],[16.835076,52.347273],[16.835076,52.347273],[16.832848,52.349481],[16.832848,52.349481],[16.832848,52.349481],[16.832848,52.349481],[16.832848,52.349481],[16.832848,52.349481],[16.832848,52.349481],[16.832848,52.349481],[16.832848,52.349481],[16.832848,52.349481],[16.832848,52.349481],[16.832848,52.349481],[16.828612,52.349403],[16.828612,52.349403],[16.828612,52.349403],[16.826383,52.35161],[16.826383,52.35161],[16.826383,52.35161],[16.826383,52.351611],[16.826383,52.351611],[16.826383,52.351611],[16.826383,52.351611],[16.826383,52.351611],[16.826383,52.351611],[16.826383,52.351611],[16.826383,52.351611],[16.826383,52.351611],[16.822147,52.351532],[16.822147,52.351532],[16.822147,52.351532],[16.819918,52.35374],[16.819918,52.35374],[16.819918,52.35374],[16.821926,52.356026],[16.821926,52.356026],[16.821926,52.356026],[16.821926,52.356026],[16.821926,52.356026],[16.821926,52.356026],[16.821926,52.356026],[16.821926,52.356026],[16.821926,52.356026],[16.821926,52.356026],[16.821926,52.356026],[16.821926,52.356026],[16.819697,52.358233],[16.819697,52.358233],[16.819697,52.358233],[16.821705,52.360519],[16.821705,52.360519],[16.821705,52.360519],[16.825942,52.360597],[16.825942,52.360597],[16.825942,52.360597],[16.825942,52.360597],[16.825942,52.360597],[16.825942,52.360597],[16.825942,52.360597],[16.825942,52.360597],[16.825942,52.360597],[16.825942,52.360597],[16.825942,52.360597],[16.825942,52.360597],[16.82795,52.362883],[16.82795,52.362883],[16.82795,52.362883],[16.82795,52.362883],[16.82795,52.362883],[16.82795,52.362883],[16.82795,52.362883],[16.82795,52.362883],[16.82795,52.362883],[16.82795,52.362883],[16.82795,52.362883],[16.82795,52.362883],[16.825721,52.36509],[16.825721,52.36509],[16.825721,52.36509],[16.82773,52.367376],[16.82773,52.367376],[16.82773,52.367376],[16.82773,52.367376],[16.82773,52.367376],[16.82773,52.367376],[16.82773,52.367376],[16.82773,52.367376],[16.82773,52.367376],[16.82773,52.367376],[16.82773,52.367376],[16.82773,52.367376],[16.825501,52.369584],[16.825501,52.369584],[16.825501,52.369584],[16.827509,52.371869],[16.827509,52.371869],[16.827509,52.371869],[16.827509,52.371869],[16.827509,52.371869],[16.827509,52.371869],[16.827509,52.371869],[16.827509,52.371869],[16.827509,52.371869],[16.827509,52.371869],[16.827509,52.371869],[16.827509,52.371869],[16.82528,52.374077],[16.82528,52.374077],[16.82528,52.374077],[16.82528,52.374077],[16.82528,52.374077],[16.82528,52.374077],[16.82528,52.374077],[16.82528,52.374077],[16.82528,52.374077],[16.82528,52.374077],[16.82528,52.374077],[16.82528,52.374077],[16.821041,52.373999],[16.821041,52.373999],[16.821041,52.373999],[16.818811,52.376206],[16.818811,52.376206],[16.818811,52.376206],[16.818811,52.376206],[16.818811,52.376206],[16.818811,52.376207],[16.818811,52.376207],[16.818811,52.376207],[16.818811,52.376207],[16.818811,52.376207],[16.818811,52.376207],[16.818811,52.376207],[16.814572,52.376128],[16.814572,52.376128],[16.814572,52.376128],[16.814572,52.376128],[16.814572,52.376128],[16.814572,52.376128],[16.814572,52.376128],[16.814572,52.376128],[16.814572,52.376128],[16.814572,52.376128],[16.814572,52.376128],[16.814572,52.376128],[16.812564,52.373842],[16.812564,52.373842],[16.812564,52.373842],[16.808325,52.373764],[16.808325,52.373764],[16.808325,52.373764],[16.806095,52.375971],[16.806095,52.375971],[16.806095,52.375971],[16.806095,52.375971],[16.806095,52.375971],[16.806095,52.375971],[16.806095,52.375971],[16.806095,52.375971],[16.806095,52.375971],[16.806095,52.375971],[16.806095,52.375971],[16.806095,52.375971],[16.801856,52.375892],[16.801856,52.375892],[16.801856,52.375892],[16.801856,52.375892],[16.801856,52.375892],[16.801856,52.375892],[16.801856,52.375892],[16.801856,52.375892],[16.801856,52.375892],[16.801856,52.375892],[16.801856,52.375892],[16.801856,52.375892],[16.799848,52.373606],[16.799848,52.373606],[16.799848,52.373606],[16.79561,52.373527],[16.79561,52.373527],[16.79561,52.373527],[16.793379,52.375734],[16.793379,52.375734],[16.793379,52.375734],[16.793379,52.375734],[16.793379,52.375734],[16.793379,52.375734],[16.793379,52.375734],[16.793379,52.375734],[16.793378,52.375734],[16.793378,52.375734],[16.793378,52.375734],[16.793378,52.375734],[16.78914,52.375655],[16.78914,52.375655],[16.78914,52.375655],[16.786908,52.377862],[16.786908,52.377862],[16.786908,52.377862],[16.788915,52.380148],[16.788915,52.380148],[16.788915,52.380148],[16.793154,52.380227],[16.793154,52.380227],[16.793154,52.380227],[16.793154,52.380227],[16.793154,52.380227],[16.793154,52.380227],[16.793154,52.380227],[16.793154,52.380227],[16.793154,52.380227],[16.793154,52.380227],[16.793154,52.380227],[16.793154,52.380227],[16.795162,52.382514],[16.795162,52.382514],[16.795162,52.382514],[16.799401,52.382593],[16.799401,52.382593],[16.799401,52.382593],[16.799401,52.382593],[16.799401,52.382593],[16.799401,52.382593],[16.799401,52.382593],[16.799401,52.382593],[16.799401,52.382593],[16.799401,52.382593],[16.799401,52.382593],[16.799401,52.382593],[16.801409,52.384879],[16.801409,52.384879],[16.801409,52.384879],[16.801409,52.384879],[16.801409,52.384879],[16.801409,52.384879],[16.801409,52.384879],[16.801409,52.384879],[16.801409,52.384879],[16.801409,52.384879],[16.801409,52.384879],[16.801409,52.384879],[16.799178,52.387086],[16.799178,52.387086],[16.799178,52.387086],[16.801186,52.389372],[16.801186,52.389372],[16.801186,52.389372],[16.805426,52.389451],[16.805426,52.389451],[16.805426,52.389451],[16.805426,52.389451],[16.805426,52.389451],[16.805426,52.389451],[16.805426,52.389451],[16.805426,52.389451],[16.805426,52.389451],[16.805426,52.389451],[16.805426,52.389451],[16.805426,52.389451],[16.807435,52.391737],[16.807435,52.391737],[16.807435,52.391737],[16.807435,52.391737],[16.807435,52.391737],[16.807435,52.391737],[16.807435,52.391737],[16.807435,52.391737],[16.807435,52.391737],[16.807435,52.391737],[16.807435,52.391737],[16.807435,52.391737],[16.805203,52.393944],[16.805203,52.393944],[16.805203,52.393944],[16.805203,52.393944],[16.805203,52.393944],[16.805203,52.393944],[16.805203,52.393944],[16.805203,52.393944],[16.805203,52.393944],[16.805203,52.393944],[16.805203,52.393944],[16.805203,52.393944],[16.800963,52.393865],[16.800963,52.393865],[16.800963,52.393865],[16.798731,52.396072],[16.798731,52.396072],[16.798731,52.396072],[16.800739,52.398358],[16.800739,52.398358],[16.800739,52.398358],[16.800739,52.398358],[16.800739,52.398358],[16.800739,52.398358],[16.800739,52.398358],[16.800739,52.398358],[16.800739,52.398358],[16.800739,52.398358],[16.800739,52.398358],[16.800739,52.398358],[16.798507,52.400565],[16.798507,52.400565],[16.798507,52.400565],[16.798507,52.400565],[16.798507,52.400565],[16.798507,52.400565],[16.798507,52.400565],[16.798507,52.400565],[16.798507,52.400565],[16.798507,52.400565],[16.798507,52.400565],[16.798507,52.400565],[16.794266,52.400486],[16.794266,52.400486],[16.794266,52.400486],[16.792033,52.402693],[16.792033,52.402693],[16.792033,52.402693],[16.794042,52.40498],[16.794042,52.40498],[16.794042,52.40498],[16.794042,52.40498],[16.794042,52.40498],[16.794042,52.40498],[16.794042,52.40498],[16.794042,52.40498],[16.794042,52.40498],[16.794042,52.40498],[16.794042,52.40498],[16.794042,52.40498],[16.791809,52.407187],[16.791809,52.407187],[16.791809,52.407187],[16.793817,52.409473],[16.793817,52.409473],[16.793817,52.409473],[16.793817,52.409473],[16.793817,52.409473],[16.793817,52.409473],[16.793817,52.409473],[16.793817,52.409473],[16.793817,52.409473],[16.793817,52.409473],[16.793817,52.409473],[16.793817,52.409473],[16.791584,52.41168],[16.791584,52.41168],[16.791584,52.41168],[16.793593,52.413966],[16.793593,52.413966],[16.793593,52.413966],[16.793593,52.413966],[16.793593,52.413966],[16.793593,52.413966],[16.793593,52.413966],[16.793593,52.413966],[16.793593,52.413966],[16.793593,52.413966],[16.793593,52.413966],[16.793593,52.413966],[16.79136,52.416173],[16.79136,52.416173],[16.79136,52.416173],[16.793369,52.418459],[16.793369,52.418459],[16.793369,52.418459],[16.797611,52.418538],[16.797611,52.418538],[16.797612,52.418538],[16.797612,52.418538],[16.797612,52.418538],[16.797612,52.418538],[16.797612,52.418538],[16.797612,52.418538],[16.797612,52.418538],[16.797612,52.418538],[16.797612,52.418538],[16.797612,52.418538],[16.799621,52.420824],[16.799621,52.420824],[16.799621,52.420824],[16.799621,52.420824],[16.799621,52.420824],[16.799621,52.420824],[16.799621,52.420824],[16.799621,52.420824],[16.799621,52.420824],[16.799621,52.420824],[16.799621,52.420824],[16.799621,52.420824],[16.797388,52.423031],[16.797388,52.423031],[16.797388,52.423031],[16.797388,52.423031],[16.797388,52.423031],[16.797388,52.423031],[16.797388,52.423031],[16.797388,52.423031],[16.797388,52.423031],[16.797388,52.423031],[16.797387,52.423031],[16.797387,52.423031],[16.793144,52.422952],[16.793144,52.422952],[16.793144,52.422952],[16.79091,52.425159],[16.79091,52.425159],[16.79091,52.425159],[16.79292,52.427445],[16.79292,52.427445],[16.79292,52.427445],[16.797163,52.427525],[16.797163,52.427525],[16.797163,52.427525],[16.797163,52.427525],[16.797163,52.427525],[16.797163,52.427525],[16.797163,52.427525],[16.797164,52.427525],[16.797164,52.427525],[16.797164,52.427525],[16.797164,52.427525],[16.797164,52.427525],[16.799173,52.429811],[16.799173,52.429811],[16.799173,52.429811],[16.799173,52.429811],[16.799173,52.429811],[16.799173,52.429811],[16.799173,52.429811],[16.799173,52.429811],[16.799173,52.429811],[16.799173,52.429811],[16.799173,52.429811],[16.799173,52.429811],[16.796939,52.432018],[16.796939,52.432018],[16.796939,52.432018],[16.798949,52.434304],[16.798949,52.434304],[16.798949,52.434304],[16.798949,52.434304],[16.798949,52.434304],[16.798949,52.434304],[16.798949,52.434304],[16.798949,52.434304],[16.798949,52.434304],[16.798949,52.434304],[16.798949,52.434304],[16.798949,52.434304],[16.796715,52.436511],[16.796715,52.436511],[16.796715,52.436511],[16.796715,52.436511],[16.796715,52.436511],[16.796715,52.436511],[16.796715,52.436511],[16.796715,52.436511],[16.796715,52.436511],[16.796715,52.436511],[16.796715,52.436511],[16.796715,52.436511],[16.792471,52.436432],[16.792471,52.436432],[16.792471,52.436432],[16.790236,52.438639],[16.790236,52.438639],[16.790236,52.438639],[16.792246,52.440925],[16.792246,52.440925],[16.792246,52.440925],[16.792246,52.440925],[16.792246,52.440925],[16.792246,52.440925],[16.792246,52.440925],[16.792246,52.440925],[16.792246,52.440925],[16.792246,52.440925],[16.792246,52.440925],[16.792246,52.440925],[16.790011,52.443132],[16.790011,52.443132],[16.790011,52.443132],[16.790011,52.443132],[16.790011,52.443132],[16.790011,52.443132],[16.790011,52.443132],[16.790011,52.443132],[16.790011,52.443132],[16.790011,52.443132],[16.790011,52.443132],[16.790011,52.443132],[16.785766,52.443052],[16.785766,52.443052],[16.785766,52.443052],[16.783531,52.445259],[16.783531,52.445259],[16.783531,52.445259],[16.78554,52.447545],[16.78554,52.447545],[16.78554,52.447545],[16.78554,52.447545],[16.78554,52.447545],[16.78554,52.447546],[16.78554,52.447546],[16.78554,52.447546],[16.78554,52.447546],[16.78554,52.447546],[16.78554,52.447546],[16.78554,52.447546],[16.783305,52.449752],[16.783305,52.449752],[16.783305,52.449752],[16.785315,52.452039],[16.785315,52.452039],[16.785315,52.452039],[16.785315,52.452039],[16.785315,52.452039],[16.785315,52.452039],[16.785315,52.452039],[16.785315,52.452039],[16.785315,52.452039],[16.785315,52.452039],[16.785315,52.452039],[16.785315,52.452039],[16.783079,52.454245],[16.783079,52.454245],[16.783079,52.454245],[16.783079,52.454245],[16.783079,52.454245],[16.783079,52.454245],[16.783079,52.454245],[16.783079,52.454245],[16.783079,52.454245],[16.783079,52.454245],[16.783079,52.454245],[16.783079,52.454245],[16.778833,52.454166],[16.778833,52.454166],[16.778833,52.454166],[16.776597,52.456372],[16.776597,52.456372],[16.776597,52.456372],[16.778607,52.458659],[16.778607,52.458659],[16.778607,52.458659],[16.778607,52.458659],[16.778607,52.458659],[16.778607,52.458659],[16.778607,52.458659],[16.778607,52.458659],[16.778607,52.458659],[16.778607,52.458659],[16.778607,52.458659],[16.778607,52.458659],[16.77637,52.460865],[16.77637,52.460865],[16.77637,52.460865],[16.77637,52.460865],[16.77637,52.460865],[16.77637,52.460865],[16.77637,52.460865],[16.77637,52.460865],[16.77637,52.460865],[16.77637,52.460865],[16.77637,52.460865],[16.77637,52.460865],[16.772123,52.460785],[16.772123,52.460785],[16.772123,52.460785],[16.772123,52.460785],[16.772123,52.460785],[16.772123,52.460785],[16.772123,52.460785],[16.772123,52.460785],[16.772123,52.460785],[16.772123,52.460785],[16.772123,52.460785],[16.772123,52.460785],[16.770114,52.458499],[16.770114,52.458499],[16.770114,52.458499],[16.765867,52.458419],[16.765867,52.458419],[16.765867,52.458419],[16.765867,52.458419],[16.765867,52.458419],[16.765867,52.458419],[16.765867,52.458419],[16.765867,52.458419],[16.765867,52.458419],[16.765867,52.458419],[16.765867,52.458419],[16.765867,52.458419],[16.763858,52.456132],[16.763858,52.456132],[16.763858,52.456132],[16.759611,52.456052],[16.759611,52.456052],[16.759611,52.456052],[16.759611,52.456052],[16.759611,52.456052],[16.759611,52.456052],[16.759611,52.456052],[16.759611,52.456052],[16.759611,52.456052],[16.759611,52.456052],[16.759611,52.456052],[16.759611,52.456052],[16.757602,52.453765],[16.757602,52.453765],[16.757602,52.453765],[16.753356,52.453684],[16.753356,52.453684],[16.753356,52.453684],[16.753356,52.453684],[16.753356,52.453684],[16.753356,52.453684],[16.753356,52.453684],[16.753356,52.453684],[16.753356,52.453684],[16.753356,52.453684],[16.753356,52.453684],[16.753356,52.453684],[16.751348,52.451397],[16.751348,52.451397],[16.751348,52.451397],[16.747102,52.451317],[16.747102,52.451317],[16.747102,52.451317],[16.744864,52.453523],[16.744864,52.453523],[16.744864,52.453523],[16.746872,52.45581],[16.746872,52.45581],[16.746872,52.45581],[16.746872,52.45581],[16.746872,52.45581],[16.746872,52.45581],[16.746872,52.45581],[16.746872,52.45581],[16.746872,52.45581],[16.746872,52.45581],[16.746872,52.45581],[16.746872,52.45581],[16.744634,52.458016],[16.744634,52.458016],[16.744634,52.458016],[16.744634,52.458016],[16.744634,52.458016],[16.744634,52.458016],[16.744634,52.458016],[16.744634,52.458016],[16.744634,52.458016],[16.744634,52.458016],[16.744634,52.458016],[16.744634,52.458016],[16.740388,52.457935],[16.740388,52.457935],[16.740388,52.457935],[16.740388,52.457935],[16.740388,52.457935],[16.740388,52.457935],[16.740388,52.457935],[16.740388,52.457935],[16.740388,52.457935],[16.740388,52.457935],[16.740388,52.457935],[16.740388,52.457935],[16.73838,52.455647],[16.73838,52.455647],[16.73838,52.455647],[16.734134,52.455566],[16.734134,52.455566],[16.734134,52.455566],[16.731895,52.457772],[16.731895,52.457772]]]}}]}