{
"type": "FeatureCollection",
"name": "warszawa_hex_boundary_1000m",
"crs": { "type": "name", "properties": { "name": "urn:ogc:def:crs:OGC:1.3:CRS84" } },
"xy_coordinate_resolution": 1e-15,
"features": [
{ "type": "Feature", "properties": { "fid": 1, "id": 14, "left": 626505.91590000037, "top": 489172.4235999994, "right": 627660.61643837963, "bottom": 488172.4235999994, "row_index": 13, "col_index": 0, "hex_id": 1 }, "geometry": { "type": "MultiPolygon", "coordinates": [ [ [ [ 20.892924747228829, 52.176943731025965 ], [ 20.892924689350654, 52.176943752826936 ], [ 20.888894566063239, 52.181505595796139 ], [ 20.888894441336099, 52.181505642766552 ], [ 20.88045245379621, 52.181640536847183 ], [ 20.880452325267157, 52.18164049392346 ], [ 20.876042115720839, 52.177213502344969 ], [ 20.876042056078187, 52.177213482421671 ], [ 20.867600728595214, 52.177347450696189 ], [ 20.867600670703816, 52.177347472484847 ], [ 20.863567898145213, 52.181908474736005 ], [ 20.863567773389594, 52.181908521679887 ], [ 20.855125542409645, 52.182041605082325 ], [ 20.855125484505962, 52.182041626864972 ], [ 20.851090990094413, 52.186602239605584 ], [ 20.85109099182732, 52.186602281322173 ], [ 20.855499698519996, 52.191030213819523 ], [ 20.855499702263369, 52.191030303705972 ], [ 20.851464477152383, 52.195590905520461 ], [ 20.8514644788862, 52.195590947236965 ], [ 20.855874134450488, 52.200018850545241 ], [ 20.855874138195833, 52.200018940431534 ], [ 20.85183816038915, 52.204579555769172 ], [ 20.851838162123876, 52.204579597485612 ], [ 20.856248790713543, 52.20900749532489 ], [ 20.856248850390532, 52.209007515257781 ], [ 20.86469618607272, 52.208874303281512 ], [ 20.864696314666286, 52.208874346221613 ], [ 20.869108598879411, 52.213301696501411 ], [ 20.869108602653252, 52.213301786386815 ], [ 20.865072822121149, 52.217862843260882 ], [ 20.865072823869106, 52.217862884976917 ], [ 20.869486082520378, 52.22229022961421 ], [ 20.869486086296206, 52.222290319499457 ], [ 20.865449552828501, 52.226851390050726 ], [ 20.865449554577378, 52.226851431766676 ], [ 20.869863788197794, 52.231278770751437 ], [ 20.869863847910828, 52.231278790677017 ], [ 20.878315344505232, 52.231144564122587 ], [ 20.878315473176471, 52.23114460704695 ], [ 20.882731364546903, 52.235571397784412 ], [ 20.882731368351291, 52.235571487668771 ], [ 20.878695055477888, 52.240132975643718 ], [ 20.878694930576927, 52.240133022604596 ], [ 20.870241728463967, 52.24026729238637 ], [ 20.870241670492806, 52.240267314176876 ], [ 20.866203630024611, 52.244828412108845 ], [ 20.866203505097062, 52.24482845905672 ], [ 20.857749350640148, 52.244961842706076 ], [ 20.857749292656653, 52.244961864490534 ], [ 20.853709524053972, 52.249522572012403 ], [ 20.85370952579326, 52.24952261372848 ], [ 20.85812490907341, 52.25395036544743 ], [ 20.858124968812039, 52.253950385378651 ], [ 20.866580830199833, 52.253816958767835 ], [ 20.866580958926239, 52.253817001704334 ], [ 20.870998002251699, 52.258244205049344 ], [ 20.870998006035475, 52.258244294933967 ], [ 20.866958457044767, 52.262805420279399 ], [ 20.86695845879732, 52.262805461995072 ], [ 20.871376479170518, 52.267232659652826 ], [ 20.871376482956283, 52.2672327495373 ], [ 20.867336179138437, 52.271793888602659 ], [ 20.867336180891918, 52.271793930318246 ], [ 20.87175515516185, 52.276221098553698 ], [ 20.871755158949604, 52.276221188438001 ], [ 20.867714099925578, 52.280782341231827 ], [ 20.867714101679976, 52.280782382947343 ], [ 20.872134030364979, 52.285209521751653 ], [ 20.872134034154726, 52.285209611635814 ], [ 20.868092219545229, 52.289770778166691 ], [ 20.86809222130055, 52.289770819882143 ], [ 20.872513104919332, 52.294197929246494 ], [ 20.872513108711072, 52.294198019130476 ], [ 20.86847053813656, 52.29875919940698 ], [ 20.868470539892805, 52.298759241122355 ], [ 20.872892378964462, 52.30318632103792 ], [ 20.872892382758202, 52.303186410921754 ], [ 20.86884905583889, 52.307747604952453 ], [ 20.868849057596059, 52.307747646667757 ], [ 20.873271852640066, 52.312174697125684 ], [ 20.8732718564358, 52.312174787009369 ], [ 20.869227772791657, 52.316735994802855 ], [ 20.869227774549749, 52.316736036518073 ], [ 20.873651549795508, 52.321163081233756 ], [ 20.87365160963218, 52.321163101155967 ], [ 20.882120201767869, 52.321028441543838 ], [ 20.882120330705551, 52.321028484460918 ], [ 20.886545796294019, 52.325455003017176 ], [ 20.886545856142163, 52.325455022932736 ], [ 20.895015204862364, 52.325319431261875 ], [ 20.895015333824752, 52.325319474164601 ], [ 20.899442513840732, 52.32974548991745 ], [ 20.899442573700341, 52.329745509826338 ], [ 20.907912723875512, 52.329608985090999 ], [ 20.907912781943331, 52.329608963281352 ], [ 20.911953992058358, 52.325046467519691 ], [ 20.911954117159969, 52.325046420522291 ], [ 20.920423217362405, 52.324909008941063 ], [ 20.920423346347448, 52.324909051815808 ], [ 20.924852972520341, 52.329334067263765 ], [ 20.924852976422965, 52.329334157144487 ], [ 20.920812725952789, 52.333897082035151 ], [ 20.920812727760499, 52.333897123749018 ], [ 20.925243337765259, 52.338322132788136 ], [ 20.925243341669937, 52.338322222668701 ], [ 20.92120235783884, 52.342885137428318 ], [ 20.921202232697411, 52.342885184435772 ], [ 20.912729656735088, 52.343022685348977 ], [ 20.912729598652295, 52.343022707161083 ], [ 20.908686855411762, 52.347585255751042 ], [ 20.908686857208949, 52.347585297465116 ], [ 20.913117671982661, 52.352010750101208 ], [ 20.913117675864669, 52.352010839982213 ], [ 20.909074197986548, 52.356573378322651 ], [ 20.909074199784687, 52.356573420036639 ], [ 20.913505999072775, 52.360998866402234 ], [ 20.913506058981127, 52.360998886303427 ], [ 20.921982068925026, 52.360861296721467 ], [ 20.921982198017144, 52.360861339593221 ], [ 20.926415691451226, 52.365286258206439 ], [ 20.926415751371064, 52.36528627810096 ], [ 20.934892517471773, 52.365147754736434 ], [ 20.934892646588626, 52.365147797593828 ], [ 20.939327858296085, 52.369572211801369 ], [ 20.939327918227406, 52.369572231689219 ], [ 20.947805485392081, 52.369432773520671 ], [ 20.947805543491448, 52.369432751691221 ], [ 20.951846135019746, 52.364868925017909 ], [ 20.951846260189306, 52.364868877977855 ], [ 20.960322773024256, 52.364728532232085 ], [ 20.960322902163757, 52.364728575061449 ], [ 20.964760587179629, 52.369152009993464 ], [ 20.964760647121455, 52.36915202986831 ], [ 20.973238005017159, 52.369010748316221 ], [ 20.973238063103103, 52.3690107264744 ], [ 20.977275972201888, 52.364446056289751 ], [ 20.977276097342521, 52.364446009223037 ], [ 20.985752399628904, 52.364303840458469 ], [ 20.985752528791014, 52.364303883259794 ], [ 20.990192685539036, 52.368726338087775 ], [ 20.990192745491353, 52.368726357949591 ], [ 20.998669891406813, 52.368583253117869 ], [ 20.998669949479318, 52.368583231263671 ], [ 21.002705175015485, 52.364017718500065 ], [ 21.002705300127158, 52.3640176714067 ], [ 21.01118138915491, 52.363873679727867 ], [ 21.01118151833958, 52.363873722501161 ], [ 21.015624145240867, 52.368295196397334 ], [ 21.015624205203657, 52.368295216246139 ], [ 21.024101136428037, 52.36815028824001 ], [ 21.024101194487081, 52.368150266373448 ], [ 21.028133735330591, 52.363583911963772 ], [ 21.028133860413263, 52.363583864843761 ], [ 21.036609733472723, 52.363438050356542 ], [ 21.036609862679917, 52.363438093101784 ], [ 21.041054958152955, 52.367858585239169 ], [ 21.041055018126197, 52.367858605074957 ], [ 21.049531731949092, 52.367711854000987 ], [ 21.04953178999466, 52.367711832122062 ], [ 21.053561645018529, 52.36314463699982 ], [ 21.053561770072168, 52.363144589853178 ], [ 21.062037424454132, 52.362996952664751 ], [ 21.062037553683801, 52.362996995381963 ], [ 21.066485116144452, 52.367416504934347 ], [ 21.066485176128122, 52.367416524757111 ], [ 21.074961669839567, 52.367267950723203 ], [ 21.074961727871639, 52.367267928831922 ], [ 21.078988895951952, 52.362699893931158 ], [ 21.078989020976508, 52.362699846757891 ], [ 21.087464499392627, 52.362550386174213 ], [ 21.087464557412222, 52.362550364276906 ], [ 21.091490029692537, 52.357981893391482 ], [ 21.091490027722553, 52.357981851682148 ], [ 21.087040970103718, 52.353563293295451 ], [ 21.087040965868702, 52.353563203424009 ], [ 21.091065669897585, 52.348994773087909 ], [ 21.091065667928643, 52.34899473137849 ], [ 21.086617580023077, 52.344576140757134 ], [ 21.086617575790292, 52.344576050885514 ], [ 21.090641533515335, 52.340007636607055 ], [ 21.09064153154743, 52.340007594897564 ], [ 21.086194412826121, 52.335588972051561 ], [ 21.086194408595563, 52.335588882179792 ], [ 21.090217598830833, 52.331020508432196 ], [ 21.09021772375467, 52.331020461247888 ], [ 21.098687085463563, 52.330870258922459 ], [ 21.098687143436418, 52.330870237020015 ], [ 21.102708662647274, 52.326301403548399 ], [ 21.102708660668991, 52.326301361839128 ], [ 21.098261741665617, 52.321883158286525 ], [ 21.098261681730381, 52.321883138479258 ], [ 21.089794033707854, 52.322033292414844 ], [ 21.089793904572822, 52.322033249726744 ], [ 21.085348746458966, 52.317614586141133 ], [ 21.085348742232856, 52.317614496269037 ], [ 21.089370463280474, 52.313046130106841 ], [ 21.089370461315674, 52.31304608839713 ], [ 21.084926246976977, 52.308627368937437 ], [ 21.084926242753092, 52.308627279065185 ], [ 21.088947197438994, 52.304058953405303 ], [ 21.088947322289101, 52.30405890622292 ], [ 21.097411545637886, 52.303908849008479 ], [ 21.097411603576532, 52.303908827106937 ], [ 21.101430889912749, 52.299340042104419 ], [ 21.101430887937589, 52.299340000394935 ], [ 21.096986896676512, 52.294921723468846 ], [ 21.096986892430301, 52.29492163359707 ], [ 21.101005392146128, 52.290352913700353 ], [ 21.101005516944909, 52.290352866505664 ], [ 21.109467062389079, 52.290201972890387 ], [ 21.109467120303908, 52.290201950983139 ], [ 21.113483953069156, 52.285632772228574 ], [ 21.113483951083648, 52.285632730519303 ], [ 21.10904018401261, 52.281214895872466 ], [ 21.10904017974411, 52.281214806001188 ], [ 21.113056227183236, 52.27664569247387 ], [ 21.113056351930734, 52.276645645266875 ], [ 21.121515175720567, 52.27649391692588 ], [ 21.121515304751401, 52.276493959580691 ], [ 21.125959813651352, 52.280911319571025 ], [ 21.125959873542701, 52.280911339364835 ], [ 21.134419484044816, 52.280758677233571 ], [ 21.13441961310015, 52.280758719873972 ], [ 21.138865830957585, 52.2851755723634 ], [ 21.138865890860306, 52.28517559215053 ], [ 21.14732624221519, 52.285021996771412 ], [ 21.147326371295019, 52.285022039397404 ], [ 21.151774298478866, 52.289438384017309 ], [ 21.151774358392956, 52.289438403797739 ], [ 21.160235450072271, 52.289283874901813 ], [ 21.1602355791766, 52.289283917513373 ], [ 21.164685216055396, 52.293699753895091 ], [ 21.164685275980858, 52.293699773668841 ], [ 21.173147152802933, 52.293544310152441 ], [ 21.17314721068972, 52.293544288214257 ], [ 21.177157716866841, 52.288973014724618 ], [ 21.177157714821298, 52.28897297301711 ], [ 21.172707338595639, 52.284557611945871 ], [ 21.17270733419782, 52.28455752207838 ], [ 21.176717058495715, 52.279986314498871 ], [ 21.176717183182827, 52.279986267225276 ], [ 21.185176334856102, 52.279829971200641 ], [ 21.185176392719086, 52.279829949256793 ], [ 21.189184451348208, 52.275258284711605 ], [ 21.189184449292391, 52.27525824300433 ], [ 21.184734305170721, 52.270843323847842 ], [ 21.184734300750751, 52.270843233980855 ], [ 21.188741578790488, 52.266271635466161 ], [ 21.188741703426356, 52.266271588180331 ], [ 21.197198176886801, 52.266114459675094 ], [ 21.197198234726006, 52.26611443772557 ], [ 21.201203827032082, 52.261542407230579 ], [ 21.201203951641176, 52.261542359931859 ], [ 21.209659409397613, 52.261384349782979 ], [ 21.209659538465854, 52.26138439234105 ], [ 21.214111156065364, 52.265798360958193 ], [ 21.214111215974068, 52.265798380707103 ], [ 21.222567454887685, 52.265639436364687 ], [ 21.222567583980354, 52.265639478908348 ], [ 21.2270209086271, 52.270052938277267 ], [ 21.227020968547141, 52.270052958019484 ], [ 21.23547798809528, 52.269893079202426 ], [ 21.235478045919866, 52.269893057234313 ], [ 21.239479988241388, 52.265319771387418 ], [ 21.239480112818978, 52.265319724048638 ], [ 21.247936069182863, 52.265158964842129 ], [ 21.247936198297573, 52.265159007357767 ], [ 21.252391964691341, 52.269571481368779 ], [ 21.25239202462161, 52.269571501097992 ], [ 21.260848805508935, 52.269409806314115 ], [ 21.260848863319968, 52.269409784333718 ], [ 21.264848146831877, 52.264835643957944 ], [ 21.264848144705841, 52.264835602252759 ], [ 21.260391644872605, 52.260423604028304 ], [ 21.260391640301364, 52.260423514165758 ], [ 21.264390169386836, 52.255849416106379 ], [ 21.264390167261912, 52.255849374401102 ], [ 21.259934640703086, 52.251437341787756 ], [ 21.259934636134243, 52.251437251925061 ], [ 21.26393243259102, 52.246863171659399 ], [ 21.263932430467214, 52.246863129954043 ], [ 21.259477876651655, 52.242451062962751 ], [ 21.259477872085217, 52.242450973099878 ], [ 21.263474936276335, 52.237876910617906 ], [ 21.263474934153646, 52.23787686891248 ], [ 21.259021352550615, 52.233464767554175 ], [ 21.259021347986572, 52.233464677691131 ], [ 21.263017680274842, 52.228890632982818 ], [ 21.263017678153268, 52.228890591277313 ], [ 21.258565068232407, 52.224478455562924 ], [ 21.258565063670765, 52.224478365699731 ], [ 21.262560664418764, 52.219904338755022 ], [ 21.262560662298299, 52.219904297049439 ], [ 21.258109023529656, 52.215492126989922 ], [ 21.258109018970405, 52.215492037126552 ], [ 21.262103867133892, 52.210918052448207 ], [ 21.262103991536133, 52.21091800508718 ], [ 21.270549529103235, 52.210755743128132 ], [ 21.270549586834008, 52.210755721143713 ], [ 21.274542776451181, 52.206181282498633 ], [ 21.274542774320548, 52.206181240793299 ], [ 21.270091351951343, 52.201769487652328 ], [ 21.270091292105725, 52.201769467930916 ], [ 21.261647455447783, 52.201931677677322 ], [ 21.261647326505699, 52.201931635174304 ], [ 21.257197652301738, 52.197519420102182 ], [ 21.257197647747276, 52.197519330238492 ], [ 21.261191034648864, 52.192945381037141 ], [ 21.261191159002482, 52.192945333677507 ], [ 21.269633295641938, 52.192783176122767 ], [ 21.269633353350155, 52.192783154139001 ], [ 21.273625083471135, 52.188208751220756 ], [ 21.27362508134274, 52.188208709515266 ], [ 21.269175623207509, 52.183796911070402 ], [ 21.269175618631149, 52.183796821207231 ], [ 21.273166576769885, 52.179222485165887 ], [ 21.273166701072537, 52.179222437794117 ], [ 21.281606169186258, 52.179059453495135 ], [ 21.281606226870821, 52.179059431505728 ], [ 21.285595529621112, 52.174484642227902 ], [ 21.28559552748257, 52.174484600522653 ], [ 21.281146286506193, 52.170073218453339 ], [ 21.281146226698848, 52.170073198737008 ], [ 21.272708456295863, 52.170236130606114 ], [ 21.272708327436227, 52.170236088114024 ], [ 21.268260831404422, 52.165824244408874 ], [ 21.268260826832861, 52.165824154545369 ], [ 21.272250349034511, 52.16124982965583 ], [ 21.272250346909459, 52.161249787950119 ], [ 21.267803795382015, 52.156837886166748 ], [ 21.267803790812856, 52.15683779630308 ], [ 21.271792584893724, 52.152263489231736 ], [ 21.271792582769791, 52.152263447525939 ], [ 21.267346975234371, 52.147851487673961 ], [ 21.267346915463008, 52.147851467950154 ], [ 21.258913265577402, 52.148013364860404 ], [ 21.258913136795293, 52.148013322352213 ], [ 21.25446924821717, 52.143600877922808 ], [ 21.254469188457051, 52.143600858192308 ], [ 21.246036221666053, 52.143761826067383 ], [ 21.24603616400854, 52.143761848039169 ], [ 21.242045436074605, 52.148335311258847 ], [ 21.242045311822984, 52.148335358597421 ], [ 21.233611424184915, 52.148495447463922 ], [ 21.233611366515053, 52.148495469429768 ], [ 21.229618943284702, 52.153068527987713 ], [ 21.229618819006465, 52.153068575313462 ], [ 21.221184010893303, 52.153227784869763 ], [ 21.221183882130717, 52.153227742320141 ], [ 21.21674314772385, 52.148813842957281 ], [ 21.216743087972791, 52.148813823207576 ], [ 21.208308965244505, 52.148972103920016 ], [ 21.20830883650618, 52.148972061356034 ], [ 21.203869797559516, 52.144557654905988 ], [ 21.203869737819719, 52.14455763514961 ], [ 21.195436301008808, 52.144714987271556 ], [ 21.19543624332443, 52.144715009218885 ], [ 21.191440195414142, 52.149286817564558 ], [ 21.19144007110463, 52.14928686485041 ], [ 21.183005761147601, 52.14944333644997 ], [ 21.183005632431229, 52.149443293858106 ], [ 21.178569020663048, 52.145027907617248 ], [ 21.17856896093344, 52.145027887847938 ], [ 21.170135338300632, 52.145183431088576 ], [ 21.170135209608546, 52.145183388482351 ], [ 21.165700293099121, 52.140767496087832 ], [ 21.165700233380779, 52.140767476311851 ], [ 21.157267343795844, 52.14092209062035 ], [ 21.157267215128044, 52.140922047999766 ], [ 21.152834017269122, 52.136505673486084 ], [ 21.152834012934662, 52.136505583615133 ], [ 21.156832947477717, 52.13193504380277 ], [ 21.156832945462678, 52.131935002093577 ], [ 21.152400660973854, 52.127518547290201 ], [ 21.152400601279105, 52.127518527507192 ], [ 21.143970139352579, 52.127672163726253 ], [ 21.143970010735607, 52.127672121090519 ], [ 21.139539467387589, 52.12325520836955 ], [ 21.139539463081931, 52.123255118497617 ], [ 21.143538624333612, 52.118685018208687 ], [ 21.143538622331942, 52.118684976499047 ], [ 21.139108990974329, 52.114267983657889 ], [ 21.139108931303152, 52.114267963867853 ], [ 21.13068089594265, 52.11442062288431 ], [ 21.130680767376468, 52.114420580233421 ], [ 21.126252852154213, 52.110003106337274 ], [ 21.126252792494295, 52.110003086540587 ], [ 21.117825491019424, 52.110154818026018 ], [ 21.117825362477507, 52.110154775360812 ], [ 21.113399139285228, 52.105736797105116 ], [ 21.113399079636569, 52.105736777301779 ], [ 21.104972512567723, 52.105887581523334 ], [ 21.104972384050072, 52.10588753884381 ], [ 21.100547852522926, 52.101469056594262 ], [ 21.100547792885525, 52.10146903678428 ], [ 21.092121960742482, 52.101618914009215 ], [ 21.092121832249099, 52.101618871315388 ], [ 21.087698992021853, 52.097199885437583 ], [ 21.087698932395714, 52.097199865620979 ], [ 21.079273835697638, 52.097348816116643 ], [ 21.07927370722852, 52.097348773408513 ], [ 21.074852557935564, 52.09292928426801 ], [ 21.074852498320688, 52.092929264444756 ], [ 21.066428092439264, 52.093077289270255 ], [ 21.06642803475572, 52.093077311154595 ], [ 21.062423132602795, 52.097644871926228 ], [ 21.062423008295124, 52.097644919076338 ], [ 21.053997693397662, 52.097792064220215 ], [ 21.05399763570184, 52.097792086098579 ], [ 21.049991042462793, 52.10235923880844 ], [ 21.049990918128664, 52.10235928594566 ], [ 21.041564694592569, 52.102505551108706 ], [ 21.041564566143396, 52.102505508359279 ], [ 21.037146582150214, 52.098084574561355 ], [ 21.037146522544596, 52.098084554718952 ], [ 21.028720946948877, 52.098229895187622 ], [ 21.028720889239786, 52.098229917053736 ], [ 21.02471165141117, 52.102796237280408 ], [ 21.024711527048442, 52.102796284391246 ], [ 21.016285089220347, 52.102940743765309 ], [ 21.016284960793342, 52.1029407009881 ], [ 21.011869407245694, 52.098518794454492 ], [ 21.011869347650364, 52.098518774599192 ], [ 21.003443604316193, 52.098662308729054 ], [ 21.0034434759135, 52.098662265937556 ], [ 20.999029613750118, 52.094239857842702 ], [ 20.999029554166071, 52.094239837980773 ], [ 20.990604505849383, 52.094382447121646 ], [ 20.990604448126064, 52.094382468969251 ], [ 20.986591615964681, 52.098947531300873 ], [ 20.9865914915713, 52.098947578371821 ], [ 20.978165537999505, 52.09908930683239 ], [ 20.978165480263925, 52.099089328674012 ], [ 20.974150935055711, 52.103654005629501 ], [ 20.974150936898269, 52.103654047343682 ], [ 20.978563316956198, 52.108077396104711 ], [ 20.978563320935862, 52.108077485985966 ], [ 20.974548055301639, 52.112642153236031 ], [ 20.974548057145167, 52.112642194950141 ], [ 20.978961387753639, 52.117065513017202 ], [ 20.978961391735389, 52.117065602898279 ], [ 20.974945383792939, 52.121630284914438 ], [ 20.974945385637433, 52.12163032662847 ], [ 20.979359667312046, 52.126053613992248 ], [ 20.979359671295889, 52.126053703873183 ], [ 20.97534292067466, 52.130618400664289 ], [ 20.975342922520117, 52.13061844237825 ], [ 20.979758155776853, 52.135041699029422 ], [ 20.979758159762781, 52.135041788910193 ], [ 20.97574068762416, 52.139606476022962 ], [ 20.975740563106893, 52.139606523083415 ], [ 20.967306884228464, 52.1397475526514 ], [ 20.967306826435387, 52.139747574488148 ], [ 20.963287637177221, 52.144311875358142 ], [ 20.963287512633478, 52.14431192240567 ], [ 20.954852882027971, 52.144452070312134 ], [ 20.954852824222602, 52.144452092142878 ], [ 20.950831938856414, 52.149015981947059 ], [ 20.95083181428619, 52.149016028981642 ], [ 20.942396232325553, 52.149155294915012 ], [ 20.942396174507895, 52.149155316739751 ], [ 20.938373592517628, 52.153718795117911 ], [ 20.938373467920922, 52.153718842139561 ], [ 20.929936934977725, 52.153857225788315 ], [ 20.929936877147778, 52.15385724760705 ], [ 20.9259125980176, 52.158420314198821 ], [ 20.925912473394412, 52.158420361207547 ], [ 20.91747498984185, 52.158557862260231 ], [ 20.917474931999614, 52.158557884072955 ], [ 20.9134489336363, 52.163120562969112 ], [ 20.91344893542605, 52.16312060468438 ], [ 20.91786139257205, 52.167546184512432 ], [ 20.917861396437925, 52.167546274396017 ], [ 20.913834693364834, 52.172108918544517 ], [ 20.913834568690696, 52.172108965540858 ], [ 20.905394436286816, 52.172245627656082 ], [ 20.905394378420933, 52.172245649463058 ], [ 20.901365954709775, 52.176807905428312 ], [ 20.901365830009137, 52.176807952411686 ], [ 20.892924747228829, 52.176943731025965 ] ] ] ] } }
]
}
