{
"type": "FeatureCollection",
"name": "kielce_hex_boundary",
"crs": { "type": "name", "properties": { "name": "urn:ogc:def:crs:OGC:1.3:CRS84" } },
"xy_coordinate_resolution": 1e-15,
"features": [
{ "type": "Feature", "properties": { "id": 14, "left": 606151.77857279265, "top": 333598.50538962521, "right": 606729.12884198222, "bottom": 333098.50538962521, "row_index": 13, "col_index": 0 }, "geometry": { "type": "MultiPolygon", "coordinates": [ [ [ [ 20.508219975357328, 50.843803006100522 ], [ 20.508220182179723, 50.84380334423151 ], [ 20.510340343238209, 50.846022346658835 ], [ 20.510341234190737, 50.846023803067737 ], [ 20.510341284619152, 50.846025364565982 ], [ 20.510340488440963, 50.846026842813806 ], [ 20.508365166275748, 50.848298822095451 ], [ 20.508364981408004, 50.848299165289497 ], [ 20.508365188252029, 50.848299503419781 ], [ 20.510485564572413, 50.850518499739493 ], [ 20.510486455618118, 50.850519956145412 ], [ 20.510486506059447, 50.850521517642356 ], [ 20.510485709812365, 50.850522995890685 ], [ 20.508510209489032, 50.852794977501574 ], [ 20.50851002460529, 50.852795320695748 ], [ 20.508510231470943, 50.852795658825343 ], [ 20.510630823109803, 50.855014649036626 ], [ 20.510631714248706, 50.855016105439574 ], [ 20.510631764702961, 50.85501766693519 ], [ 20.510630968386966, 50.855019145184031 ], [ 20.508655289861405, 50.857291129124981 ], [ 20.508655104961658, 50.857291472319282 ], [ 20.508655311848951, 50.857291810448189 ], [ 20.510777920454508, 50.859512679434047 ], [ 20.510778297606549, 50.859512952376818 ], [ 20.510778863720297, 50.859513008025388 ], [ 20.514875527499861, 50.859459897004271 ], [ 20.514877965929628, 50.859460136612689 ], [ 20.514880127823421, 50.859460889621026 ], [ 20.514881752424994, 50.859462065205364 ], [ 20.517002953282987, 50.861680931933186 ], [ 20.517003330488709, 50.861681204855273 ], [ 20.51700389663554, 50.861681260473325 ], [ 20.521100738604815, 50.861627929334539 ], [ 20.521103177177029, 50.861628168811542 ], [ 20.521105339269656, 50.861628921702525 ], [ 20.521106964102458, 50.861630097197747 ], [ 20.523226756415852, 50.86384696185867 ], [ 20.523227648119498, 50.863848418158419 ], [ 20.523227699010349, 50.863849979642552 ], [ 20.523226902950135, 50.863851457973034 ], [ 20.52125315533624, 50.86612171969044 ], [ 20.521251608215675, 50.866122936533259 ], [ 20.521249496740154, 50.866123745132306 ], [ 20.521247075584835, 50.866124047958614 ], [ 20.517149839849285, 50.866177387591456 ], [ 20.517149277735012, 50.866177457877384 ], [ 20.517148918522587, 50.86617774037304 ], [ 20.51517142073315, 50.868451761790112 ], [ 20.51517123583908, 50.868452104994056 ], [ 20.515171442824414, 50.868452443109952 ], [ 20.517293074631684, 50.870671297614251 ], [ 20.517293966286196, 50.870672753958175 ], [ 20.517294016991166, 50.870674315444766 ], [ 20.517293220630744, 50.8706757937357 ], [ 20.51531722282915, 50.872947887474858 ], [ 20.515317037919072, 50.872948230678915 ], [ 20.515317244926074, 50.872948568794122 ], [ 20.517439092379156, 50.875167417167994 ], [ 20.517439984127023, 50.875168873508919 ], [ 20.517440034844988, 50.875170434994203 ], [ 20.517439238415633, 50.875171913285648 ], [ 20.515463062291943, 50.877444009374514 ], [ 20.515462877365852, 50.877444352578685 ], [ 20.515463084394533, 50.877444690693196 ], [ 20.517586950208887, 50.879665417699137 ], [ 20.517587327565465, 50.879665690617223 ], [ 20.517587893931349, 50.879665746230387 ], [ 20.521689792938972, 50.87961233571378 ], [ 20.52169035520717, 50.879612265404802 ], [ 20.521690714493385, 50.879611982895156 ], [ 20.523666674864092, 50.877339783997591 ], [ 20.523668222286222, 50.877338567122358 ], [ 20.523670334221617, 50.877337758477019 ], [ 20.523672755939742, 50.877337455596098 ], [ 20.527770957765011, 50.877283878592429 ], [ 20.527771519995468, 50.877283808254454 ], [ 20.527771879226894, 50.87728352572644 ], [ 20.529747445535122, 50.875011226413406 ], [ 20.529748992721284, 50.875010009459118 ], [ 20.529751104444635, 50.875009200705243 ], [ 20.529753526000206, 50.875008897699416 ], [ 20.533848030976301, 50.874955154726884 ], [ 20.533850470305126, 50.874955393930321 ], [ 20.533852633219414, 50.874956146576274 ], [ 20.533854258839824, 50.874957321884558 ], [ 20.535977072704313, 50.877175823963974 ], [ 20.535977450146611, 50.877176096821948 ], [ 20.535978016502188, 50.877176152345946 ], [ 20.540076180598305, 50.877122143458777 ], [ 20.540078620069579, 50.877122382530665 ], [ 20.540080783182788, 50.877123135059151 ], [ 20.540082409034596, 50.877124310278212 ], [ 20.542203813317823, 50.879340810433362 ], [ 20.542204705916141, 50.87934226657655 ], [ 20.542204757469285, 50.879343828042664 ], [ 20.542203961759103, 50.879345306495829 ], [ 20.540230505193367, 50.881615880989308 ], [ 20.540228958068269, 50.881617098080731 ], [ 20.540226846234233, 50.881617907024335 ], [ 20.540224424409651, 50.881618210249577 ], [ 20.536125866213322, 50.881672227739649 ], [ 20.536125303943642, 50.881672298118175 ], [ 20.53612494473013, 50.881672580671548 ], [ 20.534147738149461, 50.88394691544692 ], [ 20.534147553336609, 50.883947258679363 ], [ 20.534147760529674, 50.883947596758944 ], [ 20.536272809838536, 50.886167970962582 ], [ 20.536273187356361, 50.886168243818553 ], [ 20.53627375382154, 50.886168299340092 ], [ 20.540372706218992, 50.886114273245475 ], [ 20.540375146162368, 50.88611451230669 ], [ 20.540377309699906, 50.886115264824866 ], [ 20.54037893587709, 50.886116440035245 ], [ 20.542500771948685, 50.888332927788667 ], [ 20.542501664734232, 50.888334383925816 ], [ 20.542501716313811, 50.888335945389294 ], [ 20.542500920466079, 50.888337423843538 ], [ 20.540525429820637, 50.890609933518519 ], [ 20.540525245029581, 50.890610276760505 ], [ 20.540525452299196, 50.890610614827708 ], [ 20.542649308359337, 50.892828980772727 ], [ 20.542650201238537, 50.89283043690687 ], [ 20.54265025283134, 50.892831998369033 ], [ 20.542649456914805, 50.892833476823817 ], [ 20.540673788086206, 50.895105988915638 ], [ 20.540673603279174, 50.895106332157745 ], [ 20.540673810570532, 50.895106670224266 ], [ 20.542799687216071, 50.89732691431449 ], [ 20.54280006486325, 50.897327187147717 ], [ 20.542800631471195, 50.897327242636209 ], [ 20.546900550800999, 50.897272978868976 ], [ 20.546902991359289, 50.897273217787863 ], [ 20.546905155520491, 50.897273970178169 ], [ 20.546906782254872, 50.897275145290564 ], [ 20.549029444504637, 50.899491503070543 ], [ 20.549030337713798, 50.899492959151388 ], [ 20.549030389532216, 50.899494520607071 ], [ 20.549029593709744, 50.899495999102939 ], [ 20.547053962981206, 50.901768616427091 ], [ 20.547053778196005, 50.901768959678733 ], [ 20.547053985563974, 50.901769297732862 ], [ 20.549180473603904, 50.903989417821613 ], [ 20.549180851342697, 50.903989690633097 ], [ 20.549181418038607, 50.903989746089778 ], [ 20.55328191013102, 50.903935253151552 ], [ 20.553284351068182, 50.903935491933375 ], [ 20.553286515640956, 50.903936244200914 ], [ 20.553288142769958, 50.903937419219581 ], [ 20.555413220741045, 50.90615553729463 ], [ 20.555413598533644, 50.906155810085345 ], [ 20.555414165262658, 50.906155865511451 ], [ 20.55951483551253, 50.9061011520145 ], [ 20.559517276592242, 50.90610139066461 ], [ 20.559519441364174, 50.906102142814511 ], [ 20.559521068724926, 50.90610331774382 ], [ 20.56164654138291, 50.908321318045047 ], [ 20.561646919229315, 50.908321590815028 ], [ 20.561647485991426, 50.908321646210553 ], [ 20.565748334341759, 50.908266712122426 ], [ 20.565750775563991, 50.908266950640808 ], [ 20.565752940535077, 50.908267702673044 ], [ 20.565754568127595, 50.908268877512967 ], [ 20.567880435516532, 50.910486759997106 ], [ 20.567880813416757, 50.910487032746332 ], [ 20.567881380211954, 50.910487088111275 ], [ 20.571985890189829, 50.910431886487522 ], [ 20.571986452747112, 50.910431815933954 ], [ 20.571986811958553, 50.91043153327152 ], [ 20.573961576367196, 50.908158504797171 ], [ 20.573963123467127, 50.908157287263954 ], [ 20.573965235893461, 50.908156477707955 ], [ 20.573967658856446, 50.908156173773548 ], [ 20.578064985057114, 50.908100854196384 ], [ 20.578067426327838, 50.908101092456697 ], [ 20.57806959148456, 50.908101844258795 ], [ 20.578071219377467, 50.90810301892428 ], [ 20.580197659477172, 50.910320671966659 ], [ 20.580198037447136, 50.910320944675384 ], [ 20.580198604253589, 50.910320999980399 ], [ 20.584299591750444, 50.910265412780419 ], [ 20.584302033163581, 50.91026565090894 ], [ 20.584304198519394, 50.910266402593308 ], [ 20.584305826644055, 50.910267577169343 ], [ 20.586432661505675, 50.912485112283669 ], [ 20.586433039529453, 50.912485384971617 ], [ 20.586433606368967, 50.91248544024603 ], [ 20.590534771693932, 50.912429632360443 ], [ 20.590537213249451, 50.912429870357165 ], [ 20.590539378804351, 50.912430621923782 ], [ 20.59054100716078, 50.912431796410331 ], [ 20.592668236828292, 50.914649213553297 ], [ 20.592668614905879, 50.914649486220469 ], [ 20.592669181778454, 50.914649541464286 ], [ 20.596770524874362, 50.914593512860691 ], [ 20.596772966572246, 50.914593750725572 ], [ 20.596775132326222, 50.914594502174424 ], [ 20.596776760914441, 50.914595676571459 ], [ 20.598904385431791, 50.916812975699777 ], [ 20.598904763563201, 50.916813248346152 ], [ 20.598905330468828, 50.916813303559351 ], [ 20.60301033528248, 50.916757006363483 ], [ 20.603010897865492, 50.916756935660217 ], [ 20.603011256934604, 50.916756652903871 ], [ 20.604984758511939, 50.91448311331763 ], [ 20.604986304998842, 50.914481895379978 ], [ 20.604988417157902, 50.914481085265699 ], [ 20.604990840231608, 50.91448078068651 ], [ 20.609088659980038, 50.914424367444745 ], [ 20.609091101725973, 50.914424605051479 ], [ 20.609093267665241, 50.914425356270051 ], [ 20.609094896553646, 50.914426530492477 ], [ 20.611223093570693, 50.916643599877631 ], [ 20.611223471771797, 50.916643872483476 ], [ 20.611224038688576, 50.916643927636741 ], [ 20.615329003793306, 50.916587197506345 ], [ 20.615329566354237, 50.91658712674387 ], [ 20.615329925346526, 50.916586843950334 ], [ 20.61730281476229, 50.914313101609004 ], [ 20.617304360918304, 50.914311883511111 ], [ 20.6173064728507, 50.914311073175959 ], [ 20.6173088958293, 50.914310768341863 ], [ 20.621410159576907, 50.914253874550631 ], [ 20.621410722099881, 50.914253803759159 ], [ 20.621411081037241, 50.914253520947327 ], [ 20.623385251071308, 50.911977747069152 ], [ 20.623385435330885, 50.911977403702103 ], [ 20.62338522736599, 50.911977065789713 ], [ 20.62125667544047, 50.90976021979386 ], [ 20.621255779786576, 50.90975876429097 ], [ 20.621255725532865, 50.909757202892571 ], [ 20.621256519223063, 50.909755723926416 ], [ 20.62322716100994, 50.907483815674361 ], [ 20.623228706787266, 50.907482597500142 ], [ 20.62323081830791, 50.907481787060661 ], [ 20.623233240891349, 50.90748148210686 ], [ 20.627330409238645, 50.907424434261848 ], [ 20.62733285070151, 50.907424671489792 ], [ 20.627335016599122, 50.907425422371041 ], [ 20.627336645692303, 50.907426596338283 ], [ 20.629463566599025, 50.909641447657471 ], [ 20.62946446250518, 50.909642903095069 ], [ 20.629464517033288, 50.90964446448713 ], [ 20.629463723606381, 50.909645943506717 ], [ 20.627491623779598, 50.911919885850835 ], [ 20.627491439550614, 50.911920229224101 ], [ 20.627491647544815, 50.911920567128902 ], [ 20.629622402569137, 50.914139177952769 ], [ 20.629622780855748, 50.914139450498304 ], [ 20.629623347761701, 50.914139505562318 ], [ 20.633724571397053, 50.914082179375633 ], [ 20.633727013238545, 50.914082416466023 ], [ 20.633729179547899, 50.914083167223993 ], [ 20.63373080903628, 50.914084341097052 ], [ 20.635860150537269, 50.916300950700936 ], [ 20.635860528877679, 50.916301223225659 ], [ 20.635861095816626, 50.916301278259034 ], [ 20.639965980592482, 50.916243682289412 ], [ 20.639966543109139, 50.916243611408596 ], [ 20.639966901947698, 50.916243328540688 ], [ 20.641940241382343, 50.913967249240599 ], [ 20.641940425512178, 50.913966905845569 ], [ 20.64194021740445, 50.913966567967691 ], [ 20.639810698715529, 50.91175007011654 ], [ 20.639809802446472, 50.911748614762239 ], [ 20.639809747568151, 50.911747053378797 ], [ 20.639810540699624, 50.911745574292119 ], [ 20.641780353512537, 50.909473361184652 ], [ 20.641781898864441, 50.90947214276904 ], [ 20.641784010144221, 50.909471331996372 ], [ 20.641786432700414, 50.909471026657776 ], [ 20.645887221151938, 50.909413277041409 ], [ 20.645887783576821, 50.909413206132832 ], [ 20.645888142327486, 50.909412923247217 ], [ 20.647859235193273, 50.907138678529009 ], [ 20.647860780308655, 50.907137460034647 ], [ 20.647862891375546, 50.907136649153678 ], [ 20.647865313768147, 50.907136343690297 ], [ 20.651965884567865, 50.907078382474992 ], [ 20.651966446954763, 50.907078311537447 ], [ 20.651966805650517, 50.907078028633563 ], [ 20.653937503878744, 50.904803684090808 ], [ 20.653939048757632, 50.904802465517726 ], [ 20.65394115961163, 50.904801654528491 ], [ 20.653943581840629, 50.904801348940353 ], [ 20.658040451932951, 50.904743225638192 ], [ 20.658042893396175, 50.904743462223699 ], [ 20.658045059649044, 50.904744212531931 ], [ 20.658046689409527, 50.904745386064647 ], [ 20.66017492961268, 50.90695966613324 ], [ 20.660175826417778, 50.9069611213272 ], [ 20.660175881968016, 50.906962682695919 ], [ 20.660175089563143, 50.906964161915305 ], [ 20.658204609080904, 50.909238608962042 ], [ 20.658204425089231, 50.909238952381706 ], [ 20.658204633292172, 50.909239290229934 ], [ 20.660334900561661, 50.911455446258309 ], [ 20.660335797461435, 50.911456901449085 ], [ 20.66033585302592, 50.911458462816476 ], [ 20.660335060553141, 50.911459942036508 ], [ 20.65836440319308, 50.913734391806322 ], [ 20.658364219185628, 50.913734735226136 ], [ 20.658364427410554, 50.913735073073646 ], [ 20.660496722347112, 50.915953105014388 ], [ 20.660497100826703, 50.915953377457939 ], [ 20.660497667787652, 50.915953432371431 ], [ 20.664602471020043, 50.915894970602842 ], [ 20.664603033492263, 50.9158948996037 ], [ 20.664603392177, 50.915894616661475 ], [ 20.666573831632569, 50.913620064382336 ], [ 20.666575376463967, 50.913618845644137 ], [ 20.666577487488198, 50.913618034425866 ], [ 20.666579910084611, 50.91361772857239 ], [ 20.670677527870108, 50.913559154629191 ], [ 20.670679969853563, 50.913559390945053 ], [ 20.670682136716806, 50.913560141011835 ], [ 20.670683767104197, 50.913561314360471 ], [ 20.672814824040302, 50.915777233555794 ], [ 20.67281520258944, 50.915777505958737 ], [ 20.672815769561325, 50.91577756081228 ], [ 20.676920531566566, 50.915718666159506 ], [ 20.6769210940165, 50.915718595101197 ], [ 20.676921452624288, 50.91571831212184 ], [ 20.678891279262146, 50.913443557629058 ], [ 20.678892823762126, 50.913442338730924 ], [ 20.678894934558937, 50.91344152729198 ], [ 20.678897357059363, 50.913441221183703 ], [ 20.682998417155478, 50.913382164904554 ], [ 20.682998979567365, 50.91338209381729 ], [ 20.682999338120212, 50.913381810819665 ], [ 20.684968770003483, 50.911106956654301 ], [ 20.684970314266852, 50.911105737677531 ], [ 20.684972424850578, 50.911104926130399 ], [ 20.684974847187142, 50.911104619897408 ], [ 20.689075689139919, 50.91104535210436 ], [ 20.689076251513761, 50.911045280988134 ], [ 20.689076610011675, 50.911044997972269 ], [ 20.691047319702609, 50.908768111718963 ], [ 20.691047503449525, 50.908767768249859 ], [ 20.691047295012361, 50.90876743046244 ], [ 20.688915708242497, 50.906551846818751 ], [ 20.688914810554586, 50.906550391854061 ], [ 20.688914754043832, 50.906548830508143 ], [ 20.688915545526186, 50.906547351102382 ], [ 20.69088273373638, 50.904274332537383 ], [ 20.690884277621528, 50.904273113484635 ], [ 20.690886387793626, 50.904272301833586 ], [ 20.690888809734815, 50.904271995481295 ], [ 20.694989038911761, 50.90421252568477 ], [ 20.694989601193807, 50.904212454540854 ], [ 20.694989959603916, 50.904212171507361 ], [ 20.696960097811704, 50.901935188401993 ], [ 20.696960281489179, 50.901934844923865 ], [ 20.696960073041176, 50.901934507146763 ], [ 20.694828528034993, 50.899719028693099 ], [ 20.694827630300374, 50.899717573772769 ], [ 20.694827573605625, 50.899716012429757 ], [ 20.694828364788901, 50.899714532985165 ], [ 20.696796654500364, 50.897439485209098 ], [ 20.69679683816215, 50.897439141731134 ], [ 20.696796629736188, 50.897438803953278 ], [ 20.694665302845284, 50.895223318827668 ], [ 20.69466440520555, 50.895221863904112 ], [ 20.69466434852534, 50.895220302559792 ], [ 20.694665139641035, 50.895218823115862 ], [ 20.696631581360535, 50.892945710690775 ], [ 20.696633124726137, 50.892944491564769 ], [ 20.69663523428839, 50.892943679814159 ], [ 20.696637655602984, 50.892943373348025 ], [ 20.700736877847248, 50.892883711153416 ], [ 20.700737439983822, 50.892883639983083 ], [ 20.700737798273323, 50.892883356932586 ], [ 20.702707188980824, 50.890606279881055 ], [ 20.702707372573229, 50.890605936394081 ], [ 20.702707164136452, 50.890605598626522 ], [ 20.700575879125505, 50.888390218644645 ], [ 20.700574981439182, 50.888388763765427 ], [ 20.700574924575175, 50.888387202424042 ], [ 20.700575715392041, 50.888385722941315 ], [ 20.7025432584255, 50.886110581312408 ], [ 20.702543442002238, 50.886110237825605 ], [ 20.702543233587498, 50.886109900057278 ], [ 20.700410356486191, 50.883892631523999 ], [ 20.70040997804119, 50.883892359208183 ], [ 20.700409411428225, 50.883892304484966 ], [ 20.696310977540122, 50.883951947677595 ], [ 20.696308536992021, 50.883951711883164 ], [ 20.696306371114058, 50.883950962279201 ], [ 20.696304741143134, 50.883949789279015 ], [ 20.694174068426172, 50.881734284107687 ], [ 20.694173690034837, 50.881734011771023 ], [ 20.694173123454704, 50.88173395701719 ], [ 20.69007486570802, 50.88179337947161 ], [ 20.690072425301345, 50.881793143545281 ], [ 20.690070259621653, 50.881792393823382 ], [ 20.690068629881914, 50.881791220733454 ], [ 20.687938351198728, 50.879575597139535 ], [ 20.687937972861061, 50.879575324782039 ], [ 20.687937406313765, 50.879575269997581 ], [ 20.68383932476593, 50.879634471745995 ], [ 20.68383688450071, 50.879634235687803 ], [ 20.683834719019284, 50.879633485848018 ], [ 20.683833089510721, 50.879632312668377 ], [ 20.681705013947866, 50.877418452860027 ], [ 20.681704117064999, 50.877416997825414 ], [ 20.681704060853775, 50.877415436465874 ], [ 20.681704852094018, 50.877413957104444 ], [ 20.683672872548286, 50.87513912517862 ], [ 20.68367305622332, 50.875138781719969 ], [ 20.683672847995091, 50.875138443915581 ], [ 20.68154318081298, 50.872922695347341 ], [ 20.681542284024783, 50.87292124030953 ], [ 20.681542227827958, 50.872919678948648 ], [ 20.6815430190006, 50.8729181995879 ], [ 20.683510863242052, 50.870643370441435 ], [ 20.683511046901394, 50.870643026982933 ], [ 20.683510838695149, 50.870642689177792 ], [ 20.681381389139389, 50.86842693398016 ], [ 20.681380492445829, 50.868425478939173 ], [ 20.681380436263403, 50.868423917576948 ], [ 20.681381227368462, 50.868422438216875 ], [ 20.683347224098469, 50.866149544198649 ], [ 20.683348766946459, 50.866148325248098 ], [ 20.683350875546449, 50.8661475137434 ], [ 20.683353295570193, 50.866147207563962 ], [ 20.687450195600505, 50.866088034093274 ], [ 20.687450757437414, 50.866087962989532 ], [ 20.687451115606791, 50.866087679979763 ], [ 20.689418390151967, 50.863812754163057 ], [ 20.689419932763979, 50.863811535134026 ], [ 20.689422041151442, 50.863810723521318 ], [ 20.68942446101174, 50.863810417217387 ], [ 20.693517663535886, 50.863751083108895 ], [ 20.693520103013736, 50.863751318972781 ], [ 20.693522267904118, 50.86375206864038 ], [ 20.693523897089349, 50.863753241690787 ], [ 20.695653698782451, 50.865968773494373 ], [ 20.695654077052406, 50.865969045828081 ], [ 20.695654643442488, 50.865969100576699 ], [ 20.699754981883359, 50.865909444796017 ], [ 20.699755543697968, 50.865909373633215 ], [ 20.699755901790567, 50.865909090586406 ], [ 20.701722564998949, 50.863633963121032 ], [ 20.701724107280278, 50.863632743932449 ], [ 20.701726215440672, 50.863631932099544 ], [ 20.701728635204923, 50.863631625541295 ], [ 20.705821795976057, 50.863571860099171 ], [ 20.705824235500391, 50.863572095705301 ], [ 20.705826400574246, 50.863572845142798 ], [ 20.705828030057805, 50.863574018018497 ], [ 20.707958401285143, 50.865789319701726 ], [ 20.707958779624366, 50.865789591994883 ], [ 20.707959346025238, 50.865789646683638 ], [ 20.712059642483862, 50.86572955880677 ], [ 20.712060204276135, 50.865729487584929 ], [ 20.712060562291928, 50.865729204501079 ], [ 20.71402661403355, 50.863453875495246 ], [ 20.714028155984085, 50.863452656147189 ], [ 20.71403026391727, 50.863451844094108 ], [ 20.714032683585287, 50.863451537281563 ], [ 20.718125802301557, 50.863391340516259 ], [ 20.718128241872193, 50.863391575864604 ], [ 20.718130407129355, 50.863392325071985 ], [ 20.718132036911115, 50.863393497772925 ], [ 20.72026297750044, 50.865608569238006 ], [ 20.720263355908898, 50.865608841490577 ], [ 20.720263922320513, 50.865608896119497 ], [ 20.724364176494479, 50.865548376156923 ], [ 20.724364738264377, 50.865548304876043 ], [ 20.724365096203343, 50.865548021755181 ], [ 20.72633220579791, 50.863270558369301 ], [ 20.7263323891132, 50.863270214846374 ], [ 20.726332180633428, 50.863269877119968 ], [ 20.724199254266843, 50.861053035921323 ], [ 20.724198875873302, 50.861052763681172 ], [ 20.724198309512911, 50.861052709070812 ], [ 20.720101928917927, 50.861113168101468 ], [ 20.720099489457574, 50.861112932793226 ], [ 20.720097324276235, 50.861112183621394 ], [ 20.720095694526787, 50.861111010947155 ], [ 20.717964972054112, 50.858895932707895 ], [ 20.717964593714168, 50.858895660446912 ], [ 20.717964027386518, 50.858895605805941 ], [ 20.713867822399962, 50.858955844216453 ], [ 20.713865383080691, 50.858955608776363 ], [ 20.713863218097249, 50.858954859486637 ], [ 20.713861588578641, 50.858953686722664 ], [ 20.711733069115173, 50.856740371722708 ], [ 20.711732171715404, 50.856738916919184 ], [ 20.71173211454288, 50.85673735557836 ], [ 20.711732904493363, 50.85673587602097 ], [ 20.713698604698983, 50.854460552699209 ], [ 20.713698788074634, 50.854460209195089 ], [ 20.71369857972644, 50.854459871444348 ], [ 20.711568468368302, 50.85224466805915 ], [ 20.711567571063323, 50.852243213252407 ], [ 20.71156751390544, 50.852241651910226 ], [ 20.711568303788656, 50.852240172353547 ], [ 20.713533828371656, 50.849964851886114 ], [ 20.713534011731692, 50.849964508382136 ], [ 20.713533803405504, 50.849964170630656 ], [ 20.711403909775612, 50.847748960527532 ], [ 20.711403012565398, 50.847747505717564 ], [ 20.711402955422155, 50.84774594437404 ], [ 20.711403745238112, 50.847744464818071 ], [ 20.713369094241724, 50.845469147204049 ], [ 20.713369277586153, 50.845468803700236 ], [ 20.713369069281967, 50.845468465948002 ], [ 20.711237584370306, 50.843251367409003 ], [ 20.711237206197797, 50.843251095123883 ], [ 20.711236640067138, 50.843251040448202 ], [ 20.707138312320787, 50.843311080504549 ], [ 20.707137750788966, 50.843311151700433 ], [ 20.707137392911356, 50.843311434768836 ], [ 20.705171826287181, 50.845586650270846 ], [ 20.70517028468074, 50.845587869501969 ], [ 20.705168177387648, 50.84558868139105 ], [ 20.705165758578591, 50.84558898801226 ], [ 20.701074170131989, 50.845648715400074 ], [ 20.701071731566543, 50.845648479684677 ], [ 20.701069567403724, 50.845647730147952 ], [ 20.70106793867355, 50.845646557195145 ], [ 20.698938831687826, 50.843431110337214 ], [ 20.698938453584489, 50.843430838011564 ], [ 20.698937887464592, 50.843430783276077 ], [ 20.694839517806468, 50.843490391579756 ], [ 20.694838956252354, 50.84349046271663 ], [ 20.694838598298048, 50.843490745748028 ], [ 20.692872420983065, 50.845765759797672 ], [ 20.692870879046243, 50.845766978869392 ], [ 20.692868771526278, 50.845767790538417 ], [ 20.69286635262122, 50.845768096905488 ], [ 20.688771243908938, 50.845827443584703 ], [ 20.688770682316918, 50.845827514692708 ], [ 20.688770324307885, 50.845827797705894 ], [ 20.686803753764814, 50.848102712383607 ], [ 20.686802211592255, 50.848103931376897 ], [ 20.686800103859966, 50.848104742938006 ], [ 20.686797684791603, 50.848105049180646 ], [ 20.682705837449578, 50.84816413467945 ], [ 20.68270339883609, 50.848163898580573 ], [ 20.682701234842199, 50.84816314870173 ], [ 20.682699606477549, 50.848161975489404 ], [ 20.680573052203286, 50.845948069327463 ], [ 20.680572155982546, 50.845946614270481 ], [ 20.680572099872034, 50.84594505290157 ], [ 20.680572890639422, 50.845943573544893 ], [ 20.682539678515358, 50.843668761055703 ], [ 20.682539862080652, 50.843668417598153 ], [ 20.682539654006153, 50.843668079788564 ], [ 20.680409701352787, 50.841450402623678 ], [ 20.680409323372199, 50.841450130236701 ], [ 20.680408757295879, 50.84145007541084 ], [ 20.676314000356406, 50.841508981396103 ], [ 20.676311562119835, 50.841508745159743 ], [ 20.676309398536098, 50.841507995157599 ], [ 20.676307770565383, 50.841506821851027 ], [ 20.674181826196641, 50.839292790986747 ], [ 20.674180930306026, 50.839291335875963 ], [ 20.674180874422081, 50.839289774500166 ], [ 20.674181665285143, 50.839288295184318 ], [ 20.676148494427018, 50.837013587651498 ], [ 20.676148678014528, 50.837013244203419 ], [ 20.676148470016667, 50.837012906381339 ], [ 20.674019128147972, 50.834795104321948 ], [ 20.674018750258803, 50.834794831913101 ], [ 20.674018184269961, 50.834794777055336 ], [ 20.669923996344682, 50.834853453337992 ], [ 20.669921558484919, 50.834853216964206 ], [ 20.669919395311197, 50.834852466838839 ], [ 20.669917767734233, 50.834851293438085 ], [ 20.667792432969637, 50.832637137953363 ], [ 20.667791537408974, 50.832635682788805 ], [ 20.667791481751426, 50.832634121406144 ], [ 20.667792272710038, 50.832632642131131 ], [ 20.669757472281837, 50.830359971691976 ], [ 20.669759014329955, 50.830358752921775 ], [ 20.669761121572954, 50.830357941670961 ], [ 20.669763539846272, 50.830357635788324 ], [ 20.673857334824209, 50.830298968846797 ], [ 20.673857896254763, 50.830298897811971 ], [ 20.673858254238496, 50.830298614844082 ], [ 20.675826402069294, 50.828021980605435 ], [ 20.675826585625472, 50.828021637157683 ], [ 20.675826377671441, 50.828021299334118 ], [ 20.673697470249632, 50.825803484058014 ], [ 20.673697092436175, 50.825803211647006 ], [ 20.673696526556682, 50.825803156786563 ], [ 20.669603124425617, 50.825861814388773 ], [ 20.669600687036848, 50.825861578003455 ], [ 20.669598524287224, 50.825860827867025 ], [ 20.669596897036303, 50.825859654456998 ], [ 20.667470189348805, 50.823643603388369 ], [ 20.667469811588852, 50.823643330956585 ], [ 20.667469245742119, 50.823643276065596 ], [ 20.663376019504511, 50.823701713445821 ], [ 20.663373582256888, 50.82370147692896 ], [ 20.663371419704998, 50.8237007266749 ], [ 20.663369792684556, 50.823699553175395 ], [ 20.661245283848327, 50.821485266593214 ], [ 20.661244388711662, 50.821483811371785 ], [ 20.661244333294537, 50.82148224998091 ], [ 20.661245124281006, 50.821480770747399 ], [ 20.66321185948977, 50.819206275781724 ], [ 20.663212043105947, 50.819205932352759 ], [ 20.663211835283114, 50.819205594504993 ], [ 20.661083931015238, 50.816987536333471 ], [ 20.661083553346597, 50.816987263879852 ], [ 20.661082987587271, 50.816987208956974 ], [ 20.656990329959967, 50.817045416880212 ], [ 20.656987893088846, 50.817045180226074 ], [ 20.656985730946555, 50.817044429848934 ], [ 20.656984104319417, 50.817043256255374 ], [ 20.654858398747308, 50.814826962602687 ], [ 20.654858021132153, 50.814826690128299 ], [ 20.65485745540559, 50.814826635174903 ], [ 20.650764973742504, 50.814884622975704 ], [ 20.65076253701254, 50.814884386190059 ], [ 20.650760375067946, 50.814883635695374 ], [ 20.650758748671187, 50.814882462012399 ], [ 20.648635240912235, 50.812667933157265 ], [ 20.648634346340323, 50.812666477831691 ], [ 20.648634291360992, 50.81266491642851 ], [ 20.648635082605484, 50.812663437276022 ], [ 20.650602075097375, 50.810389149344367 ], [ 20.650602258773453, 50.810388805934217 ], [ 20.650602051081723, 50.810388468062264 ], [ 20.648476954398401, 50.808172049983817 ], [ 20.648476059920547, 50.808170594655067 ], [ 20.648476004955288, 50.808169033250564 ], [ 20.648476796132162, 50.808167554098709 ], [ 20.650443612646214, 50.80589326885449 ], [ 20.650443796306604, 50.805892925444496 ], [ 20.650443588636712, 50.805892587571805 ], [ 20.648316903512029, 50.80367428022462 ], [ 20.648316526025894, 50.803674007727345 ], [ 20.648315960441305, 50.803673952740802 ], [ 20.644224439644443, 50.803731702062791 ], [ 20.644222003526018, 50.803731465134312 ], [ 20.644219842202489, 50.803730714511204 ], [ 20.64421821636142, 50.803729540729712 ], [ 20.642093728610341, 50.801512998236873 ], [ 20.642093351177657, 50.801512725718851 ], [ 20.642092785625827, 50.801512670701783 ], [ 20.637997965449014, 50.801570248842928 ], [ 20.637997404303487, 50.801570319702783 ], [ 20.637997046316034, 50.801570602561924 ], [ 20.636029797126842, 50.803844683481685 ], [ 20.636028255047449, 50.80384590181135 ], [ 20.636026148388257, 50.803846712450635 ], [ 20.63602373124349, 50.803847017624484 ], [ 20.631935645744377, 50.803904287376518 ], [ 20.631933209673175, 50.803904050190873 ], [ 20.6319310485333, 50.803903299338295 ], [ 20.631929422990165, 50.80390212538272 ], [ 20.629805503616339, 50.801685353776037 ], [ 20.629805126252826, 50.80168508121762 ], [ 20.629804560711964, 50.801685026140852 ], [ 20.625713175817726, 50.801742124684026 ], [ 20.625710739887744, 50.801741887366994 ], [ 20.625708578945531, 50.801741136396998 ], [ 20.625706953632662, 50.801739962352123 ], [ 20.623585230281122, 50.799524956140111 ], [ 20.623584336743704, 50.79952350060973 ], [ 20.62358428262484, 50.799521939183478 ], [ 20.623585074451984, 50.799520460192468 ], [ 20.625552755915216, 50.797246583640785 ], [ 20.62555293972656, 50.797246240268116 ], [ 20.625552732274983, 50.797245902348607 ], [ 20.623429421058166, 50.795029006583782 ], [ 20.623428527614543, 50.795027551050289 ], [ 20.623428473509527, 50.795025989622715 ], [ 20.623429265268896, 50.795024510632317 ], [ 20.625396770570184, 50.792750636702173 ], [ 20.625396954365804, 50.792750293329647 ], [ 20.625396746935998, 50.79274995540942 ], [ 20.623271848336085, 50.790531170046577 ], [ 20.623271471101432, 50.790530897465324 ], [ 20.623270905702462, 50.790530842355444 ], [ 20.61917700672139, 50.790587751107068 ], [ 20.619176445676473, 50.790587821875555 ], [ 20.619176087656445, 50.79058810467771 ], [ 20.617208366425302, 50.792861876423721 ], [ 20.617206824205635, 50.792863094507915 ], [ 20.617204717702442, 50.792863904807163 ], [ 20.617202300991128, 50.792864209587371 ], [ 20.613111660708519, 50.792920859170501 ], [ 20.613111099625907, 50.79292092991011 ], [ 20.613110741551342, 50.792921212694033 ], [ 20.611140956333816, 50.795196816176059 ], [ 20.611140772424012, 50.795197159527021 ], [ 20.611140979762808, 50.79519749747331 ], [ 20.613263722390172, 50.79741462218513 ], [ 20.613264615566983, 50.797416077798417 ], [ 20.613264669337923, 50.797417639233174 ], [ 20.613263877217346, 50.797419118157329 ], [ 20.611295587401312, 50.799692792859815 ], [ 20.611295403475747, 50.799693136210919 ], [ 20.611295610836297, 50.799693474156498 ], [ 20.613418569356689, 50.801910592456693 ], [ 20.613419462627228, 50.801912048066875 ], [ 20.61341951641193, 50.801913609500303 ], [ 20.613418724223486, 50.801915088425055 ], [ 20.611451930225833, 50.80418683437194 ], [ 20.611450387488581, 50.804188052382536 ], [ 20.611448280378575, 50.804188862581881 ], [ 20.611445863044413, 50.804189167247984 ], [ 20.60735422240122, 50.804245623957407 ], [ 20.607353661174013, 50.80424569467052 ], [ 20.607353302979263, 50.804245977437354 ], [ 20.605384444599188, 50.806519555078722 ], [ 20.605382901626832, 50.806520773010746 ], [ 20.605380794305312, 50.806521583102089 ], [ 20.605378376808741, 50.806521887643768 ], [ 20.60128999606518, 50.806578085689281 ], [ 20.601287559995278, 50.806577847863522 ], [ 20.601285399209516, 50.80657709644008 ], [ 20.601283774330589, 50.806575922051749 ], [ 20.599161168735698, 50.804358581276333 ], [ 20.59916079152638, 50.804358308617445 ], [ 20.599160225985841, 50.804358253392067 ], [ 20.595065070354618, 50.804414326903277 ], [ 20.595064509105502, 50.80441439755743 ], [ 20.595064150834432, 50.804414680287202 ], [ 20.593094684222599, 50.806688055897794 ], [ 20.593093140921486, 50.806689273670152 ], [ 20.593091033374829, 50.806690083541419 ], [ 20.593088615783905, 50.806690387829185 ], [ 20.588996720035102, 50.806746202702243 ], [ 20.588996158748298, 50.806746273327498 ], [ 20.588995800422651, 50.806746556039016 ], [ 20.587024268014261, 50.80902176286331 ], [ 20.587024083874791, 50.809022106177551 ], [ 20.587024291103997, 50.809022444166963 ], [ 20.589146543372149, 50.811240007392492 ], [ 20.589147436076921, 50.81124146319155 ], [ 20.589147489070292, 50.811243024640966 ], [ 20.589146695960395, 50.811244503406925 ], [ 20.587178333505936, 50.813515850720073 ], [ 20.587176789828131, 50.813517068416203 ], [ 20.587174681872053, 50.813517878183369 ], [ 20.587172263888352, 50.813518182351686 ], [ 20.583079759881524, 50.813573795054538 ], [ 20.58307919850354, 50.813573865652074 ], [ 20.583078840090433, 50.8135741483459 ], [ 20.581108411693197, 50.815847326844384 ], [ 20.581106867780193, 50.815848544461829 ], [ 20.581104759612586, 50.815849354120886 ], [ 20.581102341466543, 50.815849658164694 ], [ 20.577013098266924, 50.815905012775602 ], [ 20.57701066182263, 50.815904774446416 ], [ 20.577008500982608, 50.81590402257477 ], [ 20.577006876376103, 50.815902847847504 ], [ 20.574886780182762, 50.813686946097789 ], [ 20.574885887870639, 50.81368549018665 ], [ 20.574885835348166, 50.813683928727123 ], [ 20.574886628950253, 50.813682450054323 ], [ 20.576857273029162, 50.811409373946113 ], [ 20.576857457252533, 50.811409030647305 ], [ 20.576857250085364, 50.811408692639397 ], [ 20.574733764841309, 50.809189016814095 ], [ 20.57473338773292, 50.809188744075499 ], [ 20.57473282216008, 50.809188688731993 ], [ 20.570640671949025, 50.809243861766326 ], [ 20.570638235881571, 50.809243623300354 ], [ 20.570636075451041, 50.809242871306168 ], [ 20.570634451237293, 50.80924169648533 ], [ 20.568513160830793, 50.807023787061176 ], [ 20.568512783775901, 50.807023514301903 ], [ 20.568512218235952, 50.807023458927915 ], [ 20.564416769097374, 50.80707845873409 ], [ 20.564416207766911, 50.807078529241423 ], [ 20.564415849288697, 50.807078811878746 ], [ 20.562444774147533, 50.809351683173922 ], [ 20.562443229954116, 50.809352900548042 ], [ 20.562441121746261, 50.809353709870898 ], [ 20.562438703804979, 50.809354013526232 ], [ 20.558349991217561, 50.80940870905178 ], [ 20.558347555198424, 50.809408470328663 ], [ 20.558345394952578, 50.809407718105149 ], [ 20.558343771037602, 50.809406543110512 ], [ 20.556223050173632, 50.807188405123085 ], [ 20.556222673188099, 50.807188132323461 ], [ 20.556222107659369, 50.807188076889773 ], [ 20.552126620191849, 50.807242645411812 ], [ 20.552126058839612, 50.807242715860177 ], [ 20.55212570028516, 50.807242998460396 ], [ 20.550152342378553, 50.809517597821895 ], [ 20.550152157965599, 50.809517941080287 ], [ 20.550152364932366, 50.809518279137507 ], [ 20.552272908611794, 50.811736528255004 ], [ 20.552273800186072, 50.811737984346152 ], [ 20.552273851951032, 50.811739545823038 ], [ 20.552273057662983, 50.811741024348485 ], [ 20.550302872338378, 50.814011765134751 ], [ 20.550301327674699, 50.81401298235135 ], [ 20.550299219044071, 50.814013791457846 ], [ 20.550296800778504, 50.814014094864042 ], [ 20.546204181372982, 50.814068414518587 ], [ 20.546203619929596, 50.814068484939177 ], [ 20.54620326128763, 50.814068767521647 ], [ 20.544229333034089, 50.816343269175306 ], [ 20.544229148551715, 50.816343612424561 ], [ 20.544229355507206, 50.816343950492033 ], [ 20.546349937201128, 50.818562304521059 ], [ 20.546350828726847, 50.818563760656296 ], [ 20.546350880306861, 50.818565322135726 ], [ 20.546350085719787, 50.818566800621838 ], [ 20.544377655323839, 50.820839374260252 ], [ 20.544377470825562, 50.820839717509642 ], [ 20.544377677802707, 50.820840055576397 ], [ 20.546498474852616, 50.823058403392402 ], [ 20.54649936647165, 50.823059859524626 ], [ 20.546499418064869, 50.82306142100272 ], [ 20.546498623409303, 50.823062899489372 ], [ 20.544527691289737, 50.8253335451369 ], [ 20.544526146107003, 50.82533476227934 ], [ 20.544524036868463, 50.825335571285294 ], [ 20.544521617979456, 50.825335874576666 ], [ 20.540427997704214, 50.825390000253329 ], [ 20.54042743611609, 50.825390070647245 ], [ 20.540427077353602, 50.825390353212491 ], [ 20.538454076810556, 50.827662829166236 ], [ 20.538452531392505, 50.82766404622982 ], [ 20.538450421942461, 50.827664855127466 ], [ 20.538448002891268, 50.827665158294209 ], [ 20.534354167247319, 50.827719072658184 ], [ 20.534353605621547, 50.82771914302316 ], [ 20.534353246804432, 50.827719425570095 ], [ 20.532378176952449, 50.829993731589639 ], [ 20.532377992331117, 50.829994074820632 ], [ 20.53237819926397, 50.829994412908555 ], [ 20.53449885659218, 50.832212976846918 ], [ 20.534499748020455, 50.832214433070376 ], [ 20.534499799230133, 50.832215994554822 ], [ 20.534499004044481, 50.832217472962149 ], [ 20.532527109247866, 50.834487920860447 ], [ 20.532525563452356, 50.834489137847427 ], [ 20.532523453592358, 50.834489946640581 ], [ 20.532521034148161, 50.834490249687484 ], [ 20.528426590130358, 50.834543961253864 ], [ 20.52842602841335, 50.834544031591015 ], [ 20.528425669508593, 50.834544314120159 ], [ 20.526451705256406, 50.836816592055825 ], [ 20.526450159225476, 50.836817808963893 ], [ 20.526448049153906, 50.836818617648674 ], [ 20.526445629547514, 50.836818920570856 ], [ 20.522350970192289, 50.836872420718578 ], [ 20.522350408437628, 50.836872491026767 ], [ 20.522350049478217, 50.836872773537586 ], [ 20.520375692070132, 50.839144951197639 ], [ 20.52037414580375, 50.839146168026758 ], [ 20.520372035520609, 50.839146976603153 ], [ 20.520369615752038, 50.839147279400571 ], [ 20.516274741103381, 50.839200568093403 ], [ 20.516274179311072, 50.839200638372638 ], [ 20.516273820296998, 50.839200920865125 ], [ 20.51429906967644, 50.841472998206932 ], [ 20.514297523174584, 50.84147421495706 ], [ 20.514295412679864, 50.841475023425041 ], [ 20.514292992749134, 50.841475326097687 ], [ 20.510197902851072, 50.841528403299399 ], [ 20.510197341021122, 50.841528473549666 ], [ 20.51019698195238, 50.841528756023806 ], [ 20.508220160209071, 50.84380266290659 ], [ 20.508219975357328, 50.843803006100522 ] ], [ [ 20.688421509642431, 50.893062521560545 ], [ 20.688423950632025, 50.893062757515395 ], [ 20.688426116813151, 50.893063507261687 ], [ 20.688427746912442, 50.893064680369008 ], [ 20.690556869273827, 50.895278401962159 ], [ 20.690557766787421, 50.895279856918521 ], [ 20.69055782333044, 50.895281418266137 ], [ 20.690557032082889, 50.895282897683451 ], [ 20.688590196361865, 50.897555910652116 ], [ 20.688588652634067, 50.897557129674297 ], [ 20.688586542721822, 50.89755794128218 ], [ 20.688584121111724, 50.897558247583859 ], [ 20.684487945217011, 50.89761743667956 ], [ 20.684485504006609, 50.89761720064466 ], [ 20.68448333767396, 50.897616450827186 ], [ 20.684481707510788, 50.89761527766624 ], [ 20.68235276137926, 50.895401444365625 ], [ 20.682351864117479, 50.895399989343794 ], [ 20.682351807848601, 50.895398427989612 ], [ 20.682352599359398, 50.895396948625446 ], [ 20.684319652859092, 50.893124037937319 ], [ 20.684321196555885, 50.893122818971044 ], [ 20.684323306345515, 50.893122007440894 ], [ 20.684325727756242, 50.89312170122934 ], [ 20.688421509642431, 50.893062521560545 ] ] ] ] } }
]
}
